{"type":"Feature","properties":{"id":1000,"name":"Great Bear Lake","featurecla":"Lake","scalerank":0,"wikidataid":"Q5525","source":"Natural Earth 5.2.0-pre ne_10m_lakes (public domain)"},"geometry":{"type":"Polygon","coordinates":[[[-118.9007,65.789],[-119.1955,65.8096],[-119.2247,65.8055],[-119.2787,65.792],[-119.3053,65.789],[-119.633,65.7976],[-119.6561,65.789],[-119.6882,65.7967],[-119.7032,65.7961],[-119.7093,65.7902],[-119.7219,65.7725],[-119.7302,65.7687],[-119.742,65.7669],[-119.7504,65.7628],[-119.7647,65.7481],[-119.75,65.7416],[-119.6964,65.734],[-119.7032,65.7302],[-119.7063,65.7287],[-119.7107,65.7278],[-119.6806,65.719],[-119.6131,65.7296],[-119.5866,65.7134],[-119.6494,65.6939],[-119.7172,65.6836],[-119.854,65.6792],[-119.8448,65.6686],[-119.8398,65.6651],[-119.8495,65.6619],[-119.852,65.6589],[-119.8499,65.6557],[-119.8465,65.6513],[-119.8988,65.6474],[-119.9236,65.6392],[-119.9434,65.6242],[-119.9223,65.6103],[-120.0661,65.6357],[-120.0898,65.6362],[-120.1073,65.6242],[-120.0217,65.6003],[-120.0183,65.5947],[-120.0123,65.58],[-120.0083,65.5768],[-119.9496,65.5627],[-119.9,65.5326],[-119.8598,65.5244],[-119.8467,65.5147],[-119.8299,65.4914],[-119.8143,65.4861],[-119.7367,65.4738],[-119.6312,65.4738],[-119.6174,65.4696],[-119.5501,65.4284],[-119.526,65.4043],[-119.5108,65.3919],[-119.5232,65.3781],[-119.5107,65.3584],[-119.4899,65.3384],[-119.4772,65.3225],[-119.6165,65.3484],[-119.7101,65.3434],[-119.7235,65.3466],[-119.736,65.3522],[-119.7481,65.3542],[-119.7722,65.3398],[-119.7853,65.3372],[-119.7981,65.3398],[-119.8091,65.3472],[-119.8208,65.3528],[-119.8321,65.3484],[-119.843,65.3407],[-119.8537,65.3366],[-119.8838,65.3398],[-119.8926,65.3384],[-119.8882,65.3298],[-119.9035,65.3177],[-119.9504,65.293],[-119.985,65.2824],[-120.0065,65.2686],[-120.0195,65.253],[-120.0117,65.2412],[-120.0454,65.1988],[-120.0558,65.1926],[-120.131,65.1923],[-120.1482,65.1894],[-120.1849,65.1759],[-120.2625,65.1585],[-120.2991,65.145],[-120.3484,65.1143],[-120.382,65.1058],[-120.4179,65.087],[-120.4426,65.0802],[-120.4488,65.0737],[-120.4531,65.0669],[-120.4573,65.0622],[-120.4768,65.0549],[-120.5365,65.0416],[-120.5512,65.034],[-120.553,65.0213],[-120.6696,64.9866],[-120.7797,64.9842],[-120.8031,64.9766],[-120.8151,64.971],[-120.8506,64.9689],[-120.8646,64.9633],[-120.8746,64.9563],[-120.9042,64.9421],[-120.9161,64.9395],[-121.0037,64.9377],[-121.0533,64.9251],[-121.0387,64.9145],[-121.0328,64.9121],[-121.0328,64.9048],[-121.0799,64.9048],[-121.0737,64.8986],[-121.0821,64.8992],[-121.1079,64.8986],[-121.097,64.8697],[-121.1277,64.8559],[-121.1709,64.8462],[-121.1966,64.8297],[-121.1715,64.8238],[-121.1625,64.8226],[-121.1818,64.815],[-121.2047,64.8094],[-121.2284,64.8073],[-121.2503,64.8109],[-121.2882,64.8212],[-121.2999,64.8262],[-121.3116,64.8276],[-121.3362,64.8179],[-121.3481,64.8159],[-121.3669,64.8214],[-121.3947,64.8415],[-121.5051,64.8841],[-121.4914,64.8909],[-121.5067,64.9109],[-121.5088,64.9283],[-121.4991,64.9433],[-121.478,64.9566],[-121.4421,64.9713],[-121.4296,64.973],[-121.4171,64.9769],[-121.4078,64.9854],[-121.3974,64.9931],[-121.3816,64.9939],[-121.389,64.9866],[-121.3669,64.9769],[-121.286,64.9598],[-121.286,64.9669],[-121.2932,64.9675],[-121.3139,64.973],[-121.3088,64.9828],[-121.2998,64.9842],[-121.2754,64.9804],[-121.2648,64.9836],[-121.2425,64.9978],[-121.2314,65.001],[-121.2031,64.999],[-121.1762,64.9939],[-121.1709,64.991],[-121.1692,64.9822],[-121.1628,64.9804],[-121.1556,64.9813],[-121.143,64.9857],[-121.0836,64.9866],[-121.0739,64.991],[-121.0552,65.0101],[-121.0427,65.0146],[-121.0235,65.0178],[-120.957,65.0419],[-120.9766,65.059],[-120.9997,65.0702],[-121.0135,65.0828],[-121.0054,65.104],[-120.9804,65.1211],[-120.9176,65.132],[-120.8887,65.1411],[-120.8291,65.1676],[-120.7652,65.1859],[-120.7183,65.1891],[-120.7037,65.1926],[-120.6944,65.2094],[-120.69,65.2138],[-120.6815,65.2165],[-120.6743,65.2165],[-120.6672,65.2177],[-120.6468,65.2324],[-120.6211,65.2439],[-120.5982,65.258],[-120.5686,65.2639],[-120.5564,65.2715],[-120.5505,65.2801],[-120.5439,65.2963],[-120.5359,65.3057],[-120.4123,65.3784],[-120.3915,65.3952],[-120.3733,65.4164],[-120.3608,65.4367],[-120.34,65.4808],[-120.3475,65.4876],[-120.343,65.4923],[-120.3333,65.5079],[-120.3527,65.5135],[-120.3893,65.5306],[-120.4089,65.5353],[-120.3868,65.5418],[-120.3765,65.5468],[-120.368,65.5553],[-120.3808,65.5574],[-120.3889,65.563],[-120.3917,65.5718],[-120.3884,65.5833],[-120.7174,65.618],[-120.8304,65.6018],[-120.8767,65.588],[-120.9095,65.573],[-120.9577,65.568],[-121.0824,65.5265],[-121.128,65.525],[-121.1488,65.5141],[-121.1422,65.5135],[-121.1283,65.5079],[-121.1556,65.4944],[-121.2739,65.4652],[-121.3548,65.4323],[-121.4752,65.4087],[-121.5331,65.3899],[-121.5734,65.3572],[-121.5419,65.3575],[-121.5266,65.3557],[-121.5119,65.351],[-121.5238,65.3292],[-121.5397,65.3136],[-121.5808,65.2883],[-121.6061,65.2771],[-121.6187,65.268],[-121.6186,65.2577],[-121.6161,65.2518],[-121.618,65.2474],[-121.621,65.2439],[-121.6217,65.2412],[-121.6142,65.2359],[-121.603,65.2347],[-121.5928,65.235],[-121.5877,65.2336],[-121.5865,65.2221],[-121.5915,65.2159],[-121.598,65.2109],[-121.6014,65.2032],[-121.5965,65.1915],[-121.5942,65.1823],[-121.5945,65.1723],[-121.6079,65.152],[-121.6524,65.1379],[-121.6703,65.1238],[-121.6488,65.1167],[-121.6117,65.0973],[-121.5877,65.0902],[-121.6152,65.0684],[-121.7109,65.0731],[-121.7384,65.0622],[-121.7318,65.0625],[-121.7249,65.0617],[-121.7196,65.0587],[-121.7174,65.0525],[-121.7204,65.0443],[-121.728,65.0443],[-121.7453,65.0493],[-121.7602,65.0463],[-121.7852,65.0352],[-121.7999,65.0352],[-121.7999,65.0275],[-121.7959,65.0237],[-121.7945,65.0193],[-121.7976,65.016],[-121.812,65.0137],[-121.8148,65.0116],[-121.8171,65.0093],[-121.821,65.0078],[-121.8266,65.0093],[-121.8367,65.0193],[-121.8408,65.0213],[-121.9397,65.0045],[-121.9727,64.9898],[-121.992,64.9866],[-122.0576,64.986],[-122.0743,64.9804],[-122.0623,64.9719],[-122.0485,64.9666],[-122.0191,64.9598],[-122.0475,64.9451],[-122.0887,64.9489],[-122.1667,64.9669],[-122.2042,64.9904],[-122.224,64.9978],[-123.3389,65.1126],[-123.4517,65.1414],[-123.4925,65.1653],[-123.4846,65.1871],[-123.4307,65.2021],[-123.0916,65.22],[-123.0806,65.2221],[-123.0586,65.2309],[-123.0474,65.2336],[-123.0307,65.2327],[-122.9971,65.2262],[-122.9793,65.2268],[-122.9575,65.2347],[-122.917,65.2565],[-122.8498,65.2709],[-122.7316,65.3434],[-122.7534,65.3757],[-122.7582,65.3937],[-122.7532,65.4119],[-122.7924,65.4434],[-122.8386,65.467],[-122.8901,65.4823],[-122.9444,65.4876],[-122.9444,65.495],[-122.9075,65.4961],[-122.8629,65.4899],[-122.8215,65.4908],[-122.7943,65.5141],[-122.8209,65.5141],[-122.7821,65.5547],[-122.7609,65.5656],[-122.6159,65.5741],[-122.5807,65.5833],[-122.5483,65.6006],[-122.4767,65.6162],[-122.4306,65.6206],[-122.3622,65.6386],[-122.3343,65.6513],[-122.3235,65.6589],[-122.2933,65.6863],[-122.2877,65.6884],[-122.2716,65.6904],[-122.2655,65.6931],[-122.2628,65.6975],[-122.2587,65.7116],[-122.2557,65.7169],[-122.2326,65.7331],[-122.1797,65.7566],[-122.1563,65.7749],[-122.1486,65.8217],[-122.201,65.8514],[-122.511,65.9041],[-122.5402,65.918],[-122.5542,65.9339],[-122.5336,65.9468],[-122.5541,65.9618],[-122.59,65.9674],[-122.7557,65.9589],[-122.7868,65.9665],[-122.755,65.9768],[-122.6016,65.9812],[-122.5846,65.9839],[-122.5707,65.991],[-122.5548,65.9966],[-122.4926,65.9939],[-122.3972,66.0127],[-122.2307,66.0095],[-122.2008,65.9977],[-122.1875,65.9901],[-122.1702,65.9874],[-122.0757,65.9889],[-122.017,65.9824],[-121.838,65.9288],[-121.395,65.9524],[-121.2826,65.9874],[-121.2717,65.9939],[-121.2645,66.0057],[-121.2604,66.0292],[-121.2552,66.0389],[-121.235,66.0648],[-121.2364,66.0813],[-121.2546,66.0928],[-121.327,66.1137],[-121.3685,66.1175],[-121.3755,66.1167],[-121.394,66.1108],[-121.4103,66.1025],[-121.4218,66.1043],[-121.4331,66.1087],[-121.4436,66.1114],[-121.55,66.0934],[-121.5808,66.104],[-121.584,66.1102],[-121.5945,66.1387],[-121.6045,66.1487],[-121.6279,66.1614],[-121.662,66.1849],[-121.9071,66.2497],[-123.0445,66.2529],[-123.0611,66.2485],[-123.0402,66.2276],[-122.9603,66.2014],[-122.9376,66.1796],[-123.0152,66.1381],[-123.0373,66.1208],[-123.0467,66.1111],[-123.0549,66.1052],[-123.0645,66.1055],[-123.0776,66.1143],[-123.0847,66.1175],[-123.0947,66.1187],[-123.1047,66.1175],[-123.1121,66.1143],[-123.1197,66.1063],[-123.1188,66.1022],[-123.1137,66.0981],[-123.1084,66.0902],[-123.0954,66.0766],[-123.0886,66.0666],[-123.0885,66.056],[-123.1032,66.0434],[-123.1234,66.0445],[-123.1605,66.056],[-123.1695,66.0616],[-123.1711,66.0731],[-123.1708,66.0849],[-123.1742,66.0902],[-123.1811,66.094],[-123.2045,66.1175],[-123.2392,66.1449],[-123.246,66.1549],[-123.2501,66.1637],[-123.2575,66.1702],[-123.2734,66.1726],[-123.7723,66.1255],[-123.8639,66.1058],[-124.0442,66.1119],[-124.0768,66.1178],[-124.1095,66.1311],[-124.1634,66.1741],[-124.1852,66.1796],[-124.5961,66.1523],[-124.608,66.1487],[-124.6164,66.1396],[-124.6199,66.1281],[-124.6165,66.1175],[-124.6051,66.1111],[-124.5693,66.1043],[-124.5546,66.0975],[-124.5855,66.0722],[-124.5901,66.0601],[-124.5824,66.0425],[-124.5755,66.0372],[-124.5658,66.0325],[-124.5572,66.0257],[-124.5546,66.0151],[-124.5603,66.0045],[-124.5718,65.9986],[-124.621,65.9913],[-124.6498,65.993],[-124.6772,66.0007],[-124.6985,66.0151],[-124.7094,66.0357],[-124.6928,66.0398],[-124.637,66.0357],[-124.6538,66.0487],[-124.6731,66.0545],[-124.7159,66.056],[-124.735,66.0507],[-124.7689,66.0272],[-124.7842,66.0219],[-124.8046,66.0089],[-124.8036,65.9795],[-124.7955,65.9471],[-124.7946,65.9256],[-124.7896,65.9185],[-124.7902,65.9132],[-124.7963,65.9118],[-124.8227,65.9206],[-124.856,65.9262],[-124.8698,65.9327],[-124.879,65.9421],[-124.894,65.9704],[-124.9053,65.978],[-124.9353,65.9877],[-125.0317,66.0498],[-125.1098,66.1222],[-125.119,66.1373],[-125.1237,66.1585],[-125.1237,66.1688],[-125.1223,66.1794],[-125.119,66.1888],[-125.1134,66.1964],[-125.0866,66.2229],[-125.0828,66.2309],[-125.0847,66.2391],[-125.0881,66.2459],[-125.0887,66.2529],[-125.0828,66.2621],[-125.073,66.2659],[-125.0241,66.2753],[-125.0019,66.2827],[-124.9833,66.2977],[-124.962,66.3083],[-124.9318,66.303],[-124.9417,66.2927],[-124.9455,66.2894],[-124.8827,66.2656],[-124.8195,66.2741],[-124.7575,66.2921],[-124.6985,66.2956],[-124.6542,66.2777],[-124.637,66.2753],[-124.5918,66.2744],[-124.5477,66.2682],[-124.4816,66.2521],[-124.4557,66.2597],[-124.4452,66.2927],[-124.439,66.3048],[-124.4245,66.3095],[-124.3937,66.3092],[-124.3788,66.3142],[-124.368,66.3257],[-124.3587,66.3392],[-124.3485,66.3504],[-124.3182,66.3648],[-124.2845,66.3695],[-124.2505,66.3651],[-124.1862,66.3427],[-124.1155,66.3312],[-124.048,66.3121],[-124.0134,66.3159],[-123.8742,66.3592],[-123.8244,66.3833],[-123.8007,66.3892],[-123.7181,66.3945],[-123.6434,66.4122],[-123.5474,66.4172],[-123.5016,66.4399],[-123.382,66.4496],[-123.3246,66.4637],[-123.2701,66.4696],[-123.2457,66.4767],[-123.1977,66.4979],[-123.1923,66.5052],[-123.1911,66.5152],[-123.1889,66.5243],[-123.1806,66.5285],[-123.1668,66.5308],[-123.1539,66.5346],[-123.1413,66.5355],[-123.1294,66.5285],[-123.1474,66.5235],[-123.1636,66.5152],[-123.144,66.512],[-123.1388,66.5014],[-123.1461,66.4893],[-123.1636,66.4814],[-123.1362,66.4699],[-123.1073,66.4672],[-123.0474,66.4743],[-123.043,66.4767],[-123.0355,66.4855],[-123.0301,66.4876],[-123.0268,66.4852],[-123.024,66.4764],[-123.0202,66.4743],[-122.9893,66.4749],[-122.9743,66.4775],[-122.9612,66.4843],[-122.9585,66.4902],[-122.9513,66.5188],[-122.9203,66.5464],[-122.8923,66.5555],[-122.8218,66.5429],[-122.7943,66.5503],[-122.7943,66.5426],[-122.7554,66.5544],[-122.6186,66.5426],[-122.5402,66.5488],[-122.4646,66.5638],[-122.4883,66.5709],[-122.5416,66.5641],[-122.567,66.57],[-122.5479,66.5809],[-122.5323,66.5962],[-122.5154,66.6082],[-122.4926,66.6109],[-122.5012,66.6018],[-122.5033,66.5918],[-122.4982,66.5826],[-122.4852,66.5767],[-122.4696,66.5782],[-122.4403,66.5941],[-122.407,66.6012],[-122.3779,66.6153],[-122.3619,66.6182],[-122.3479,66.6156],[-122.3371,66.6085],[-122.3201,66.5912],[-122.3304,66.577],[-122.3466,66.5729],[-122.3652,66.5726],[-122.3828,66.57],[-122.3828,66.5638],[-122.3576,66.5594],[-122.3264,66.5632],[-122.2967,66.5738],[-122.2761,66.5876],[-122.2529,66.5997],[-121.9969,66.6227],[-121.7486,66.6939],[-121.4639,66.7239],[-121.4368,66.7351],[-121.4682,66.7478],[-121.4822,66.7557],[-121.4814,66.7651],[-121.4629,66.7737],[-121.4401,66.774],[-121.3962,66.7687],[-121.3797,66.7707],[-121.3603,66.7763],[-121.3135,66.7966],[-121.303,66.8061],[-121.2958,66.8072],[-121.2696,66.8031],[-121.2587,66.8028],[-121.2587,66.8096],[-121.2649,66.8208],[-121.2561,66.8278],[-121.2246,66.8375],[-121.1793,66.8676],[-121.1628,66.8717],[-120.9775,66.8579],[-120.9342,66.8623],[-120.8558,66.8817],[-120.7947,66.8882],[-120.7558,66.8973],[-120.6491,66.9058],[-120.6428,66.9191],[-120.5849,66.9344],[-120.5359,66.9535],[-120.4291,66.9462],[-120.3437,66.9553],[-120.2926,66.9535],[-120.2667,66.9574],[-120.1999,66.9791],[-120.1793,66.9915],[-120.1543,67.0018],[-120.0526,67.0015],[-119.936,67.0368],[-119.8739,67.043],[-119.8683,67.041],[-119.8667,67.0362],[-119.8671,67.0292],[-119.858,67.0312],[-119.8468,67.0398],[-119.8398,67.043],[-119.8096,67.0465],[-119.784,67.0448],[-119.7606,67.0368],[-119.7367,67.0224],[-119.7522,67.0151],[-119.8125,67.0089],[-119.7785,66.9771],[-119.7179,66.9833],[-119.6515,66.9986],[-119.6009,66.9944],[-119.6555,66.9815],[-119.6313,66.9697],[-119.5985,66.9697],[-119.4294,66.9944],[-119.4814,66.9865],[-119.4971,66.9815],[-119.5031,66.9759],[-119.5082,66.968],[-119.5145,66.9597],[-119.5245,66.9535],[-119.4864,66.9432],[-119.2781,66.9332],[-119.259,66.937],[-119.2398,66.9429],[-119.2207,66.9459],[-119.2023,66.94],[-119.2303,66.9126],[-119.2197,66.9067],[-119.2103,66.9073],[-119.2002,66.9106],[-119.1888,66.9126],[-119.1783,66.9108],[-119.1584,66.9026],[-119.1483,66.8997],[-119.1237,66.8973],[-119.0407,66.9008],[-119.021,66.9055],[-119.0105,66.9058],[-118.9993,66.9038],[-118.9945,66.9011],[-118.9911,66.8973],[-118.9837,66.892],[-118.963,66.8885],[-118.9552,66.8841],[-118.9596,66.8749],[-118.969,66.8693],[-118.9805,66.8661],[-119.3022,66.8311],[-119.3401,66.8169],[-119.3442,66.8046],[-119.3763,66.7934],[-119.4431,66.7822],[-119.4509,66.7775],[-119.4593,66.7672],[-119.4714,66.7578],[-119.4909,66.7542],[-119.5501,66.7666],[-119.5725,66.7687],[-119.5794,66.7654],[-119.5672,66.7584],[-119.5473,66.7513],[-119.5313,66.7481],[-119.5243,66.7484],[-119.5204,66.7478],[-119.5186,66.7448],[-119.5183,66.7386],[-119.522,66.7307],[-119.5311,66.7304],[-119.5525,66.7351],[-119.6097,66.7366],[-119.6275,66.7313],[-119.6421,66.7236],[-119.6571,66.7174],[-119.6727,66.7157],[-119.6889,66.7207],[-119.6827,66.7278],[-119.7054,66.726],[-119.7351,66.7166],[-119.7635,66.7033],[-119.7821,66.6901],[-119.806,66.6774],[-119.9712,66.6633],[-120.0008,66.6539],[-120.0148,66.6518],[-120.1063,66.6689],[-120.1353,66.6662],[-120.1353,66.6589],[-120.0917,66.6497],[-120.0705,66.6421],[-120.0526,66.6321],[-120.0711,66.6221],[-120.0891,66.6156],[-120.1078,66.6121],[-120.1284,66.6109],[-120.1388,66.6056],[-120.1725,66.567],[-120.1878,66.5588],[-120.2067,66.5541],[-120.2451,66.5503],[-120.2953,66.552],[-120.3212,66.5488],[-120.34,66.5358],[-120.3334,66.5346],[-120.3196,66.5285],[-120.3335,66.5217],[-120.3484,66.5173],[-120.3643,66.5149],[-120.3809,66.5152],[-120.3809,66.5085],[-120.3196,66.4949],[-120.3321,66.4884],[-120.3458,66.4878],[-120.3748,66.4949],[-120.354,66.4752],[-120.3168,66.4728],[-120.2451,66.4814],[-120.2616,66.4687],[-120.2788,66.4628],[-120.3609,66.454],[-120.3718,66.4558],[-120.3867,66.464],[-120.3946,66.4669],[-120.4151,66.469],[-120.4354,66.4678],[-120.4542,66.4628],[-120.471,66.454],[-120.4781,66.4446],[-120.4838,66.4334],[-120.4934,66.4237],[-120.5119,66.4193],[-120.504,66.4172],[-120.4846,66.4145],[-120.4778,66.4122],[-120.4751,66.4081],[-120.4704,66.3936],[-120.4673,66.3884],[-120.4522,66.381],[-120.4353,66.3819],[-120.3652,66.3992],[-120.3462,66.3975],[-120.3126,66.3798],[-120.2941,66.3789],[-120.258,66.3851],[-120.2201,66.3848],[-120.2012,66.3872],[-120.1731,66.4042],[-120.1575,66.4084],[-120.14,66.4084],[-120.0056,66.3795],[-119.9638,66.3778],[-119.998,66.3571],[-119.9802,66.3445],[-119.9491,66.3362],[-119.8879,66.3304],[-119.8608,66.3321],[-119.8362,66.3368],[-119.7564,66.3672],[-119.7263,66.371],[-119.6502,66.3704],[-119.6152,66.3627],[-119.6069,66.3571],[-119.6085,66.346],[-119.6166,66.3386],[-119.6278,66.3365],[-119.6624,66.3489],[-119.6989,66.3498],[-119.7647,66.3442],[-119.7924,66.3368],[-119.8034,66.3251],[-119.795,66.3142],[-119.7644,66.3092],[-119.5573,66.3018],[-119.5201,66.3062],[-119.4909,66.3168],[-119.5031,66.323],[-119.5165,66.3271],[-119.5308,66.3298],[-119.5455,66.3304],[-119.518,66.3395],[-119.3763,66.343],[-119.2017,66.3186],[-118.895,66.3236],[-118.8785,66.3215],[-118.8473,66.3115],[-118.8333,66.3092],[-118.7279,66.3307],[-118.6782,66.3533],[-118.6433,66.3507],[-118.5866,66.3371],[-118.5528,66.3418],[-118.4935,66.3642],[-118.4624,66.3713],[-118.4652,66.3633],[-118.4434,66.3636],[-118.4141,66.3675],[-118.3211,66.3913],[-118.2593,66.4243],[-118.1608,66.4499],[-118.1199,66.4743],[-118.1288,66.479],[-118.1311,66.482],[-118.1273,66.4949],[-118.1342,66.4984],[-118.1455,66.5014],[-118.1561,66.5002],[-118.1608,66.4911],[-118.165,66.477],[-118.1753,66.4693],[-118.1881,66.464],[-118.2103,66.4505],[-118.2265,66.4455],[-118.2434,66.4419],[-118.2746,66.4387],[-118.2798,66.439],[-118.2341,66.4778],[-118.2297,66.4843],[-118.2286,66.4952],[-118.2247,66.5052],[-118.2174,66.5126],[-118.1918,66.5176],[-118.1762,66.5232],[-118.1616,66.5308],[-118.1392,66.5473],[-118.1136,66.5591],[-118.0521,66.5973],[-117.9856,66.6153],[-117.8222,66.6306],[-117.7655,66.6568],[-117.7362,66.6662],[-117.6233,66.6804],[-117.606,66.6798],[-117.6145,66.6756],[-117.6328,66.6704],[-117.6407,66.6662],[-117.6439,66.66],[-117.6432,66.653],[-117.6445,66.6456],[-117.6537,66.6383],[-117.6763,66.6356],[-117.7209,66.6459],[-117.7437,66.6383],[-117.7349,66.6341],[-117.7284,66.6283],[-117.7259,66.6206],[-117.7295,66.6109],[-117.6129,66.6315],[-117.5923,66.6253],[-117.6612,66.6097],[-117.6937,66.595],[-117.7272,66.5738],[-117.7362,66.5638],[-117.7196,66.5576],[-117.7196,66.5461],[-117.7299,66.5332],[-117.7437,66.5223],[-117.764,66.5137],[-117.8257,66.5085],[-117.8368,66.5037],[-117.8721,66.4828],[-117.8802,66.4743],[-117.8769,66.4599],[-117.864,66.451],[-117.8317,66.4402],[-117.8755,66.434],[-117.8961,66.4263],[-117.9075,66.4122],[-117.8865,66.4084],[-117.8604,66.4095],[-117.7873,66.4249],[-117.7364,66.4269],[-117.7228,66.4299],[-117.6952,66.4472],[-117.6407,66.4643],[-117.62,66.4669],[-117.5964,66.474],[-117.5723,66.4876],[-117.5478,66.4961],[-117.524,66.4876],[-117.5359,66.4796],[-117.5606,66.4681],[-117.5724,66.4602],[-117.5311,66.4528],[-117.5116,66.4549],[-117.4795,66.4675],[-117.4706,66.4678],[-117.4642,66.4637],[-117.4625,66.454],[-117.4666,66.4428],[-117.4753,66.4372],[-117.4969,66.4296],[-117.5188,66.4257],[-117.5692,66.4325],[-117.5923,66.426],[-117.5963,66.4207],[-117.6048,66.4028],[-117.6097,66.3957],[-117.6172,66.3907],[-117.6382,66.3822],[-117.6469,66.3778],[-117.6254,66.3713],[-117.5818,66.3672],[-117.5649,66.3571],[-117.6286,66.3554],[-117.6594,66.3495],[-117.6884,66.3371],[-117.7065,66.3206],[-117.7118,66.3027],[-117.7021,66.29],[-117.6749,66.2894],[-117.6803,66.2968],[-117.6832,66.2997],[-117.6884,66.303],[-117.671,66.3071],[-117.65,66.3021],[-117.6294,66.2924],[-117.6133,66.2827],[-117.6133,66.2753],[-117.6226,66.2756],[-117.6307,66.2738],[-117.6469,66.2682],[-117.6442,66.2644],[-117.6407,66.2547],[-117.6476,66.2535],[-117.6609,66.2494],[-117.6679,66.2485],[-117.661,66.235],[-117.6862,66.225],[-117.7499,66.2138],[-117.7318,66.2256],[-117.7259,66.2315],[-117.7233,66.2412],[-117.8113,66.2138],[-117.8053,66.2017],[-117.8089,66.1923],[-117.8257,66.1726],[-117.8055,66.1755],[-117.7951,66.1785],[-117.7783,66.1882],[-117.7686,66.1885],[-117.7499,66.1858],[-117.714,66.1926],[-117.6965,66.1929],[-117.681,66.1858],[-117.7177,66.1746],[-117.7264,66.1693],[-117.7321,66.1643],[-117.7409,66.1585],[-117.7501,66.1537],[-117.7574,66.1523],[-117.7686,66.1567],[-117.782,66.1699],[-117.7914,66.1726],[-117.8044,66.1705],[-117.8132,66.1646],[-117.8163,66.1555],[-117.8113,66.1449],[-117.8267,66.1423],[-117.8398,66.1464],[-117.8525,66.1532],[-117.8666,66.1585],[-117.8843,66.1605],[-117.9006,66.1599],[-117.9173,66.157],[-117.963,66.1423],[-117.9879,66.1296],[-118.031,66.0975],[-118.0054,66.0978],[-117.9936,66.0958],[-117.9828,66.0902],[-117.9928,66.074],[-117.967,66.069],[-117.9008,66.0704],[-117.8496,66.0581],[-117.8325,66.056],[-117.787,66.0631],[-117.7704,66.0628],[-117.7732,66.0551],[-117.7732,66.0522],[-117.7717,66.0495],[-117.7704,66.0425],[-117.7718,66.0404],[-117.7738,66.0384],[-117.7758,66.0351],[-117.7773,66.0295],[-117.8728,66.0492],[-117.8944,66.046],[-117.9382,66.0336],[-117.9554,66.0357],[-117.9301,66.0507],[-117.9246,66.0572],[-117.9355,66.0628],[-117.9508,66.0625],[-117.9945,66.0522],[-118.0072,66.0457],[-118.0356,66.0357],[-118.1105,66.0331],[-118.1335,66.0151],[-118.0926,66.0016],[-118.1273,65.9939],[-118.1242,65.9907],[-118.1218,65.9871],[-118.1186,65.9839],[-118.113,65.981],[-118.1246,65.9706],[-118.1513,65.9583],[-118.1645,65.95],[-118.1673,65.9409],[-118.1617,65.9303],[-118.1472,65.9121],[-118.1971,65.9165],[-118.2155,65.9121],[-118.2208,65.9085],[-118.221,65.9056],[-118.2203,65.9024],[-118.223,65.8982],[-118.2471,65.8815],[-118.2662,65.8558],[-118.2506,65.8503],[-118.2205,65.8526],[-118.1962,65.8505],[-118.1996,65.8479],[-118.2093,65.837],[-118.1926,65.8246],[-118.1692,65.8146],[-118.1199,65.8023],[-118.0886,65.8017],[-117.9167,65.8305],[-117.875,65.8544],[-117.8443,65.8632],[-117.8119,65.8647],[-117.7846,65.857],[-117.7986,65.8511],[-117.8462,65.8432],[-117.9008,65.8158],[-117.9024,65.8191],[-117.9492,65.8096],[-117.9467,65.8061],[-117.9417,65.7961],[-117.9757,65.7967],[-117.9911,65.7929],[-118.0038,65.7823],[-117.963,65.7549],[-117.914,65.7558],[-117.8602,65.7664],[-117.8045,65.7687],[-117.8116,65.7608],[-117.8198,65.7546],[-117.8291,65.7505],[-117.8394,65.7481],[-117.8342,65.7396],[-117.8262,65.7346],[-117.816,65.7331],[-117.8337,65.7316],[-117.8725,65.7378],[-117.9049,65.7387],[-117.9145,65.7201],[-117.9295,65.7254],[-117.9828,65.734],[-117.9995,65.7296],[-118.005,65.7246],[-118.0081,65.7172],[-118.0175,65.706],[-118.0438,65.6898],[-118.0765,65.6795],[-118.1105,65.6757],[-118.141,65.6792],[-118.1711,65.6875],[-118.1851,65.6884],[-118.3675,65.6551],[-118.3941,65.6589],[-118.3687,65.673],[-118.3587,65.6822],[-118.3669,65.6863],[-118.4345,65.6963],[-118.4823,65.6798],[-118.5613,65.6798],[-118.5859,65.6589],[-118.5125,65.6374],[-118.4904,65.6242],[-118.5108,65.6251],[-118.5478,65.6357],[-118.6412,65.6451],[-118.7088,65.6686],[-118.7042,65.6839],[-118.6925,65.6916],[-118.6617,65.6998],[-118.6748,65.7054],[-118.6879,65.709],[-118.7163,65.7134],[-118.7432,65.7134],[-118.7503,65.7154],[-118.7588,65.7249],[-118.764,65.7278],[-118.8547,65.7287],[-118.8815,65.734],[-118.86,65.7425],[-118.8317,65.7466],[-118.7777,65.7481],[-118.8046,65.764],[-118.8369,65.7752],[-118.9007,65.789]],[[-118.5519,65.706],[-118.4976,65.6884],[-118.2993,65.724],[-118.2758,65.7413],[-118.2639,65.7481],[-118.2521,65.7511],[-118.2155,65.7552],[-118.2022,65.7599],[-118.1935,65.7643],[-118.1837,65.7675],[-118.1676,65.7687],[-118.1442,65.7669],[-118.1364,65.7714],[-118.1335,65.7858],[-118.1466,65.7982],[-118.2088,65.8249],[-118.23,65.8302],[-118.2885,65.8294],[-118.3176,65.8252],[-118.415,65.7843],[-118.4545,65.7575],[-118.5045,65.739],[-118.5245,65.7201],[-118.5331,65.7198],[-118.5404,65.7178],[-118.5465,65.7131],[-118.5519,65.706]],[[-119.45,66.8308],[-119.3604,66.8328],[-119.2712,66.8449],[-119.2179,66.862],[-119.1333,66.8717],[-119.1136,66.8785],[-119.1907,66.8967],[-119.2713,66.9053],[-119.3502,66.8991],[-119.4221,66.8717],[-119.4378,66.8623],[-119.4425,66.8579],[-119.425,66.8629],[-119.39,66.8652],[-119.3742,66.8717],[-119.3858,66.857],[-119.4066,66.8508],[-119.4301,66.8517],[-119.45,66.8579],[-119.45,66.8511],[-119.4338,66.8514],[-119.3873,66.8449],[-119.402,66.8393],[-119.4178,66.8373],[-119.45,66.8375],[-119.45,66.8308]],[[-122.3418,66.3201],[-122.3697,66.3463],[-122.433,66.3457],[-122.4999,66.3315],[-122.5398,66.3168],[-122.5438,66.3059],[-122.5536,66.3015],[-122.5667,66.2995],[-122.5807,66.2956],[-122.4462,66.2909],[-122.3735,66.2971],[-122.3418,66.3201]]]}}
