{"type":"Feature","properties":{"id":1001,"name":"Great Slave Lake","featurecla":"Lake","scalerank":0,"wikidataid":"Q5539","source":"Natural Earth 5.2.0-pre ne_10m_lakes (public domain)"},"geometry":{"type":"Polygon","coordinates":[[[-111.6716,62.3841],[-111.6707,62.3706],[-111.6555,62.3697],[-111.6305,62.3829],[-111.5848,62.4424],[-111.5725,62.4518],[-111.5622,62.4554],[-111.535,62.4783],[-111.3423,62.5631],[-111.2879,62.5746],[-111.297,62.5878],[-111.3019,62.5922],[-111.3083,62.5958],[-111.2602,62.6237],[-111.1983,62.6278],[-111.1329,62.6243],[-111.0749,62.6293],[-110.9903,62.649],[-110.8609,62.6591],[-110.8285,62.6508],[-110.8004,62.6658],[-110.6783,62.6726],[-110.5481,62.6617],[-110.5208,62.6641],[-110.4997,62.6696],[-110.4966,62.6755],[-110.5071,62.6826],[-110.527,62.692],[-110.4721,62.7182],[-110.4491,62.7341],[-110.4314,62.7597],[-110.4875,62.768],[-110.5031,62.7774],[-110.4866,62.7945],[-110.464,62.8012],[-110.4485,62.7953],[-110.435,62.7836],[-110.4177,62.7739],[-110.4046,62.7724],[-110.3693,62.78],[-110.2138,62.7724],[-110.1031,62.7815],[-109.8973,62.7762],[-109.8833,62.7739],[-109.8739,62.7683],[-109.858,62.7521],[-109.8492,62.7459],[-109.8274,62.7391],[-109.7697,62.7321],[-109.7462,62.7329],[-109.7659,62.7253],[-109.9522,62.7459],[-110.2018,62.7391],[-110.2326,62.7326],[-110.2492,62.7309],[-110.2632,62.7362],[-110.2884,62.7485],[-110.3231,62.7556],[-110.3596,62.7553],[-110.3898,62.7459],[-110.3926,62.7415],[-110.4127,62.7185],[-110.4177,62.7159],[-110.4223,62.7053],[-110.4307,62.702],[-110.4351,62.6988],[-110.4279,62.6882],[-110.4023,62.6805],[-110.2873,62.692],[-110.1661,62.6747],[-110.0964,62.6888],[-109.684,62.6708],[-109.6948,62.6561],[-109.7105,62.6505],[-109.7492,62.6508],[-109.7612,62.647],[-109.8005,62.6193],[-109.8555,62.5943],[-109.887,62.5855],[-110.1721,62.5478],[-110.1898,62.5481],[-110.2054,62.5543],[-110.198,62.561],[-110.2299,62.5719],[-110.3628,62.5684],[-110.3955,62.5631],[-110.4534,62.5392],[-110.4863,62.5337],[-110.5078,62.5357],[-110.5518,62.5451],[-110.5748,62.5472],[-110.6259,62.5413],[-110.6443,62.541],[-110.7177,62.5513],[-110.7555,62.5495],[-110.7876,62.5337],[-110.756,62.5272],[-110.6931,62.5231],[-110.6641,62.513],[-110.6625,62.5086],[-110.6631,62.5016],[-110.6618,62.4954],[-110.6543,62.4927],[-110.6136,62.4939],[-110.5062,62.5101],[-110.3851,62.5466],[-110.3215,62.541],[-110.5835,62.4754],[-110.6406,62.4721],[-110.6634,62.4654],[-110.6822,62.4503],[-110.6844,62.4362],[-110.6579,62.4312],[-110.6457,62.4345],[-110.6163,62.4518],[-110.5746,62.458],[-110.5483,62.4657],[-110.4909,62.4739],[-110.3352,62.5175],[-110.2716,62.5228],[-110.2117,62.513],[-110.2117,62.5057],[-110.2198,62.5051],[-110.2397,62.4995],[-110.1923,62.4848],[-110.1406,62.4951],[-110.0886,62.5145],[-109.9228,62.5528],[-109.9003,62.5625],[-109.877,62.5684],[-109.8492,62.561],[-109.8757,62.549],[-110.173,62.4542],[-110.3188,62.4536],[-110.3564,62.4448],[-110.3306,62.4448],[-110.319,62.4427],[-110.3078,62.4374],[-110.3194,62.4327],[-110.3311,62.4318],[-110.3433,62.4321],[-110.3564,62.4312],[-110.3665,62.4277],[-110.3871,62.415],[-110.3971,62.4106],[-110.4791,62.3903],[-110.4791,62.3829],[-110.2451,62.398],[-110.219,62.3903],[-110.2385,62.3785],[-110.2636,62.3726],[-110.5546,62.3623],[-110.6313,62.3503],[-110.6579,62.3556],[-110.6409,62.3859],[-110.6369,62.3965],[-110.6727,62.4056],[-110.7015,62.4021],[-110.7604,62.3829],[-110.7758,62.3809],[-110.8659,62.3871],[-110.887,62.3924],[-110.9007,62.4003],[-110.9221,62.4056],[-111.0047,62.4009],[-111.0346,62.3932],[-111.1378,62.3417],[-111.1378,62.335],[-111.1273,62.3394],[-111.1166,62.3417],[-111.106,62.3408],[-111.0961,62.335],[-111.1232,62.3223],[-111.1401,62.3167],[-111.1753,62.3126],[-111.2068,62.3032],[-111.2493,62.2985],[-111.2827,62.2905],[-111.3128,62.2758],[-111.3295,62.2525],[-111.2738,62.2702],[-111.2436,62.2758],[-111.2196,62.2731],[-111.2479,62.2578],[-111.3836,62.2075],[-111.394,62.2013],[-111.4255,62.1745],[-111.4351,62.1707],[-111.5256,62.1598],[-111.5619,62.1463],[-111.5796,62.1433],[-111.5862,62.1404],[-111.5896,62.1339],[-111.5896,62.126],[-111.5865,62.1198],[-111.579,62.1159],[-111.5711,62.1171],[-111.524,62.1339],[-111.5092,62.1345],[-111.5003,62.1227],[-111.6788,62.0721],[-111.7091,62.0591],[-111.7268,62.0403],[-111.7135,62.0368],[-111.6996,62.0385],[-111.6383,62.0568],[-111.4969,62.0818],[-111.4661,62.075],[-111.4763,62.0559],[-111.4934,62.0406],[-111.515,62.0303],[-111.5384,62.0265],[-111.5565,62.0188],[-111.5914,61.9823],[-111.6101,61.9714],[-111.6051,61.9664],[-111.5964,61.9514],[-111.6288,61.9508],[-111.8183,61.8975],[-111.8434,61.8831],[-111.8361,61.8819],[-111.828,61.8813],[-111.8088,61.8831],[-111.8261,61.8669],[-111.8547,61.849],[-111.8852,61.8339],[-111.9292,61.8231],[-111.9558,61.8113],[-111.9808,61.7969],[-111.9975,61.7836],[-112.0085,61.7774],[-112.0397,61.7704],[-112.0521,61.763],[-112.0593,61.753],[-112.0644,61.743],[-112.0712,61.7339],[-112.0824,61.7256],[-112.1358,61.7109],[-112.1551,61.6988],[-112.1513,61.6771],[-112.1869,61.665],[-112.2026,61.6559],[-112.2128,61.6423],[-112.2113,61.6364],[-112.2051,61.6317],[-112.2003,61.6264],[-112.2028,61.6191],[-112.2097,61.6141],[-112.2184,61.6108],[-112.2278,61.6093],[-112.2369,61.6088],[-112.2535,61.6058],[-112.2926,61.592],[-112.3124,61.589],[-112.3251,61.5855],[-112.3579,61.5675],[-112.4902,61.5181],[-112.5473,61.509],[-112.5821,61.4898],[-112.6035,61.4854],[-112.623,61.4837],[-112.6687,61.4725],[-112.6863,61.4648],[-112.6749,61.4657],[-112.6643,61.4648],[-112.6543,61.4625],[-112.6448,61.458],[-112.7027,61.4439],[-112.885,61.4442],[-112.885,61.4369],[-112.8689,61.4286],[-112.8716,61.4171],[-112.8851,61.4071],[-112.9017,61.4027],[-112.9204,61.4001],[-112.9571,61.3892],[-112.9805,61.3892],[-113.0068,61.3942],[-113.0121,61.3998],[-112.9908,61.4201],[-112.9849,61.4369],[-112.9976,61.4445],[-113.0111,61.4495],[-113.0079,61.458],[-113.0079,61.4648],[-113.075,61.4857],[-113.1113,61.4904],[-113.1381,61.4792],[-113.1243,61.4754],[-113.1097,61.4734],[-113.0973,61.4689],[-113.0897,61.458],[-113.2089,61.4666],[-113.2826,61.4633],[-113.3384,61.4545],[-113.3505,61.4477],[-113.3598,61.4374],[-113.4041,61.4257],[-113.4194,61.4162],[-113.4125,61.4168],[-113.3985,61.416],[-113.3914,61.4162],[-113.4105,61.3989],[-113.4794,61.3906],[-113.5087,61.383],[-113.5273,61.3759],[-113.5323,61.3724],[-113.533,61.3674],[-113.5274,61.3538],[-113.5292,61.3482],[-113.5426,61.3441],[-113.5754,61.3482],[-113.5873,61.3447],[-113.61,61.3309],[-113.6656,61.3138],[-113.6898,61.2973],[-113.7055,61.2776],[-113.7096,61.2635],[-113.7046,61.2482],[-113.6931,61.2246],[-113.7005,61.2184],[-113.6948,61.2114],[-113.6911,61.2093],[-113.6886,61.2096],[-113.6862,61.2111],[-113.6775,61.2008],[-113.6725,61.1972],[-113.694,61.1905],[-113.7168,61.1858],[-113.7364,61.1784],[-113.7477,61.1631],[-113.7014,61.169],[-113.6552,61.1628],[-113.6262,61.1398],[-113.6316,61.0942],[-113.6538,61.0654],[-113.6872,61.0398],[-113.7254,61.0191],[-113.762,61.0056],[-114.043,60.97],[-114.0568,60.9747],[-114.0667,60.9862],[-114.0899,60.993],[-114.1388,60.9994],[-114.1682,60.9974],[-114.1852,60.9994],[-114.1997,61.0168],[-114.2156,61.018],[-114.2331,61.0147],[-114.2638,60.9974],[-114.4315,60.9526],[-114.5452,60.9411],[-114.5547,60.9367],[-114.577,60.9229],[-114.604,60.9167],[-114.6697,60.9141],[-114.7034,60.8996],[-114.7163,60.9038],[-114.7346,60.9167],[-114.763,60.9279],[-114.7779,60.9305],[-114.7961,60.9305],[-114.8258,60.9244],[-114.8813,60.9064],[-114.9729,60.8999],[-115.0048,60.8937],[-115.0288,60.882],[-115.0226,60.8893],[-115.053,60.8902],[-115.1809,60.8711],[-115.2628,60.8478],[-115.5434,60.8349],[-115.6445,60.8578],[-115.6771,60.8617],[-115.9431,60.8437],[-116.0055,60.8502],[-116.1175,60.8861],[-116.2908,60.9167],[-116.3373,60.9347],[-116.3524,60.9373],[-116.3842,60.9391],[-116.3988,60.9423],[-116.4135,60.9479],[-116.4501,60.9735],[-116.4722,60.9838],[-116.503,60.9856],[-116.493,61.0041],[-116.4995,61.0186],[-116.5162,61.0283],[-116.5371,61.0327],[-116.5623,61.0312],[-116.6112,61.0159],[-116.6363,61.0124],[-116.6483,61.0159],[-116.6611,61.0227],[-116.6736,61.0271],[-116.6845,61.0233],[-116.6954,61.018],[-116.7067,61.0209],[-116.717,61.0283],[-116.7255,61.0365],[-116.7463,61.0474],[-116.7734,61.048],[-116.8244,61.0403],[-116.8568,61.0409],[-116.9482,61.0539],[-117.0789,61.0465],[-117.1999,61.0633],[-117.2598,61.0813],[-117.3042,61.1086],[-117.3697,61.1737],[-117.383,61.1813],[-117.4352,61.1911],[-117.4486,61.1955],[-117.4567,61.1993],[-117.4625,61.2037],[-117.4688,61.2111],[-117.476,61.222],[-117.4866,61.2452],[-117.4932,61.2561],[-117.5068,61.2632],[-117.5271,61.2658],[-117.5653,61.2655],[-117.5957,61.2708],[-117.6884,61.3073],[-117.6258,61.3091],[-117.606,61.3073],[-117.0732,61.151],[-117.0408,61.1496],[-117.0174,61.1537],[-116.9417,61.1837],[-116.8805,61.1975],[-116.8177,61.2043],[-116.8047,61.207],[-116.7776,61.2205],[-116.7631,61.2246],[-116.7472,61.2237],[-116.7323,61.2199],[-116.7176,61.2187],[-116.7015,61.2246],[-116.7697,61.2652],[-116.7976,61.2911],[-116.7944,61.3173],[-116.7531,61.3332],[-116.693,61.3338],[-116.5854,61.3209],[-116.5408,61.3209],[-116.5298,61.3188],[-116.5095,61.3094],[-116.4768,61.3017],[-116.4421,61.2785],[-116.4201,61.2732],[-116.3278,61.2802],[-116.2058,61.2735],[-116.1808,61.2655],[-116.1767,61.2452],[-116.138,61.2343],[-116.091,61.2261],[-116.061,61.2146],[-116.0354,61.1972],[-115.9946,61.1816],[-115.9553,61.1784],[-115.9338,61.1972],[-115.9608,61.2043],[-115.9672,61.2114],[-115.9617,61.2246],[-115.994,61.2249],[-116.0092,61.227],[-116.0232,61.232],[-116.0232,61.239],[-115.9939,61.2408],[-115.9491,61.2608],[-115.8979,61.2676],[-115.8756,61.2747],[-115.8586,61.2885],[-115.8519,61.3106],[-115.8586,61.3173],[-115.8917,61.3209],[-115.9034,61.3247],[-115.9168,61.3429],[-115.925,61.3471],[-116.0023,61.355],[-116.0089,61.3577],[-116.0213,61.3709],[-116.0307,61.3756],[-116.0641,61.3756],[-116.0333,61.393],[-115.9628,61.3989],[-115.9412,61.4104],[-115.9469,61.4248],[-115.9371,61.4292],[-115.9209,61.4277],[-115.907,61.4239],[-115.9007,61.4183],[-115.8991,61.4054],[-115.8928,61.4027],[-115.8622,61.4027],[-115.851,61.4045],[-115.7649,61.4292],[-115.7334,61.4316],[-115.7203,61.4348],[-115.7111,61.4421],[-115.7079,61.4545],[-115.7148,61.4566],[-115.7306,61.4589],[-115.7471,61.4636],[-115.7562,61.4722],[-115.7507,61.4884],[-115.7376,61.4993],[-115.7372,61.5087],[-115.7699,61.5196],[-115.7544,61.5328],[-115.7288,61.544],[-115.7116,61.5552],[-115.7215,61.5678],[-115.6942,61.589],[-115.7057,61.5985],[-115.6975,61.6058],[-115.6791,61.6099],[-115.6601,61.6088],[-115.6654,61.6344],[-115.6568,61.652],[-115.6396,61.6635],[-115.5406,61.6921],[-115.5154,61.705],[-115.5526,61.7085],[-115.57,61.7138],[-115.5781,61.7256],[-115.5743,61.7333],[-115.5643,61.7418],[-115.5526,61.7492],[-115.5437,61.7521],[-115.3753,61.7789],[-115.2237,61.7774],[-115.1872,61.7598],[-115.2082,61.7539],[-115.2281,61.7459],[-115.1957,61.7359],[-115.1404,61.733],[-115.0844,61.7362],[-115.0506,61.7459],[-115.0463,61.7574],[-115.0164,61.7583],[-114.9543,61.7521],[-114.86,61.7795],[-114.8445,61.7768],[-114.8404,61.7642],[-114.8311,61.7668],[-114.8141,61.7836],[-114.8008,61.7916],[-114.7882,61.7933],[-114.7755,61.7924],[-114.7626,61.793],[-114.7409,61.8013],[-114.7016,61.8231],[-114.6806,61.8281],[-114.6806,61.8354],[-114.6941,61.8316],[-114.708,61.8295],[-114.7216,61.8304],[-114.7346,61.8354],[-114.7346,61.8416],[-114.6978,61.8543],[-114.6342,61.8575],[-114.6185,61.8622],[-114.6326,61.8749],[-114.672,61.8772],[-114.6868,61.8893],[-114.655,61.9043],[-114.6435,61.9158],[-114.6391,61.934],[-114.7524,61.9373],[-114.7679,61.944],[-114.7589,61.9617],[-114.7601,61.9714],[-114.7696,61.9876],[-114.7898,62.0129],[-114.8102,62.0223],[-114.8623,62.0279],[-114.8855,62.0341],[-114.8905,62.0394],[-114.8953,62.0477],[-114.9022,62.0559],[-114.9134,62.0615],[-114.9243,62.06],[-114.9356,62.055],[-114.947,62.0524],[-114.9577,62.0577],[-114.9736,62.0694],[-115.0226,62.0886],[-115.0353,62.0986],[-115.0635,62.1295],[-115.0524,62.1318],[-115.0424,62.1351],[-115.0344,62.141],[-115.0288,62.1501],[-115.0401,62.151],[-115.051,62.1536],[-115.061,62.158],[-115.0705,62.1636],[-115.0606,62.1645],[-115.0516,62.1672],[-115.0437,62.1719],[-115.0363,62.1781],[-115.0559,62.1916],[-115.0762,62.1981],[-115.1182,62.2046],[-115.1592,62.2172],[-115.1666,62.2184],[-115.1692,62.2246],[-115.1694,62.2334],[-115.1666,62.2525],[-115.3037,62.2243],[-115.3311,62.2319],[-115.3289,62.2469],[-115.3121,62.2575],[-115.2765,62.2731],[-115.2721,62.2793],[-115.2649,62.2967],[-115.2594,62.3043],[-115.2522,62.3091],[-115.2462,62.3105],[-115.2409,62.3132],[-115.2355,62.3214],[-115.2589,62.3205],[-115.2831,62.3252],[-115.3023,62.3355],[-115.3099,62.3523],[-115.3067,62.3697],[-115.3008,62.3847],[-115.2987,62.3988],[-115.307,62.4141],[-115.306,62.4262],[-115.2932,62.4427],[-115.2761,62.4583],[-115.2625,62.4683],[-115.2596,62.4801],[-115.2855,62.4874],[-115.3413,62.4927],[-115.4974,62.4742],[-115.5994,62.4845],[-115.6904,62.476],[-115.701,62.4783],[-115.7104,62.4863],[-115.7141,62.4942],[-115.7114,62.5013],[-115.701,62.5057],[-115.7209,62.5086],[-115.7761,62.5337],[-115.7481,62.5416],[-115.712,62.5469],[-115.6961,62.5543],[-115.729,62.5684],[-115.7566,62.5699],[-115.8042,62.5601],[-115.8239,62.5684],[-115.8106,62.5999],[-115.804,62.6093],[-115.8171,62.6143],[-115.8445,62.6137],[-115.8586,62.6155],[-115.8663,62.6199],[-115.886,62.6367],[-115.9319,62.6443],[-115.948,62.6508],[-115.953,62.6561],[-115.9565,62.6626],[-115.9618,62.6685],[-115.9933,62.6761],[-116.0336,62.7003],[-116.0542,62.7056],[-116.0541,62.7112],[-116.0316,62.7406],[-116.0307,62.7532],[-115.9876,62.7859],[-115.9249,62.7789],[-115.804,62.7329],[-115.7662,62.7256],[-115.7624,62.7235],[-115.7628,62.7144],[-115.7594,62.7123],[-115.6988,62.7044],[-115.688,62.6982],[-115.7023,62.6847],[-115.7694,62.6688],[-115.7761,62.6573],[-115.7621,62.6532],[-115.7045,62.6641],[-115.6161,62.6552],[-115.5866,62.6461],[-115.3807,62.6311],[-115.3684,62.6261],[-115.3533,62.6175],[-115.3398,62.6158],[-115.326,62.6167],[-115.3099,62.6155],[-115.2821,62.6072],[-115.2561,62.5958],[-115.2322,62.5887],[-115.2243,62.5828],[-115.2212,62.5716],[-115.2171,62.569],[-115.2079,62.5663],[-115.1987,62.561],[-115.1945,62.5507],[-115.1965,62.5484],[-115.2003,62.5442],[-115.2026,62.5392],[-115.2007,62.5337],[-115.194,62.5292],[-115.1869,62.5286],[-115.18,62.5292],[-115.1729,62.5275],[-115.1402,62.511],[-115.0789,62.488],[-115.0047,62.4801],[-114.9582,62.4668],[-114.865,62.4648],[-114.8765,62.4465],[-114.856,62.4371],[-114.8035,62.4312],[-114.7343,62.4003],[-114.7252,62.3935],[-114.7236,62.3879],[-114.723,62.3815],[-114.7175,62.3732],[-114.7068,62.3682],[-114.6952,62.37],[-114.6838,62.3741],[-114.6738,62.3768],[-114.6504,62.372],[-114.6223,62.355],[-114.598,62.3556],[-114.4221,62.38],[-114.3831,62.3785],[-114.3658,62.3924],[-114.3522,62.4094],[-114.3409,62.4177],[-114.3137,62.4171],[-114.2649,62.4112],[-114.2412,62.4038],[-114.243,62.3991],[-114.246,62.3874],[-114.248,62.3829],[-114.2387,62.3826],[-114.2309,62.3812],[-114.2145,62.3768],[-114.2473,62.3667],[-114.2555,62.3623],[-114.2486,62.3597],[-114.2281,62.3494],[-114.2489,62.3405],[-114.2588,62.335],[-114.2617,62.3282],[-114.253,62.3185],[-114.2392,62.3176],[-114.2145,62.3214],[-114.1388,62.294],[-114.144,62.2911],[-114.1538,62.2831],[-114.1593,62.2805],[-114.142,62.2731],[-114.1228,62.2752],[-114.0835,62.2867],[-114.0662,62.287],[-114.0543,62.2829],[-114.0433,62.2758],[-113.9266,62.219],[-113.8923,62.2116],[-113.8973,62.2007],[-113.8961,62.1945],[-113.8849,62.1842],[-113.8508,62.1636],[-113.8253,62.1607],[-113.7726,62.1639],[-113.7477,62.1575],[-113.7708,62.1548],[-113.791,62.1489],[-113.7997,62.1386],[-113.7887,62.1227],[-113.7778,62.1174],[-113.7526,62.113],[-113.7416,62.1092],[-113.7399,62.1039],[-113.7426,62.0968],[-113.7411,62.0912],[-113.5645,62.063],[-113.5355,62.0477],[-113.5798,62.0418],[-113.5933,62.0368],[-113.5873,62.0232],[-113.5679,62.0129],[-113.5437,62.0103],[-113.498,62.0129],[-113.4774,62.0173],[-113.4494,62.0368],[-113.4261,62.0403],[-113.4048,62.0359],[-113.388,62.0271],[-113.3579,62.0067],[-113.3209,61.9964],[-113.2697,61.9932],[-113.2188,61.9991],[-113.1466,62.0338],[-113.1051,62.0306],[-113.0154,62.0129],[-113.021,62.0256],[-113.0238,62.03],[-113.0289,62.0341],[-112.9655,62.0644],[-112.9319,62.0753],[-112.8979,62.0683],[-112.9098,62.0547],[-112.9191,62.0403],[-112.8823,62.0356],[-112.7568,62.0562],[-112.7232,62.0659],[-112.7066,62.0683],[-112.6425,62.0624],[-112.4391,62.0794],[-112.4116,62.0868],[-112.3349,62.1189],[-112.2898,62.1451],[-112.2711,62.1607],[-112.2569,62.1675],[-112.2059,62.1707],[-112.1945,62.1763],[-112.1811,62.1904],[-112.1725,62.1978],[-112.1298,62.2216],[-111.9726,62.2776],[-111.9618,62.2831],[-111.9551,62.2917],[-111.9527,62.3043],[-111.9498,62.3138],[-111.9423,62.3214],[-111.9324,62.3264],[-111.8925,62.3314],[-111.8666,62.3397],[-111.8161,62.3623],[-111.7842,62.3712],[-111.7556,62.375],[-111.7287,62.3821],[-111.7025,62.4003],[-111.6688,62.3876],[-111.6716,62.3841]],[[-116.4613,61.1222],[-116.4663,61.1348],[-116.5302,61.1345],[-116.5542,61.1395],[-116.5651,61.1457],[-116.6546,61.1766],[-116.6805,61.1902],[-116.6961,61.1919],[-116.7787,61.1875],[-116.8437,61.1758],[-116.8958,61.1543],[-116.907,61.1222],[-116.8979,61.1098],[-116.8858,61.1036],[-116.8709,61.1013],[-116.8527,61.1013],[-116.8368,61.0992],[-116.8082,61.0901],[-116.7807,61.0851],[-116.7566,61.0718],[-116.7426,61.0677],[-116.7264,61.068],[-116.714,61.0718],[-116.7021,61.0768],[-116.6878,61.0813],[-116.6537,61.0851],[-116.5542,61.0813],[-116.5389,61.0842],[-116.5286,61.091],[-116.5098,61.1086],[-116.4613,61.1222]],[[-113.0787,61.9246],[-113.0739,61.9264],[-113.0694,61.9305],[-113.0982,61.9449],[-113.1408,61.9508],[-113.313,61.944],[-113.3783,61.9496],[-113.3989,61.944],[-113.3989,61.9379],[-113.3785,61.9311],[-113.3503,61.9096],[-113.33,61.9031],[-113.2447,61.9031],[-113.0787,61.9246]],[[-113.051,61.8022],[-112.9942,61.8007],[-112.9427,61.8107],[-112.9259,61.8075],[-112.9334,61.8007],[-112.8911,61.8048],[-112.8097,61.8236],[-112.7482,61.8304],[-112.6186,61.8619],[-112.5969,61.8622],[-112.5801,61.871],[-112.5622,61.8763],[-112.5946,61.884],[-113.002,61.8231],[-113.1291,61.8192],[-113.1745,61.8113],[-113.1996,61.793],[-113.1687,61.7895],[-113.051,61.8022]],[[-112.6923,61.6435],[-112.6505,61.6444],[-112.6068,61.6541],[-112.5796,61.667],[-112.5469,61.7136],[-112.535,61.7256],[-112.5182,61.7324],[-112.4824,61.7368],[-112.4665,61.7459],[-112.4687,61.7586],[-112.491,61.7571],[-112.535,61.7459],[-112.552,61.7483],[-112.5579,61.7542],[-112.5609,61.7609],[-112.5697,61.7665],[-112.5807,61.768],[-112.6359,61.7636],[-112.6583,61.7565],[-112.6798,61.7462],[-112.7119,61.7265],[-112.775,61.705],[-112.7161,61.7068],[-112.7027,61.7015],[-112.7057,61.6941],[-112.7194,61.685],[-112.7478,61.6709],[-112.735,61.6641],[-112.7207,61.6635],[-112.6926,61.6709],[-112.6926,61.6635],[-112.6983,61.6623],[-112.7136,61.6567],[-112.6923,61.6435]],[[-112.2903,61.7966],[-112.4533,61.7083],[-112.4618,61.7074],[-112.4689,61.7109],[-112.4758,61.7159],[-112.484,61.718],[-112.4914,61.7159],[-112.5058,61.7071],[-112.5107,61.705],[-112.512,61.6991],[-112.535,61.6635],[-112.5526,61.6282],[-112.5588,61.6226],[-112.5754,61.6194],[-112.5928,61.6138],[-112.6094,61.6108],[-112.6243,61.6155],[-112.6175,61.6155],[-112.6175,61.6226],[-112.6349,61.6223],[-112.6632,61.6117],[-112.6789,61.6088],[-112.6789,61.6014],[-112.6604,61.5988],[-112.662,61.5926],[-112.6755,61.5861],[-112.6926,61.5823],[-112.663,61.5708],[-112.6274,61.5731],[-112.5622,61.589],[-112.5021,61.5923],[-112.474,61.5973],[-112.4253,61.6252],[-112.3689,61.6305],[-112.3354,61.6435],[-112.3199,61.6473],[-112.3084,61.6553],[-112.3089,61.6709],[-112.3168,61.6779],[-112.3286,61.6779],[-112.341,61.6723],[-112.3505,61.6635],[-112.3682,61.6735],[-112.4069,61.6788],[-112.4222,61.6871],[-112.4184,61.6947],[-112.4026,61.705],[-112.384,61.7141],[-112.3707,61.718],[-112.3277,61.7209],[-112.307,61.7253],[-112.2884,61.7324],[-112.2836,61.7371],[-112.2836,61.7418],[-112.2845,61.7468],[-112.2817,61.7521],[-112.2752,61.7559],[-112.2677,61.7574],[-112.2605,61.7601],[-112.2537,61.7665],[-112.264,61.773],[-112.2619,61.7804],[-112.2524,61.7874],[-112.2407,61.793],[-112.2402,61.7992],[-112.2375,61.8039],[-112.2335,61.8063],[-112.2903,61.7966]],[[-112.1588,61.9305],[-112.0488,61.9514],[-111.939,61.985],[-111.939,61.9923],[-111.9673,61.9926],[-112.0793,61.9667],[-112.1758,61.9585],[-112.1872,61.9555],[-112.2271,61.9379],[-112.4592,61.8964],[-112.5144,61.8763],[-112.5553,61.8501],[-112.5787,61.8395],[-112.7622,61.8145],[-112.8168,61.7969],[-112.871,61.7901],[-112.8973,61.7813],[-112.92,61.7665],[-112.9334,61.7459],[-112.9045,61.7542],[-112.7061,61.7739],[-112.6789,61.7801],[-112.716,61.7665],[-112.7273,61.7598],[-112.7026,61.7524],[-112.6748,61.7609],[-112.6465,61.7736],[-112.6209,61.7801],[-112.5141,61.793],[-112.4965,61.7977],[-112.4497,61.821],[-112.4356,61.8316],[-112.4147,61.8413],[-112.3551,61.8434],[-112.3332,61.8522],[-112.3121,61.869],[-112.1588,61.9305]],[[-111.7882,62.0129],[-111.8176,62.012],[-111.852,62.0041],[-111.8856,61.992],[-111.9118,61.9788],[-111.9346,61.9585],[-111.9452,61.9514],[-111.9605,61.9446],[-112.0911,61.9022],[-112.1178,61.8893],[-112.185,61.8416],[-112.2128,61.8354],[-112.1916,61.8298],[-112.1365,61.8454],[-112.1103,61.8484],[-112.1178,61.8416],[-112.0753,61.8501],[-111.9939,61.894],[-111.9527,61.9099],[-111.8788,61.9276],[-111.857,61.9379],[-111.8391,61.9538],[-111.8129,61.9888],[-111.7945,61.9994],[-111.7896,62.0056],[-111.7883,62.0085],[-111.7882,62.0129]],[[-112.0005,62.0197],[-111.9882,62.012],[-111.9727,62.0179],[-111.9574,62.0279],[-111.9452,62.0341],[-111.929,62.0332],[-111.9162,62.0285],[-111.9131,62.0215],[-111.9261,62.0129],[-111.8927,62.0167],[-111.8582,62.0276],[-111.8255,62.0441],[-111.7982,62.0647],[-111.7807,62.0747],[-111.7193,62.0886],[-111.7076,62.0956],[-111.6714,62.1227],[-111.6641,62.1245],[-111.661,62.126],[-111.6579,62.1295],[-111.7677,62.1289],[-111.8018,62.1227],[-111.9662,62.055],[-111.9933,62.0362],[-112.0005,62.0197]],[[-112.7609,61.9379],[-112.7652,61.9326],[-112.7707,61.922],[-112.775,61.9167],[-112.7526,61.9167],[-112.7119,61.9276],[-112.6895,61.9305],[-112.6116,61.934],[-112.5559,61.9549],[-112.4696,61.9561],[-112.4028,61.9941],[-112.3538,62.0047],[-112.1739,62.0197],[-112.1293,62.0294],[-112.0961,62.0477],[-112.1002,62.058],[-112.1128,62.0591],[-112.1283,62.0532],[-112.141,62.0438],[-112.1523,62.04],[-112.2811,62.0191],[-112.3217,62.0173],[-112.3432,62.0341],[-112.3167,62.0397],[-112.2469,62.0683],[-112.1858,62.0821],[-112.0621,62.0924],[-112.0337,62.1006],[-112.0278,62.1165],[-112.0522,62.1318],[-112.0881,62.1274],[-112.1516,62.1092],[-112.1817,62.1074],[-112.2753,62.085],[-112.3192,62.0812],[-112.3332,62.078],[-112.3592,62.0644],[-112.3673,62.0615],[-112.3789,62.0585],[-112.4069,62.0447],[-112.4188,62.0403],[-112.6796,62.0232],[-112.741,62.0067],[-112.7289,62.0006],[-112.7156,61.9985],[-112.6863,61.9994],[-112.6863,61.9923],[-112.7156,61.985],[-112.7521,61.9708],[-112.7744,61.9535],[-112.7609,61.9379]],[[-111.8634,62.1781],[-111.7677,62.1781],[-111.7508,62.181],[-111.7203,62.1948],[-111.6681,62.2016],[-111.631,62.2125],[-111.598,62.2296],[-111.5759,62.2525],[-111.6123,62.2652],[-111.6246,62.2755],[-111.617,62.2867],[-111.6223,62.2884],[-111.6317,62.2932],[-111.6373,62.294],[-111.6292,62.3061],[-111.6173,62.3126],[-111.6068,62.3202],[-111.6027,62.335],[-111.6145,62.3435],[-111.6477,62.3458],[-111.6859,62.3426],[-111.7125,62.335],[-111.7172,62.3297],[-111.7219,62.3214],[-111.7253,62.312],[-111.7268,62.3043],[-111.7202,62.3002],[-111.7051,62.3017],[-111.6784,62.3076],[-111.726,62.2693],[-111.7546,62.2525],[-111.7911,62.2408],[-111.8004,62.2293],[-111.808,62.2157],[-111.8161,62.2046],[-111.8386,62.1898],[-111.8634,62.1781]],[[-111.3909,62.294],[-111.3763,62.2982],[-111.3515,62.3117],[-111.2601,62.3282],[-111.2601,62.335],[-111.2564,62.3467],[-111.1887,62.4003],[-111.1772,62.4065],[-111.147,62.4141],[-111.1341,62.4206],[-111.0893,62.4518],[-111.0887,62.4627],[-111.1107,62.4574],[-111.157,62.4374],[-111.3357,62.3556],[-111.3682,62.3361],[-111.3766,62.3282],[-111.3809,62.3188],[-111.3847,62.3008],[-111.3909,62.294]]]}}
