{"type":"Feature","properties":{"id":1002,"name":"Lake Albert","featurecla":"Lake","scalerank":0,"wikidataid":"Q125888","source":"Natural Earth 5.2.0-pre ne_10m_lakes (public domain)"},"geometry":{"type":"Polygon","coordinates":[[[31.3605,2.2623],[31.3582,2.2535],[31.3596,2.2081],[31.3617,2.1993],[31.3747,2.1843],[31.3894,2.161],[31.3947,2.1375],[31.3785,2.1207],[31.4038,2.0583],[31.4053,2.0248],[31.3855,1.9974],[31.4038,1.9532],[31.4062,1.9388],[31.4062,1.9147],[31.4044,1.9091],[31.402,1.9049],[31.4,1.8999],[31.3947,1.8631],[31.3811,1.8378],[31.3596,1.8243],[31.3308,1.8328],[31.322,1.8122],[31.3158,1.7598],[31.3096,1.7372],[31.2958,1.7118],[31.2819,1.6957],[31.2413,1.6683],[31.1839,1.6144],[31.1236,1.582],[31.1112,1.5788],[31.098,1.5806],[31.0865,1.5847],[31.0756,1.5861],[31.0632,1.5788],[31.0565,1.5835],[31.0497,1.5864],[31.0367,1.5561],[31.0082,1.542],[30.9743,1.5329],[30.9467,1.5176],[30.9287,1.4925],[30.8984,1.4334],[30.7309,1.2397],[30.7206,1.2241],[30.7188,1.2088],[30.7188,1.1929],[30.7144,1.1749],[30.604,1.0581],[30.6073,1.0522],[30.6067,1.0483],[30.6014,1.046],[30.5905,1.0445],[30.5999,1.0389],[30.604,1.0377],[30.604,1.0316],[30.5911,1.0274],[30.5775,1.028],[30.5655,1.0336],[30.556,1.0445],[30.5466,1.038],[30.5422,1.0298],[30.5395,1.0216],[30.5337,1.0139],[30.5304,1.0242],[30.5313,1.0345],[30.534,1.0457],[30.5357,1.0581],[30.5175,1.0416],[30.5063,1.0345],[30.4977,1.0345],[30.4919,1.0448],[30.4957,1.0545],[30.503,1.0639],[30.5078,1.0725],[30.5098,1.0946],[30.5054,1.1084],[30.4972,1.1211],[30.488,1.1408],[30.4942,1.1599],[30.4874,1.1811],[30.4863,1.1991],[30.5078,1.2091],[30.5078,1.2158],[30.4933,1.2235],[30.4668,1.2506],[30.4657,1.2556],[30.4607,1.2662],[30.4551,1.2715],[30.4524,1.2606],[30.4524,1.2297],[30.448,1.2303],[30.4474,1.2311],[30.4477,1.2329],[30.4462,1.2364],[30.4362,1.2256],[30.4327,1.2226],[30.4303,1.2397],[30.4212,1.2541],[30.4077,1.2612],[30.3924,1.2568],[30.3915,1.2679],[30.3921,1.2785],[30.3944,1.2885],[30.3985,1.2977],[30.3859,1.3103],[30.393,1.3239],[30.4088,1.3348],[30.4221,1.3395],[30.4524,1.4013],[30.4657,1.4207],[30.4768,1.4416],[30.4848,1.464],[30.488,1.4864],[30.491,1.4967],[30.4986,1.509],[30.5086,1.5193],[30.5184,1.5237],[30.526,1.529],[30.5419,1.5552],[30.5493,1.5652],[30.5964,1.5873],[30.6214,1.6029],[30.632,1.6238],[30.6385,1.6456],[30.6541,1.663],[30.725,1.7068],[30.7344,1.7157],[30.745,1.7457],[30.7515,1.7501],[30.7659,1.7569],[30.8162,1.7987],[30.9125,1.9067],[30.954,1.9291],[30.9837,1.9323],[30.9949,1.9353],[31.0049,1.9409],[31.012,1.9488],[31.0179,1.9579],[31.0252,1.9665],[31.067,2.0027],[31.1112,2.0315],[31.1209,2.0351],[31.1427,2.0404],[31.1521,2.0451],[31.1607,2.0548],[31.1754,2.0795],[31.183,2.0895],[31.2016,2.1066],[31.2113,2.1116],[31.2242,2.1134],[31.2369,2.1169],[31.2395,2.126],[31.2387,2.1372],[31.2413,2.1475],[31.2943,2.1908],[31.3034,2.2058],[31.3064,2.2264],[31.3143,2.2452],[31.3252,2.2623],[31.3676,2.31],[31.3864,2.3226],[31.4391,2.3412],[31.4509,2.3483],[31.4612,2.3597],[31.4656,2.3715],[31.4694,2.3977],[31.4747,2.4083],[31.4744,2.3589],[31.468,2.3359],[31.4506,2.3262],[31.4324,2.3212],[31.412,2.3094],[31.3785,2.2847],[31.3726,2.2794],[31.3661,2.2714],[31.3605,2.2623]]]}}
