{"type":"Feature","properties":{"id":1003,"name":"Lake Baikal","featurecla":"Lake","scalerank":0,"wikidataid":"Q5513","source":"Natural Earth 5.2.0-pre ne_10m_lakes (public domain)"},"geometry":{"type":"Polygon","coordinates":[[[109.9446,55.6882],[109.961,55.6726],[109.959,55.667],[109.9454,55.6623],[109.9278,55.6502],[109.9175,55.6352],[109.9107,55.6211],[109.9013,55.6087],[109.873,55.5928],[109.8548,55.5775],[109.8383,55.559],[109.828,55.5443],[109.8389,55.544],[109.8683,55.5404],[109.876,55.5372],[109.8766,55.5287],[109.8701,55.5213],[109.8616,55.5151],[109.856,55.5092],[109.8533,55.4892],[109.8633,55.481],[109.8816,55.4766],[109.9039,55.4683],[109.8683,55.4589],[109.8498,55.4504],[109.8415,55.438],[109.8407,55.4239],[109.8374,55.4083],[109.8212,55.3585],[109.8162,55.3532],[109.8033,55.3468],[109.8009,55.342],[109.7965,55.325],[109.7777,55.3058],[109.7735,55.2938],[109.7785,55.2867],[109.7903,55.2793],[109.8018,55.2699],[109.8077,55.2561],[109.8044,55.2378],[109.7953,55.2275],[109.7697,55.2116],[109.7376,55.1793],[109.7317,55.1678],[109.7314,55.1528],[109.7379,55.1451],[109.7485,55.138],[109.7597,55.1257],[109.747,55.1071],[109.7559,55.0877],[109.7718,55.0692],[109.7803,55.0544],[109.773,55.0359],[109.735,55.0129],[109.7182,54.9956],[109.7141,54.9726],[109.725,54.9311],[109.7153,54.9105],[109.6773,54.8896],[109.6749,54.8837],[109.6705,54.8811],[109.6658,54.879],[109.6634,54.8761],[109.6655,54.8684],[109.6702,54.864],[109.6749,54.8611],[109.6773,54.859],[109.6826,54.8496],[109.6885,54.8454],[109.6902,54.8413],[109.6841,54.8316],[109.6749,54.826],[109.6493,54.8204],[109.6393,54.8145],[109.6308,54.7957],[109.6349,54.778],[109.644,54.7607],[109.6499,54.7421],[109.6384,54.6994],[109.6037,54.6759],[109.5616,54.6579],[109.5272,54.6329],[109.5222,54.6253],[109.5127,54.6055],[109.518,54.5961],[109.5201,54.5864],[109.5201,54.5646],[109.5213,54.5599],[109.5263,54.5496],[109.5272,54.5428],[109.5245,54.5375],[109.5148,54.5275],[109.5104,54.5087],[109.5013,54.4896],[109.4989,54.4787],[109.5018,54.4725],[109.5074,54.4637],[109.5124,54.4528],[109.5127,54.441],[109.5015,54.4204],[109.488,54.4063],[109.4827,54.3912],[109.5107,54.3474],[109.5066,54.3362],[109.493,54.3268],[109.4786,54.3103],[109.4768,54.2879],[109.4892,54.2711],[109.5051,54.2555],[109.5201,54.2229],[109.5525,54.184],[109.5613,54.1669],[109.561,54.1534],[109.5569,54.1437],[109.5407,54.1251],[109.5369,54.1234],[109.5239,54.1201],[109.5201,54.1184],[109.5174,54.1134],[109.513,54.0998],[109.5045,54.0866],[109.4948,54.063],[109.493,54.0536],[109.4895,54.0424],[109.4812,54.0339],[109.4718,54.0277],[109.4403,54.0015],[109.2605,53.8891],[109.2452,53.8685],[109.2357,53.844],[109.1939,53.8072],[109.1842,53.7866],[109.1883,53.7766],[109.2066,53.7587],[109.2113,53.7492],[109.2078,53.7392],[109.191,53.7086],[109.1842,53.7007],[109.2104,53.6712],[109.2081,53.6665],[109.1975,53.6633],[109.1869,53.655],[109.1701,53.6391],[109.1671,53.6333],[109.1683,53.6288],[109.1669,53.6265],[109.1566,53.6256],[109.1507,53.6244],[109.1365,53.6191],[109.1256,53.6182],[109.0468,53.6256],[108.9894,53.6391],[108.9849,53.6433],[108.9952,53.6521],[109.042,53.6792],[109.05,53.6889],[109.0565,53.7177],[109.0638,53.7248],[109.0727,53.7307],[109.0809,53.7416],[109.0188,53.7657],[109.0226,53.7695],[109.0323,53.7748],[109.0365,53.786],[109.0447,53.7955],[109.0671,53.7963],[109.0671,53.8037],[109.0626,53.8111],[109.065,53.814],[109.0744,53.8172],[109.0603,53.8352],[109.0518,53.852],[109.0409,53.8649],[109.0194,53.872],[109.0058,53.8708],[108.9652,53.8576],[108.9187,53.8593],[108.9066,53.8546],[108.8083,53.7899],[108.7115,53.6927],[108.6982,53.66],[108.6835,53.64],[108.6494,53.6044],[108.5964,53.5711],[108.5878,53.5597],[108.5814,53.5447],[108.5649,53.5326],[108.526,53.5164],[108.5508,53.5046],[108.5973,53.5214],[108.6773,53.5629],[108.7945,53.5797],[108.8554,53.5982],[108.8966,53.5944],[108.929,53.5735],[108.9791,53.5087],[108.9923,53.4787],[109.0017,53.4346],[108.9982,53.3931],[108.9793,53.3698],[108.9791,53.3648],[108.9293,53.348],[108.7871,53.283],[108.7365,53.2735],[108.7091,53.2762],[108.697,53.293],[108.6835,53.305],[108.6538,53.3006],[108.6079,53.283],[108.3977,53.1508],[108.3791,53.1458],[108.3756,53.1434],[108.3323,53.1217],[108.3047,53.1175],[108.2938,53.1111],[108.2864,53.1049],[108.2947,53.0852],[108.2994,53.0775],[108.3067,53.0701],[108.3173,53.0657],[108.3288,53.0643],[108.3376,53.0598],[108.3415,53.0466],[108.3332,53.0301],[108.3147,53.0107],[108.2799,52.9818],[108.2437,52.9653],[108.2258,52.9536],[108.2181,52.9368],[108.2072,52.9241],[108.043,52.8576],[108.0197,52.8526],[108.0056,52.8397],[107.9847,52.8032],[107.9685,52.7902],[107.9261,52.7775],[107.8852,52.751],[107.8625,52.7413],[107.8134,52.7275],[107.8081,52.7249],[107.7989,52.7172],[107.7928,52.7137],[107.7863,52.7125],[107.7727,52.7122],[107.7539,52.7066],[107.7224,52.7016],[107.5543,52.7054],[107.5305,52.701],[107.4342,52.6722],[107.4104,52.6613],[107.3951,52.6524],[107.3612,52.6262],[107.3191,52.608],[107.1299,52.5571],[106.955,52.4885],[106.9141,52.4643],[106.8879,52.4325],[106.8549,52.3587],[106.8281,52.331],[106.7854,52.3166],[106.7398,52.3213],[106.6621,52.3625],[106.6209,52.3781],[106.5941,52.3781],[106.5664,52.3854],[106.5523,52.3869],[106.4864,52.3825],[106.3889,52.3466],[106.3745,52.3445],[106.3477,52.346],[106.3362,52.3436],[106.3227,52.3336],[106.2647,52.2757],[106.2577,52.2704],[106.2512,52.2671],[106.2468,52.2615],[106.2441,52.2483],[106.2462,52.2412],[106.2556,52.2224],[106.2635,52.1865],[106.2874,52.1579],[106.2921,52.1385],[106.2874,52.1243],[106.2771,52.1108],[106.2638,52.099],[106.2503,52.0899],[106.2368,52.0973],[106.2362,52.0929],[106.2347,52.0899],[106.2326,52.0876],[106.2306,52.0837],[106.2335,52.0749],[106.23,52.0649],[106.2214,52.0558],[106.2106,52.049],[106.1814,52.0175],[106.1664,51.9969],[106.1726,51.9875],[106.1835,51.9833],[106.1908,51.9736],[106.1955,51.9613],[106.197,51.9501],[106.1932,51.943],[106.1841,51.9389],[106.1623,51.933],[106.114,51.9068],[106.091,51.8886],[106.0905,51.8844],[106.0855,51.8803],[106.0751,51.8615],[106.0698,51.8571],[106.0607,51.8547],[106.0401,51.8423],[106.0119,51.8209],[105.9324,51.7376],[105.9185,51.7299],[105.9027,51.7296],[105.8738,51.7337],[105.8476,51.7278],[105.8017,51.7102],[105.7484,51.7043],[105.4352,51.6145],[105.0163,51.5456],[104.9633,51.5427],[104.9416,51.5383],[104.8064,51.4782],[104.7879,51.4735],[104.7084,51.475],[104.6281,51.487],[104.5224,51.4806],[104.4176,51.4956],[104.309,51.4997],[104.2574,51.5082],[104.1877,51.5321],[104.1385,51.5383],[104.0788,51.563],[103.994,51.5748],[103.9516,51.6013],[103.9269,51.6066],[103.8739,51.6107],[103.8536,51.6169],[103.8097,51.6381],[103.7947,51.6484],[103.7753,51.6569],[103.7229,51.6725],[103.7088,51.6857],[103.7273,51.7193],[103.7906,51.7317],[103.9139,51.7337],[103.9949,51.7523],[104.1114,51.7582],[104.2466,51.782],[104.5995,51.7882],[104.6225,51.7847],[104.6331,51.7847],[104.6472,51.7882],[104.6581,51.795],[104.6796,51.8126],[104.6919,51.8161],[104.7052,51.8238],[104.7334,51.8588],[104.7502,51.8703],[104.8114,51.8771],[104.9371,51.8641],[104.9972,51.8703],[105.0867,51.9018],[105.1865,51.9098],[105.2209,51.9177],[105.2506,51.933],[105.2686,51.953],[105.286,51.9778],[105.3074,51.9989],[105.3363,52.0081],[105.3531,52.0113],[105.3863,52.0254],[105.4013,52.0284],[105.4193,52.0299],[105.4408,52.0343],[105.4561,52.0405],[105.4558,52.049],[105.4782,52.0569],[105.5194,52.0843],[105.5418,52.0899],[105.5544,52.0955],[105.6074,52.1308],[105.6145,52.1391],[105.6268,52.1573],[105.6348,52.1659],[105.6722,52.1968],[105.7072,52.2515],[105.7234,52.268],[105.749,52.2824],[105.7575,52.2892],[105.7884,52.3263],[105.8049,52.3398],[105.8397,52.3613],[105.877,52.4128],[105.9077,52.4443],[105.9439,52.472],[105.9836,52.4947],[106.341,52.618],[106.4087,52.6318],[106.4702,52.6672],[106.4876,52.6727],[106.4987,52.6786],[106.5644,52.7234],[106.5726,52.7263],[106.5803,52.7304],[106.5868,52.741],[106.5879,52.7487],[106.5853,52.7555],[106.5732,52.7752],[106.6071,52.7817],[106.6512,52.8152],[106.683,52.8305],[106.7298,52.8435],[106.7445,52.8508],[106.7616,52.8623],[106.7687,52.8711],[106.7787,52.8994],[106.796,52.9244],[106.8199,52.9439],[106.8911,52.9812],[106.9032,52.9845],[106.9094,52.9892],[106.9091,53.0013],[106.9003,53.0142],[106.8705,53.0307],[106.8611,53.0428],[106.7766,53.0186],[106.7445,53.0154],[106.7445,53.0222],[106.7831,53.0416],[106.8034,53.0554],[106.8122,53.0669],[106.8172,53.0775],[106.829,53.0872],[106.8431,53.0946],[106.8696,53.1008],[106.8764,53.1093],[106.8808,53.1205],[106.8879,53.132],[106.9088,53.1458],[106.955,53.1582],[106.9738,53.1699],[107.0159,53.2156],[107.0318,53.2282],[107.1092,53.2541],[107.1331,53.2777],[107.4445,53.3987],[107.4604,53.4095],[107.481,53.4201],[107.5284,53.4322],[107.5473,53.4475],[107.5534,53.4593],[107.5526,53.4649],[107.549,53.4684],[107.5473,53.4746],[107.5473,53.5108],[107.5502,53.5164],[107.5655,53.5252],[107.6017,53.5847],[107.6526,53.6427],[107.6703,53.6542],[107.9729,53.794],[107.9847,53.8069],[107.9971,53.8166],[108.0739,53.8378],[108.1386,53.8852],[108.1819,53.9],[108.199,53.9179],[108.2108,53.9406],[108.2267,53.9871],[108.2317,53.9953],[108.2405,54.0033],[108.2602,54.0127],[108.2693,54.0195],[108.274,54.0277],[108.2776,54.0377],[108.2823,54.0465],[108.2899,54.0501],[108.2902,54.0563],[108.3067,54.091],[108.3058,54.1025],[108.3,54.1222],[108.3,54.1325],[108.3041,54.1402],[108.3173,54.1555],[108.3206,54.1631],[108.3262,54.1678],[108.3397,54.1711],[108.3653,54.1737],[108.3756,54.1764],[108.3836,54.1834],[108.4471,54.2594],[108.453,54.2685],[108.4616,54.2862],[108.4674,54.2938],[108.4769,54.2988],[108.4981,54.3053],[108.5054,54.3103],[108.509,54.3191],[108.5101,54.3418],[108.5122,54.3518],[108.531,54.3839],[108.536,54.413],[108.5428,54.4328],[108.5602,54.4684],[108.5867,54.4984],[108.6585,54.5399],[108.6909,54.5646],[108.8174,54.7083],[108.8213,54.7148],[108.8236,54.7251],[108.8251,54.7465],[108.8275,54.7566],[108.8328,54.7613],[108.8507,54.7727],[108.8554,54.7769],[108.8572,54.7878],[108.8545,54.7942],[108.8507,54.8016],[108.8486,54.8145],[108.8566,54.8301],[108.8757,54.8416],[108.8972,54.8519],[108.9134,54.8625],[108.9216,54.8775],[108.9269,54.894],[108.937,54.9096],[108.9579,54.9202],[108.9464,54.9341],[108.914,54.9476],[108.9034,54.9611],[108.9343,54.97],[108.9646,54.9832],[108.9923,55.0],[109.0306,55.0312],[109.0473,55.0386],[109.0656,55.0427],[109.0844,55.0439],[109.1027,55.0497],[109.1065,55.0633],[109.1012,55.0889],[109.1127,55.1157],[109.1669,55.1628],[109.1842,55.1884],[109.1907,55.2196],[109.1957,55.2749],[109.2048,55.3038],[109.1942,55.3235],[109.1998,55.3432],[109.211,55.3638],[109.2184,55.3865],[109.2119,55.4021],[109.1975,55.423],[109.1883,55.4427],[109.1975,55.4554],[109.1975,55.4621],[109.1904,55.4633],[109.178,55.4674],[109.1701,55.4683],[109.1757,55.4819],[109.1913,55.4978],[109.1975,55.5092],[109.1975,55.5422],[109.2013,55.5581],[109.2213,55.5681],[109.2463,55.5858],[109.259,55.592],[109.3114,55.602],[109.3508,55.6246],[109.3635,55.6349],[109.3688,55.6502],[109.3744,55.6588],[109.4174,55.6744],[109.4415,55.6909],[109.4862,55.7291],[109.5195,55.7539],[109.5592,55.7665],[109.6031,55.7706],[109.6961,55.7647],[109.8039,55.7397],[109.8212,55.7427],[109.7768,55.7624],[109.7232,55.7762],[109.6673,55.7836],[109.6158,55.783],[109.6158,55.7904],[109.7965,55.7821],[109.8145,55.7768],[109.8077,55.77],[109.8304,55.7662],[109.8474,55.7603],[109.8583,55.7486],[109.8621,55.7259],[109.8733,55.7185],[109.9446,55.6882]],[[107.7866,53.3872],[107.7828,53.4104],[107.7383,53.3989],[107.7215,53.3881],[107.6744,53.3301],[107.6488,53.3098],[107.5131,53.278],[107.4916,53.2653],[107.4684,53.245],[107.3645,53.2173],[107.3297,53.1979],[107.2591,53.1867],[107.2408,53.1802],[107.197,53.152],[107.1622,53.1617],[107.1257,53.1493],[107.0886,53.1302],[107.053,53.1184],[107.01,53.1175],[106.9909,53.1134],[106.9738,53.101],[106.9635,53.0916],[106.9503,53.0828],[106.9362,53.0754],[106.922,53.0701],[106.9297,53.0684],[106.9382,53.0678],[106.9574,53.0701],[106.9574,53.064],[106.9476,53.0616],[106.9397,53.0572],[106.9335,53.051],[106.9294,53.0428],[106.9494,53.0481],[106.9706,53.0501],[106.9706,53.0428],[106.9609,53.0398],[106.9524,53.0354],[106.9441,53.0295],[106.9362,53.0222],[106.9677,53.0107],[107.0174,53.018],[107.1078,53.0428],[107.3918,53.0775],[107.4124,53.0875],[107.4286,53.1025],[107.4916,53.1458],[107.552,53.1711],[107.5705,53.1832],[107.5876,53.1976],[107.6061,53.21],[107.6262,53.2203],[107.6488,53.2282],[107.7383,53.2379],[107.7524,53.245],[107.7554,53.2556],[107.7689,53.2727],[107.773,53.283],[107.7733,53.2939],[107.771,53.3009],[107.7677,53.3077],[107.7654,53.3171],[107.7866,53.3872]]]}}
