{"type":"Feature","properties":{"id":1004,"name":"Lake Balkhash","featurecla":"Lake","scalerank":0,"wikidataid":"Q134485","source":"Natural Earth 5.2.0-pre ne_10m_lakes (public domain)"},"geometry":{"type":"Polygon","coordinates":[[[79.0257,46.4337],[78.9922,46.4072],[78.953,46.3851],[78.9086,46.3684],[78.8841,46.3651],[78.7947,46.3778],[78.7311,46.3963],[78.7114,46.3945],[78.6754,46.3798],[78.6551,46.3748],[78.6389,46.3737],[78.6227,46.3745],[78.6077,46.3775],[78.5939,46.3822],[78.5468,46.406],[78.5253,46.4093],[78.472,46.4069],[78.4561,46.4025],[78.4408,46.3951],[78.4261,46.3834],[78.4179,46.3675],[78.4217,46.348],[78.4344,46.338],[78.4676,46.3292],[78.477,46.3201],[78.4712,46.2945],[78.4408,46.2874],[78.4046,46.2951],[78.3802,46.3133],[78.3878,46.3133],[78.3669,46.3398],[78.3381,46.3566],[78.3069,46.3622],[78.2789,46.3542],[78.2922,46.348],[78.2619,46.331],[78.1479,46.346],[78.1073,46.3413],[78.1073,46.3336],[78.117,46.3324],[78.1262,46.333],[78.135,46.336],[78.1426,46.3413],[78.1506,46.3339],[78.1603,46.3295],[78.1706,46.3274],[78.1824,46.3274],[78.1644,46.3124],[78.132,46.3115],[78.0429,46.3248],[78.0205,46.3369],[77.9769,46.3684],[77.8712,46.4258],[77.8115,46.4387],[77.7576,46.4231],[77.7576,46.4154],[77.7773,46.4216],[77.7991,46.424],[77.8206,46.4222],[77.8392,46.4154],[77.8227,46.4096],[77.8009,46.4054],[77.7614,46.4025],[77.7438,46.396],[77.7288,46.3837],[77.7138,46.3754],[77.6955,46.3822],[77.7052,46.3907],[77.7373,46.4093],[77.5951,46.4196],[77.485,46.4605],[77.4515,46.4882],[77.4332,46.4993],[77.4117,46.5061],[77.3873,46.5064],[77.3643,46.499],[77.3161,46.4758],[77.2831,46.4678],[77.2646,46.454],[77.2537,46.4511],[77.2439,46.4534],[77.2369,46.4587],[77.2307,46.4655],[77.2228,46.4708],[77.2033,46.4781],[77.1798,46.4837],[77.1565,46.4837],[77.1377,46.4746],[77.1183,46.4596],[77.0971,46.4519],[77.0732,46.4496],[77.0447,46.4511],[76.929,46.4784],[76.9278,46.4572],[76.9125,46.4578],[76.7921,46.5194],[76.7521,46.5326],[76.3974,46.5408],[76.3794,46.5453],[76.304,46.5756],[76.2811,46.5791],[76.2631,46.5738],[76.2776,46.5676],[76.2843,46.5665],[76.2843,46.5603],[76.264,46.5632],[76.2569,46.5665],[76.2578,46.5453],[76.2463,46.5444],[76.2281,46.5512],[76.2084,46.5535],[76.2146,46.5323],[76.1992,46.5273],[76.1242,46.5353],[76.0847,46.545],[76.0618,46.5473],[76.0574,46.5429],[76.0618,46.5332],[76.0694,46.5238],[76.0756,46.5194],[76.0797,46.5173],[76.0783,46.5129],[76.0738,46.5082],[76.0686,46.5064],[76.0621,46.5073],[76.0494,46.5114],[76.0447,46.5123],[75.9417,46.5064],[75.9417,46.5123],[75.9493,46.5132],[75.9694,46.5194],[75.9608,46.5314],[75.952,46.535],[75.9246,46.5329],[75.8922,46.545],[75.874,46.5476],[75.8596,46.5261],[75.844,46.5211],[75.808,46.5194],[75.801,46.5173],[75.7839,46.5079],[75.7771,46.5064],[75.7712,46.5096],[75.7674,46.5164],[75.7627,46.5226],[75.753,46.5255],[75.7247,46.5303],[75.71,46.5308],[75.6953,46.5255],[75.6862,46.5147],[75.6779,46.4908],[75.6673,46.4846],[75.6576,46.4852],[75.6544,46.4905],[75.6517,46.4961],[75.6432,46.4988],[75.6361,46.497],[75.612,46.4846],[75.594,46.4781],[75.5767,46.474],[75.5375,46.4708],[75.5481,46.4846],[75.579,46.502],[75.5852,46.5158],[75.5764,46.5261],[75.5207,46.5567],[75.476,46.6038],[75.4686,46.615],[75.4707,46.6268],[75.4784,46.6324],[75.486,46.6353],[75.4895,46.6389],[75.4907,46.6486],[75.494,46.6554],[75.5004,46.6601],[75.5101,46.6627],[75.514,46.6498],[75.5169,46.6421],[75.5157,46.6268],[75.5331,46.6209],[75.5564,46.6242],[75.5717,46.6353],[75.5611,46.6415],[75.5634,46.648],[75.5731,46.653],[75.5852,46.6559],[75.5731,46.671],[75.5525,46.6768],[75.4916,46.6757],[75.4792,46.6733],[75.468,46.6689],[75.4557,46.6627],[75.4271,46.6389],[75.4174,46.6353],[75.4015,46.6262],[75.4024,46.605],[75.4115,46.5818],[75.421,46.5665],[75.4277,46.5606],[75.4345,46.5565],[75.4398,46.5497],[75.4419,46.5364],[75.4451,46.525],[75.4533,46.5173],[75.476,46.5064],[75.4757,46.5035],[75.4751,46.5014],[75.4742,46.4999],[75.4725,46.4993],[75.4601,46.494],[75.446,46.4967],[75.4357,46.4952],[75.4345,46.4784],[75.4301,46.4837],[75.4189,46.4935],[75.4142,46.4988],[75.4027,46.4823],[75.3886,46.4661],[75.3715,46.4555],[75.3527,46.4572],[75.3547,46.4605],[75.3568,46.4676],[75.3588,46.4708],[75.3409,46.4746],[75.3326,46.4893],[75.3329,46.5049],[75.3421,46.5123],[75.3568,46.5158],[75.3524,46.5229],[75.3368,46.53],[75.3182,46.5329],[75.2785,46.5291],[75.2626,46.5223],[75.2564,46.5094],[75.2608,46.5052],[75.28,46.4964],[75.2835,46.492],[75.2773,46.4864],[75.2426,46.4784],[75.267,46.4605],[75.2761,46.449],[75.2667,46.4434],[75.2517,46.4387],[75.2273,46.4187],[75.2084,46.4154],[75.2146,46.4231],[75.2005,46.4228],[75.1769,46.4172],[75.1634,46.4154],[75.1534,46.4199],[75.1463,46.4266],[75.1398,46.4281],[75.1328,46.4154],[75.1228,46.4243],[75.1116,46.4308],[75.0992,46.4349],[75.0845,46.4375],[75.0845,46.4434],[75.1019,46.454],[75.1272,46.479],[75.1466,46.4846],[75.1328,46.4985],[75.111,46.4908],[75.0745,46.4608],[75.0586,46.4399],[75.0495,46.4196],[75.038,46.4019],[75.0162,46.389],[74.995,46.3851],[74.972,46.3869],[74.9497,46.3937],[74.9311,46.406],[74.9102,46.4152],[74.8964,46.404],[74.8661,46.3316],[74.8611,46.3136],[74.859,46.2901],[74.8534,46.2677],[74.8396,46.2491],[74.7928,46.205],[74.7851,46.1914],[74.7863,46.1767],[74.8007,46.1594],[74.8116,46.139],[74.8013,46.1205],[74.7813,46.1055],[74.763,46.0946],[74.7083,46.0737],[74.6912,46.0908],[74.6559,46.0825],[74.6282,46.0596],[74.6326,46.0328],[74.5605,46.0086],[74.5511,46.0133],[74.5437,46.0092],[74.5331,45.9948],[74.5211,45.9892],[74.5114,45.9922],[74.4955,46.0054],[74.4593,46.0289],[74.4437,46.036],[74.4239,46.0387],[74.3986,46.0357],[74.3533,46.0213],[74.3315,46.0184],[74.3024,46.0204],[74.29,46.0184],[74.28,46.0139],[74.2585,46.0007],[74.2314,45.9886],[74.2302,45.9677],[74.2397,45.9448],[74.2497,45.9297],[74.2662,45.9097],[74.2791,45.8903],[74.2871,45.8691],[74.29,45.8438],[74.2932,45.8344],[74.3083,45.8152],[74.3118,45.8099],[74.3136,45.8041],[74.3221,45.7949],[74.3242,45.789],[74.3224,45.7858],[74.3183,45.7832],[74.3141,45.7808],[74.3118,45.7787],[74.3053,45.7678],[74.2968,45.7593],[74.2871,45.7534],[74.2762,45.7517],[74.2815,45.7623],[74.2776,45.7699],[74.2682,45.7749],[74.2564,45.7787],[74.2458,45.7746],[74.2373,45.7676],[74.2317,45.7593],[74.2285,45.7517],[74.2305,45.7316],[74.2397,45.721],[74.2553,45.7208],[74.2762,45.7316],[74.3274,45.7019],[74.3392,45.6907],[74.3315,45.6831],[74.3392,45.6763],[74.323,45.6601],[74.2997,45.6625],[74.2497,45.6831],[74.2615,45.6669],[74.2709,45.6501],[74.2709,45.6307],[74.2564,45.608],[74.2358,45.5954],[74.1596,45.5809],[74.1205,45.5621],[74.0845,45.5391],[74.0716,45.5209],[74.0704,45.5047],[74.0798,45.49],[74.0981,45.477],[74.0701,45.4264],[74.0739,45.4117],[74.0895,45.3905],[74.0913,45.3749],[74.0854,45.3634],[74.0766,45.3569],[74.0728,45.3499],[74.081,45.3372],[74.0951,45.3284],[74.1131,45.3248],[74.131,45.3263],[74.1458,45.334],[74.1408,45.3404],[74.1422,45.3463],[74.1487,45.3513],[74.1596,45.3543],[74.1678,45.3186],[74.1608,45.2874],[74.1481,45.2565],[74.1396,45.2239],[74.1399,45.205],[74.1487,45.1338],[74.1737,45.0873],[74.1593,45.0731],[74.1402,45.0626],[74.1169,45.0555],[74.0878,45.0531],[74.0748,45.0502],[74.0698,45.0428],[74.0722,45.0325],[74.081,45.0216],[74.119,45.0364],[74.1322,45.039],[74.1163,45.0155],[74.1119,45.0049],[74.1278,44.999],[74.1402,44.9848],[74.1443,44.9704],[74.1361,44.9639],[74.126,44.9666],[74.0981,44.991],[74.0807,44.986],[74.0018,44.9981],[74.0065,45.0072],[74.0095,45.011],[74.0042,45.014],[73.9939,45.0219],[73.9883,45.0246],[73.9992,45.0319],[74.0292,45.0458],[74.036,45.0531],[74.0316,45.0605],[73.9989,45.0837],[73.9918,45.0946],[73.9886,45.1055],[73.9883,45.1314],[73.9942,45.1376],[74.0245,45.14],[74.036,45.142],[74.0257,45.1456],[74.0157,45.1514],[74.0074,45.1594],[74.0018,45.1691],[74.008,45.1779],[74.0045,45.1865],[73.9945,45.1932],[73.9815,45.1965],[73.9815,45.203],[73.9998,45.2015],[74.0071,45.2071],[74.0033,45.2159],[73.9883,45.2239],[73.9577,45.2139],[73.9259,45.2127],[73.8961,45.2206],[73.8723,45.2374],[73.8688,45.2427],[73.8635,45.2527],[73.8585,45.258],[73.8538,45.2607],[73.8446,45.2624],[73.8382,45.2648],[73.8243,45.2721],[73.8131,45.2813],[73.8114,45.2925],[73.8243,45.3066],[73.8019,45.3204],[73.7284,45.3543],[73.7425,45.3584],[73.7478,45.3578],[73.756,45.3543],[73.7625,45.361],[73.7395,45.3681],[73.7175,45.3805],[73.6974,45.3967],[73.6804,45.4158],[73.6686,45.4364],[73.6489,45.4826],[73.6356,45.5014],[73.6171,45.515],[73.5379,45.5571],[73.5191,45.5636],[73.4711,45.5665],[73.4552,45.5727],[73.4366,45.5883],[73.4252,45.6074],[73.4299,45.6248],[73.4337,45.6327],[73.4343,45.6439],[73.4334,45.6657],[73.4372,45.6763],[73.4467,45.679],[73.4914,45.6748],[73.5061,45.6754],[73.5138,45.6857],[73.5167,45.7249],[73.5208,45.7322],[73.5279,45.7361],[73.5397,45.7372],[73.5523,45.7417],[73.5594,45.7502],[73.5579,45.7558],[73.5432,45.7517],[73.5232,45.7673],[73.4664,45.7723],[73.4437,45.7823],[73.4243,45.7955],[73.4231,45.8017],[73.4334,45.8135],[73.4393,45.8164],[73.4681,45.8267],[73.4714,45.8314],[73.4726,45.8373],[73.4764,45.8429],[73.4879,45.847],[73.5149,45.8194],[73.5226,45.8135],[73.5673,45.8114],[73.5741,45.8099],[73.5874,45.8223],[73.59,45.8297],[73.5912,45.8573],[73.5935,45.8676],[73.5997,45.8738],[73.6121,45.875],[73.6097,45.8797],[73.6068,45.8909],[73.6047,45.8956],[73.6274,45.8974],[73.6459,45.9086],[73.6521,45.9256],[73.6389,45.9439],[73.6648,45.9627],[73.6727,45.9733],[73.6633,45.978],[73.6536,45.9816],[73.6657,45.9886],[73.688,45.9957],[73.7075,45.998],[73.7057,45.9933],[73.7027,45.9824],[73.701,45.978],[73.7298,45.973],[73.7428,45.9727],[73.756,45.978],[73.7381,45.9857],[73.7354,45.9942],[73.7378,46.0048],[73.7351,46.0184],[73.7272,46.0266],[73.7145,46.0342],[73.6607,46.0584],[73.6406,46.0731],[73.6374,46.0916],[73.6598,46.1152],[73.6498,46.1178],[73.6412,46.1223],[73.635,46.129],[73.6327,46.1387],[73.6368,46.1417],[73.6462,46.1432],[73.6556,46.1476],[73.6686,46.1794],[73.6892,46.1885],[73.7142,46.1891],[73.7351,46.1835],[73.7392,46.2073],[73.7537,46.2247],[73.7693,46.2309],[73.7766,46.2209],[73.7834,46.2047],[73.8311,46.1623],[73.8476,46.1923],[73.8582,46.1994],[73.8791,46.2047],[73.8976,46.207],[73.9138,46.2067],[73.93,46.2035],[73.9736,46.1847],[73.9847,46.1844],[74.0018,46.1903],[74.0321,46.2079],[74.0451,46.2194],[74.0504,46.2312],[74.041,46.2229],[74.031,46.2212],[74.0056,46.2238],[73.9959,46.2274],[73.9953,46.2362],[74.0018,46.2556],[73.9971,46.265],[73.9856,46.2639],[73.9718,46.2594],[73.9609,46.2591],[73.9547,46.2668],[73.9488,46.2889],[73.9406,46.2995],[73.9556,46.3101],[73.973,46.3151],[73.9824,46.3227],[73.9747,46.3413],[74.0701,46.4154],[74.1013,46.4334],[74.134,46.4414],[74.1673,46.4402],[74.2014,46.4299],[74.2185,46.4402],[74.2329,46.4564],[74.2494,46.4717],[74.2729,46.4784],[74.2997,46.4823],[74.3512,46.4976],[74.3792,46.4988],[74.3777,46.5099],[74.3907,46.5338],[74.3942,46.5503],[74.3998,46.5632],[74.4139,46.5715],[74.4999,46.5915],[74.5125,46.598],[74.5199,46.6],[74.5279,46.5977],[74.5343,46.5971],[74.537,46.6044],[74.5361,46.628],[74.5599,46.7222],[74.5711,46.739],[74.5876,46.7481],[74.5973,46.7469],[74.6067,46.7422],[74.6223,46.739],[74.6379,46.7431],[74.6332,46.7528],[74.6114,46.7725],[74.763,46.7799],[74.8078,46.7725],[74.849,46.7725],[74.8611,46.7787],[74.8752,46.809],[74.8864,46.8211],[74.9282,46.8046],[74.947,46.804],[74.9647,46.8305],[74.9832,46.8349],[74.9982,46.8279],[74.9956,46.8067],[74.9871,46.8008],[74.9762,46.7981],[74.97,46.7931],[74.9753,46.7799],[74.9862,46.7719],[74.9988,46.7722],[75.0106,46.7769],[75.0194,46.7831],[75.0336,46.7993],[75.0412,46.8046],[75.0698,46.8108],[75.0698,46.8205],[75.0642,46.832],[75.0645,46.8408],[75.0848,46.8499],[75.093,46.832],[75.098,46.8064],[75.1089,46.7937],[75.1228,46.7887],[75.1805,46.759],[75.2464,46.7419],[75.2667,46.7281],[75.2858,46.7213],[75.3126,46.7234],[75.3588,46.7316],[75.4895,46.7342],[75.5896,46.7637],[75.609,46.7657],[75.6285,46.7702],[75.67,46.7893],[75.6847,46.7937],[75.6929,46.7925],[75.7071,46.7872],[75.7121,46.7863],[75.7224,46.7881],[75.74,46.7972],[75.7498,46.8005],[75.7698,46.7999],[75.8048,46.789],[75.8219,46.7863],[75.8543,46.7981],[75.8884,46.8211],[75.9246,46.8352],[75.962,46.8211],[75.9396,46.8102],[75.9461,46.7969],[75.9573,46.7834],[75.949,46.7725],[75.949,46.7657],[75.9702,46.7666],[75.9879,46.7693],[76.0032,46.7737],[76.0173,46.7799],[76.0285,46.7875],[76.0356,46.794],[76.0438,46.7987],[76.0582,46.8005],[76.0694,46.7861],[76.0765,46.7813],[76.0794,46.7899],[76.1006,46.8037],[76.1486,46.8019],[76.229,46.7863],[76.3288,46.7445],[76.3629,46.739],[76.3715,46.7304],[76.3741,46.7107],[76.3729,46.6733],[76.3785,46.6589],[76.3903,46.6462],[76.4021,46.6448],[76.4071,46.6627],[76.4904,46.6292],[76.5104,46.6153],[76.5204,46.6136],[76.5245,46.6253],[76.5245,46.6395],[76.526,46.6462],[76.5301,46.6504],[76.5381,46.6559],[76.5481,46.6609],[76.5972,46.6757],[76.6096,46.6751],[76.6605,46.666],[76.682,46.666],[76.7017,46.6713],[76.7223,46.6839],[76.7282,46.6754],[76.73,46.6657],[76.7265,46.6562],[76.7156,46.6495],[76.73,46.6315],[76.7574,46.618],[76.8507,46.5915],[76.9075,46.5679],[76.9355,46.5603],[76.9098,46.5853],[76.8683,46.618],[76.8327,46.6527],[76.8254,46.6839],[76.8401,46.691],[76.8616,46.6818],[76.9113,46.6406],[76.9204,46.6368],[76.9322,46.6353],[76.944,46.6359],[76.9693,46.6421],[77.0193,46.6468],[77.0626,46.6356],[77.1009,46.6106],[77.1339,46.5738],[77.1356,46.5662],[77.1327,46.56],[77.1342,46.5541],[77.1483,46.5473],[77.1598,46.5467],[77.2278,46.5585],[77.2404,46.5712],[77.2504,46.5868],[77.2637,46.6012],[77.2834,46.6118],[77.3069,46.618],[77.3891,46.6236],[77.463,46.6421],[77.6193,46.6318],[77.6478,46.6421],[77.6281,46.6468],[77.6146,46.6565],[77.6143,46.666],[77.6349,46.6701],[77.6422,46.668],[77.6602,46.6583],[77.669,46.6559],[77.6784,46.6574],[77.7099,46.6701],[77.7299,46.6554],[77.767,46.6486],[77.8392,46.6495],[77.8768,46.658],[77.8936,46.6577],[77.959,46.6271],[78.0384,46.6012],[78.0585,46.5971],[78.0723,46.5982],[78.1185,46.6112],[78.1344,46.6118],[78.1491,46.6068],[78.1624,46.5944],[78.1824,46.5603],[78.1965,46.5512],[78.2171,46.5603],[78.2318,46.5453],[78.2442,46.499],[78.258,46.4784],[78.2675,46.4726],[78.2984,46.4596],[78.3095,46.4572],[78.3266,46.4617],[78.331,46.4729],[78.3266,46.5026],[78.3325,46.5091],[78.3593,46.5229],[78.3672,46.5329],[78.3655,46.5441],[78.3499,46.5673],[78.346,46.5774],[78.3478,46.6327],[78.3537,46.663],[78.3672,46.6839],[78.3805,46.671],[78.3878,46.653],[78.3881,46.633],[78.3802,46.615],[78.4026,46.6041],[78.4108,46.618],[78.4135,46.6412],[78.4188,46.6592],[78.4279,46.6674],[78.4373,46.6727],[78.4476,46.6754],[78.4597,46.6763],[78.4641,46.6718],[78.4553,46.6609],[78.4355,46.6421],[78.4364,46.633],[78.4414,46.62],[78.4485,46.6077],[78.4561,46.6012],[78.4614,46.605],[78.4753,46.6244],[78.4806,46.6292],[78.4885,46.6339],[78.4906,46.6448],[78.4906,46.6571],[78.4938,46.6665],[78.5109,46.6818],[78.5315,46.6975],[78.5733,46.7172],[78.5809,46.7278],[78.5851,46.739],[78.591,46.7484],[78.6039,46.7519],[78.6275,46.749],[78.6896,46.7316],[78.7037,46.7322],[78.7305,46.7384],[78.744,46.739],[78.7552,46.7345],[78.772,46.7204],[78.7826,46.7172],[78.7929,46.7083],[78.807,46.6869],[78.8179,46.6621],[78.8197,46.6421],[78.8159,46.6386],[78.8085,46.6348],[78.7926,46.6292],[78.7926,46.6218],[78.923,46.63],[78.9324,46.6359],[78.9192,46.6527],[78.9033,46.6609],[78.8641,46.6701],[78.8476,46.6763],[78.7985,46.7304],[78.7685,46.7475],[78.769,46.7663],[78.7796,46.7852],[78.7958,46.7937],[78.82,46.7961],[78.8662,46.8058],[78.888,46.8067],[78.9242,46.7931],[78.9542,46.7699],[78.9872,46.7496],[79.0319,46.7451],[79.0275,46.7537],[79.0266,46.7631],[79.0266,46.7737],[79.0251,46.7863],[79.0166,46.8049],[79.0187,46.812],[79.0319,46.8211],[79.0496,46.8217],[79.1188,46.8161],[79.1385,46.8099],[79.1694,46.7863],[79.1797,46.7763],[79.1912,46.7572],[79.1979,46.7487],[79.2256,46.736],[79.2377,46.7139],[79.2586,46.6627],[79.24,46.623],[79.2221,46.6041],[79.2,46.6112],[79.1832,46.6127],[79.0934,46.6012],[79.079,46.5965],[79.0755,46.5938],[79.0758,46.5879],[79.0681,46.555],[79.0655,46.4949],[79.0614,46.4796],[79.0525,46.464],[79.0257,46.4337]]]}}
