{"type":"Feature","properties":{"id":1005,"name":"Lake Erie","featurecla":"Lake","scalerank":0,"wikidataid":"Q5492","source":"Natural Earth 5.2.0-pre ne_10m_lakes (public domain)"},"geometry":{"type":"Polygon","coordinates":[[[-83.0788,42.3035],[-83.09,42.2852],[-83.0983,42.2629],[-83.1024,42.2434],[-83.113,42.138],[-83.124,42.0901],[-83.1236,42.0721],[-83.1068,42.0556],[-83.0514,42.045],[-83.0232,42.0303],[-83.0108,42.0271],[-82.9895,42.0235],[-82.9837,42.0206],[-82.959,42.0032],[-82.9188,41.9888],[-82.8742,41.9844],[-82.8294,41.9897],[-82.7125,42.0353],[-82.6676,42.0441],[-82.6227,42.038],[-82.5822,42.0168],[-82.5487,41.9873],[-82.5231,41.952],[-82.5066,41.9137],[-82.4991,41.9137],[-82.5022,41.9229],[-82.5066,41.9282],[-82.4991,41.9552],[-82.4867,42.035],[-82.4688,42.0515],[-82.4577,42.0656],[-82.3869,42.126],[-82.37,42.1366],[-82.123,42.2358],[-82.0846,42.2549],[-82.0612,42.2614],[-81.9237,42.2637],[-81.9259,42.2682],[-81.9292,42.2796],[-81.9312,42.2843],[-81.8556,42.3253],[-81.8591,42.3014],[-81.8719,42.2876],[-81.8869,42.2752],[-81.8971,42.2564],[-81.874,42.2505],[-81.8566,42.259],[-81.8457,42.2776],[-81.8375,42.3229],[-81.8188,42.3594],[-81.8145,42.3771],[-81.7932,42.4047],[-81.6569,42.4827],[-81.6353,42.5022],[-81.5674,42.5504],[-81.5505,42.5655],[-81.5402,42.5716],[-81.5053,42.5825],[-81.479,42.6005],[-81.4581,42.609],[-81.4173,42.6202],[-81.3591,42.6494],[-81.229,42.6697],[-80.9325,42.6667],[-80.779,42.6364],[-80.7556,42.6343],[-80.7036,42.6117],[-80.5775,42.5908],[-80.5536,42.5822],[-80.5112,42.5722],[-80.3583,42.5793],[-80.3314,42.5764],[-80.2516,42.5581],[-80.1526,42.5513],[-80.1249,42.5443],[-80.1097,42.5425],[-80.0882,42.5531],[-80.0737,42.5569],[-80.0584,42.5587],[-80.0461,42.5581],[-80.0956,42.5713],[-80.3,42.5825],[-80.3286,42.589],[-80.3411,42.6031],[-80.4434,42.5996],[-80.4538,42.6182],[-80.444,42.6373],[-80.4039,42.6717],[-80.387,42.6794],[-80.3792,42.685],[-80.3704,42.6882],[-80.358,42.6711],[-80.3479,42.6679],[-80.3348,42.6797],[-80.3184,42.7206],[-80.3034,42.7294],[-80.288,42.7356],[-80.2317,42.7777],[-80.1877,42.7924],[-79.8748,42.8324],[-79.8346,42.8324],[-79.7961,42.8454],[-79.775,42.8486],[-79.7348,42.8634],[-79.7173,42.8672],[-79.6957,42.8625],[-79.6429,42.8451],[-79.6251,42.8492],[-79.6062,42.8586],[-79.5791,42.8616],[-79.4955,42.8575],[-79.4845,42.8595],[-79.4761,42.8648],[-79.469,42.8719],[-79.4604,42.8781],[-79.447,42.8807],[-79.3685,42.8731],[-79.2029,42.8801],[-79.1561,42.8734],[-79.113,42.8536],[-79.0949,42.8501],[-79.0872,42.8634],[-79.0766,42.8704],[-78.9654,42.8899],[-78.9435,42.899],[-78.9258,42.9113],[-78.9153,42.9319],[-78.927,42.9458],[-78.9705,42.962],[-79.0198,42.9896],[-79.0422,43.01],[-79.0425,43.0276],[-79.0319,43.0553],[-79.0535,43.0738],[-79.0755,43.0888],[-79.0662,43.1062],[-79.0262,43.0865],[-78.9149,43.0765],[-78.888,43.0515],[-78.8931,43.0294],[-78.928,43.002],[-78.9364,42.9796],[-78.9321,42.9708],[-78.9134,42.9578],[-78.909,42.9523],[-78.9017,42.9081],[-78.8962,42.8972],[-78.875,42.8672],[-78.8694,42.8545],[-78.8675,42.8457],[-78.8675,42.8224],[-78.8709,42.7983],[-78.8806,42.7806],[-78.8959,42.7677],[-78.9159,42.7574],[-78.9939,42.7312],[-79.0313,42.7141],[-79.0593,42.6885],[-79.0803,42.6517],[-79.0964,42.6343],[-79.1177,42.627],[-79.1221,42.6229],[-79.1388,42.5958],[-79.1507,42.5811],[-79.1561,42.5769],[-79.1692,42.5716],[-79.2352,42.5569],[-79.2559,42.5354],[-79.3083,42.5098],[-79.3581,42.4945],[-79.3684,42.4898],[-79.3754,42.4833],[-79.384,42.4739],[-79.3941,42.4657],[-79.4239,42.4545],[-79.4708,42.4071],[-79.5267,42.3838],[-79.5428,42.37],[-79.5601,42.3582],[-79.6284,42.3388],[-79.7035,42.2944],[-79.7315,42.2843],[-79.7518,42.272],[-79.8891,42.2296],[-79.933,42.2055],[-79.9742,42.1954],[-80.0192,42.1672],[-80.0619,42.1554],[-80.111,42.1316],[-80.1355,42.126],[-80.1355,42.1336],[-80.1293,42.138],[-80.1166,42.1513],[-80.1116,42.1539],[-80.0872,42.1545],[-80.0768,42.1581],[-80.0673,42.1672],[-80.0896,42.1743],[-80.1082,42.166],[-80.1244,42.1534],[-80.1496,42.1413],[-80.1626,42.1183],[-80.1732,42.113],[-80.182,42.111],[-80.2107,42.0924],[-80.3758,42.0235],[-80.4393,42.0138],[-80.4543,42.0071],[-80.4702,41.997],[-80.7806,41.919],[-80.8124,41.9017],[-80.8509,41.8975],[-80.8693,41.8934],[-80.8776,41.8884],[-80.8901,41.8766],[-80.896,41.8728],[-80.9317,41.8672],[-80.9572,41.8552],[-81.0262,41.8454],[-81.3484,41.7295],[-81.6722,41.5222],[-81.709,41.5134],[-81.743,41.4975],[-81.7667,41.4954],[-81.7991,41.5081],[-81.8078,41.5096],[-81.8191,41.5055],[-81.8391,41.4922],[-81.8521,41.4893],[-81.8775,41.4901],[-81.9979,41.5119],[-82.0407,41.511],[-82.1732,41.4828],[-82.2509,41.4501],[-82.2943,41.441],[-82.3631,41.4389],[-82.3797,41.4313],[-82.3938,41.421],[-82.4384,41.3992],[-82.4582,41.3936],[-82.5048,41.3957],[-82.5465,41.4116],[-82.6164,41.4545],[-82.6258,41.4589],[-82.6436,41.4651],[-82.6507,41.4687],[-82.6599,41.4778],[-82.6669,41.4863],[-82.6741,41.4925],[-82.6847,41.4954],[-82.6717,41.474],[-82.6298,41.446],[-82.609,41.4277],[-82.6571,41.4542],[-82.6839,41.4645],[-82.709,41.4687],[-82.7209,41.4678],[-82.7365,41.4631],[-82.7462,41.4619],[-82.7596,41.4628],[-82.7674,41.4657],[-82.7877,41.476],[-82.8291,41.4707],[-82.8785,41.4469],[-82.9256,41.4325],[-82.959,41.4545],[-82.9684,41.4475],[-82.9795,41.4436],[-82.9887,41.446],[-82.9926,41.4581],[-83.0023,41.4601],[-83.0615,41.4619],[-83.0453,41.4684],[-83.0091,41.4695],[-82.9926,41.476],[-82.9792,41.4687],[-82.972,41.4728],[-82.9668,41.4819],[-82.959,41.4893],[-82.9499,41.4925],[-82.9397,41.4943],[-82.9144,41.4954],[-82.8675,41.5037],[-82.8454,41.5046],[-82.8218,41.4954],[-82.8001,41.5087],[-82.7664,41.5152],[-82.6984,41.5172],[-82.7047,41.5337],[-82.7109,41.5431],[-82.721,41.5481],[-82.759,41.5517],[-82.7694,41.5508],[-82.7856,41.5437],[-82.7934,41.5481],[-82.7998,41.5546],[-82.8045,41.5581],[-82.8158,41.5749],[-82.8282,41.5864],[-82.8458,41.5917],[-82.8441,41.5861],[-82.8464,41.5735],[-82.851,41.5596],[-82.856,41.5508],[-82.8689,41.542],[-82.8845,41.5364],[-82.9181,41.5308],[-82.9378,41.5314],[-82.9727,41.5414],[-82.9895,41.5437],[-83.0189,41.5537],[-83.07,41.6017],[-83.0956,41.6197],[-83.1222,41.6197],[-83.1561,41.6261],[-83.2185,41.6462],[-83.2448,41.6603],[-83.2915,41.6977],[-83.3148,41.7089],[-83.3261,41.7094],[-83.3495,41.7033],[-83.3663,41.7015],[-83.3817,41.703],[-83.4591,41.7215],[-83.4646,41.7292],[-83.4662,41.7462],[-83.4624,41.7595],[-83.4531,41.7674],[-83.4418,41.7692],[-83.4321,41.7636],[-83.4246,41.7636],[-83.424,41.7901],[-83.4207,41.8104],[-83.4126,41.8275],[-83.3708,41.8775],[-83.3541,41.8896],[-83.3358,41.8872],[-83.3264,41.9149],[-83.3096,41.9352],[-83.2871,41.9435],[-83.2602,41.9343],[-83.254,41.9467],[-83.2528,41.9597],[-83.2572,41.9723],[-83.2669,41.9826],[-83.237,41.9853],[-83.2213,41.9947],[-83.1994,42.038],[-83.1944,42.0306],[-83.1898,42.0253],[-83.1782,42.0168],[-83.1821,42.0238],[-83.1835,42.0297],[-83.1851,42.0441],[-83.188,42.0509],[-83.1973,42.0612],[-83.1994,42.0653],[-83.1969,42.0795],[-83.1911,42.088],[-83.1879,42.0954],[-83.1919,42.1057],[-83.1874,42.1101],[-83.1782,42.126],[-83.1461,42.2328],[-83.1255,42.2684],[-83.0816,42.3091],[-83.0768,42.3044],[-83.0788,42.3035]],[[-78.9644,42.9764],[-78.9127,43.037],[-78.9086,43.0494],[-78.9174,43.0585],[-78.9433,43.0653],[-78.9589,43.0709],[-78.9755,43.0697],[-78.9931,43.0662],[-79.0114,43.0653],[-79.0098,43.0509],[-79.0231,43.017],[-79.022,43.0105],[-79.0119,43.0044],[-78.9981,42.9911],[-78.9817,42.979],[-78.9644,42.9764]],[[-83.1418,42.1372],[-83.1434,42.1949],[-83.1509,42.1887],[-83.1668,42.1325],[-83.1698,42.1024],[-83.1577,42.0924],[-83.1449,42.1077],[-83.1418,42.1372]],[[-82.6227,41.7498],[-82.6287,41.7598],[-82.6443,41.8245],[-82.6443,41.8381],[-82.6775,41.8081],[-82.6844,41.7954],[-82.6858,41.7445],[-82.6835,41.7336],[-82.6748,41.7295],[-82.6623,41.733],[-82.6383,41.7474],[-82.6227,41.7498]]]}}
