{"type":"Feature","properties":{"id":1006,"name":"Lake Huron","featurecla":"Lake","scalerank":0,"wikidataid":"Q1383","source":"Natural Earth 5.2.0-pre ne_10m_lakes (public domain)"},"geometry":{"type":"Polygon","coordinates":[[[-79.6626,44.7579],[-79.7394,44.7546],[-79.7652,44.767],[-79.7764,44.765],[-79.7927,44.7579],[-79.7989,44.7599],[-79.7993,44.7647],[-79.7989,44.7694],[-79.8028,44.7714],[-79.8733,44.7694],[-79.8817,44.7714],[-79.8819,44.7811],[-79.8764,44.795],[-79.8745,44.8076],[-79.8856,44.8129],[-79.9268,44.8129],[-79.9418,44.8147],[-79.9421,44.8191],[-79.9356,44.8256],[-79.93,44.8335],[-79.9253,44.8385],[-79.9185,44.8433],[-79.9157,44.8503],[-79.9234,44.8615],[-79.9341,44.8674],[-79.9475,44.8689],[-79.9859,44.8665],[-80.0057,44.8624],[-80.0158,44.8615],[-80.028,44.8568],[-80.0352,44.8465],[-80.0404,44.8347],[-80.0461,44.8268],[-80.0612,44.8191],[-80.0685,44.8206],[-80.0751,44.8253],[-80.0878,44.8268],[-80.0997,44.8253],[-80.1082,44.8224],[-80.1134,44.8156],[-80.1152,44.8023],[-80.1138,44.7747],[-80.1078,44.7599],[-80.0934,44.752],[-80.0673,44.7441],[-80.0483,44.7349],[-80.0086,44.7084],[-79.9948,44.7031],[-79.9923,44.6928],[-80.0052,44.6275],[-80.0052,44.5489],[-80.013,44.5312],[-80.0311,44.515],[-80.0673,44.4909],[-80.1087,44.4753],[-80.1506,44.4868],[-80.1954,44.5086],[-80.2454,44.525],[-80.3245,44.5315],[-80.3658,44.5524],[-80.4259,44.5592],[-80.4509,44.566],[-80.4952,44.5992],[-80.5123,44.6069],[-80.5358,44.6104],[-80.5573,44.6095],[-80.5775,44.6119],[-80.5981,44.6239],[-80.6163,44.656],[-80.624,44.6905],[-80.6391,44.7184],[-80.6805,44.7299],[-80.7631,44.7193],[-80.8262,44.6905],[-80.9375,44.5933],[-80.9428,44.6287],[-80.889,44.7517],[-80.8974,44.7909],[-80.935,44.8109],[-80.9855,44.8153],[-81.033,44.8062],[-81.078,44.7841],[-81.1191,44.7546],[-81.1273,44.7535],[-81.1315,44.7635],[-81.1313,44.7776],[-81.1262,44.7888],[-81.1179,44.795],[-81.0517,44.8224],[-81.0368,44.8315],[-81.0065,44.8609],[-81.0006,44.8692],[-80.9983,44.8783],[-81.0003,44.8895],[-81.0071,44.911],[-81.0058,44.9224],[-80.9877,44.9401],[-80.9619,44.9572],[-80.9531,44.9707],[-80.9853,44.9775],[-81.0077,44.9751],[-81.0317,44.9663],[-81.0443,44.951],[-81.033,44.9292],[-81.0501,44.9274],[-81.071,44.9104],[-81.0877,44.9086],[-81.087,44.9251],[-81.1054,44.9254],[-81.1491,44.9154],[-81.1491,44.9224],[-81.1262,44.9369],[-81.1129,44.9525],[-81.1169,44.9648],[-81.2009,44.9775],[-81.2045,44.9813],[-81.192,45.0016],[-81.1908,45.011],[-81.2102,45.0181],[-81.2355,45.0078],[-81.2572,45.0019],[-81.2664,45.0216],[-81.2627,45.089],[-81.2664,45.1079],[-81.2806,45.1226],[-81.3013,45.1341],[-81.3199,45.1488],[-81.3279,45.1724],[-81.32,45.1924],[-81.2861,45.22],[-81.2795,45.2374],[-81.3022,45.2524],[-81.6074,45.2521],[-81.6292,45.2577],[-81.6289,45.2716],[-81.6401,45.2786],[-81.65,45.2768],[-81.6706,45.2648],[-81.693,45.2651],[-81.6984,45.2604],[-81.691,45.2445],[-81.7144,45.2389],[-81.719,45.2245],[-81.7103,45.2097],[-81.6944,45.203],[-81.6696,45.2109],[-81.656,45.2109],[-81.65,45.1997],[-81.6441,45.1956],[-81.6138,45.1897],[-81.6016,45.1824],[-81.5955,45.1874],[-81.5749,45.1965],[-81.5771,45.185],[-81.5895,45.1673],[-81.5955,45.1556],[-81.5729,45.1526],[-81.5453,45.1223],[-81.5234,45.1147],[-81.5219,45.1102],[-81.506,45.0873],[-81.4978,45.0799],[-81.4912,45.0782],[-81.4871,45.0749],[-81.4856,45.0626],[-81.4813,45.0578],[-81.4625,45.0505],[-81.4584,45.0425],[-81.4569,45.0355],[-81.4338,44.9901],[-81.427,44.9819],[-81.4241,44.9875],[-81.4217,44.999],[-81.4161,45.0019],[-81.4093,44.9984],[-81.4036,44.991],[-81.3923,44.9996],[-81.3808,45.004],[-81.3703,45.0019],[-81.3627,44.991],[-81.3664,44.9884],[-81.3712,44.9819],[-81.3758,44.9775],[-81.369,44.9781],[-81.3552,44.9772],[-81.3484,44.9775],[-81.3574,44.9551],[-81.3639,44.9204],[-81.3617,44.8889],[-81.3447,44.875],[-81.33,44.8712],[-81.3278,44.8609],[-81.3281,44.8477],[-81.3216,44.8335],[-81.3115,44.8274],[-81.2884,44.8212],[-81.2795,44.8129],[-81.2861,44.7888],[-81.277,44.7535],[-81.2742,44.7205],[-81.3,44.7031],[-81.2794,44.6775],[-81.2703,44.6631],[-81.2664,44.6448],[-81.2703,44.6239],[-81.2801,44.6066],[-81.3792,44.515],[-81.3895,44.4968],[-81.3996,44.457],[-81.4098,44.4423],[-81.4301,44.4344],[-81.4772,44.4282],[-81.4959,44.4185],[-81.5396,44.3661],[-81.5545,44.3537],[-81.5643,44.3499],[-81.5729,44.349],[-81.5807,44.3467],[-81.588,44.3402],[-81.5941,44.3272],[-81.5935,44.3169],[-81.5899,44.3072],[-81.588,44.2957],[-81.5913,44.2798],[-81.6158,44.2233],[-81.6606,44.1583],[-81.7225,44.1171],[-81.7387,44.1],[-81.7427,44.0841],[-81.7292,43.9996],[-81.7115,43.9422],[-81.7106,43.9195],[-81.719,43.8565],[-81.7222,43.6843],[-81.6994,43.5154],[-81.7015,43.4715],[-81.7115,43.4282],[-81.7306,43.3823],[-81.7527,43.3502],[-81.7816,43.3246],[-81.88,43.2566],[-81.9078,43.2484],[-81.9508,43.2275],[-81.9748,43.2257],[-81.9859,43.2234],[-82.0056,43.2125],[-82.0958,43.1192],[-82.1157,43.1062],[-82.1523,43.0894],[-82.3775,43.0223],[-82.4172,43.0173],[-82.4247,43.0241],[-82.4318,43.0394],[-82.4589,43.0832],[-82.4688,43.0924],[-82.476,43.1021],[-82.5265,43.2766],[-82.5472,43.4509],[-82.5796,43.5283],[-82.637,43.8118],[-82.6727,43.8701],[-82.6779,43.8842],[-82.6811,43.9048],[-82.6894,43.9213],[-82.7425,43.9814],[-82.7746,44.0058],[-82.8117,44.0261],[-82.9235,44.07],[-82.9486,44.0726],[-82.9684,44.0703],[-83.0183,44.0582],[-83.0335,44.052],[-83.069,44.0223],[-83.0865,44.014],[-83.1199,44.0111],[-83.1324,44.0078],[-83.1557,43.9937],[-83.1683,43.9905],[-83.2403,43.989],[-83.2501,43.9867],[-83.2582,43.9828],[-83.2669,43.9763],[-83.2968,43.9457],[-83.3017,43.9387],[-83.3159,43.9313],[-83.4048,43.9216],[-83.386,43.9169],[-83.3655,43.9163],[-83.3476,43.9136],[-83.3358,43.9013],[-83.3705,43.8733],[-83.3892,43.8545],[-83.3972,43.8359],[-83.4042,43.8136],[-83.4525,43.7647],[-83.4742,43.7211],[-83.4903,43.7032],[-83.5102,43.7064],[-83.5146,43.7147],[-83.5189,43.7258],[-83.526,43.7323],[-83.5379,43.7267],[-83.6046,43.6514],[-83.6397,43.6237],[-83.6789,43.6081],[-83.7194,43.6137],[-83.761,43.6337],[-83.8119,43.6446],[-83.8322,43.6567],[-83.8817,43.6708],[-83.9044,43.682],[-83.9254,43.7017],[-83.9434,43.7279],[-83.9496,43.7562],[-83.9354,43.7815],[-83.9323,43.7915],[-83.935,43.8248],[-83.9317,43.8398],[-83.9209,43.8509],[-83.9098,43.8598],[-83.9082,43.8686],[-83.9254,43.8807],[-83.8897,43.9584],[-83.8633,43.9899],[-83.8219,44.0043],[-83.81,44.0034],[-83.7879,43.9981],[-83.7747,43.9972],[-83.765,44.0002],[-83.7479,44.009],[-83.7367,44.0111],[-83.7267,44.0099],[-83.7071,44.0052],[-83.6958,44.0043],[-83.6901,44.0096],[-83.6827,44.0358],[-83.6784,44.0452],[-83.6599,44.0532],[-83.6104,44.0549],[-83.5925,44.0626],[-83.5898,44.0729],[-83.5916,44.0853],[-83.5904,44.0956],[-83.5791,44.1],[-83.5725,44.1047],[-83.5697,44.1165],[-83.5641,44.1865],[-83.5541,44.2307],[-83.5324,44.266],[-83.4936,44.2854],[-83.4836,44.2863],[-83.4525,44.2854],[-83.4559,44.2795],[-83.4627,44.2642],[-83.4662,44.2581],[-83.4524,44.2678],[-83.407,44.3102],[-83.3972,44.3228],[-83.3914,44.3263],[-83.3627,44.3269],[-83.3533,44.3296],[-83.3377,44.3455],[-83.3329,44.354],[-83.3284,44.3673],[-83.3214,44.4079],[-83.3148,44.6239],[-83.3103,44.6451],[-83.2914,44.6814],[-83.2874,44.7031],[-83.2899,44.7246],[-83.2996,44.7652],[-83.3036,44.8126],[-83.309,44.8329],[-83.3176,44.8509],[-83.3284,44.8677],[-83.3312,44.8736],[-83.3329,44.8833],[-83.3358,44.888],[-83.3424,44.8924],[-83.3589,44.8989],[-83.3772,44.9139],[-83.4053,44.9277],[-83.4178,44.9366],[-83.4285,44.946],[-83.4346,44.9533],[-83.4375,44.9631],[-83.4382,44.9807],[-83.4415,44.9875],[-83.4487,44.9919],[-83.4562,44.9951],[-83.46,44.9981],[-83.4593,45.0072],[-83.4541,45.011],[-83.4485,45.014],[-83.4456,45.0216],[-83.4435,45.047],[-83.4346,45.0652],[-83.4148,45.0761],[-83.3803,45.0799],[-83.371,45.0758],[-83.3491,45.0549],[-83.3358,45.0464],[-83.3196,45.0417],[-83.3028,45.0396],[-83.2669,45.039],[-83.2763,45.0564],[-83.314,45.0702],[-83.3221,45.0935],[-83.3121,45.0938],[-83.305,45.0961],[-83.3017,45.1011],[-83.3025,45.1079],[-83.3049,45.112],[-83.3074,45.1149],[-83.3084,45.1179],[-83.3098,45.1276],[-83.3173,45.1535],[-83.3221,45.1618],[-83.332,45.1659],[-83.3457,45.1682],[-83.3579,45.1715],[-83.3632,45.1788],[-83.3911,45.2103],[-83.409,45.238],[-83.4115,45.2477],[-83.4095,45.2592],[-83.4038,45.2663],[-83.3836,45.2792],[-83.4225,45.3116],[-83.4653,45.339],[-83.5102,45.3587],[-83.555,45.3672],[-83.5895,45.3657],[-83.6034,45.3672],[-83.6436,45.3799],[-83.658,45.3816],[-83.6746,45.3869],[-83.7002,45.4131],[-83.7194,45.4226],[-83.7307,45.424],[-83.7672,45.4226],[-83.781,45.4246],[-83.8091,45.434],[-83.844,45.4417],[-83.8632,45.4546],[-83.8976,45.4841],[-83.9431,45.5012],[-84.0961,45.5044],[-84.116,45.5118],[-84.1313,45.5268],[-84.1412,45.5453],[-84.1446,45.5627],[-84.1499,45.5786],[-84.1627,45.5945],[-84.1924,45.6218],[-84.2239,45.6424],[-84.2688,45.661],[-84.3182,45.6739],[-84.3637,45.6763],[-84.4584,45.6707],[-84.499,45.6813],[-84.576,45.7305],[-84.7064,45.7787],[-84.7387,45.7999],[-84.7549,45.8046],[-84.7745,45.7999],[-84.7808,45.8623],[-84.7345,45.857],[-84.7064,45.875],[-84.724,45.8824],[-84.7317,45.9015],[-84.7284,45.9227],[-84.7131,45.9365],[-84.7242,45.9433],[-84.7299,45.9527],[-84.7287,45.9645],[-84.7193,45.978],[-84.7059,45.9857],[-84.6953,45.9869],[-84.6884,45.991],[-84.6777,46.0437],[-84.6566,46.0563],[-84.6278,46.0525],[-84.5964,46.0387],[-84.5764,46.0475],[-84.5564,46.0419],[-84.5411,46.0272],[-84.535,46.0086],[-84.5337,45.9954],[-84.5303,45.991],[-84.5214,45.9916],[-84.5166,45.9936],[-84.5016,46.003],[-84.494,46.0054],[-84.4662,45.9848],[-84.4598,46.0063],[-84.4534,46.0136],[-84.3974,46.0086],[-84.3728,45.9954],[-84.3562,45.9916],[-84.3556,45.9939],[-84.3494,45.9986],[-84.3408,46.0033],[-84.3327,46.0054],[-84.3199,46.0033],[-84.2993,45.9939],[-84.2885,45.9916],[-84.223,45.9933],[-84.0223,45.9642],[-84.0143,45.9607],[-84.0036,45.9586],[-83.9944,45.9624],[-83.985,45.9677],[-83.9733,45.9707],[-83.9194,45.9763],[-83.9044,45.9707],[-83.903,45.9819],[-83.8997,45.9919],[-83.8907,46.0116],[-83.908,46.0151],[-83.9211,46.0231],[-83.9328,46.0322],[-83.946,46.0387],[-83.9663,46.0428],[-83.9825,46.0443],[-83.9975,46.0481],[-84.0136,46.0599],[-84.0495,46.0934],[-84.0552,46.1017],[-84.0545,46.1164],[-84.0473,46.1273],[-84.0373,46.137],[-84.028,46.1493],[-84.0421,46.1493],[-84.0535,46.1526],[-84.0757,46.1623],[-84.0823,46.1629],[-84.097,46.1614],[-84.1037,46.1623],[-84.1081,46.1667],[-84.1173,46.1835],[-84.1357,46.1879],[-84.1656,46.1911],[-84.1933,46.1897],[-84.2054,46.18],[-84.2165,46.1741],[-84.2395,46.1906],[-84.2583,46.2126],[-84.2576,46.2238],[-84.2346,46.2291],[-84.2027,46.2503],[-84.1787,46.2518],[-84.1893,46.27],[-84.2148,46.2962],[-84.2198,46.3165],[-84.2245,46.3554],[-84.1775,46.3519],[-84.1787,46.348],[-84.155,46.3457],[-84.143,46.3427],[-84.1226,46.3316],[-84.1175,46.3383],[-84.1172,46.3472],[-84.0833,46.3448],[-84.039,46.3304],[-83.9055,46.333],[-83.8845,46.3413],[-83.883,46.3366],[-83.8771,46.3274],[-83.8733,46.3083],[-83.8325,46.2998],[-83.7473,46.2933],[-83.7132,46.2792],[-83.7007,46.2771],[-83.614,46.2868],[-83.6034,46.2865],[-83.5891,46.2797],[-83.5688,46.258],[-83.5611,46.2518],[-83.5482,46.2509],[-83.5179,46.2586],[-83.5004,46.2591],[-83.3878,46.2347],[-83.3139,46.2271],[-83.244,46.2088],[-83.1785,46.2012],[-83.153,46.1953],[-83.1289,46.1941],[-83.1024,46.2047],[-83.0762,46.1914],[-83.0457,46.1829],[-82.983,46.1767],[-82.9706,46.1788],[-82.9462,46.1876],[-82.9318,46.1903],[-82.7076,46.2003],[-82.6301,46.2238],[-82.6376,46.2103],[-82.6763,46.1917],[-82.691,46.1767],[-82.6686,46.1694],[-82.5365,46.1826],[-82.4742,46.2017],[-82.4445,46.2047],[-82.4445,46.197],[-82.4507,46.1861],[-82.4348,46.1876],[-82.4002,46.197],[-82.337,46.1944],[-82.321,46.197],[-82.317,46.1906],[-82.3148,46.1835],[-82.352,46.1853],[-82.3632,46.1835],[-82.3763,46.1794],[-82.3785,46.1773],[-82.3547,46.1658],[-82.321,46.1561],[-82.3091,46.1558],[-82.2996,46.1579],[-82.2917,46.1608],[-82.2837,46.1623],[-82.2595,46.1605],[-82.2324,46.1549],[-82.2069,46.1455],[-82.1879,46.132],[-82.1776,46.1264],[-82.1554,46.1279],[-82.1351,46.1193],[-82.1249,46.1237],[-82.1163,46.1314],[-82.1093,46.1358],[-82.0871,46.134],[-82.0132,46.1152],[-81.719,46.1078],[-81.719,46.1017],[-81.7667,46.0784],[-81.7814,46.0593],[-81.7742,46.0328],[-81.762,46.0192],[-81.7562,46.0228],[-81.7517,46.0357],[-81.739,46.0551],[-81.7406,46.059],[-81.7443,46.0637],[-81.7462,46.0702],[-81.7417,46.0734],[-81.7115,46.0737],[-81.6819,46.0769],[-81.6694,46.0816],[-81.6644,46.0911],[-81.661,46.1058],[-81.6517,46.1184],[-81.6384,46.1264],[-81.6228,46.1282],[-81.5955,46.1078],[-81.5768,46.1031],[-81.5576,46.1017],[-81.5459,46.0981],[-81.5515,46.0787],[-81.5402,46.0669],[-81.5814,46.0519],[-81.6659,46.0337],[-81.7053,46.0184],[-81.6085,46.0378],[-81.506,46.0463],[-81.5387,46.036],[-81.6114,46.0298],[-81.6426,46.0184],[-81.6255,46.0128],[-81.6066,46.011],[-81.5676,46.0116],[-81.5864,45.9927],[-81.6774,45.9506],[-81.6423,45.9557],[-81.5402,46.0054],[-81.5038,46.0184],[-81.4893,46.0198],[-81.4959,46.0086],[-81.5088,45.9927],[-81.5068,45.9839],[-81.4934,45.9819],[-81.4725,45.9848],[-81.4617,45.9886],[-81.4532,45.993],[-81.4438,45.9966],[-81.4302,45.998],[-81.4177,45.9957],[-81.3955,45.9869],[-81.2613,45.9663],[-81.2271,45.9695],[-81.1953,45.9801],[-81.1634,45.998],[-81.1805,46.0122],[-81.203,46.0086],[-81.2249,45.9966],[-81.2392,45.9848],[-81.246,45.9916],[-81.2155,46.0095],[-81.1794,46.0181],[-81.1562,46.0101],[-81.1634,45.978],[-81.1763,45.9448],[-81.1616,45.9365],[-81.0601,45.9562],[-81.02,45.9568],[-80.9531,45.9442],[-80.9307,45.9439],[-80.9232,45.9462],[-80.9036,45.9548],[-80.9033,45.9568],[-80.893,45.9539],[-80.8779,45.9412],[-80.8693,45.9365],[-80.8515,45.9333],[-80.8342,45.9356],[-80.8185,45.9433],[-80.8065,45.9568],[-80.8024,45.9415],[-80.8012,45.9277],[-80.7979,45.9168],[-80.7873,45.9097],[-80.7873,45.9133],[-80.7826,45.92],[-80.7759,45.9268],[-80.7692,45.9297],[-80.7584,45.9292],[-80.7526,45.9268],[-80.7491,45.9227],[-80.7451,45.9159],[-80.7391,45.9009],[-80.7336,45.8718],[-80.7246,45.8609],[-80.706,45.8547],[-80.6879,45.8538],[-80.6798,45.8517],[-80.6911,45.8409],[-80.6952,45.8423],[-80.7046,45.8444],[-80.7141,45.8438],[-80.7183,45.8373],[-80.7166,45.8288],[-80.7118,45.8252],[-80.7051,45.8235],[-80.6973,45.8197],[-80.6879,45.8176],[-80.679,45.8197],[-80.6725,45.8191],[-80.6684,45.8023],[-80.6649,45.7988],[-80.6605,45.7964],[-80.6569,45.7926],[-80.6505,45.7873],[-80.6416,45.7829],[-80.636,45.7773],[-80.6396,45.7684],[-80.6447,45.7608],[-80.6462,45.7534],[-80.6453,45.7455],[-80.6427,45.7372],[-80.6337,45.7234],[-80.6193,45.7119],[-80.6028,45.7031],[-80.5875,45.6969],[-80.6022,45.6916],[-80.6085,45.6907],[-80.6085,45.6831],[-80.5988,45.6831],[-80.5904,45.6816],[-80.5744,45.6763],[-80.5798,45.6622],[-80.5732,45.6513],[-80.5594,45.6445],[-80.5245,45.6389],[-80.5179,45.6301],[-80.5195,45.6165],[-80.526,45.6006],[-80.5121,45.598],[-80.5087,45.5892],[-80.5092,45.5795],[-80.5061,45.5733],[-80.4928,45.5721],[-80.4808,45.5765],[-80.4693,45.5827],[-80.4578,45.5871],[-80.4456,45.5874],[-80.4337,45.5865],[-80.4237,45.5877],[-80.4167,45.5939],[-80.4163,45.6027],[-80.4216,45.6118],[-80.4372,45.628],[-80.4169,45.6271],[-80.4063,45.6171],[-80.3963,45.5871],[-80.3914,45.5783],[-80.3876,45.5736],[-80.3845,45.5689],[-80.3826,45.5591],[-80.3822,45.5474],[-80.3835,45.5409],[-80.3858,45.5353],[-80.3951,45.497],[-80.3948,45.4811],[-80.3888,45.4635],[-80.361,45.4358],[-80.3548,45.4223],[-80.3689,45.409],[-80.3629,45.399],[-80.3549,45.3908],[-80.3454,45.3846],[-80.3342,45.3816],[-80.3286,45.3955],[-80.328,45.4099],[-80.3323,45.4237],[-80.3411,45.4361],[-80.3302,45.437],[-80.3196,45.4358],[-80.3094,45.4335],[-80.3,45.4299],[-80.3097,45.4158],[-80.3112,45.404],[-80.3068,45.3781],[-80.3002,45.3663],[-80.2847,45.3637],[-80.2553,45.3672],[-80.2437,45.3643],[-80.2294,45.3504],[-80.182,45.3416],[-80.1684,45.3419],[-80.1629,45.3507],[-80.1676,45.359],[-80.1777,45.364],[-80.1873,45.3699],[-80.1902,45.3816],[-80.1838,45.3943],[-80.1714,45.4017],[-80.1424,45.409],[-80.1143,45.4111],[-80.0846,45.4052],[-80.0651,45.3905],[-80.0673,45.3672],[-80.0544,45.3616],[-80.0448,45.3516],[-80.0379,45.3393],[-80.0332,45.3263],[-80.0726,45.2789],[-80.0844,45.2716],[-80.1059,45.2654],[-80.1237,45.2507],[-80.1278,45.2345],[-80.1082,45.2239],[-80.1144,45.2133],[-80.1152,45.2038],[-80.1106,45.1956],[-80.1007,45.1897],[-80.0966,45.1988],[-80.0912,45.2038],[-80.0775,45.2133],[-80.0663,45.218],[-80.0595,45.2115],[-80.0541,45.2018],[-80.0467,45.1965],[-80.0367,45.1962],[-80.0297,45.195],[-80.0242,45.193],[-80.0189,45.1897],[-80.0179,45.1862],[-80.0018,45.1647],[-79.9985,45.1618],[-80.0039,45.137],[-80.0307,45.1276],[-80.067,45.1285],[-80.1007,45.1344],[-80.0956,45.1241],[-80.0881,45.1164],[-80.0785,45.1108],[-80.0673,45.1079],[-80.0748,45.1064],[-80.0779,45.1049],[-80.0809,45.1011],[-80.0737,45.097],[-80.0607,45.0846],[-80.0536,45.0799],[-80.0141,45.0702],[-80.0018,45.0626],[-79.9977,45.0543],[-79.9983,45.0452],[-79.9964,45.0352],[-79.9848,45.0246],[-79.9727,45.0216],[-79.9434,45.0199],[-79.9332,45.0149],[-79.9284,44.9978],[-79.9303,44.9784],[-79.9275,44.961],[-79.9091,44.9495],[-79.8985,44.9519],[-79.8731,44.9631],[-79.868,44.9601],[-79.8629,44.9539],[-79.8511,44.9486],[-79.8376,44.9448],[-79.827,44.9433],[-79.8349,44.9254],[-79.8321,44.9154],[-79.8134,44.9012],[-79.8074,44.8983],[-79.8014,44.8986],[-79.7961,44.8971],[-79.793,44.888],[-79.7964,44.8836],[-79.8051,44.8795],[-79.8148,44.8765],[-79.8209,44.875],[-79.8049,44.8686],[-79.7911,44.8656],[-79.7799,44.8606],[-79.7725,44.8471],[-79.7747,44.8353],[-79.7818,44.8279],[-79.7825,44.8212],[-79.7656,44.8129],[-79.7387,44.8135],[-79.7184,44.8282],[-79.715,44.8488],[-79.7384,44.8677],[-79.6964,44.8848],[-79.6905,44.888],[-79.6819,44.8777],[-79.6797,44.8621],[-79.682,44.8465],[-79.6869,44.8368],[-79.7135,44.8162],[-79.724,44.8023],[-79.721,44.7888],[-79.7059,44.78],[-79.6714,44.7679],[-79.6626,44.7579]],[[-80.1492,44.8615],[-80.1658,44.8715],[-80.2161,44.865],[-80.2379,44.875],[-80.2454,44.8547],[-80.2311,44.8327],[-80.2094,44.8097],[-80.1867,44.7938],[-80.1698,44.7926],[-80.183,44.8073],[-80.1755,44.8259],[-80.1601,44.8447],[-80.1492,44.8615]],[[-81.6978,45.3201],[-81.7077,45.3189],[-81.7152,45.3204],[-81.7209,45.3231],[-81.7258,45.3263],[-81.7293,45.3275],[-81.7327,45.3284],[-81.7358,45.3298],[-81.7387,45.334],[-81.7448,45.3266],[-81.7511,45.3228],[-81.7667,45.3201],[-81.7309,45.301],[-81.7127,45.2998],[-81.6978,45.3201]],[[-81.768,45.4635],[-81.7346,45.4876],[-81.7115,45.5256],[-81.7091,45.5291],[-81.7068,45.5318],[-81.7053,45.5347],[-81.7053,45.5391],[-81.7752,45.5291],[-81.7902,45.5218],[-81.7964,45.5162],[-81.805,45.5106],[-81.8147,45.5062],[-81.8244,45.5044],[-81.8373,45.4823],[-81.8418,45.477],[-81.806,45.4585],[-81.768,45.4635]],[[-81.588,45.7999],[-81.6057,45.8058],[-81.7115,45.7999],[-81.696,45.8182],[-81.6759,45.8373],[-81.6598,45.8597],[-81.6569,45.8885],[-81.6657,45.9053],[-81.6797,45.9088],[-81.6952,45.903],[-81.7536,45.8485],[-81.7648,45.8282],[-81.7872,45.7973],[-81.7935,45.7787],[-81.7922,45.7587],[-81.7892,45.7446],[-81.7919,45.739],[-81.8078,45.7446],[-81.8204,45.7596],[-81.83,45.7684],[-81.8344,45.7684],[-81.8465,45.7917],[-81.8487,45.8032],[-81.8425,45.82],[-81.8298,45.8403],[-81.8198,45.8618],[-81.8213,45.8818],[-81.8412,45.8932],[-81.8983,45.8962],[-81.9102,45.9062],[-81.9049,45.9253],[-81.8962,45.9395],[-81.8946,45.953],[-81.9102,45.9707],[-81.9536,45.988],[-82.0013,45.9848],[-82.048,45.9677],[-82.0883,45.9439],[-82.1011,45.9321],[-82.1143,45.9153],[-82.1249,45.8962],[-82.1292,45.8785],[-82.1398,45.8553],[-82.1607,45.8447],[-82.1763,45.8482],[-82.1709,45.8682],[-82.1872,45.8827],[-82.2074,45.905],[-82.2213,45.9297],[-82.2193,45.9506],[-82.2372,45.9456],[-82.2624,45.9348],[-82.2846,45.9309],[-82.2943,45.9474],[-82.2943,45.9745],[-82.2977,45.9874],[-82.3097,45.9901],[-82.3946,45.9721],[-82.4142,45.9707],[-82.4349,45.9654],[-82.4459,45.9524],[-82.4555,45.9368],[-82.4718,45.9233],[-82.4707,45.9371],[-82.4774,45.9474],[-82.4899,45.9527],[-82.5066,45.9506],[-82.5157,45.9445],[-82.5304,45.9242],[-82.5407,45.9159],[-82.554,45.9124],[-82.5808,45.9088],[-82.5891,45.9024],[-82.5919,45.8888],[-82.5841,45.8812],[-82.5702,45.8771],[-82.5544,45.875],[-82.5563,45.8703],[-82.5596,45.8591],[-82.5619,45.8544],[-82.532,45.8609],[-82.5178,45.8582],[-82.5066,45.847],[-82.5083,45.827],[-82.5229,45.8055],[-82.5397,45.792],[-82.5476,45.7961],[-82.5497,45.8079],[-82.555,45.8185],[-82.568,45.8341],[-82.5749,45.8394],[-82.5858,45.8461],[-82.5981,45.852],[-82.609,45.8544],[-82.6164,45.85],[-82.6262,45.8406],[-82.6371,45.8341],[-82.6474,45.8373],[-82.6532,45.8473],[-82.6561,45.8573],[-82.6599,45.865],[-82.6679,45.8682],[-82.6903,45.8635],[-82.7399,45.8459],[-82.7599,45.847],[-82.7636,45.8526],[-82.7718,45.8759],[-82.7734,45.8853],[-82.7787,45.8915],[-82.8151,45.8988],[-82.8376,45.9159],[-82.8372,45.9312],[-82.8257,45.9483],[-82.8151,45.9707],[-82.8111,45.9842],[-82.8098,45.9927],[-82.8155,45.9969],[-82.8321,45.998],[-82.8445,45.9948],[-82.8588,45.9813],[-82.8666,45.978],[-82.9097,45.9757],[-82.9344,45.9713],[-82.9517,45.9645],[-82.9559,45.9574],[-82.959,45.948],[-82.9645,45.9398],[-82.9758,45.9365],[-82.9961,45.9377],[-83.0039,45.9409],[-83.0069,45.9474],[-83.0127,45.9551],[-83.0266,45.9612],[-83.0428,45.9648],[-83.0553,45.9645],[-83.0653,45.9592],[-83.0703,45.9521],[-83.0746,45.9442],[-83.0819,45.9365],[-83.089,45.9312],[-83.1005,45.925],[-83.1114,45.9253],[-83.1161,45.9401],[-83.1183,45.953],[-83.124,45.9589],[-83.132,45.9621],[-83.1403,45.9674],[-83.1639,45.9757],[-83.1901,45.9663],[-83.2128,45.948],[-83.226,45.9297],[-83.2248,45.8868],[-83.1839,45.8741],[-83.128,45.8738],[-83.0819,45.8682],[-83.0609,45.857],[-83.0551,45.855],[-83.0444,45.8544],[-83.0333,45.8523],[-83.0202,45.8429],[-83.0105,45.8409],[-82.9658,45.84],[-82.949,45.8323],[-82.9517,45.8135],[-82.9216,45.8111],[-82.8918,45.8032],[-82.8645,45.8008],[-82.8425,45.8135],[-82.8319,45.8046],[-82.8213,45.8023],[-82.8093,45.802],[-82.7946,45.7999],[-82.7895,45.7982],[-82.7739,45.789],[-82.7656,45.7879],[-82.7544,45.7979],[-82.7462,45.7999],[-82.7294,45.7896],[-82.7179,45.7852],[-82.7126,45.789],[-82.7078,45.7964],[-82.6964,45.7976],[-82.6838,45.7946],[-82.6748,45.789],[-82.6555,45.774],[-82.6335,45.7661],[-82.5322,45.7502],[-82.5082,45.7411],[-82.4711,45.7122],[-82.4526,45.7051],[-82.3391,45.6948],[-82.3335,45.6893],[-82.3304,45.6813],[-82.3247,45.6728],[-82.3136,45.6678],[-82.3026,45.671],[-82.2914,45.676],[-82.2801,45.6763],[-82.273,45.6704],[-82.2611,45.6501],[-82.2533,45.6422],[-82.2084,45.628],[-82.2022,45.6248],[-82.1841,45.6112],[-82.1742,45.608],[-82.1195,45.6089],[-82.0986,45.6015],[-82.102,45.5809],[-82.0899,45.5812],[-82.08,45.5774],[-82.0728,45.5697],[-82.0684,45.5591],[-82.0587,45.5641],[-82.0491,45.5665],[-82.0268,45.5665],[-82.0159,45.5683],[-82.0104,45.5727],[-82.0066,45.5795],[-81.9941,45.5942],[-81.9898,45.6009],[-81.9844,45.6059],[-81.9374,45.6142],[-81.9046,45.6377],[-81.8749,45.6651],[-81.8416,45.6875],[-81.7972,45.6969],[-81.7897,45.6993],[-81.7804,45.704],[-81.7701,45.7069],[-81.7599,45.7037],[-81.7527,45.6946],[-81.753,45.6857],[-81.7593,45.679],[-81.7886,45.6701],[-81.8131,45.6419],[-81.8469,45.6316],[-81.8616,45.6215],[-81.8862,45.5971],[-81.8996,45.5877],[-81.909,45.5871],[-81.9114,45.5942],[-81.9033,45.608],[-81.9287,45.6024],[-81.9561,45.5915],[-81.9794,45.5768],[-81.9926,45.5591],[-81.9704,45.5577],[-81.948,45.565],[-81.9307,45.5686],[-81.9143,45.5391],[-81.8918,45.5288],[-81.8647,45.5244],[-81.8418,45.5256],[-81.822,45.5329],[-81.8051,45.5456],[-81.7565,45.6006],[-81.7462,45.608],[-81.7355,45.6107],[-81.7237,45.611],[-81.718,45.6133],[-81.7258,45.6218],[-81.7105,45.6463],[-81.65,45.7037],[-81.6644,45.7099],[-81.6217,45.7402],[-81.6126,45.7446],[-81.6048,45.752],[-81.5957,45.7684],[-81.5888,45.787],[-81.588,45.7999]],[[-80.2273,45.2966],[-80.2175,45.2716],[-80.2102,45.2612],[-80.202,45.2524],[-80.1921,45.2465],[-80.1799,45.2445],[-80.1712,45.248],[-80.1609,45.266],[-80.1492,45.2716],[-80.1561,45.258],[-80.0968,45.291],[-80.0741,45.2995],[-80.0809,45.3066],[-80.0756,45.311],[-80.0722,45.316],[-80.0673,45.3263],[-80.0598,45.334],[-80.0695,45.339],[-80.0743,45.3404],[-80.0809,45.3404],[-80.0741,45.3475],[-80.0912,45.3478],[-80.1049,45.3422],[-80.116,45.3331],[-80.1256,45.3234],[-80.1384,45.3186],[-80.1552,45.3213],[-80.1717,45.3275],[-80.1833,45.334],[-80.2213,45.311],[-80.2273,45.2966]],[[-84.3562,45.7855],[-84.3886,45.7929],[-84.401,45.8005],[-84.4052,45.8135],[-84.4201,45.8267],[-84.4248,45.8214],[-84.4264,45.8088],[-84.432,45.7999],[-84.4423,45.8002],[-84.466,45.8108],[-84.532,45.8226],[-84.5592,45.8238],[-84.5827,45.8135],[-84.5689,45.802],[-84.5214,45.772],[-84.4878,45.744],[-84.4735,45.7372],[-84.4557,45.7334],[-84.4347,45.7322],[-84.4142,45.7334],[-84.3979,45.7372],[-84.3854,45.7467],[-84.3671,45.7746],[-84.3562,45.7855]],[[-83.2669,45.9607],[-83.2719,45.9686],[-83.2833,45.9689],[-83.3017,45.9645],[-83.3112,45.9692],[-83.3358,45.9916],[-83.3527,46.0019],[-83.3698,46.0007],[-83.3879,45.9951],[-83.4082,45.9916],[-83.4172,45.9889],[-83.4235,45.9827],[-83.4321,45.9707],[-83.46,45.9506],[-83.4715,45.9392],[-83.4799,45.9271],[-83.4849,45.9124],[-83.4867,45.8921],[-83.4402,45.8918],[-83.4246,45.8885],[-83.3922,45.87],[-83.3761,45.8632],[-83.3533,45.8609],[-83.3376,45.8647],[-83.3217,45.8738],[-83.2813,45.9088],[-83.2728,45.9227],[-83.2682,45.9392],[-83.2669,45.9607]],[[-84.3425,45.9568],[-84.3487,45.9683],[-84.3578,45.976],[-84.3696,45.9795],[-84.3836,45.978],[-84.378,45.9913],[-84.3842,45.9977],[-84.4114,46.0054],[-84.4254,45.9954],[-84.432,45.9916],[-84.432,45.9848],[-84.4241,45.9836],[-84.4201,45.9821],[-84.417,45.9801],[-84.4114,45.978],[-84.4251,45.9707],[-84.4023,45.9621],[-84.3842,45.958],[-84.3425,45.9568]],[[-83.8857,46.1491],[-83.8702,46.1623],[-83.8523,46.157],[-83.832,46.1449],[-83.8152,46.1429],[-83.8021,46.1858],[-83.7903,46.2053],[-83.7824,46.2232],[-83.7877,46.2382],[-83.7955,46.24],[-83.8041,46.2371],[-83.8141,46.2356],[-83.8256,46.2418],[-83.8365,46.2553],[-83.8411,46.263],[-83.843,46.2692],[-83.8498,46.2712],[-83.8907,46.2724],[-83.9,46.2768],[-83.9254,46.2995],[-83.9472,46.3012],[-83.9674,46.3074],[-83.9862,46.3104],[-84.0242,46.2959],[-84.048,46.3004],[-84.0825,46.3133],[-84.102,46.3171],[-84.1063,46.3133],[-84.1098,46.2995],[-84.1092,46.2927],[-84.1064,46.2836],[-84.1029,46.2756],[-84.0998,46.2724],[-84.0776,46.2241],[-84.0688,46.2109],[-84.004,46.1594],[-83.9959,46.1491],[-83.9933,46.1396],[-83.9916,46.1308],[-83.9869,46.1214],[-83.9806,46.1158],[-83.9649,46.1064],[-83.959,46.1017],[-83.9531,46.0902],[-83.9521,46.0813],[-83.9485,46.0758],[-83.9354,46.0737],[-83.9257,46.0769],[-83.9067,46.0914],[-83.901,46.0946],[-83.8929,46.1043],[-83.8857,46.1491]],[[-83.4823,45.9942],[-83.4792,46.0054],[-83.4986,46.0172],[-83.5238,46.0207],[-83.5455,46.0295],[-83.555,46.0566],[-83.562,46.076],[-83.5795,46.0902],[-83.6238,46.1078],[-83.6874,46.1105],[-83.7154,46.1061],[-83.7163,46.0911],[-83.7039,46.0846],[-83.6893,46.0825],[-83.6787,46.0769],[-83.6784,46.0599],[-83.6846,46.0507],[-83.6954,46.0454],[-83.7194,46.0387],[-83.7435,46.0295],[-83.7554,46.0263],[-83.771,46.0251],[-83.7781,46.021],[-83.7935,46.0022],[-83.805,45.998],[-83.8236,46.0063],[-83.8446,46.0213],[-83.8658,46.0263],[-83.8845,46.0054],[-83.8869,45.991],[-83.8816,45.9839],[-83.874,45.9819],[-83.8702,45.9816],[-83.8658,45.9933],[-83.8559,45.9901],[-83.8455,45.981],[-83.8395,45.9742],[-83.8327,45.9686],[-83.8083,45.9568],[-83.8024,45.9459],[-83.8019,45.9439],[-83.7955,45.9445],[-83.785,45.9495],[-83.7809,45.9506],[-83.7436,45.9506],[-83.7338,45.9477],[-83.7225,45.9415],[-83.7113,45.9374],[-83.7024,45.9401],[-83.6796,45.9554],[-83.6577,45.9551],[-83.6163,45.9365],[-83.5926,45.9303],[-83.5632,45.928],[-83.5354,45.9306],[-83.5171,45.9401],[-83.4823,45.9942]],[[-84.1079,46.27],[-84.1216,46.2971],[-84.1424,46.3213],[-84.1583,46.3336],[-84.1845,46.3336],[-84.1921,46.3257],[-84.1931,46.3115],[-84.1992,46.2933],[-84.1803,46.2747],[-84.1627,46.2512],[-84.1419,46.2377],[-84.1135,46.2485],[-84.1079,46.27]],[[-82.7462,45.9365],[-82.712,45.9112],[-82.6576,45.9024],[-82.6048,45.9141],[-82.5755,45.9506],[-82.5783,45.9674],[-82.5931,45.9715],[-82.6127,45.9721],[-82.6301,45.978],[-82.6493,45.9724],[-82.6847,45.9683],[-82.7132,45.9586],[-82.7126,45.9365],[-82.7257,45.9297],[-82.7302,45.9336],[-82.7334,45.9348],[-82.7462,45.9365]],[[-82.2664,46.0328],[-82.2556,46.0213],[-82.2324,46.0083],[-82.2075,45.9986],[-82.1913,45.998],[-82.2031,46.0154],[-82.2105,46.0525],[-82.2255,46.0599],[-82.2387,46.0569],[-82.2468,46.049],[-82.2546,46.0398],[-82.2664,46.0328]],[[-81.9635,46.0325],[-81.9505,46.0181],[-81.9274,46.0116],[-81.9211,46.0095],[-81.9089,46.0004],[-81.9033,45.998],[-81.8975,45.9986],[-81.8887,46.0042],[-81.8828,46.0054],[-81.8456,46.0072],[-81.8344,46.0054],[-81.8253,45.9986],[-81.8188,45.9904],[-81.8117,45.986],[-81.8008,45.9916],[-81.7939,46.0016],[-81.793,46.0113],[-81.7979,46.0198],[-81.8078,46.0251],[-81.7979,46.0416],[-81.7935,46.0463],[-81.8033,46.0581],[-81.8209,46.064],[-81.8385,46.0631],[-81.8487,46.0531],[-81.8556,46.0531],[-81.8719,46.0613],[-81.8952,46.0604],[-81.9411,46.0531],[-81.962,46.0466],[-81.9635,46.0325]]]}}
