{"type":"Feature","properties":{"id":1007,"name":"Lake Ladoga","featurecla":"Lake","scalerank":0,"wikidataid":"Q15288","source":"Natural Earth 5.2.0-pre ne_10m_lakes (public domain)"},"geometry":{"type":"MultiPolygon","coordinates":[[[[30.0883,61.252],[30.1107,61.2593],[30.0824,61.2744],[30.0774,61.2923],[30.0924,61.3076],[30.1242,61.3141],[30.1978,61.3009],[30.2375,61.3011],[30.2614,61.3209],[30.244,61.3247],[30.2084,61.3282],[30.1931,61.3344],[30.226,61.3332],[30.2399,61.3368],[30.2484,61.3482],[30.2231,61.3553],[30.1448,61.355],[30.1636,61.3697],[30.1969,61.3836],[30.2196,61.4004],[30.2069,61.4239],[30.2219,61.4324],[30.2472,61.4539],[30.2649,61.458],[30.3114,61.446],[30.3385,61.4424],[30.3509,61.4513],[30.2649,61.4792],[30.2372,61.4813],[30.2266,61.4887],[30.2255,61.5034],[30.2272,61.5269],[30.2537,61.5172],[30.2687,61.5146],[30.297,61.5199],[30.3161,61.5199],[30.3347,61.5163],[30.3738,61.4963],[30.4159,61.4878],[30.4589,61.4857],[30.488,61.4916],[30.4724,61.5134],[30.4524,61.5337],[30.4745,61.531],[30.498,61.5246],[30.5201,61.5219],[30.5613,61.5405],[30.6199,61.5408],[30.6458,61.5469],[30.5834,61.5784],[30.5758,61.5805],[30.5666,61.582],[30.5593,61.5849],[30.556,61.592],[30.5575,61.602],[30.5616,61.6061],[30.5681,61.6064],[30.5875,61.6011],[30.5958,61.602],[30.602,61.6067],[30.604,61.6155],[30.6075,61.6249],[30.6164,61.6297],[30.6382,61.6361],[30.6505,61.6447],[30.7035,61.6997],[30.8204,61.776],[30.8339,61.7801],[30.8413,61.7786],[30.8495,61.7704],[30.858,61.7665],[30.8937,61.7592],[30.9063,61.7598],[30.8963,61.7527],[30.8648,61.7386],[30.8851,61.7386],[30.9258,61.733],[30.926,61.7324],[30.9905,61.7294],[31.0238,61.7233],[31.0497,61.7112],[31.0626,61.695],[31.0662,61.6771],[31.0632,61.6394],[31.0782,61.6229],[31.1112,61.6135],[31.1439,61.6102],[31.1589,61.6123],[31.166,61.6382],[31.1842,61.6376],[31.2086,61.6305],[31.2345,61.6361],[31.2287,61.647],[31.2289,61.6562],[31.236,61.662],[31.249,61.6635],[31.2604,61.6606],[31.261,61.655],[31.259,61.647],[31.2619,61.6361],[31.2719,61.6214],[31.2834,61.6085],[31.2981,61.5993],[31.3173,61.5952],[31.3164,61.6064],[31.3193,61.6144],[31.3264,61.6199],[31.3376,61.6226],[31.3332,61.6273],[31.3234,61.6423],[31.3379,61.6353],[31.3785,61.6226],[31.4112,61.5937],[31.4344,61.5852],[31.4839,61.5481],[31.5101,61.5349],[31.5221,61.5269],[31.5345,61.5143],[31.5377,61.5057],[31.538,61.4972],[31.5424,61.4854],[31.5516,61.4745],[31.5631,61.4645],[31.5725,61.4539],[31.5766,61.4407],[31.5922,61.4245],[31.6252,61.4059],[31.6522,61.3989],[31.6522,61.4162],[31.6414,61.4283],[31.616,61.441],[31.6046,61.4513],[31.5966,61.4648],[31.5934,61.4784],[31.599,61.486],[31.6178,61.4822],[31.6399,61.4683],[31.7008,61.4104],[31.7308,61.3918],[31.7665,61.3765],[31.8044,61.3659],[31.8568,61.3591],[31.866,61.3521],[31.8824,61.3315],[31.8974,61.3197],[31.9125,61.3123],[32.5085,61.1366],[32.5336,61.1183],[32.5695,61.0813],[32.5816,61.0604],[32.5851,61.0327],[32.5824,61.0168],[32.5789,61.0059],[32.5804,60.9982],[32.5916,60.9918],[32.6086,60.9918],[32.6216,60.9971],[32.6295,60.9956],[32.6325,60.9747],[32.6443,60.9603],[32.7211,60.9026],[32.7785,60.8784],[32.8059,60.8614],[32.8173,60.8378],[32.8062,60.7772],[32.8035,60.746],[32.8141,60.7215],[32.8474,60.7057],[32.8918,60.6968],[32.9327,60.6842],[32.9545,60.6568],[32.9483,60.6288],[32.9257,60.6009],[32.8621,60.5443],[32.8212,60.5155],[32.8094,60.5008],[32.7941,60.471],[32.7832,60.4575],[32.7729,60.4705],[32.7752,60.4822],[32.7797,60.4937],[32.7764,60.5058],[32.7623,60.5134],[32.7208,60.5202],[32.6772,60.544],[32.6378,60.5511],[32.6016,60.5446],[32.5851,60.519],[32.5948,60.4999],[32.6175,60.4749],[32.6428,60.4531],[32.6596,60.4437],[32.6719,60.4395],[32.6805,60.4292],[32.6855,60.4157],[32.6869,60.4028],[32.6822,60.3939],[32.6707,60.3816],[32.6454,60.3612],[32.6295,60.3554],[32.6183,60.3565],[32.6072,60.3601],[32.5916,60.3612],[32.5824,60.3586],[32.578,60.3524],[32.5795,60.343],[32.6225,60.2894],[32.6266,60.2785],[32.6266,60.2635],[32.6234,60.2488],[32.6195,60.2382],[32.5698,60.1908],[32.498,60.1655],[32.2922,60.134],[32.2639,60.1381],[32.2386,60.1528],[32.1768,60.2076],[32.1641,60.2158],[32.1521,60.2149],[32.1397,60.2111],[32.1253,60.2111],[32.1126,60.2155],[32.0956,60.2267],[32.0838,60.2323],[32.0502,60.24],[31.7782,60.2464],[31.7629,60.2494],[31.7485,60.255],[31.7364,60.2585],[31.7314,60.2529],[31.7291,60.2435],[31.7244,60.2353],[31.589,60.167],[31.5704,60.1352],[31.5801,60.1405],[31.5937,60.1458],[31.6057,60.1467],[31.6107,60.1387],[31.6066,60.1293],[31.5969,60.1231],[31.5766,60.1149],[31.546,60.091],[31.541,60.0819],[31.5398,60.0722],[31.5371,60.0622],[31.5289,60.0528],[31.5492,60.0366],[31.5678,60.0101],[31.5772,59.9797],[31.5704,59.9509],[31.5371,59.9271],[31.4836,59.9088],[31.4273,59.9006],[31.3858,59.9059],[31.3711,59.9173],[31.362,59.93],[31.3493,59.9397],[31.3234,59.9435],[31.2713,59.9412],[31.2437,59.9362],[31.2242,59.9265],[31.1869,59.9165],[31.1274,59.92],[31.0712,59.9327],[31.0426,59.9509],[31.0856,59.9586],[31.0974,59.9641],[31.1024,59.9694],[31.1041,59.9821],[31.1074,59.988],[31.1136,59.9918],[31.1283,59.9965],[31.1462,60.0086],[31.1559,60.013],[31.1612,60.0195],[31.1589,60.0321],[31.1506,60.041],[31.1356,60.0501],[31.1186,60.0572],[31.1041,60.0601],[31.0877,60.0686],[31.0947,60.0881],[31.11,60.111],[31.118,60.129],[31.1059,60.1522],[31.0812,60.1646],[31.0285,60.1799],[30.9899,60.2064],[30.962,60.2367],[30.8822,60.3969],[30.8575,60.4351],[30.8236,60.4649],[30.8098,60.4507],[30.7965,60.4404],[30.7833,60.439],[30.7692,60.4507],[30.7624,60.4643],[30.7621,60.479],[30.7668,60.4931],[30.7759,60.5058],[30.7591,60.5208],[30.7279,60.5373],[30.7144,60.5532],[30.7135,60.5579],[30.7135,60.5647],[30.712,60.5723],[30.7062,60.5803],[30.6959,60.5867],[30.534,60.63],[30.5263,60.6397],[30.5284,60.6733],[30.5231,60.6862],[30.4995,60.7133],[30.4942,60.728],[30.4977,60.7374],[30.5072,60.7401],[30.5319,60.7386],[30.536,60.7424],[30.5298,60.7616],[30.5366,60.7834],[30.5363,60.8054],[30.5322,60.8258],[30.5251,60.8349],[30.5166,60.8378],[30.4995,60.8517],[30.491,60.8546],[30.4774,60.8558],[30.4456,60.8628],[30.4327,60.8684],[30.4489,60.8811],[30.4577,60.8858],[30.4668,60.8893],[30.4486,60.8973],[30.3794,60.9526],[30.3632,60.9623],[30.3008,60.9897],[30.2546,61.0327],[30.2346,61.0436],[29.8958,61.1654],[29.8166,61.2096],[29.7957,61.2184],[29.8086,61.2234],[29.8254,61.2243],[29.8422,61.2214],[29.871,61.2052],[29.9126,61.207],[29.929,61.2008],[29.937,61.1916],[29.942,61.1843],[29.9482,61.1778],[29.9596,61.1699],[29.9767,61.1616],[29.9938,61.1557],[30.0112,61.1534],[30.0285,61.1557],[30.0126,61.1881],[30.0014,61.2017],[29.987,61.2111],[29.9591,61.2173],[29.9025,61.2217],[29.8772,61.232],[29.8864,61.2355],[29.8937,61.237],[29.9017,61.2361],[29.9114,61.232],[29.8987,61.2437],[29.8787,61.2508],[29.8369,61.2593],[29.8619,61.2649],[29.8725,61.2785],[29.8787,61.2947],[29.8908,61.3073],[29.9096,61.3067],[30.03,61.2458],[30.0491,61.239],[30.0689,61.237],[30.078,61.2429],[30.0883,61.252]],[[30.8009,61.7174],[30.8027,61.7324],[30.7803,61.7244],[30.7627,61.715],[30.7468,61.703],[30.7309,61.6871],[30.715,61.6612],[30.7256,61.6511],[30.7759,61.65],[30.7921,61.6458],[30.8018,61.6391],[30.8104,61.6308],[30.8236,61.6226],[30.8289,61.6208],[30.8363,61.6202],[30.8398,61.6232],[30.8104,61.6673],[30.7959,61.6806],[30.7759,61.6832],[30.8101,61.6832],[30.8048,61.6879],[30.7968,61.7041],[30.8009,61.7174]],[[30.851,61.6977],[30.8575,61.6803],[30.8742,61.6665],[30.9125,61.65],[30.9049,61.667],[30.9075,61.685],[30.9075,61.7006],[30.8919,61.7112],[30.8996,61.705],[30.8875,61.713],[30.8716,61.7159],[30.8575,61.7118],[30.851,61.6977]],[[30.6505,61.5649],[30.6705,61.5587],[30.6864,61.5611],[30.6794,61.5675],[30.6558,61.5826],[30.6176,61.589],[30.6317,61.5758],[30.6505,61.5649]],[[30.5493,61.5196],[30.564,61.5057],[30.5822,61.4998],[30.6014,61.504],[30.6176,61.5196],[30.6108,61.5269],[30.5652,61.519],[30.5493,61.5196]],[[30.3517,61.4757],[30.3688,61.4683],[30.3871,61.4642],[30.4047,61.4648],[30.3953,61.4728],[30.3844,61.4792],[30.3597,61.4866],[30.3485,61.4878],[30.337,61.4854],[30.3517,61.4757]],[[30.8857,61.3892],[30.9113,61.3662],[30.9552,61.3571],[30.9882,61.3656],[30.9808,61.3959],[30.9879,61.3953],[30.9926,61.3974],[30.9964,61.4004],[31.0011,61.4027],[31.0082,61.4027],[31.0126,61.4068],[31.0182,61.4098],[31.0252,61.4112],[30.9985,61.4192],[30.9602,61.4124],[30.8857,61.3892]],[[31.5289,61.3756],[31.5333,61.3612],[31.546,61.3482],[31.5766,61.3282],[31.6196,61.3064],[31.6449,61.3017],[31.6593,61.3141],[31.6511,61.3276],[31.6334,61.3382],[31.6252,61.3485],[31.6461,61.3618],[31.5969,61.3892],[31.5784,61.3953],[31.5563,61.3992],[31.5374,61.3945],[31.5289,61.3756]],[[31.6661,61.3756],[31.6952,61.3712],[31.7067,61.3659],[31.7144,61.355],[31.7008,61.355],[31.7138,61.3494],[31.7417,61.3429],[31.7553,61.3379],[31.8197,61.3029],[31.8389,61.3],[31.8857,61.3009],[31.8739,61.3082],[31.8492,61.3106],[31.838,61.3141],[31.8327,61.3203],[31.8277,61.3362],[31.8242,61.3412],[31.8012,61.3515],[31.7509,61.3624],[31.7282,61.3756],[31.7205,61.3756],[31.7073,61.3809],[31.6932,61.3833],[31.679,61.3821],[31.6661,61.3756]],[[30.3217,61.3871],[30.3509,61.3892],[30.3358,61.3953],[30.3046,61.3936],[30.2887,61.3959],[30.2961,61.3959],[30.2626,61.398],[30.2511,61.3942],[30.2346,61.383],[30.2608,61.3753],[30.3217,61.3871]],[[29.9803,61.239],[29.9708,61.2467],[29.9326,61.262],[29.9187,61.2649],[29.9114,61.2655],[29.9234,61.2493],[29.9396,61.2417],[29.9591,61.239],[29.9803,61.239]],[[30.6087,60.8985],[30.5919,60.8923],[30.5752,60.8811],[30.5622,60.8684],[30.5911,60.857],[30.6058,60.8602],[30.6137,60.8746],[30.622,60.8967],[30.6087,60.8985]]],[[[30.7965,61.7047],[30.7965,61.705],[30.7968,61.7041],[30.7965,61.7047]]]]}}
