{"type":"Feature","properties":{"id":1008,"name":"Lake Malawi","featurecla":"Lake","scalerank":0,"wikidataid":"Q5532","source":"Natural Earth 5.2.0-pre ne_10m_lakes (public domain)"},"geometry":{"type":"Polygon","coordinates":[[[35.2226,-14.3808],[35.1746,-14.3398],[35.1558,-14.3107],[35.1437,-14.2972],[35.1269,-14.2916],[35.1228,-14.2854],[35.0981,-14.2568],[35.0922,-14.2471],[35.0842,-14.2186],[35.0651,-14.1862],[35.0407,-14.165],[35.0177,-14.1685],[35.013,-14.1629],[35.0012,-14.1532],[34.9965,-14.1473],[34.9641,-14.1553],[34.9418,-14.1276],[34.9332,-14.0861],[34.9421,-14.0517],[34.9285,-14.0437],[34.9064,-14.0213],[34.8935,-14.011],[34.8632,-14.0025],[34.844,-14.0154],[34.8402,-14.0411],[34.8561,-14.0696],[34.8626,-14.0935],[34.8449,-14.117],[34.822,-14.1414],[34.8122,-14.1685],[34.8167,-14.1776],[34.8246,-14.1879],[34.8308,-14.198],[34.829,-14.2062],[34.8178,-14.2133],[34.8137,-14.218],[34.8122,-14.2265],[34.8058,-14.238],[34.7902,-14.2477],[34.7719,-14.2545],[34.7575,-14.2571],[34.7416,-14.2621],[34.7251,-14.271],[34.7092,-14.2748],[34.6948,-14.2648],[34.6927,-14.2501],[34.698,-14.2371],[34.6986,-14.2241],[34.6818,-14.2094],[34.6642,-14.2032],[34.6489,-14.2018],[34.6342,-14.1977],[34.6168,-14.1853],[34.6091,-14.1747],[34.6012,-14.1597],[34.595,-14.1435],[34.5926,-14.1302],[34.5868,-14.1196],[34.5511,-14.079],[34.5461,-14.0649],[34.5291,-13.9786],[34.5341,-13.953],[34.55,-13.9316],[34.5759,-13.9045],[34.5826,-13.893],[34.6,-13.8465],[34.5988,-13.8385],[34.5918,-13.822],[34.5926,-13.8123],[34.5982,-13.805],[34.6153,-13.792],[34.6203,-13.7844],[34.6224,-13.7658],[34.6188,-13.7517],[34.6188,-13.7379],[34.63,-13.7196],[34.6347,-13.7034],[34.6233,-13.6899],[34.6077,-13.6784],[34.6,-13.6681],[34.5941,-13.6543],[34.5647,-13.6284],[34.5511,-13.6136],[34.5382,-13.5857],[34.5305,-13.5739],[34.5173,-13.5651],[34.5017,-13.5636],[34.4705,-13.5751],[34.4519,-13.5783],[34.4381,-13.5742],[34.4284,-13.5642],[34.4201,-13.5518],[34.4007,-13.5292],[34.3795,-13.4838],[34.3251,-13.3958],[34.3124,-13.3631],[34.3089,-13.3299],[34.3215,-13.3016],[34.343,-13.2719],[34.348,-13.2439],[34.3386,-13.1747],[34.3368,-13.0123],[34.3251,-12.9619],[34.3265,-12.9448],[34.3342,-12.9151],[34.3313,-12.901],[34.3283,-12.911],[34.323,-12.9225],[34.3156,-12.9284],[34.308,-12.9216],[34.3056,-12.9095],[34.3118,-12.8863],[34.3112,-12.8733],[34.3,-12.8557],[34.2697,-12.8292],[34.2635,-12.8083],[34.2771,-12.7597],[34.2759,-12.7382],[34.2382,-12.722],[34.2229,-12.7046],[34.202,-12.6676],[34.1864,-12.6216],[34.182,-12.5963],[34.1817,-12.5716],[34.1847,-12.5469],[34.1891,-12.5377],[34.1985,-12.5271],[34.205,-12.5177],[34.2056,-12.5086],[34.202,-12.4862],[34.1711,-12.397],[34.1479,-12.3823],[34.1281,-12.3823],[34.1084,-12.3856],[34.0855,-12.3803],[34.0875,-12.3726],[34.086,-12.3632],[34.0807,-12.3555],[34.0628,-12.3485],[34.0596,-12.3393],[34.059,-12.3282],[34.0575,-12.3184],[34.0395,-12.2705],[34.0304,-12.2057],[34.0301,-12.188],[34.0419,-12.1395],[34.0457,-12.1074],[34.0575,-12.0576],[34.0625,-12.0194],[34.069,-12.002],[34.0816,-11.9858],[34.1953,-11.8998],[34.1829,-11.8795],[34.1829,-11.8504],[34.1908,-11.8204],[34.202,-11.798],[34.2117,-11.7889],[34.2353,-11.7753],[34.2465,-11.7668],[34.25,-11.7615],[34.2535,-11.7491],[34.2574,-11.743],[34.2638,-11.7368],[34.2747,-11.7306],[34.3156,-11.6923],[34.3242,-11.6723],[34.3251,-11.6399],[34.3198,-11.6131],[34.3148,-11.599],[34.308,-11.589],[34.3033,-11.5787],[34.3036,-11.5496],[34.2842,-11.4786],[34.2774,-11.3535],[34.2574,-11.2967],[34.2485,-11.287],[34.2394,-11.2808],[34.2323,-11.2723],[34.2294,-11.2564],[34.2321,-11.2313],[34.2318,-11.221],[34.2262,-11.2116],[34.215,-11.1857],[34.222,-11.1604],[34.2497,-11.1121],[34.2356,-11.0933],[34.2291,-11.0603],[34.2329,-10.9343],[34.2159,-10.7418],[34.202,-10.6877],[34.2026,-10.6721],[34.2088,-10.6376],[34.2091,-10.6255],[34.2008,-10.6088],[34.1891,-10.5935],[34.1832,-10.5779],[34.1914,-10.5605],[34.1985,-10.554],[34.2226,-10.5399],[34.2294,-10.5328],[34.2288,-10.5255],[34.225,-10.5175],[34.2226,-10.509],[34.2209,-10.4775],[34.2265,-10.4684],[34.2432,-10.4542],[34.2518,-10.451],[34.2585,-10.4525],[34.2647,-10.4513],[34.2709,-10.4407],[34.2688,-10.4377],[34.2574,-10.4127],[34.2471,-10.378],[34.2391,-10.3642],[34.2035,-10.3238],[34.1926,-10.3082],[34.1879,-10.2932],[34.1811,-10.2791],[34.1649,-10.265],[34.1334,-10.242],[34.0778,-10.1867],[33.9954,-10.0689],[33.9662,-10.0018],[33.9551,-9.9335],[33.9551,-9.8994],[33.9527,-9.8896],[33.9465,-9.8867],[33.9386,-9.8858],[33.9309,-9.882],[33.9074,-9.8272],[33.8997,-9.7581],[33.9044,-9.7254],[33.9119,-9.718],[33.9283,-9.7003],[33.9283,-9.6935],[33.9431,-9.6839],[33.9513,-9.6736],[33.9549,-9.6606],[33.9556,-9.6423],[33.9626,-9.6121],[33.9645,-9.5947],[33.9459,-9.55],[33.9607,-9.5249],[33.9843,-9.5056],[33.9965,-9.4918],[34.0127,-9.4775],[34.0475,-9.49],[34.0785,-9.5102],[34.0893,-9.5222],[34.1032,-9.5299],[34.1371,-9.5706],[34.1446,-9.5749],[34.1619,-9.5936],[34.1903,-9.6065],[34.2881,-9.7084],[34.3179,-9.7192],[34.3242,-9.7324],[34.3267,-9.7503],[34.3317,-9.7692],[34.3375,-9.7772],[34.3597,-9.7999],[34.3642,-9.8024],[34.3823,-9.8197],[34.3835,-9.8238],[34.4833,-9.9462],[34.4947,-9.9667],[34.5247,-10.0088],[34.5364,-10.043],[34.5378,-10.0539],[34.5357,-10.0653],[34.5268,-10.0849],[34.5247,-10.0948],[34.5324,-10.1289],[34.5656,-10.2027],[34.5751,-10.2558],[34.5834,-10.2776],[34.5856,-10.29],[34.5853,-10.3007],[34.5651,-10.4098],[34.5695,-10.4314],[34.5887,-10.4631],[34.593,-10.4817],[34.5908,-10.4912],[34.5815,-10.5137],[34.5794,-10.5265],[34.5811,-10.5397],[34.5857,-10.5536],[34.5923,-10.5667],[34.6004,-10.5781],[34.6089,-10.582],[34.6176,-10.5815],[34.6244,-10.5834],[34.6272,-10.5951],[34.6263,-10.6143],[34.629,-10.6202],[34.6505,-10.6453],[34.66,-10.6655],[34.6609,-10.6873],[34.6476,-10.7084],[34.6539,-10.7176],[34.6557,-10.722],[34.6599,-10.7277],[34.6664,-10.7324],[34.6724,-10.7395],[34.675,-10.7524],[34.6628,-10.7614],[34.6567,-10.7699],[34.6606,-10.796],[34.6476,-10.8586],[34.6476,-10.9029],[34.6455,-10.9132],[34.6271,-10.9541],[34.5979,-10.991],[34.593,-11.0162],[34.5973,-11.0366],[34.6106,-11.0777],[34.6135,-11.1022],[34.6211,-11.1197],[34.6687,-11.1601],[34.674,-11.17],[34.6771,-11.1787],[34.6818,-11.1851],[34.6999,-11.1895],[34.7079,-11.195],[34.7141,-11.2027],[34.7166,-11.2117],[34.7198,-11.2346],[34.7283,-11.2537],[34.7413,-11.2684],[34.7575,-11.2776],[34.7575,-11.2838],[34.7516,-11.2871],[34.743,-11.2937],[34.737,-11.2968],[34.7591,-11.3375],[34.7656,-11.3451],[34.7722,-11.3444],[34.7849,-11.3335],[34.7923,-11.3309],[34.8005,-11.3319],[34.8437,-11.3463],[34.8679,-11.3588],[34.8866,-11.3754],[34.8941,-11.396],[34.8979,-11.4033],[34.9171,-11.4188],[34.9257,-11.4459],[34.9351,-11.4565],[34.9445,-11.4644],[34.9487,-11.4718],[34.951,-11.4777],[34.9557,-11.4867],[34.9607,-11.4985],[34.963,-11.5131],[34.963,-11.5649],[34.9646,-11.5736],[34.9668,-11.6705],[34.9577,-11.7153],[34.9556,-11.7394],[34.9585,-11.7889],[34.9559,-11.8136],[34.9079,-11.9137],[34.8876,-12.0058],[34.8693,-12.0426],[34.8261,-12.0576],[34.8193,-12.0626],[34.8105,-12.0882],[34.8049,-12.0985],[34.7969,-12.103],[34.7754,-12.1103],[34.7678,-12.1159],[34.7501,-12.1353],[34.7113,-12.1689],[34.6948,-12.188],[34.7104,-12.208],[34.716,-12.2366],[34.7136,-12.2666],[34.7001,-12.3181],[34.7083,-12.3791],[34.7092,-12.407],[34.7057,-12.4123],[34.6918,-12.4218],[34.6886,-12.4274],[34.6907,-12.435],[34.7001,-12.4474],[34.7057,-12.4697],[34.7198,-12.493],[34.723,-12.5021],[34.7269,-12.5092],[34.7537,-12.5442],[34.7654,-12.5666],[34.7693,-12.5781],[34.7737,-12.6078],[34.7816,-12.6184],[34.7905,-12.6278],[34.7987,-12.6399],[34.8122,-12.6949],[34.8187,-12.7011],[34.8231,-12.7067],[34.8255,-12.7149],[34.824,-12.7202],[34.8181,-12.7376],[34.7963,-12.7782],[34.7881,-12.7877],[34.784,-12.798],[34.7775,-12.8459],[34.7604,-12.8818],[34.7569,-12.8936],[34.7548,-12.9219],[34.7566,-12.9431],[34.7634,-12.9634],[34.8064,-13.0485],[34.8158,-13.0847],[34.8087,-13.1097],[34.7972,-13.1365],[34.8011,-13.1727],[34.8093,-13.2092],[34.8122,-13.2363],[34.7946,-13.2807],[34.7916,-13.2981],[34.7946,-13.3157],[34.8019,-13.3287],[34.8261,-13.3531],[34.8593,-13.374],[34.8629,-13.3829],[34.8623,-13.389],[34.8602,-13.3943],[34.8593,-13.4005],[34.8661,-13.4703],[34.8646,-13.4888],[34.8549,-13.5215],[34.8526,-13.5374],[34.8593,-13.6027],[34.8523,-13.6669],[34.8573,-13.6931],[34.8799,-13.7161],[34.8988,-13.7249],[34.9135,-13.7267],[35.0171,-13.7234],[35.0548,-13.7305],[35.0689,-13.7493],[35.0742,-13.7776],[35.086,-13.8123],[35.0972,-13.8282],[35.1098,-13.8429],[35.1134,-13.8494],[35.1146,-13.8662],[35.1216,-13.8889],[35.1249,-13.908],[35.1269,-13.9424],[35.1346,-13.971],[35.1702,-14.0249],[35.1814,-14.0517],[35.1808,-14.0673],[35.1775,-14.0837],[35.1767,-14.1005],[35.1849,-14.117],[35.2164,-14.1647],[35.2205,-14.2006],[35.2305,-14.2306],[35.2717,-14.3125],[35.2879,-14.3363],[35.2879,-14.3463],[35.2823,-14.3637],[35.2747,-14.3802],[35.2676,-14.3875],[35.26,-14.3902],[35.2453,-14.4005],[35.2361,-14.4014],[35.2311,-14.3975],[35.2273,-14.3911],[35.2246,-14.3846],[35.2226,-14.3808]],[[34.7024,-12.0779],[34.7083,-12.0838],[34.7178,-12.0906],[34.7289,-12.0935],[34.7398,-12.0888],[34.7442,-12.0762],[34.7404,-12.0635],[34.741,-12.0523],[34.7569,-12.0438],[34.7289,-12.0303],[34.7183,-12.0388],[34.7107,-12.0662],[34.7024,-12.0779]]]}}
