{"type":"Feature","properties":{"id":1009,"name":"Lake Michigan","featurecla":"Lake","scalerank":0,"wikidataid":"Q1169","source":"Natural Earth 5.2.0-pre ne_10m_lakes (public domain)"},"geometry":{"type":"Polygon","coordinates":[[[-84.7854,45.7908],[-84.7926,45.7799],[-84.8029,45.7705],[-84.8229,45.7652],[-84.9564,45.7696],[-84.9944,45.7787],[-84.9944,45.772],[-84.98,45.7634],[-84.9454,45.7372],[-84.9424,45.7316],[-84.9551,45.7258],[-84.9944,45.6831],[-85.054,45.651],[-85.0823,45.6313],[-85.1036,45.6006],[-85.1105,45.5639],[-85.1042,45.5271],[-85.089,45.4947],[-85.0695,45.4708],[-85.0381,45.4464],[-85.0212,45.439],[-84.9301,45.429],[-84.9111,45.4226],[-84.9357,45.3958],[-84.9859,45.3828],[-85.0418,45.3793],[-85.1302,45.3834],[-85.1744,45.3769],[-85.3344,45.3157],[-85.3678,45.2936],[-85.3916,45.2648],[-85.3993,45.2271],[-85.378,45.1011],[-85.3927,45.0099],[-85.4242,44.9301],[-85.4686,44.8586],[-85.5347,44.7744],[-85.5434,44.7673],[-85.5555,44.7652],[-85.5659,44.7691],[-85.5699,44.7764],[-85.5675,44.7859],[-85.5531,44.8038],[-85.5502,44.8144],[-85.5491,44.8368],[-85.5456,44.8438],[-85.5219,44.8615],[-85.5097,44.8798],[-85.5011,44.9007],[-85.4961,44.9233],[-85.4947,44.9466],[-85.4925,44.9581],[-85.4826,44.9701],[-85.4804,44.9807],[-85.4848,44.9931],[-85.4957,45.001],[-85.5092,45.0028],[-85.5219,44.9981],[-85.5273,44.9887],[-85.5316,44.9734],[-85.5356,44.9466],[-85.5391,44.9348],[-85.548,44.9257],[-85.5697,44.9086],[-85.5616,44.9077],[-85.5424,44.9012],[-85.5512,44.8918],[-85.5728,44.8798],[-85.5771,44.8715],[-85.5818,44.8421],[-85.5871,44.8268],[-85.6009,44.8123],[-85.6037,44.797],[-85.6101,44.787],[-85.628,44.7956],[-85.636,44.8053],[-85.6536,44.8341],[-85.6595,44.8544],[-85.6455,44.8851],[-85.6071,44.9495],[-85.6027,44.9639],[-85.6039,44.9775],[-85.6105,44.9881],[-85.619,44.9907],[-85.6454,44.9837],[-85.6374,45.0013],[-85.623,45.0246],[-85.6051,45.0446],[-85.5868,45.0531],[-85.5792,45.0614],[-85.5855,45.0802],[-85.6039,45.1147],[-85.6034,45.1441],[-85.5887,45.1544],[-85.5712,45.1576],[-85.5628,45.1656],[-85.5555,45.1818],[-85.5429,45.1997],[-85.5404,45.2133],[-85.5628,45.2165],[-85.5902,45.1965],[-85.6049,45.1953],[-85.6179,45.1959],[-85.6299,45.1944],[-85.642,45.1859],[-85.6932,45.1147],[-85.7087,45.1011],[-85.7524,45.0711],[-85.7615,45.0626],[-85.7668,45.0452],[-85.8194,44.9651],[-85.8314,44.9542],[-85.8472,44.9495],[-85.8641,44.9539],[-85.8943,44.9731],[-85.9091,44.9775],[-85.9168,44.9784],[-85.9292,44.9828],[-85.9368,44.9837],[-85.9471,44.9816],[-85.9501,44.9766],[-85.9506,44.9701],[-85.9539,44.9639],[-85.9889,44.923],[-86.0011,44.9154],[-86.0094,44.9154],[-86.0166,44.9177],[-86.0228,44.9207],[-86.0284,44.9224],[-86.0597,44.9224],[-86.0765,44.9165],[-86.0808,44.903],[-86.0768,44.8715],[-86.0899,44.782],[-86.0835,44.7652],[-86.0924,44.7535],[-86.1031,44.7473],[-86.1162,44.7449],[-86.1321,44.7441],[-86.1418,44.7452],[-86.1582,44.7508],[-86.1661,44.7517],[-86.173,44.7491],[-86.1892,44.7393],[-86.2262,44.7308],[-86.2547,44.7134],[-86.2696,44.6884],[-86.2587,44.6587],[-86.2416,44.6345],[-86.2338,44.6101],[-86.2341,44.5854],[-86.2524,44.5189],[-86.2587,44.508],[-86.2637,44.4956],[-86.264,44.4638],[-86.2686,44.45],[-86.2541,44.4176],[-86.2675,44.3746],[-86.2917,44.3355],[-86.3373,44.2757],[-86.3811,44.1983],[-86.4126,44.1618],[-86.4887,44.1126],[-86.5183,44.0832],[-86.5219,44.0452],[-86.5114,44.029],[-86.4809,43.999],[-86.4695,43.9772],[-86.4594,43.9681],[-86.4527,43.9581],[-86.4615,43.9351],[-86.4599,43.9237],[-86.4536,43.9081],[-86.4368,43.8221],[-86.4419,43.785],[-86.4673,43.7512],[-86.522,43.6991],[-86.5397,43.6667],[-86.5429,43.6275],[-86.5357,43.6057],[-86.5135,43.5701],[-86.5049,43.5395],[-86.3563,43.2581],[-86.3374,43.2434],[-86.3248,43.2543],[-86.2555,43.2705],[-86.2612,43.2569],[-86.2768,43.2434],[-86.2961,43.2331],[-86.313,43.229],[-86.3271,43.2228],[-86.324,43.2072],[-86.2727,43.1033],[-86.264,43.0635],[-86.253,43.0391],[-86.2396,43.0164],[-86.2276,43.0038],[-86.2272,42.9996],[-86.2281,42.997],[-86.2297,42.9964],[-86.2276,42.9964],[-86.2309,42.9955],[-86.2335,42.9955],[-86.2348,42.9943],[-86.2344,42.9899],[-86.2223,42.9643],[-86.2192,42.7094],[-86.2731,42.4719],[-86.3024,42.3968],[-86.3789,42.2552],[-86.4926,42.1295],[-86.603,41.9402],[-86.6565,41.8761],[-86.721,41.8245],[-86.7807,41.7986],[-86.7899,41.7875],[-86.8012,41.7772],[-87.0296,41.6812],[-87.2017,41.635],[-87.2919,41.6279],[-87.3858,41.64],[-87.4077,41.6462],[-87.4231,41.6538],[-87.4301,41.6668],[-87.4267,41.688],[-87.4588,41.6785],[-87.4937,41.698],[-87.5776,41.7886],[-87.5947,41.8201],[-87.6185,41.8934],[-87.6484,41.9446],[-87.6613,42.033],[-87.6671,42.0515],[-87.6756,42.0706],[-87.6806,42.0786],[-87.6875,42.0851],[-87.723,42.0968],[-87.7285,42.1021],[-87.7327,42.1083],[-87.7421,42.116],[-87.7516,42.1251],[-87.7558,42.1366],[-87.7579,42.1472],[-87.763,42.1572],[-87.7969,42.2057],[-87.8128,42.2402],[-87.8225,42.2793],[-87.8262,42.355],[-87.8246,42.3662],[-87.821,42.3744],[-87.8163,42.3794],[-87.8122,42.3853],[-87.8035,42.4827],[-87.8104,42.5687],[-87.8081,42.5784],[-87.8041,42.5893],[-87.8023,42.6002],[-87.8103,42.6176],[-87.8119,42.6305],[-87.8118,42.6441],[-87.8104,42.6535],[-87.8015,42.672],[-87.7804,42.7041],[-87.7701,42.7715],[-87.7713,42.7898],[-87.7831,42.8118],[-87.8246,42.8528],[-87.8344,42.8669],[-87.8383,42.8772],[-87.8412,42.9584],[-87.8493,42.9817],[-87.8656,43.0038],[-87.893,43.0094],[-87.9005,43.0226],[-87.8957,43.0403],[-87.8752,43.0759],[-87.8727,43.0838],[-87.8718,43.0962],[-87.8762,43.1021],[-87.8954,43.1142],[-87.8998,43.1239],[-87.8958,43.1465],[-87.8884,43.1621],[-87.8851,43.178],[-87.8929,43.2025],[-87.902,43.2201],[-87.9061,43.2316],[-87.9073,43.2672],[-87.8787,43.3429],[-87.8718,43.3735],[-87.8079,43.4662],[-87.7934,43.506],[-87.8035,43.538],[-87.7985,43.5619],[-87.7876,43.5816],[-87.726,43.6626],[-87.7005,43.7094],[-87.708,43.7161],[-87.7023,43.7267],[-87.7034,43.7297],[-87.708,43.7373],[-87.6993,43.7476],[-87.6962,43.7568],[-87.697,43.7668],[-87.7005,43.7782],[-87.7227,43.8071],[-87.7248,43.8118],[-87.7321,43.8233],[-87.733,43.8489],[-87.7243,43.9254],[-87.7209,43.9354],[-87.7033,43.9572],[-87.7005,43.9663],[-87.6977,43.9914],[-87.6902,44.0123],[-87.6376,44.1003],[-87.6223,44.1173],[-87.6075,44.1265],[-87.5502,44.1483],[-87.5311,44.1618],[-87.5136,44.1792],[-87.5006,44.1989],[-87.4958,44.2204],[-87.5019,44.2363],[-87.5429,44.2781],[-87.5502,44.3128],[-87.548,44.3243],[-87.5387,44.344],[-87.5334,44.3593],[-87.5195,44.3805],[-87.5161,44.3908],[-87.5139,44.4138],[-87.4855,44.5262],[-87.466,44.5701],[-87.4404,44.6069],[-87.3924,44.651],[-87.3826,44.6708],[-87.3686,44.6875],[-87.3654,44.6925],[-87.3639,44.704],[-87.3604,44.7158],[-87.3293,44.7814],[-87.328,44.8035],[-87.348,44.8129],[-87.3714,44.8188],[-87.3904,44.8332],[-87.4194,44.8677],[-87.4501,44.8862],[-87.4729,44.8765],[-87.4933,44.8642],[-87.5161,44.875],[-87.5546,44.8453],[-87.5702,44.8374],[-87.5646,44.8547],[-87.5897,44.8559],[-87.6176,44.8444],[-87.6431,44.8274],[-87.6602,44.8129],[-87.6962,44.7723],[-87.7285,44.7237],[-87.7195,44.7084],[-87.7304,44.6919],[-87.747,44.6769],[-87.7558,44.6652],[-87.7672,44.6566],[-87.8383,44.6343],[-87.8828,44.6104],[-87.9043,44.5936],[-87.9135,44.5766],[-87.9224,44.553],[-87.9444,44.5424],[-87.9713,44.5412],[-87.9953,44.5454],[-88.0125,44.5539],[-88.0327,44.5677],[-88.0434,44.5807],[-88.0333,44.5866],[-88.0243,44.6163],[-88.0203,44.6384],[-88.0149,44.6472],[-88.0081,44.654],[-87.9987,44.6669],[-87.9919,44.6708],[-87.9891,44.6752],[-87.995,44.6905],[-87.9953,44.6964],[-87.9884,44.7202],[-87.9826,44.7293],[-87.9717,44.7405],[-87.9498,44.7549],[-87.9388,44.7641],[-87.9339,44.775],[-87.932,44.7861],[-87.927,44.7988],[-87.9204,44.8109],[-87.9135,44.8206],[-87.8584,44.8665],[-87.8408,44.8936],[-87.8519,44.9224],[-87.8229,44.9492],[-87.7772,44.9631],[-87.6875,44.9775],[-87.6662,44.9843],[-87.6485,44.9934],[-87.6366,45.0072],[-87.6322,45.0284],[-87.6334,45.0499],[-87.6326,45.0611],[-87.6291,45.0693],[-87.6025,45.0985],[-87.5982,45.1079],[-87.6069,45.1523],[-87.6036,45.1735],[-87.5604,45.1909],[-87.3449,45.4226],[-87.3395,45.4335],[-87.333,45.4579],[-87.3278,45.4673],[-87.3082,45.4829],[-87.2999,45.4911],[-87.2822,45.5391],[-87.2712,45.5547],[-87.2363,45.593],[-87.2127,45.6104],[-87.1736,45.6689],[-87.1553,45.6798],[-87.1118,45.6904],[-87.0944,45.7001],[-87.08,45.7322],[-87.0773,45.7343],[-87.0711,45.7787],[-87.0563,45.8182],[-87.0427,45.8385],[-87.0261,45.847],[-87.0182,45.8582],[-86.9995,45.9094],[-86.988,45.9233],[-86.9708,45.9233],[-86.9649,45.9127],[-86.9655,45.8988],[-86.9681,45.8885],[-86.9759,45.8753],[-86.9965,45.8523],[-87.0023,45.8409],[-87.0021,45.8229],[-86.9958,45.8088],[-86.9877,45.7967],[-86.9817,45.7855],[-86.9799,45.7687],[-86.988,45.7208],[-86.9837,45.7049],[-86.9743,45.6931],[-86.9649,45.6898],[-86.9606,45.7001],[-86.9525,45.7069],[-86.9142,45.716],[-86.8883,45.719],[-86.8714,45.724],[-86.857,45.7313],[-86.8508,45.7408],[-86.8439,45.7564],[-86.8172,45.7852],[-86.8172,45.7999],[-86.8047,45.8061],[-86.7955,45.8132],[-86.7881,45.8223],[-86.7825,45.8341],[-86.7919,45.8553],[-86.7791,45.8653],[-86.7568,45.8682],[-86.7384,45.8682],[-86.7019,45.8494],[-86.6774,45.8423],[-86.6555,45.8509],[-86.6415,45.8644],[-86.6269,45.8747],[-86.6105,45.8827],[-86.5907,45.8885],[-86.57,45.8924],[-86.5572,45.8903],[-86.5476,45.8824],[-86.5361,45.8682],[-86.5688,45.8023],[-86.5665,45.7926],[-86.5632,45.7902],[-86.562,45.7855],[-86.5632,45.7808],[-86.5665,45.7787],[-86.5738,45.7799],[-86.5872,45.7846],[-86.5941,45.7855],[-86.6183,45.7855],[-86.6286,45.7846],[-86.6297,45.7817],[-86.6286,45.7773],[-86.6337,45.7684],[-86.6374,45.7558],[-86.6392,45.7517],[-86.6425,45.7499],[-86.648,45.7496],[-86.654,45.7484],[-86.659,45.7446],[-86.6695,45.7157],[-86.6764,45.7069],[-86.7089,45.6848],[-86.7123,45.6737],[-86.7005,45.6554],[-86.6899,45.6448],[-86.659,45.628],[-86.6422,45.6163],[-86.6318,45.6104],[-86.6218,45.608],[-86.6113,45.6127],[-86.611,45.6233],[-86.6153,45.6339],[-86.618,45.6389],[-86.6191,45.6439],[-86.6243,45.653],[-86.6255,45.6589],[-86.6225,45.6666],[-86.6159,45.6678],[-86.6085,45.6672],[-86.6037,45.6689],[-86.5841,45.7049],[-86.569,45.7187],[-86.5372,45.7269],[-86.532,45.734],[-86.5298,45.744],[-86.5294,45.7552],[-86.5244,45.762],[-86.5124,45.764],[-86.4883,45.7652],[-86.4474,45.7787],[-86.4415,45.7835],[-86.4331,45.7949],[-86.4263,45.7999],[-86.4115,45.8032],[-86.3739,45.8067],[-86.3579,45.8135],[-86.3505,45.8197],[-86.3579,45.8267],[-86.3314,45.8832],[-86.2981,45.9265],[-86.2519,45.9545],[-86.0799,45.9736],[-86.042,45.9707],[-85.9783,45.9551],[-85.9191,45.9297],[-85.9233,45.953],[-85.9159,45.968],[-85.8975,45.9757],[-85.7902,45.9869],[-85.6619,45.9848],[-85.6446,45.9916],[-85.631,46.0072],[-85.6107,46.0387],[-85.5457,46.0981],[-85.5253,46.107],[-85.4455,46.1017],[-85.4146,46.114],[-85.4052,46.1152],[-85.3941,46.1102],[-85.3821,46.1017],[-85.3704,46.0955],[-85.3604,46.0981],[-85.3395,46.1093],[-85.3182,46.1037],[-85.2817,46.0805],[-85.2609,46.0752],[-85.1929,46.0737],[-85.1706,46.0693],[-85.1179,46.0463],[-85.021,46.0251],[-85.0041,46.0145],[-84.9683,45.9842],[-84.9561,45.978],[-84.9467,45.9715],[-84.9251,45.943],[-84.9148,45.9365],[-84.8949,45.9348],[-84.8714,45.9283],[-84.8518,45.9168],[-84.8435,45.8988],[-84.8244,45.8803],[-84.7808,45.8623],[-84.7745,45.7999],[-84.7854,45.7908]],[[-86.9817,45.2445],[-86.9881,45.2539],[-86.9917,45.2624],[-86.9918,45.2707],[-86.988,45.2792],[-86.983,45.2922],[-86.99,45.2957],[-87.0154,45.2922],[-87.0458,45.2925],[-87.0576,45.2966],[-87.0711,45.3066],[-87.0782,45.2995],[-87.082,45.2927],[-87.0838,45.2848],[-87.0842,45.2754],[-87.0879,45.2698],[-87.0965,45.268],[-87.1056,45.2671],[-87.1115,45.2648],[-87.1287,45.2206],[-87.1313,45.2065],[-87.139,45.1971],[-87.1727,45.188],[-87.1803,45.1788],[-87.1874,45.1682],[-87.2035,45.1691],[-87.2217,45.1741],[-87.235,45.1756],[-87.2485,45.1662],[-87.2594,45.1503],[-87.2664,45.1311],[-87.271,45.0982],[-87.276,45.0885],[-87.2896,45.0731],[-87.2903,45.069],[-87.2887,45.057],[-87.2896,45.0531],[-87.2941,45.0522],[-87.3057,45.054],[-87.31,45.0531],[-87.3687,45.0004],[-87.3932,44.9648],[-87.4063,44.9224],[-87.3992,44.8827],[-87.3739,44.845],[-87.3374,44.8203],[-87.2965,44.8206],[-87.2804,44.8303],[-87.2316,44.8783],[-87.2245,44.888],[-87.2192,44.9071],[-87.2145,44.9154],[-87.2051,44.9218],[-87.1834,44.9295],[-87.1736,44.9366],[-87.1971,44.9548],[-87.1842,44.9863],[-87.1388,45.039],[-87.1297,45.0602],[-87.1227,45.0693],[-87.1115,45.0731],[-87.1044,45.0711],[-87.0954,45.0676],[-87.0875,45.0658],[-87.0842,45.0693],[-87.0853,45.0882],[-87.0835,45.092],[-87.0773,45.1011],[-87.0719,45.1041],[-87.0641,45.1046],[-87.0563,45.1064],[-87.0495,45.1147],[-87.0879,45.1426],[-87.0978,45.1556],[-87.0841,45.16],[-87.0711,45.1585],[-87.0432,45.1488],[-87.046,45.1582],[-87.0549,45.1726],[-87.0569,45.1824],[-87.0551,45.1924],[-87.0432,45.2239],[-87.0473,45.2303],[-87.0551,45.2359],[-87.057,45.2409],[-87.0432,45.2445],[-87.033,45.2421],[-86.9948,45.2239],[-86.9817,45.2445]],[[-85.4878,45.6501],[-85.4981,45.6781],[-85.5009,45.6937],[-85.4991,45.7049],[-85.4961,45.7155],[-85.4957,45.726],[-85.5009,45.7372],[-85.506,45.7452],[-85.505,45.7525],[-85.4986,45.7593],[-85.4878,45.7652],[-85.5039,45.7702],[-85.5391,45.7737],[-85.5555,45.7787],[-85.5559,45.7602],[-85.5581,45.7475],[-85.5624,45.7366],[-85.5697,45.7243],[-85.5783,45.7137],[-85.5874,45.7046],[-85.5946,45.6943],[-85.6059,45.6513],[-85.6204,45.6313],[-85.6251,45.6151],[-85.6042,45.5971],[-85.573,45.5915],[-85.5362,45.5986],[-85.5042,45.6145],[-85.4878,45.6354],[-85.4878,45.6501]],[[-85.4455,45.8061],[-85.447,45.8132],[-85.4527,45.8138],[-85.4604,45.8123],[-85.4673,45.8135],[-85.4822,45.8238],[-85.5009,45.8341],[-85.5045,45.8353],[-85.5079,45.8356],[-85.5112,45.8367],[-85.5144,45.8409],[-85.5184,45.8202],[-85.506,45.8049],[-85.4853,45.7955],[-85.4635,45.7926],[-85.4577,45.7938],[-85.4521,45.7973],[-85.4476,45.802],[-85.4455,45.8061]],[[-85.8274,45.4161],[-85.8354,45.4326],[-85.8503,45.447],[-85.8703,45.4605],[-85.8748,45.4629],[-85.8794,45.4626],[-85.885,45.4573],[-85.8416,45.4043],[-85.8335,45.3987],[-85.8274,45.4161]],[[-86.0768,45.0464],[-86.0865,45.0472],[-86.0953,45.0496],[-86.1036,45.0537],[-86.1109,45.0593],[-86.1293,45.0549],[-86.1436,45.0417],[-86.1502,45.0252],[-86.1457,45.011],[-86.1237,45.0016],[-86.1061,45.0128],[-86.0911,45.0319],[-86.0768,45.0464]],[[-86.8529,45.4037],[-86.8645,45.4158],[-86.8835,45.4167],[-86.9029,45.4111],[-86.9204,45.4096],[-86.9334,45.4226],[-86.9438,45.4308],[-86.9525,45.4231],[-86.9585,45.4075],[-86.9606,45.3919],[-86.9566,45.3663],[-86.96,45.3575],[-86.9743,45.3475],[-86.9646,45.3428],[-86.9518,45.3434],[-86.927,45.3475],[-86.8645,45.3404],[-86.8692,45.3504],[-86.8719,45.3543],[-86.8621,45.3699],[-86.854,45.3872],[-86.8529,45.4037]],[[-85.9882,45.097],[-85.9857,45.1088],[-85.9774,45.1217],[-85.9743,45.1344],[-85.9817,45.1464],[-85.9942,45.1544],[-86.0089,45.1609],[-86.0222,45.1691],[-86.0378,45.1685],[-86.0488,45.1612],[-86.0631,45.142],[-86.0295,45.0899],[-86.0041,45.074],[-85.9743,45.0873],[-85.9882,45.097]]]}}
