{"type":"Feature","properties":{"id":1010,"name":"Lake Ontario","featurecla":"Lake","scalerank":0,"wikidataid":"Q1062","source":"Natural Earth 5.2.0-pre ne_10m_lakes (public domain)"},"geometry":{"type":"Polygon","coordinates":[[[-76.1201,43.9663],[-76.1335,43.9566],[-76.1405,43.9416],[-76.1417,43.9293],[-76.1458,43.9169],[-76.1613,43.9013],[-76.2048,43.8745],[-76.2159,43.8604],[-76.2432,43.8745],[-76.2382,43.881],[-76.229,43.9013],[-76.2784,43.8839],[-76.2917,43.8745],[-76.3032,43.8586],[-76.2973,43.8515],[-76.2824,43.8465],[-76.2668,43.8359],[-76.2611,43.8312],[-76.2483,43.8239],[-76.2432,43.8192],[-76.2402,43.8118],[-76.24,43.8041],[-76.2387,43.7965],[-76.2253,43.7771],[-76.2165,43.7497],[-76.2097,43.7373],[-76.219,43.7179],[-76.2204,43.6952],[-76.2166,43.6711],[-76.2097,43.6481],[-76.2012,43.662],[-76.1917,43.6714],[-76.1808,43.6743],[-76.1682,43.6684],[-76.2104,43.6234],[-76.2154,43.6013],[-76.1881,43.5866],[-76.2073,43.5734],[-76.2463,43.5383],[-76.2668,43.5313],[-76.3341,43.521],[-76.36,43.5245],[-76.4015,43.5363],[-76.4193,43.5339],[-76.4712,43.4954],[-76.4904,43.4842],[-76.5949,43.4474],[-76.6331,43.4271],[-76.6679,43.4015],[-76.7128,43.3388],[-76.7369,43.3511],[-76.751,43.3538],[-76.7572,43.3426],[-76.7625,43.3385],[-76.827,43.3167],[-76.9301,43.3008],[-76.9353,43.2978],[-76.9413,43.289],[-76.9418,43.2816],[-76.9406,43.2755],[-76.9422,43.2705],[-76.9459,43.2643],[-76.9456,43.2613],[-76.9471,43.2593],[-76.9563,43.2569],[-76.9665,43.256],[-76.9758,43.2581],[-76.9837,43.2631],[-76.9905,43.2705],[-76.988,43.2743],[-76.9831,43.2843],[-77.3667,43.2978],[-77.4125,43.2908],[-77.538,43.2569],[-77.5832,43.2572],[-77.6247,43.2713],[-77.6962,43.319],[-77.7011,43.3208],[-77.7236,43.3252],[-77.7239,43.3358],[-77.7488,43.3446],[-78.1066,43.3941],[-78.227,43.38],[-78.3802,43.3962],[-78.6894,43.3614],[-78.7542,43.3382],[-78.8621,43.3243],[-78.9907,43.2869],[-79.0593,43.2781],[-79.079,43.2713],[-79.1744,43.2596],[-79.1956,43.2499],[-79.2306,43.229],[-79.2912,43.2104],[-79.3095,43.1989],[-79.3304,43.1901],[-79.3532,43.1939],[-79.395,43.2098],[-79.4445,43.2137],[-79.545,43.2095],[-79.5937,43.216],[-79.6923,43.2413],[-79.7404,43.2619],[-79.7725,43.2917],[-79.7747,43.3293],[-79.7487,43.3623],[-79.683,43.4153],[-79.617,43.4942],[-79.6118,43.5151],[-79.6092,43.5366],[-79.6012,43.5586],[-79.5893,43.571],[-79.5709,43.5822],[-79.5497,43.5901],[-79.5291,43.5934],[-79.5082,43.6002],[-79.4951,43.6155],[-79.4846,43.6337],[-79.4708,43.6481],[-79.4473,43.652],[-79.3862,43.6446],[-79.3715,43.6446],[-79.3551,43.6596],[-79.3383,43.6705],[-79.2802,43.6991],[-79.2009,43.7541],[-79.1561,43.7726],[-79.1351,43.7844],[-79.1285,43.7921],[-79.1167,43.8112],[-79.1077,43.8192],[-79.0965,43.825],[-79.0884,43.8265],[-79.0627,43.8256],[-79.041,43.8298],[-78.9773,43.8604],[-78.9527,43.8657],[-78.8784,43.8604],[-78.8548,43.8633],[-78.8107,43.8769],[-78.6701,43.8972],[-78.6074,43.9154],[-78.5821,43.9145],[-78.5013,43.9013],[-78.4801,43.9045],[-78.4224,43.9293],[-78.2795,43.9587],[-78.0208,43.9778],[-78.0016,43.9822],[-77.9066,43.9858],[-77.8032,44.019],[-77.7822,44.0214],[-77.7183,44.0084],[-77.6752,44.0043],[-77.6847,44.0149],[-77.7015,44.0202],[-77.7371,44.0255],[-77.726,44.0379],[-77.7089,44.0446],[-77.6905,44.0432],[-77.6752,44.0317],[-77.6608,44.0376],[-77.6163,44.0455],[-77.6007,44.0452],[-77.5318,44.0179],[-77.5418,44.0105],[-77.5533,44.0058],[-77.5661,44.0037],[-77.5795,44.0043],[-77.5638,43.9911],[-77.4918,43.9522],[-77.4774,43.9487],[-77.4391,43.9496],[-77.3601,43.9681],[-77.3184,43.9722],[-77.2916,43.9566],[-77.2719,43.9652],[-77.2506,43.9702],[-77.2643,43.9478],[-77.284,43.9454],[-77.3258,43.9625],[-77.3005,43.9234],[-77.2562,43.921],[-77.2071,43.9381],[-77.1681,43.9566],[-77.1815,43.9357],[-77.2363,43.8807],[-77.2199,43.8763],[-77.1681,43.8745],[-77.1671,43.8718],[-77.1681,43.8671],[-77.1683,43.8624],[-77.1649,43.8604],[-77.1306,43.8604],[-77.1228,43.8618],[-77.1163,43.8651],[-77.1103,43.8707],[-77.0854,43.8872],[-76.9764,43.9154],[-76.9248,43.9372],[-76.9081,43.9422],[-76.8649,43.9428],[-76.8498,43.9469],[-76.8566,43.9596],[-76.8873,43.9658],[-76.9711,43.9516],[-77.0036,43.9625],[-77.0298,43.9407],[-77.0416,43.9381],[-77.0445,43.9566],[-77.0364,43.9711],[-77.013,43.9881],[-77.0173,43.9972],[-76.9914,44.0128],[-76.9274,44.0329],[-76.9012,44.052],[-76.8982,44.0588],[-76.8959,44.0741],[-76.8906,44.0823],[-76.8847,44.0873],[-76.8713,44.0962],[-76.8526,44.1123],[-76.8502,44.1159],[-76.8769,44.1135],[-76.891,44.1082],[-76.9207,44.0847],[-77.009,44.0496],[-77.0288,44.0517],[-77.0626,44.0588],[-77.0819,44.0558],[-77.1212,44.0446],[-77.134,44.0452],[-77.1082,44.0732],[-77.0916,44.1056],[-77.0663,44.1824],[-77.0826,44.1798],[-77.1416,44.1639],[-77.1715,44.1509],[-77.1854,44.1483],[-77.2472,44.1483],[-77.2623,44.1447],[-77.2877,44.1271],[-77.299,44.1209],[-77.299,44.1135],[-77.2904,44.1141],[-77.2643,44.1135],[-77.2643,44.1073],[-77.3065,44.0947],[-77.3277,44.095],[-77.34,44.1073],[-77.3317,44.1106],[-77.3267,44.1147],[-77.3189,44.1271],[-77.3246,44.1303],[-77.3277,44.1338],[-77.33,44.1374],[-77.3331,44.1409],[-77.325,44.1418],[-77.3053,44.1483],[-77.3053,44.1544],[-77.3894,44.148],[-77.4069,44.1491],[-77.4151,44.1483],[-77.4241,44.1435],[-77.4431,44.13],[-77.4529,44.1271],[-77.4902,44.1209],[-77.5524,44.0903],[-77.5864,44.0794],[-77.5836,44.0994],[-77.5729,44.1144],[-77.556,44.1238],[-77.5086,44.1288],[-77.3767,44.1724],[-77.3453,44.1777],[-77.3362,44.1812],[-77.3271,44.1809],[-77.3158,44.1721],[-77.3065,44.1683],[-77.294,44.1689],[-77.2718,44.1756],[-77.2634,44.1806],[-77.2551,44.1877],[-77.2464,44.1939],[-77.2363,44.1954],[-77.225,44.1904],[-77.2049,44.1727],[-77.1923,44.1686],[-77.1708,44.1718],[-77.0385,44.2151],[-77.0142,44.2171],[-76.9995,44.2151],[-77.0023,44.2101],[-77.021,44.1992],[-77.0348,44.1871],[-77.0397,44.1806],[-77.0445,44.1686],[-77.0492,44.1415],[-77.0394,44.1362],[-77.022,44.1435],[-76.9218,44.203],[-76.915,44.1942],[-76.907,44.1877],[-76.8979,44.1836],[-76.8875,44.1824],[-76.8961,44.1703],[-76.9067,44.1668],[-76.9319,44.1686],[-76.9463,44.1665],[-76.974,44.1568],[-76.9868,44.1544],[-77.0037,44.1465],[-77.0725,44.0929],[-77.0635,44.0888],[-77.0533,44.0859],[-77.0426,44.085],[-77.0316,44.0856],[-77.0345,44.082],[-77.0367,44.0788],[-77.0397,44.0755],[-77.0445,44.0726],[-77.0445,44.0664],[-76.9737,44.0767],[-76.9627,44.0823],[-76.9533,44.0985],[-76.9313,44.1106],[-76.8875,44.1271],[-76.8367,44.1642],[-76.7946,44.1727],[-76.7367,44.203],[-76.6957,44.2171],[-76.6593,44.2233],[-76.6511,44.2271],[-76.638,44.236],[-76.6302,44.2336],[-76.624,44.2271],[-76.6165,44.2233],[-76.5442,44.2254],[-76.523,44.2301],[-76.5035,44.2395],[-76.4865,44.2542],[-76.4771,44.2592],[-76.4686,44.2551],[-76.4605,44.2478],[-76.4524,44.2439],[-76.4414,44.2463],[-76.4077,44.2642],[-76.3326,44.2922],[-76.3224,44.2993],[-76.3152,44.306],[-76.3073,44.3107],[-76.2603,44.3202],[-76.2357,44.3319],[-76.1682,44.3325],[-76.1517,44.3393],[-76.1083,44.3623],[-76.089,44.3673],[-76.0095,44.3746],[-75.9739,44.3852],[-75.9415,44.4014],[-75.8445,44.4877],[-75.8119,44.5044],[-75.792,44.4971],[-75.7792,44.4824],[-75.7723,44.4638],[-75.7702,44.4462],[-75.7808,44.4323],[-75.8454,44.4014],[-75.8467,44.3982],[-75.8476,44.3926],[-75.8491,44.3861],[-75.8529,44.3811],[-75.8566,44.3793],[-75.909,44.3637],[-75.9143,44.3573],[-75.9239,44.3478],[-76.0538,44.2657],[-76.1835,44.223],[-76.3575,44.1315],[-76.3661,44.1173],[-76.3607,44.0959],[-76.347,44.0888],[-76.3293,44.085],[-76.3115,44.0726],[-76.3065,44.0611],[-76.3092,44.0535],[-76.313,44.047],[-76.3115,44.039],[-76.3043,44.0335],[-76.2952,44.0326],[-76.2875,44.0373],[-76.2842,44.0488],[-76.2747,44.062],[-76.2097,44.0856],[-76.201,44.072],[-76.1613,44.0773],[-76.147,44.0664],[-76.1544,44.0614],[-76.1571,44.0582],[-76.1613,44.0452],[-76.1536,44.0511],[-76.1454,44.0555],[-76.1364,44.0582],[-76.1265,44.0588],[-76.1327,44.0458],[-76.1443,44.0326],[-76.1583,44.0223],[-76.1847,44.0126],[-76.2017,44.0008],[-76.2122,43.9893],[-76.206,43.9837],[-76.1439,43.9837],[-76.1254,43.9881],[-76.0978,44.007],[-76.0818,44.0111],[-76.0652,44.0078],[-76.0579,43.9996],[-76.0603,43.9884],[-76.0719,43.9763],[-76.0872,43.9705],[-76.1201,43.9663]],[[-76.0515,44.3325],[-76.0384,44.3293],[-76.0375,44.3199],[-76.0387,44.3084],[-76.0309,44.2993],[-76.0217,44.3007],[-75.993,44.3196],[-75.9754,44.3249],[-75.9533,44.3372],[-75.9333,44.3528],[-75.9187,44.3708],[-75.9161,44.3734],[-75.9144,44.3764],[-75.9143,44.3811],[-75.9278,44.3805],[-75.9381,44.3761],[-75.9552,44.3605],[-75.9607,44.3761],[-75.973,44.369],[-75.9961,44.3402],[-76.003,44.3464],[-76.0004,44.3484],[-75.9992,44.3484],[-75.9982,44.3496],[-75.9961,44.3537],[-76.0078,44.3537],[-76.0176,44.3514],[-76.0256,44.3472],[-76.0309,44.3402],[-76.0332,44.3408],[-76.0375,44.3414],[-76.0435,44.3414],[-76.0515,44.3402],[-76.0515,44.3325]],[[-76.1601,44.276],[-76.158,44.2678],[-76.1507,44.2642],[-76.1265,44.2687],[-76.0886,44.2901],[-76.0652,44.2993],[-76.0653,44.3034],[-76.0668,44.3066],[-76.0719,44.3128],[-76.0786,44.3134],[-76.0862,44.3099],[-76.0953,44.3075],[-76.1061,44.3128],[-76.1178,44.3054],[-76.1438,44.2993],[-76.1545,44.2922],[-76.1583,44.2851],[-76.1601,44.276]],[[-76.6368,44.1989],[-76.6601,44.2007],[-76.7161,44.1824],[-76.7943,44.1627],[-76.8152,44.1512],[-76.8146,44.1324],[-76.7784,44.1229],[-76.7365,44.1209],[-76.7194,44.1241],[-76.7032,44.1247],[-76.6589,44.1633],[-76.6405,44.1756],[-76.6368,44.1989]],[[-76.3532,44.2642],[-76.2755,44.2695],[-76.2387,44.2798],[-76.2059,44.3019],[-76.1954,44.3128],[-76.2419,44.3107],[-76.2792,44.3037],[-76.3139,44.289],[-76.3532,44.2642]],[[-76.435,44.2233],[-76.406,44.2154],[-76.2528,44.2163],[-76.2221,44.2198],[-76.1954,44.2307],[-76.1813,44.241],[-76.1907,44.2445],[-76.2259,44.2439],[-76.2443,44.2427],[-76.2715,44.238],[-76.36,44.2372],[-76.3797,44.2336],[-76.4162,44.2227],[-76.435,44.2233]],[[-76.36,44.1544],[-76.3797,44.1618],[-76.3653,44.178],[-76.3563,44.1848],[-76.3538,44.1874],[-76.351,44.1892],[-76.3463,44.1892],[-76.3679,44.2009],[-76.4013,44.211],[-76.4355,44.2142],[-76.4596,44.2062],[-76.4993,44.1665],[-76.5023,44.15],[-76.4692,44.1483],[-76.4734,44.1406],[-76.4777,44.1347],[-76.483,44.13],[-76.4896,44.1271],[-76.4896,44.1209],[-76.4801,44.1253],[-76.4711,44.1268],[-76.4561,44.1271],[-76.4489,44.1256],[-76.4414,44.1221],[-76.4333,44.1203],[-76.4244,44.1241],[-76.4085,44.135],[-76.36,44.1544]],[[-76.2128,44.0429],[-76.224,44.0438],[-76.2413,44.0382],[-76.2562,44.0317],[-76.2745,44.0193],[-76.2803,44.0087],[-76.2774,43.9763],[-76.2416,43.997],[-76.2282,44.0093],[-76.2159,44.0317],[-76.2128,44.0429]]]}}
