{"type":"Feature","properties":{"id":1011,"name":"Lake Saint Clair","featurecla":"Lake","scalerank":0,"wikidataid":"Q736707","source":"Natural Earth 5.2.0-pre ne_10m_lakes (public domain)"},"geometry":{"type":"Polygon","coordinates":[[[-83.0619,42.3273],[-83.0426,42.3409],[-82.9796,42.3594],[-82.9477,42.3635],[-82.938,42.3662],[-82.9238,42.3744],[-82.9057,42.3877],[-82.89,42.4033],[-82.8834,42.4177],[-82.8813,42.4303],[-82.8723,42.4498],[-82.8697,42.4618],[-82.8712,42.4721],[-82.8804,42.4863],[-82.8834,42.4966],[-82.8813,42.516],[-82.8738,42.5387],[-82.8635,42.5575],[-82.8526,42.5655],[-82.8083,42.5793],[-82.7951,42.5817],[-82.7852,42.5819],[-82.7781,42.5861],[-82.7734,42.5996],[-82.7977,42.6108],[-82.8143,42.6317],[-82.8148,42.652],[-82.7912,42.6611],[-82.7668,42.6655],[-82.7477,42.6758],[-82.7288,42.6894],[-82.7053,42.702],[-82.6929,42.6953],[-82.6507,42.6817],[-82.6314,42.6814],[-82.6315,42.6694],[-82.6396,42.6547],[-82.6443,42.6405],[-82.6388,42.6335],[-82.6293,42.6264],[-82.6254,42.6161],[-82.637,42.5996],[-82.6167,42.5828],[-82.609,42.5793],[-82.6371,42.5684],[-82.6449,42.5616],[-82.6443,42.5513],[-82.6358,42.5419],[-82.6025,42.5157],[-82.5925,42.5101],[-82.5217,42.5128],[-82.4863,42.5054],[-82.4657,42.4827],[-82.4461,42.4972],[-82.4353,42.5013],[-82.4209,42.5028],[-82.4159,42.4969],[-82.4171,42.4836],[-82.4227,42.4698],[-82.4309,42.4618],[-82.4186,42.4448],[-82.4105,42.4242],[-82.4075,42.4024],[-82.4111,42.3806],[-82.4389,42.3391],[-82.4788,42.3253],[-82.5755,42.3253],[-82.5875,42.3223],[-82.612,42.3132],[-82.6264,42.3108],[-82.7734,42.3108],[-82.847,42.3297],[-82.9477,42.3432],[-82.9721,42.3388],[-82.9951,42.3247],[-83.0076,42.3194],[-83.0174,42.322],[-83.0305,42.3285],[-83.0432,42.3238],[-83.055,42.3155],[-83.0768,42.3044],[-83.0816,42.3091],[-83.0619,42.3273]]]}}
