{"type":"Feature","properties":{"id":1012,"name":"Lake Superior","featurecla":"Lake","scalerank":0,"wikidataid":"Q1066","source":"Natural Earth 5.2.0-pre ne_10m_lakes (public domain)"},"geometry":{"type":"Polygon","coordinates":[[[-84.4901,46.4465],[-84.5292,46.4299],[-84.5698,46.4234],[-84.6033,46.4375],[-84.5941,46.4578],[-84.6184,46.4843],[-84.6565,46.502],[-84.6893,46.4955],[-84.715,46.4784],[-84.7495,46.4667],[-84.7864,46.4596],[-84.8195,46.4572],[-84.8354,46.4596],[-84.8775,46.4784],[-84.9148,46.4846],[-84.9218,46.4876],[-84.936,46.5017],[-84.946,46.5064],[-84.9591,46.5049],[-84.992,46.4938],[-85.0079,46.492],[-85.0271,46.4967],[-85.0396,46.5052],[-85.0483,46.5176],[-85.0558,46.5329],[-85.028,46.5562],[-85.0179,46.5732],[-85.0312,46.6068],[-85.0134,46.7242],[-85.0079,46.739],[-84.9941,46.7513],[-84.9767,46.7596],[-84.9611,46.769],[-84.9527,46.7863],[-84.9761,46.784],[-85.0178,46.7746],[-85.039,46.7725],[-85.1232,46.7799],[-85.2003,46.7755],[-85.293,46.7546],[-85.4755,46.6895],[-85.5219,46.6839],[-85.8606,46.7086],[-85.8918,46.7042],[-85.8987,46.711],[-85.9262,46.6992],[-86.0909,46.6754],[-86.1186,46.6789],[-86.1457,46.6907],[-86.2828,46.6218],[-86.3965,46.5862],[-86.4365,46.5623],[-86.4725,46.5579],[-86.4883,46.5535],[-86.5333,46.5264],[-86.5464,46.5158],[-86.5946,46.4655],[-86.6255,46.444],[-86.659,46.4375],[-86.6571,46.4419],[-86.6542,46.4528],[-86.6521,46.4572],[-86.6807,46.4575],[-86.702,46.4608],[-86.72,46.4699],[-86.7384,46.4882],[-86.7598,46.5011],[-86.7802,46.4955],[-86.8105,46.4708],[-86.8305,46.4625],[-86.8579,46.4575],[-86.882,46.4599],[-86.8923,46.4746],[-86.8972,46.4832],[-86.9084,46.4849],[-86.9209,46.4846],[-86.9301,46.4882],[-86.9606,46.5194],[-86.9656,46.5288],[-86.9668,46.535],[-86.9703,46.5403],[-86.9817,46.5473],[-86.9945,46.5517],[-87.0084,46.5535],[-87.0218,46.5512],[-87.033,46.5435],[-87.0421,46.5391],[-87.0551,46.5382],[-87.0809,46.5397],[-87.0864,46.5358],[-87.1031,46.5182],[-87.1115,46.5123],[-87.1356,46.5108],[-87.1831,46.5173],[-87.2261,46.5023],[-87.3481,46.5167],[-87.3736,46.5264],[-87.3877,46.547],[-87.3927,46.5974],[-87.3967,46.6044],[-87.4072,46.6088],[-87.4594,46.6256],[-87.4694,46.635],[-87.4678,46.6495],[-87.4859,46.6589],[-87.5061,46.6733],[-87.5225,46.6907],[-87.5292,46.7078],[-87.5392,46.7172],[-87.585,46.7522],[-87.5982,46.7657],[-87.6144,46.8093],[-87.6297,46.8287],[-87.6497,46.824],[-87.6607,46.8199],[-87.6681,46.829],[-87.6769,46.8514],[-87.6843,46.8526],[-87.709,46.847],[-87.7209,46.8482],[-87.731,46.8552],[-87.7408,46.8732],[-87.7489,46.8823],[-87.7583,46.8847],[-87.7697,46.8838],[-87.7792,46.8847],[-87.7831,46.8923],[-87.7965,46.9012],[-87.9029,46.9212],[-88.0639,46.9312],[-88.1191,46.9276],[-88.1986,46.9117],[-88.215,46.8991],[-88.2243,46.8785],[-88.2464,46.8567],[-88.2732,46.8399],[-88.297,46.8346],[-88.297,46.8408],[-88.2764,46.8608],[-88.2592,46.8885],[-88.2395,46.9129],[-88.1837,46.9329],[-88.1543,46.953],[-88.1441,46.9703],[-88.1735,46.9718],[-88.1888,46.9671],[-88.2349,46.9438],[-88.2786,46.9135],[-88.31,46.9038],[-88.3394,46.8808],[-88.3553,46.8755],[-88.3892,46.8726],[-88.4005,46.8661],[-88.3864,46.8543],[-88.441,46.8005],[-88.4747,46.7734],[-88.4888,46.7799],[-88.4847,46.7863],[-88.4755,46.7905],[-88.4657,46.7934],[-88.4583,46.7969],[-88.456,46.8028],[-88.4591,46.809],[-88.4795,46.8385],[-88.4828,46.8482],[-88.4789,46.8582],[-88.4725,46.8673],[-88.4692,46.8767],[-88.47,46.8861],[-88.4757,46.8956],[-88.463,46.9126],[-88.4519,46.9359],[-88.4441,46.9603],[-88.441,46.9818],[-88.4468,47.0012],[-88.4613,47.0201],[-88.4792,47.036],[-88.4963,47.0469],[-88.5029,47.0466],[-88.5094,47.0424],[-88.5162,47.0407],[-88.5235,47.0469],[-88.524,47.0516],[-88.5178,47.0619],[-88.5097,47.0892],[-88.5078,47.101],[-88.5126,47.1116],[-88.5355,47.1252],[-88.5874,47.1299],[-88.6129,47.1358],[-88.6349,47.1511],[-88.6372,47.1678],[-88.6305,47.1885],[-88.626,47.2144],[-88.6358,47.237],[-88.6586,47.2379],[-88.6838,47.2282],[-88.8519,47.1287],[-88.8796,47.119],[-88.8866,47.1152],[-88.9065,47.0863],[-88.9106,47.0816],[-88.9162,47.0728],[-88.9518,47.0313],[-88.9686,47.0189],[-88.9789,47.0162],[-89.0101,47.0127],[-89.05,47.0009],[-89.0613,46.9992],[-89.1102,47.0071],[-89.1308,47.0059],[-89.1536,46.9924],[-89.2268,46.9362],[-89.308,46.8935],[-89.3976,46.8638],[-89.7942,46.8302],[-89.8348,46.8155],[-90.0176,46.6975],[-90.0597,46.6804],[-90.237,46.6403],[-90.2896,46.6171],[-90.3018,46.615],[-90.3349,46.6133],[-90.3618,46.6086],[-90.387,46.6],[-90.4353,46.5765],[-90.4544,46.5771],[-90.4974,46.5944],[-90.5698,46.6071],[-90.6621,46.6445],[-90.7364,46.6951],[-90.7569,46.7042],[-90.75,46.7004],[-90.7301,46.6839],[-90.7413,46.6845],[-90.752,46.6833],[-90.762,46.6804],[-90.771,46.6763],[-90.771,46.6701],[-90.7363,46.6701],[-90.755,46.6509],[-90.7812,46.6371],[-90.9008,46.6021],[-90.9301,46.5977],[-90.956,46.6074],[-90.9445,46.6271],[-90.9275,46.6468],[-90.8631,46.701],[-90.8578,46.7125],[-90.8624,46.7225],[-90.8701,46.7322],[-90.8742,46.7422],[-90.8723,46.7593],[-90.8659,46.7808],[-90.8543,46.799],[-90.8359,46.8067],[-90.8187,46.8164],[-90.7937,46.8617],[-90.7772,46.8755],[-90.7819,46.8855],[-90.7847,46.8894],[-90.7616,46.8976],[-90.7641,46.9056],[-90.777,46.9132],[-90.7847,46.92],[-90.7887,46.9391],[-90.799,46.9456],[-90.8291,46.9438],[-90.8344,46.9468],[-90.8365,46.9533],[-90.8374,46.9603],[-90.8393,46.9644],[-90.8484,46.968],[-90.857,46.9703],[-90.8773,46.9718],[-90.8843,46.9686],[-90.8886,46.9615],[-90.8915,46.9541],[-90.8945,46.95],[-90.9042,46.9471],[-90.9147,46.945],[-90.9358,46.9438],[-90.9442,46.9447],[-90.9592,46.9491],[-90.966,46.95],[-90.9757,46.9482],[-90.9819,46.9441],[-90.9862,46.9397],[-90.9902,46.9371],[-91.0334,46.9229],[-91.0448,46.9165],[-91.0492,46.9103],[-91.0508,46.9035],[-91.0537,46.8979],[-91.0621,46.8956],[-91.082,46.895],[-91.0905,46.8929],[-91.0994,46.8894],[-91.1153,46.8667],[-91.1282,46.8594],[-91.1478,46.8682],[-91.1462,46.8741],[-91.1465,46.8764],[-91.1476,46.8782],[-91.1478,46.8823],[-91.1677,46.8679],[-91.19,46.8617],[-91.2036,46.8676],[-91.1962,46.8894],[-91.2248,46.8844],[-91.2747,46.8535],[-91.3528,46.8184],[-91.4011,46.7863],[-91.4146,46.7943],[-91.4904,46.7725],[-91.5698,46.7643],[-91.793,46.706],[-91.9393,46.6898],[-91.9635,46.6907],[-92.0266,46.7136],[-92.0422,46.7172],[-92.059,46.7239],[-92.0828,46.7398],[-92.1043,46.7584],[-92.1142,46.7725],[-92.0953,46.804],[-92.048,46.8343],[-91.9566,46.8755],[-91.8975,46.9117],[-91.8597,46.9209],[-91.7983,46.95],[-91.7456,46.9927],[-91.7119,47.003],[-91.655,47.0333],[-91.6492,47.0392],[-91.6388,47.0545],[-91.6338,47.0598],[-91.6236,47.0639],[-91.6101,47.0672],[-91.598,47.0731],[-91.5929,47.0848],[-91.5818,47.0966],[-91.511,47.1219],[-91.0124,47.4931],[-90.9492,47.5123],[-90.7915,47.6162],[-90.5329,47.7115],[-90.3958,47.7419],[-90.3458,47.7463],[-90.3287,47.7501],[-90.2877,47.7678],[-90.0853,47.8113],[-89.7432,47.9308],[-89.725,47.9414],[-89.693,47.9667],[-89.6654,47.9759],[-89.6484,47.9947],[-89.6365,47.9988],[-89.6069,47.9915],[-89.5902,47.9906],[-89.5781,47.9988],[-89.5775,48.0018],[-89.5781,48.0127],[-89.564,48.0197],[-89.5411,48.0236],[-89.52,48.0294],[-89.5104,48.0436],[-89.4995,48.0518],[-89.4596,48.0512],[-89.462,48.0612],[-89.4355,48.0707],[-89.4193,48.0798],[-89.423,48.0863],[-89.4552,48.0889],[-89.433,48.1019],[-89.3317,48.1225],[-89.3348,48.1266],[-89.3364,48.1304],[-89.3391,48.1334],[-89.3452,48.1363],[-89.3051,48.1666],[-89.2942,48.1858],[-89.3043,48.2052],[-89.2982,48.212],[-89.2736,48.2019],[-89.2662,48.214],[-89.2702,48.2561],[-89.2675,48.2644],[-89.2612,48.2747],[-89.2534,48.2832],[-89.2463,48.287],[-89.2407,48.2917],[-89.2293,48.3218],[-89.2185,48.3279],[-89.2112,48.3256],[-89.206,48.3262],[-89.2019,48.3418],[-89.2144,48.3647],[-89.2187,48.3689],[-89.2378,48.3786],[-89.2372,48.4009],[-89.2266,48.4263],[-89.2156,48.4448],[-89.1886,48.4675],[-89.1491,48.4839],[-88.8166,48.5699],[-88.7799,48.5884],[-88.7631,48.5834],[-88.7583,48.567],[-88.7736,48.5437],[-88.8382,48.4863],[-88.8457,48.4516],[-88.8507,48.4401],[-88.8566,48.4318],[-88.8584,48.423],[-88.8519,48.4098],[-88.8607,48.4036],[-88.8628,48.3959],[-88.8629,48.3886],[-88.8662,48.3833],[-88.8765,48.3803],[-88.8855,48.3821],[-88.895,48.3827],[-88.9071,48.3765],[-88.9161,48.3653],[-88.93,48.3359],[-88.9412,48.3218],[-88.9303,48.3153],[-88.9247,48.32],[-88.9206,48.3291],[-88.914,48.3353],[-88.9037,48.3368],[-88.8834,48.3347],[-88.8725,48.3353],[-88.8026,48.3509],[-88.7686,48.3686],[-88.7475,48.3739],[-88.73,48.3839],[-88.7228,48.4068],[-88.719,48.4265],[-88.7096,48.451],[-88.6873,48.4925],[-88.6976,48.5069],[-88.6812,48.5134],[-88.6397,48.5199],[-88.6351,48.5331],[-88.626,48.6055],[-88.6205,48.6249],[-88.6061,48.6341],[-88.5853,48.6364],[-88.5611,48.6364],[-88.5469,48.6447],[-88.5441,48.6635],[-88.549,48.6844],[-88.5577,48.6985],[-88.5475,48.7077],[-88.5353,48.7127],[-88.5093,48.7188],[-88.5319,48.7289],[-88.5419,48.743],[-88.5443,48.7612],[-88.544,48.7842],[-88.5391,48.7919],[-88.5275,48.8022],[-88.5148,48.811],[-88.4957,48.8192],[-88.4926,48.8292],[-88.4919,48.841],[-88.4888,48.8493],[-88.4683,48.8572],[-88.4418,48.8563],[-88.3641,48.8434],[-88.3479,48.8284],[-88.3379,48.8083],[-88.3312,48.788],[-88.3273,48.781],[-88.3225,48.7745],[-88.3187,48.7662],[-88.3175,48.753],[-88.32,48.7421],[-88.3291,48.7203],[-88.3312,48.7085],[-88.339,48.6944],[-88.4997,48.5749],[-88.544,48.5546],[-88.5583,48.5399],[-88.577,48.5084],[-88.5912,48.4925],[-88.5846,48.4928],[-88.5712,48.4922],[-88.5644,48.4925],[-88.5706,48.4754],[-88.5658,48.4628],[-88.5586,48.4495],[-88.5577,48.4315],[-88.516,48.4448],[-88.5254,48.4542],[-88.5213,48.4639],[-88.5031,48.4789],[-88.4992,48.4784],[-88.4939,48.4751],[-88.4878,48.4736],[-88.482,48.4789],[-88.4816,48.486],[-88.487,48.4901],[-88.4935,48.4937],[-88.4963,48.4993],[-88.492,48.516],[-88.4848,48.5225],[-88.475,48.526],[-88.4622,48.534],[-88.4386,48.567],[-88.4274,48.5749],[-88.4209,48.5558],[-88.4077,48.549],[-88.3903,48.5514],[-88.3727,48.5608],[-88.3683,48.5664],[-88.3647,48.5734],[-88.3593,48.5793],[-88.3485,48.582],[-88.3237,48.5823],[-88.3132,48.5864],[-88.3038,48.5955],[-88.3257,48.6111],[-88.3348,48.6382],[-88.3303,48.6573],[-88.3113,48.65],[-88.3031,48.6364],[-88.2989,48.6232],[-88.2916,48.6132],[-88.2732,48.6091],[-88.2688,48.6141],[-88.2281,48.6432],[-88.2323,48.6311],[-88.2495,48.6099],[-88.2554,48.5955],[-88.2256,48.5976],[-88.2031,48.6135],[-88.1672,48.6576],[-88.1226,48.6947],[-88.1094,48.7115],[-88.1088,48.7212],[-88.1142,48.7309],[-88.1189,48.7462],[-88.1172,48.7592],[-88.1085,48.7895],[-88.1086,48.7974],[-88.1182,48.8045],[-88.2139,48.8487],[-88.2411,48.8651],[-88.2629,48.8905],[-88.2508,48.9081],[-88.2427,48.917],[-88.2411,48.9258],[-88.2486,48.9449],[-88.2688,48.9747],[-88.2711,48.9897],[-88.2554,49.0003],[-88.2502,48.9838],[-88.239,48.9741],[-88.2243,48.972],[-88.2083,48.9791],[-88.1931,48.9723],[-88.1769,48.9735],[-88.1607,48.9788],[-88.1462,48.9858],[-88.1369,48.9923],[-88.1307,48.9985],[-88.1239,49.0035],[-88.112,49.0064],[-88.1035,49.0047],[-88.0886,48.995],[-88.0811,48.9926],[-88.0687,48.9994],[-88.0496,49.0256],[-88.0362,49.0276],[-88.0311,49.0215],[-88.0303,49.0132],[-88.0325,49.0067],[-88.0362,49.0064],[-88.0356,49.0035],[-88.0368,48.9956],[-88.0362,48.9926],[-88.0325,48.9917],[-88.0183,48.9914],[-88.0127,48.9894],[-87.9994,48.98],[-87.9703,48.9649],[-87.9575,48.9555],[-87.942,48.9473],[-87.9235,48.9461],[-87.9039,48.9467],[-87.8855,48.9449],[-87.879,48.942],[-87.8662,48.934],[-87.8589,48.9314],[-87.8499,48.9299],[-87.7931,48.9337],[-87.7816,48.9284],[-87.7898,48.9108],[-87.7663,48.9102],[-87.7236,48.9143],[-87.7005,48.9108],[-87.6734,48.9005],[-87.6671,48.8966],[-87.6644,48.8908],[-87.6638,48.8752],[-87.6602,48.8699],[-87.6394,48.8646],[-87.6222,48.8693],[-87.6067,48.8775],[-87.5913,48.8828],[-87.5757,48.8828],[-87.5615,48.8781],[-87.5555,48.8675],[-87.5646,48.8493],[-87.544,48.8369],[-87.5175,48.8384],[-87.4644,48.8493],[-87.4369,48.844],[-87.391,48.8172],[-87.3654,48.8077],[-87.3175,48.8077],[-87.3099,48.7998],[-87.3004,48.7786],[-87.2931,48.7742],[-87.2419,48.7674],[-87.2261,48.7689],[-87.1867,48.7804],[-87.1012,48.7804],[-87.0791,48.7839],[-87.0566,48.791],[-87.0424,48.7933],[-87.0323,48.7889],[-87.0239,48.783],[-87.0154,48.7804],[-86.997,48.7851],[-86.9977,48.7924],[-87.0039,48.8004],[-87.0023,48.8077],[-86.9883,48.8139],[-86.9771,48.813],[-86.9672,48.8072],[-86.9572,48.7974],[-86.939,48.7845],[-86.9151,48.7733],[-86.8719,48.7601],[-86.854,48.7586],[-86.8407,48.7615],[-86.8105,48.7742],[-86.759,48.7871],[-86.7416,48.7942],[-86.7251,48.8116],[-86.7175,48.8145],[-86.7089,48.8125],[-86.7022,48.808],[-86.6973,48.8033],[-86.6938,48.801],[-86.6346,48.7942],[-86.618,48.788],[-86.6317,48.7462],[-86.6152,48.7465],[-86.5665,48.7395],[-86.5582,48.74],[-86.5529,48.7418],[-86.5429,48.7462],[-86.5392,48.7492],[-86.5378,48.7533],[-86.5372,48.7574],[-86.5361,48.7601],[-86.5316,48.7609],[-86.5202,48.7592],[-86.4567,48.7745],[-86.4285,48.7733],[-86.4337,48.753],[-86.4038,48.753],[-86.3907,48.7501],[-86.3853,48.743],[-86.3891,48.7309],[-86.3963,48.7297],[-86.3998,48.7274],[-86.3928,48.7121],[-86.3906,48.7118],[-86.3748,48.7015],[-86.3704,48.6959],[-86.3653,48.6809],[-86.3614,48.6744],[-86.3513,48.665],[-86.3401,48.6594],[-86.3265,48.6567],[-86.3096,48.6576],[-86.3132,48.6488],[-86.318,48.6408],[-86.3239,48.6341],[-86.3301,48.6297],[-86.2864,48.6052],[-86.2668,48.5873],[-86.2686,48.5681],[-86.2585,48.5528],[-86.2509,48.5107],[-86.245,48.4957],[-86.2343,48.4813],[-86.226,48.4642],[-86.2229,48.4466],[-86.2276,48.4315],[-86.1792,48.3968],[-86.1897,48.3912],[-86.1917,48.383],[-86.1876,48.3747],[-86.1792,48.3689],[-86.1863,48.3509],[-86.1782,48.3347],[-86.1518,48.3076],[-86.1424,48.2882],[-86.1293,48.2511],[-86.1178,48.2323],[-86.1109,48.2267],[-86.1043,48.2226],[-86.0993,48.2158],[-86.0972,48.2017],[-86.0768,48.1634],[-86.0155,48.1119],[-86.0079,48.1083],[-86.0016,48.0895],[-85.9448,48.0657],[-85.9402,48.0468],[-85.9088,48.0333],[-85.8987,48.0262],[-85.8916,48.0194],[-85.8747,47.9956],[-85.8592,47.985],[-85.7431,47.9523],[-85.5331,47.9261],[-85.4242,47.9273],[-85.2789,47.9582],[-84.9291,47.9718],[-84.9215,47.9685],[-84.9117,47.9544],[-84.9015,47.9511],[-84.8987,47.9532],[-84.8948,47.9582],[-84.8883,47.9626],[-84.8775,47.965],[-84.8586,47.9609],[-84.8446,47.9503],[-84.8388,47.935],[-84.8435,47.917],[-84.8502,47.9105],[-84.8775,47.8967],[-84.8914,47.8811],[-84.8981,47.8755],[-84.9248,47.8617],[-84.9357,47.8511],[-84.9391,47.8346],[-84.9336,47.8231],[-84.9214,47.8116],[-84.9059,47.8034],[-84.8912,47.801],[-84.9015,47.7878],[-84.9326,47.7607],[-84.9426,47.7416],[-84.951,47.7386],[-84.9701,47.7389],[-84.9772,47.7354],[-84.9842,47.7274],[-84.9944,47.7109],[-84.9704,47.6998],[-84.9716,47.6883],[-84.9975,47.6671],[-85.0031,47.653],[-85.0074,47.6341],[-85.0144,47.6206],[-85.0284,47.6223],[-85.0197,47.6064],[-85.0001,47.5908],[-84.9766,47.5791],[-84.9561,47.5744],[-84.9501,47.5691],[-84.9457,47.5455],[-84.9424,47.5402],[-84.9358,47.5367],[-84.9146,47.5187],[-84.9049,47.5123],[-84.8273,47.4887],[-84.806,47.4858],[-84.7963,47.4822],[-84.7713,47.4646],[-84.7268,47.4448],[-84.7102,47.4295],[-84.6965,47.3922],[-84.6821,47.3724],[-84.6699,47.368],[-84.6397,47.3701],[-84.6275,47.3654],[-84.6197,47.3551],[-84.6033,47.3206],[-84.5974,47.3162],[-84.5896,47.3118],[-84.5833,47.305],[-84.5827,47.2932],[-84.5892,47.2821],[-84.5992,47.2779],[-84.6104,47.2756],[-84.6204,47.2697],[-84.6722,47.2046],[-84.6788,47.2011],[-84.6881,47.1982],[-84.6965,47.1943],[-84.7,47.1876],[-84.6987,47.1817],[-84.6964,47.1784],[-84.6961,47.1734],[-84.7,47.1634],[-84.7058,47.1596],[-84.7149,47.157],[-84.7231,47.1531],[-84.7268,47.1458],[-84.7243,47.1393],[-84.7131,47.1193],[-84.7097,47.1152],[-84.7087,47.1087],[-84.7177,47.0945],[-84.7312,47.0804],[-84.7602,47.0681],[-84.7699,47.053],[-84.7726,47.0348],[-84.7677,47.0189],[-84.7875,47.0059],[-84.7769,46.9877],[-84.7523,46.9715],[-84.7302,46.9644],[-84.6893,46.9644],[-84.671,46.9621],[-84.6634,46.9565],[-84.6593,46.948],[-84.6518,46.9371],[-84.6322,46.9188],[-84.6211,46.912],[-84.6095,46.9091],[-84.5941,46.91],[-84.5935,46.9156],[-84.5969,46.9238],[-84.5933,46.9338],[-84.5729,46.9465],[-84.5533,46.9462],[-84.5324,46.9406],[-84.5083,46.9371],[-84.4597,46.9432],[-84.4366,46.9412],[-84.3948,46.9123],[-84.3748,46.9032],[-84.3602,46.8932],[-84.3562,46.8755],[-84.3596,46.8726],[-84.3774,46.8482],[-84.3893,46.8399],[-84.3982,46.8382],[-84.4217,46.8408],[-84.4501,46.8523],[-84.4629,46.8543],[-84.4776,46.8532],[-84.4871,46.8499],[-84.4957,46.8455],[-84.5395,46.832],[-84.5493,46.8273],[-84.5437,46.8114],[-84.5428,46.7861],[-84.5477,46.7625],[-84.5592,46.7519],[-84.566,46.7407],[-84.5612,46.7169],[-84.5461,46.6975],[-84.5214,46.6975],[-84.5112,46.711],[-84.5041,46.7316],[-84.4944,46.7507],[-84.4769,46.759],[-84.4587,46.7537],[-84.4416,46.7407],[-84.4292,46.7251],[-84.4251,46.711],[-84.4341,46.6936],[-84.4903,46.6592],[-84.563,46.6012],[-84.5758,46.5859],[-84.5885,46.5629],[-84.5892,46.542],[-84.5465,46.5264],[-84.5328,46.512],[-84.5214,46.4958],[-84.5083,46.4846],[-84.4938,46.4805],[-84.4901,46.4465]],[[-86.5975,46.4846],[-86.6019,46.4967],[-86.6149,46.4982],[-86.6294,46.4961],[-86.6392,46.4988],[-86.6392,46.507],[-86.633,46.5161],[-86.618,46.5329],[-86.6283,46.5532],[-86.6352,46.5609],[-86.6453,46.5665],[-86.669,46.5718],[-86.6877,46.567],[-86.6989,46.5538],[-86.7005,46.5329],[-86.6976,46.5229],[-86.6927,46.5158],[-86.6867,46.5088],[-86.6801,46.4988],[-86.6758,46.4858],[-86.677,46.4787],[-86.6762,46.4749],[-86.6665,46.4708],[-86.6602,46.4714],[-86.6573,46.482],[-86.6521,46.4846],[-86.647,46.4823],[-86.6417,46.4779],[-86.6384,46.4731],[-86.6392,46.4708],[-86.6169,46.4693],[-86.6041,46.4729],[-86.5975,46.4846]],[[-86.9466,48.6535],[-86.9538,48.6706],[-86.9606,48.6729],[-86.975,48.6756],[-86.9817,48.6779],[-86.9939,48.665],[-87.031,48.6614],[-87.0463,48.6538],[-87.0458,48.6423],[-87.0273,48.6373],[-86.988,48.6364],[-86.9948,48.6235],[-86.9562,48.6411],[-86.9466,48.6535]],[[-85.5914,47.7516],[-85.594,47.7633],[-85.6101,47.7731],[-85.6942,47.7984],[-85.7137,47.801],[-85.734,47.8078],[-85.8587,47.8034],[-85.8819,47.7934],[-85.9259,47.7657],[-85.9539,47.7595],[-85.9551,47.7542],[-85.9548,47.7472],[-85.953,47.7413],[-85.9502,47.7389],[-85.9465,47.7366],[-85.9428,47.7318],[-85.9378,47.7268],[-85.9297,47.7248],[-85.9216,47.7239],[-85.9066,47.7198],[-85.8322,47.7165],[-85.8039,47.7212],[-85.7752,47.7321],[-85.7565,47.721],[-85.7334,47.718],[-85.7093,47.7201],[-85.6701,47.7277],[-85.6622,47.7307],[-85.6554,47.7357],[-85.646,47.7398],[-85.6215,47.7377],[-85.6107,47.7389],[-85.5914,47.7516]],[[-87.7148,47.4236],[-87.728,47.4325],[-87.7477,47.4546],[-87.7626,47.4646],[-87.8,47.4799],[-87.8197,47.484],[-88.0525,47.4843],[-88.137,47.4734],[-88.2094,47.4534],[-88.2234,47.446],[-88.2386,47.4339],[-88.2495,47.4295],[-88.2608,47.4319],[-88.2723,47.436],[-88.2833,47.4372],[-88.2908,47.4339],[-88.3175,47.4169],[-88.398,47.3889],[-88.4312,47.3724],[-88.5266,47.2829],[-88.5444,47.2703],[-88.5877,47.2517],[-88.6055,47.2388],[-88.6136,47.2217],[-88.6177,47.1979],[-88.6191,47.1525],[-88.6062,47.1399],[-88.516,47.1358],[-88.506,47.1296],[-88.4891,47.1119],[-88.4823,47.1084],[-88.4376,47.1152],[-88.424,47.1249],[-88.4234,47.1437],[-88.4361,47.1549],[-88.4622,47.1425],[-88.4523,47.1587],[-88.4342,47.177],[-88.4143,47.1914],[-88.3995,47.197],[-88.4052,47.1811],[-88.4093,47.1455],[-88.4137,47.1287],[-88.4234,47.1107],[-88.433,47.1019],[-88.4622,47.0878],[-88.4776,47.0766],[-88.4835,47.066],[-88.4803,47.0545],[-88.4242,46.9924],[-88.4096,46.9974],[-88.397,47.0101],[-88.3762,47.0366],[-88.3449,47.0913],[-88.3362,47.1004],[-88.2982,47.1137],[-88.2895,47.1255],[-88.2845,47.1405],[-88.2718,47.1475],[-88.2542,47.1493],[-88.2349,47.1493],[-88.2349,47.1561],[-88.2461,47.169],[-88.2421,47.1879],[-88.2298,47.2064],[-88.215,47.2182],[-88.2019,47.2211],[-88.1887,47.2205],[-88.1759,47.2214],[-88.1638,47.2285],[-88.1226,47.2626],[-88.1127,47.2682],[-88.0879,47.275],[-88.0773,47.2797],[-88.0606,47.3033],[-88.054,47.3071],[-88.0325,47.3106],[-88.0112,47.3194],[-87.9489,47.3551],[-87.9653,47.368],[-88.0003,47.378],[-88.0302,47.3833],[-88.0175,47.3954],[-87.9974,47.3977],[-87.9538,47.3963],[-87.8993,47.4083],[-87.8787,47.4101],[-87.8564,47.4078],[-87.816,47.3983],[-87.7937,47.3963],[-87.7733,47.4001],[-87.7373,47.4154],[-87.7148,47.4169],[-87.7148,47.4236]],[[-88.5954,48.0598],[-88.5912,48.0642],[-88.5927,48.0718],[-88.5982,48.0901],[-88.5986,48.0951],[-88.5755,48.116],[-88.5028,48.1463],[-88.4757,48.1634],[-88.4629,48.1743],[-88.4582,48.1793],[-88.4546,48.1846],[-88.4658,48.1746],[-88.4798,48.1693],[-88.5093,48.1634],[-88.5048,48.1719],[-88.497,48.179],[-88.4757,48.1908],[-88.5502,48.1625],[-88.5714,48.1498],[-88.588,48.1548],[-88.6202,48.1451],[-88.6327,48.1498],[-88.7085,48.1083],[-88.7085,48.1225],[-88.7403,48.1007],[-88.7874,48.0771],[-88.8329,48.0607],[-88.8594,48.0612],[-88.8781,48.0477],[-88.9031,48.0371],[-88.9284,48.0315],[-88.9482,48.0339],[-88.9829,48.0162],[-89.1236,47.9644],[-89.2156,47.917],[-89.2051,47.9055],[-89.1884,47.9064],[-89.1536,47.917],[-89.1536,47.9102],[-89.1925,47.8958],[-89.2019,47.8896],[-89.2156,47.8658],[-89.2144,47.8572],[-89.2112,47.8567],[-89.2067,47.8575],[-89.2019,47.8552],[-89.1826,47.8381],[-89.161,47.8325],[-89.1376,47.8352],[-88.9665,47.8908],[-88.914,47.8967],[-88.914,47.9035],[-89.0028,47.9035],[-88.9898,47.9149],[-88.9523,47.9311],[-88.9482,47.9382],[-88.6873,48.0127],[-88.636,48.0347],[-88.5954,48.0598]],[[-90.4079,47.0766],[-90.4079,47.0816],[-90.439,47.0816],[-90.46,47.0636],[-90.4718,47.0348],[-90.4756,47.0021],[-90.4328,47.0157],[-90.4103,47.0336],[-90.4148,47.0675],[-90.412,47.071],[-90.4095,47.0736],[-90.4079,47.0766]],[[-88.0896,48.9296],[-88.0811,48.9237],[-88.0661,48.9214],[-88.0495,48.9152],[-88.0342,48.9067],[-88.0227,48.8966],[-88.0197,48.9178],[-88.0216,48.9379],[-88.0327,48.9526],[-88.0574,48.9593],[-88.0727,48.9543],[-88.0851,48.942],[-88.0896,48.9296]],[[-88.0983,48.818],[-88.0966,48.7963],[-88.0852,48.7527],[-88.0683,48.7121],[-88.0611,48.7065],[-88.0471,48.7047],[-88.0369,48.7059],[-88.0269,48.7091],[-88.0194,48.7147],[-88.0165,48.7224],[-88.0177,48.7362],[-87.9909,48.753],[-87.9822,48.7559],[-87.9358,48.7651],[-87.9104,48.7674],[-87.8976,48.7662],[-87.8736,48.7609],[-87.8182,48.7592],[-87.8096,48.7686],[-87.8104,48.7942],[-87.7847,48.7871],[-87.7728,48.796],[-87.7694,48.8154],[-87.7694,48.8419],[-87.7641,48.8484],[-87.7626,48.8516],[-87.7626,48.8563],[-87.7725,48.8593],[-87.9659,48.8675],[-88.0165,48.8563],[-88.087,48.8266],[-88.0983,48.818]],[[-87.6056,48.7601],[-87.6527,48.7942],[-87.6759,48.8292],[-87.6875,48.8419],[-87.7065,48.846],[-87.7277,48.8454],[-87.746,48.8398],[-87.7558,48.8284],[-87.7549,48.8189],[-87.7501,48.8075],[-87.7438,48.798],[-87.7383,48.7942],[-87.7252,48.7916],[-87.723,48.7857],[-87.7285,48.7742],[-87.7343,48.7727],[-87.7455,48.7651],[-87.7505,48.7571],[-87.7383,48.753],[-87.6937,48.7462],[-87.6702,48.7477],[-87.6056,48.7601]],[[-89.1741,48.2399],[-89.1702,48.2326],[-89.1658,48.227],[-89.1605,48.2226],[-89.1536,48.2181],[-89.1421,48.2249],[-89.1352,48.2217],[-89.1307,48.2152],[-89.1257,48.212],[-89.1142,48.2134],[-89.0373,48.2443],[-89.0232,48.2529],[-89.0457,48.2593],[-89.0562,48.2646],[-89.0649,48.2735],[-89.0995,48.2741],[-89.1156,48.2711],[-89.1293,48.2629],[-89.1389,48.2552],[-89.1504,48.2487],[-89.1741,48.2399]],[[-87.4473,48.788],[-87.5019,48.801],[-87.523,48.801],[-87.5087,48.7748],[-87.4871,48.7612],[-87.4646,48.7645],[-87.4473,48.788]],[[-90.5839,46.8594],[-90.5998,46.8755],[-90.6203,46.8729],[-90.6774,46.8532],[-90.6892,46.8446],[-90.7011,46.8323],[-90.7772,46.8005],[-90.7972,46.7796],[-90.7963,46.7628],[-90.7816,46.7572],[-90.7371,46.7799],[-90.682,46.7902],[-90.6681,46.8067],[-90.6862,46.8084],[-90.6761,46.8205],[-90.6518,46.8343],[-90.6271,46.8408],[-90.6007,46.8426],[-90.5853,46.8488],[-90.5839,46.8594]],[[-84.5493,46.8823],[-84.5325,46.8823],[-84.4866,46.8956],[-84.4701,46.8964],[-84.4544,46.8959],[-84.4394,46.8967],[-84.4251,46.9029],[-84.4416,46.907],[-84.459,46.9056],[-84.4766,46.9064],[-84.494,46.9165],[-84.5124,46.9226],[-84.5289,46.9159],[-84.5418,46.9009],[-84.5493,46.8823]],[[-90.7402,46.9262],[-90.7301,46.9165],[-90.7104,46.9241],[-90.7005,46.9309],[-90.7023,46.9409],[-90.7164,46.9574],[-90.7232,46.9612],[-90.7411,46.9671],[-90.7505,46.9718],[-90.7545,46.9636],[-90.7589,46.9565],[-90.7642,46.9503],[-90.771,46.9438],[-90.7402,46.9262]],[[-90.5307,46.965],[-90.5465,46.9671],[-90.5854,46.9574],[-90.6353,46.9494],[-90.6483,46.9438],[-90.6639,46.9271],[-90.6558,46.9212],[-90.6013,46.9241],[-90.5833,46.9229],[-90.5667,46.9179],[-90.552,46.9091],[-90.5566,46.9241],[-90.5518,46.9347],[-90.5418,46.943],[-90.5309,46.95],[-90.5307,46.965]],[[-90.9286,46.9992],[-90.9431,47.0127],[-90.9544,47.003],[-90.9832,46.9874],[-90.984,46.978],[-90.9678,46.9677],[-90.9509,46.9727],[-90.9366,46.9856],[-90.9286,46.9992]]]}}
