{"type":"Feature","properties":{"id":1013,"name":"Lake Tanganyika","featurecla":"Lake","scalerank":0,"wikidataid":"Q5511","source":"Natural Earth 5.2.0-pre ne_10m_lakes (public domain)"},"geometry":{"type":"Polygon","coordinates":[[[30.8027,-8.5729],[30.7951,-8.5597],[30.7765,-8.5576],[30.7538,-8.5591],[30.7344,-8.5565],[30.7259,-8.5497],[30.7221,-8.5423],[30.7194,-8.535],[30.7144,-8.5282],[30.7032,-8.5256],[30.692,-8.527],[30.6832,-8.525],[30.6797,-8.5111],[30.6847,-8.492],[30.6844,-8.4843],[30.6761,-8.4811],[30.6543,-8.4814],[30.6452,-8.4832],[30.6382,-8.4867],[30.6379,-8.4885],[30.632,-8.5011],[30.6443,-8.5049],[30.6496,-8.5044],[30.6579,-8.5011],[30.6435,-8.5241],[30.6243,-8.5432],[30.6034,-8.5582],[30.5834,-8.5694],[30.5613,-8.5782],[30.5481,-8.5818],[30.5319,-8.583],[30.5295,-8.578],[30.541,-8.5668],[30.5575,-8.555],[30.5699,-8.5488],[30.5652,-8.5391],[30.5622,-8.5353],[30.574,-8.5158],[30.5669,-8.5023],[30.5498,-8.4976],[30.5122,-8.5141],[30.4874,-8.5167],[30.4704,-8.5085],[30.4736,-8.4867],[30.4462,-8.4667],[30.4421,-8.4334],[30.4518,-8.396],[30.4668,-8.3645],[30.4869,-8.3413],[30.5145,-8.3233],[30.544,-8.3104],[30.5699,-8.303],[30.5607,-8.2907],[30.5613,-8.2801],[30.566,-8.2686],[30.5699,-8.2547],[30.5699,-8.2029],[30.5746,-8.1776],[30.5825,-8.1585],[30.5843,-8.1402],[30.5699,-8.1176],[30.549,-8.0981],[30.5425,-8.0896],[30.5148,-8.039],[30.4975,-8.0269],[30.4745,-8.0184],[30.4524,-8.0151],[30.4568,-8.0048],[30.4601,-8.0007],[30.4186,-7.9598],[30.4144,-7.9524],[30.413,-7.946],[30.4103,-7.9412],[30.4015,-7.9392],[30.3935,-7.9389],[30.3862,-7.9374],[30.3809,-7.9345],[30.3715,-7.9068],[30.3532,-7.89],[30.3288,-7.8818],[30.3029,-7.8847],[30.2764,-7.8494],[30.2687,-7.8362],[30.2661,-7.8238],[30.2658,-7.7964],[30.2614,-7.7817],[30.267,-7.7652],[30.2637,-7.7452],[30.2555,-7.7275],[30.2322,-7.711],[30.1996,-7.601],[30.1987,-7.578],[30.2184,-7.543],[30.2166,-7.5224],[30.2069,-7.4794],[30.2057,-7.4603],[30.204,-7.4508],[30.1878,-7.4049],[30.1831,-7.369],[30.1751,-7.349],[30.1522,-7.3092],[30.128,-7.2486],[30.1139,-7.2301],[29.9747,-7.1108],[29.9564,-7.1032],[29.9467,-7.1011],[29.9267,-7.0917],[29.9149,-7.0896],[29.9025,-7.0888],[29.8813,-7.0852],[29.8251,-7.0682],[29.7895,-7.0473],[29.7621,-7.0202],[29.7221,-6.9581],[29.6776,-6.9107],[29.6482,-6.8539],[29.6382,-6.8391],[29.6255,-6.8274],[29.549,-6.7711],[29.4987,-6.7029],[29.4937,-6.689],[29.4916,-6.6661],[29.4737,-6.6098],[29.4904,-6.5689],[29.4857,-6.5457],[29.4843,-6.5274],[29.4872,-6.5136],[29.4425,-6.518],[29.418,-6.4824],[29.3918,-6.3899],[29.3659,-6.3325],[29.3668,-6.3214],[29.3512,-6.3105],[29.34,-6.2863],[29.3329,-6.2587],[29.3262,-6.2086],[29.3224,-6.1989],[29.3138,-6.1895],[29.3041,-6.1851],[29.2941,-6.1815],[29.285,-6.1751],[29.2785,-6.168],[29.2755,-6.1612],[29.2747,-6.1533],[29.2747,-6.1409],[29.2726,-6.1259],[29.2667,-6.1194],[29.2582,-6.1159],[29.2114,-6.0903],[29.1978,-6.0782],[29.1925,-6.0582],[29.1858,-5.9796],[29.1878,-5.9449],[29.1864,-5.9301],[29.179,-5.9178],[29.2355,-5.8901],[29.3118,-5.8268],[29.3206,-5.8159],[29.3291,-5.8009],[29.3462,-5.7594],[29.3568,-5.7465],[29.35,-5.7479],[29.345,-5.7476],[29.3406,-5.7468],[29.3353,-5.7465],[29.3494,-5.7273],[29.3444,-5.7079],[29.3362,-5.6902],[29.3421,-5.6652],[29.3312,-5.6428],[29.3321,-5.6337],[29.3441,-5.6258],[29.3515,-5.6302],[29.3589,-5.637],[29.37,-5.6373],[29.3727,-5.6096],[29.2579,-5.4106],[29.2488,-5.4041],[29.1772,-5.292],[29.1448,-5.2113],[29.1272,-5.1301],[29.1178,-5.1218],[29.1075,-5.1027],[29.0995,-5.0821],[29.0963,-5.068],[29.1016,-5.0524],[29.1113,-5.0323],[29.1178,-5.012],[29.1136,-4.9961],[29.1057,-4.9793],[29.0989,-4.7704],[29.1128,-4.6146],[29.1189,-4.5979],[29.1381,-4.5684],[29.1437,-4.5505],[29.1487,-4.5134],[29.1584,-4.5001],[29.174,-4.5007],[29.1896,-4.5116],[29.2014,-4.516],[29.2061,-4.4963],[29.1999,-4.4374],[29.1999,-4.4168],[29.204,-4.3986],[29.2176,-4.37],[29.2594,-4.1192],[29.2405,-4.0471],[29.234,-4.0471],[29.2134,-4.1257],[29.1928,-4.1693],[29.1814,-4.2278],[29.1684,-4.2493],[29.1581,-4.2711],[29.1516,-4.3306],[29.1381,-4.3485],[29.1266,-4.3476],[29.1131,-4.3406],[29.1007,-4.3312],[29.0933,-4.3244],[29.0839,-4.3194],[29.0418,-4.307],[29.0486,-4.307],[29.0536,-4.2841],[29.0683,-4.2596],[29.086,-4.2399],[29.1001,-4.232],[29.1048,-4.224],[29.1063,-4.2066],[29.1036,-4.1766],[29.0995,-4.1696],[29.0863,-4.1581],[29.0827,-4.1498],[29.0839,-4.1419],[29.0939,-4.1269],[29.0963,-4.1186],[29.0886,-4.0409],[29.0901,-4.0197],[29.1022,-3.987],[29.1048,-3.9388],[29.1028,-3.9255],[29.0963,-3.9173],[29.1048,-3.8984],[29.1051,-3.8675],[29.1242,-3.8304],[29.1178,-3.8128],[29.1048,-3.7951],[29.0963,-3.7733],[29.1004,-3.7554],[29.1248,-3.7215],[29.1304,-3.7003],[29.1337,-3.695],[29.1516,-3.68],[29.1345,-3.4269],[29.1425,-3.3839],[29.1652,-3.3506],[29.2061,-3.3344],[29.2532,-3.333],[29.2967,-3.3406],[29.3291,-3.3621],[29.3433,-3.4033],[29.3368,-3.7627],[29.37,-3.8552],[29.3733,-3.8873],[29.3774,-3.8973],[29.3868,-3.9067],[29.398,-3.9135],[29.4074,-3.9214],[29.416,-3.9458],[29.4348,-3.965],[29.4389,-3.9753],[29.4372,-3.9859],[29.4333,-3.9938],[29.4307,-4.0021],[29.4321,-4.013],[29.4372,-4.0221],[29.4595,-4.0533],[29.4695,-4.0733],[29.4748,-4.0818],[29.4837,-4.0913],[29.494,-4.1066],[29.4969,-4.1233],[29.4972,-4.1422],[29.501,-4.1631],[29.5104,-4.1763],[29.5243,-4.1872],[29.5364,-4.2008],[29.5419,-4.2217],[29.5452,-4.2437],[29.5537,-4.2664],[29.5914,-4.3294],[29.6061,-4.3462],[29.6414,-4.3794],[29.6544,-4.3992],[29.6567,-4.4204],[29.6497,-4.5095],[29.6026,-4.7606],[29.602,-4.8322],[29.6035,-4.8422],[29.6085,-4.8504],[29.6158,-4.8587],[29.6214,-4.8663],[29.6208,-4.8728],[29.5932,-4.8975],[29.5932,-4.9043],[29.6111,-4.9105],[29.6417,-4.9134],[29.6517,-4.9166],[29.6644,-4.9237],[29.6706,-4.9311],[29.675,-4.939],[29.6827,-4.9484],[29.6897,-4.9523],[29.7162,-4.9635],[29.7359,-4.969],[29.7456,-4.9776],[29.7618,-4.9991],[29.7657,-5.0008],[29.7713,-5.0005],[29.7768,-5.0011],[29.7816,-5.0064],[29.7819,-5.0123],[29.7795,-5.0185],[29.7754,-5.0264],[29.7816,-5.0447],[29.8057,-5.0759],[29.8163,-5.0971],[29.8225,-5.1203],[29.8231,-5.1436],[29.8207,-5.1551],[29.8169,-5.161],[29.8131,-5.1648],[29.8095,-5.1704],[29.8072,-5.1719],[29.8033,-5.1719],[29.7992,-5.1727],[29.7957,-5.1772],[29.7957,-5.1836],[29.8007,-5.1845],[29.8066,-5.1842],[29.8095,-5.1878],[29.8113,-5.1989],[29.8139,-5.2063],[29.8136,-5.2128],[29.806,-5.2219],[29.7998,-5.2334],[29.8066,-5.2537],[29.8025,-5.2666],[29.7951,-5.2625],[29.7919,-5.2619],[29.7889,-5.264],[29.7816,-5.2666],[29.7842,-5.279],[29.7857,-5.3031],[29.7842,-5.3288],[29.7783,-5.3458],[29.7654,-5.3632],[29.7533,-5.3856],[29.7448,-5.4091],[29.7412,-5.4312],[29.7501,-5.4636],[29.7704,-5.4915],[29.8163,-5.5342],[29.836,-5.5598],[29.9432,-5.7962],[29.9529,-5.8418],[29.9523,-5.8619],[29.9458,-5.8986],[29.9461,-5.9178],[29.9223,-5.9228],[29.8996,-5.9354],[29.8343,-5.9964],[29.8266,-6.0002],[29.8157,-5.9976],[29.7986,-5.9867],[29.7889,-5.9861],[29.7713,-5.9976],[29.7512,-6.0199],[29.7345,-6.0449],[29.7277,-6.065],[29.7253,-6.1285],[29.7321,-6.1957],[29.7283,-6.2186],[29.7168,-6.2366],[29.7118,-6.2466],[29.7165,-6.2569],[29.7268,-6.2645],[29.7504,-6.2713],[29.7574,-6.2801],[29.768,-6.3013],[29.8566,-6.4111],[29.9049,-6.4521],[29.9402,-6.47],[29.9523,-6.4838],[29.9529,-6.5074],[30.0297,-6.4653],[30.0721,-6.4532],[30.1174,-6.4521],[30.1386,-6.4576],[30.1586,-6.4688],[30.1737,-6.4844],[30.1795,-6.5036],[30.1901,-6.5236],[30.2923,-6.6207],[30.3096,-6.6328],[30.327,-6.6378],[30.3358,-6.6463],[30.3582,-6.699],[30.3956,-6.747],[30.3941,-6.7579],[30.4015,-6.7829],[30.4186,-6.8221],[30.4842,-6.8957],[30.5078,-6.911],[30.5145,-6.9245],[30.5646,-6.9563],[30.5766,-6.9766],[30.5766,-7.0175],[30.5737,-7.0228],[30.5604,-7.0343],[30.556,-7.0411],[30.5572,-7.0593],[30.561,-7.0823],[30.5599,-7.1017],[30.546,-7.11],[30.5184,-7.11],[30.5116,-7.1058],[30.5063,-7.0994],[30.501,-7.0982],[30.4942,-7.11],[30.508,-7.1182],[30.5216,-7.1326],[30.5319,-7.1503],[30.5357,-7.1682],[30.5334,-7.1738],[30.5304,-7.1844],[30.5325,-7.1947],[30.546,-7.1994],[30.5513,-7.2047],[30.5622,-7.2404],[30.6043,-7.3319],[30.6108,-7.3708],[30.6075,-7.3893],[30.5943,-7.4364],[30.5937,-7.4458],[30.6049,-7.4544],[30.5996,-7.4735],[30.5834,-7.5079],[30.6231,-7.5771],[30.6282,-7.5892],[30.6449,-7.596],[30.6535,-7.6113],[30.6588,-7.6295],[30.6661,-7.6439],[30.677,-7.6513],[30.7041,-7.664],[30.7144,-7.6719],[30.7203,-7.684],[30.7262,-7.7002],[30.7335,-7.714],[30.7447,-7.7202],[30.7995,-7.8744],[30.8236,-7.8965],[30.8336,-7.91],[30.841,-7.9451],[30.8498,-7.9557],[30.8716,-7.9733],[30.8822,-7.9869],[30.9028,-8.019],[30.9063,-8.0316],[30.9096,-8.0737],[30.9157,-8.0937],[30.926,-8.1105],[30.9305,-8.1067],[30.9467,-8.097],[30.9549,-8.1114],[30.962,-8.129],[30.9646,-8.1482],[30.9596,-8.1653],[30.9552,-8.1555],[30.954,-8.1514],[30.9467,-8.1514],[30.9428,-8.1658],[30.9458,-8.1764],[30.9514,-8.1859],[30.9558,-8.2053],[30.9602,-8.2121],[30.9646,-8.2171],[30.9673,-8.2206],[30.969,-8.228],[30.9687,-8.2315],[30.9678,-8.2353],[30.9673,-8.2444],[30.9711,-8.2621],[30.9808,-8.2703],[30.994,-8.2751],[31.0082,-8.2818],[31.0194,-8.2948],[31.0311,-8.3242],[31.0426,-8.3372],[31.0444,-8.3325],[31.045,-8.3316],[31.0461,-8.3316],[31.0497,-8.3298],[31.0673,-8.3569],[31.1271,-8.394],[31.1453,-8.4261],[31.1345,-8.4882],[31.1353,-8.5253],[31.1554,-8.542],[31.166,-8.5465],[31.1686,-8.5579],[31.1657,-8.5868],[31.171,-8.5986],[31.1945,-8.6121],[31.1998,-8.628],[31.1977,-8.6365],[31.1889,-8.6518],[31.1869,-8.6586],[31.1889,-8.6654],[31.1977,-8.6819],[31.1998,-8.6892],[31.1986,-8.7054],[31.1942,-8.7237],[31.186,-8.7396],[31.1733,-8.7481],[31.1698,-8.7381],[31.1554,-8.7266],[31.1492,-8.7081],[31.143,-8.7101],[31.1315,-8.7207],[31.1283,-8.7251],[31.1253,-8.7316],[31.1212,-8.7381],[31.1074,-8.7434],[31.1033,-8.7502],[31.1021,-8.7593],[31.1035,-8.7687],[31.0874,-8.7758],[31.0656,-8.7899],[31.0435,-8.8011],[31.0252,-8.799],[30.858,-8.6177],[30.8098,-8.5847],[30.8027,-8.5729]]]}}
