{"type":"Feature","properties":{"id":1014,"name":"Lake Victoria","featurecla":"Lake","scalerank":0,"wikidataid":"Q5505","source":"Natural Earth 5.2.0-pre ne_10m_lakes (public domain)"},"geometry":{"type":"Polygon","coordinates":[[[33.9047,-1.5294],[33.8888,-1.5212],[33.8794,-1.5182],[33.8703,-1.5173],[33.8417,-1.5182],[33.8247,-1.5123],[33.8167,-1.4982],[33.8102,-1.4823],[33.7976,-1.4705],[33.7932,-1.4817],[33.7843,-1.482],[33.7717,-1.4782],[33.7558,-1.4767],[33.7478,-1.4794],[33.7346,-1.4891],[33.7257,-1.4911],[33.7166,-1.4891],[33.7104,-1.4847],[33.7057,-1.4799],[33.7019,-1.4767],[33.681,-1.4664],[33.6675,-1.4643],[33.6539,-1.4705],[33.6474,-1.4823],[33.6527,-1.492],[33.6619,-1.5008],[33.6678,-1.5114],[33.6825,-1.5088],[33.686,-1.5191],[33.6813,-1.535],[33.6713,-1.5491],[33.6572,-1.555],[33.6419,-1.5544],[33.6265,-1.5556],[33.6124,-1.5662],[33.6192,-1.5712],[33.6274,-1.5727],[33.6368,-1.5709],[33.6466,-1.5662],[33.6483,-1.578],[33.6539,-1.5842],[33.6628,-1.5847],[33.6745,-1.5803],[33.6869,-1.5977],[33.6884,-1.6042],[33.6878,-1.6154],[33.6854,-1.6177],[33.6792,-1.6195],[33.6678,-1.628],[33.6763,-1.6321],[33.6842,-1.6339],[33.6928,-1.633],[33.7019,-1.628],[33.7093,-1.6368],[33.7113,-1.6483],[33.7087,-1.6601],[33.7019,-1.6698],[33.6954,-1.6736],[33.6878,-1.6754],[33.5853,-1.676],[33.5491,-1.6722],[33.5432,-1.6754],[33.5506,-1.6901],[33.5568,-1.6963],[33.5783,-1.7101],[33.5842,-1.716],[33.5897,-1.7231],[33.5989,-1.7381],[33.6056,-1.7305],[33.6148,-1.7387],[33.6413,-1.7569],[33.6466,-1.7619],[33.6413,-1.7752],[33.6295,-1.7784],[33.6177,-1.7755],[33.6124,-1.7687],[33.5806,-1.7611],[33.5783,-1.7584],[33.5674,-1.7655],[33.5671,-1.7717],[33.5688,-1.7799],[33.5647,-1.7926],[33.5571,-1.8035],[33.55,-1.8096],[33.5409,-1.8126],[33.527,-1.8132],[33.5226,-1.8173],[33.5153,-1.8264],[33.5053,-1.8355],[33.4926,-1.8397],[33.4708,-1.8403],[33.4508,-1.8373],[33.4405,-1.8255],[33.4479,-1.7996],[33.3884,-1.7987],[33.3651,-1.8043],[33.3381,-1.8261],[33.3313,-1.8373],[33.3213,-1.8659],[33.3113,-1.8835],[33.3104,-1.8909],[33.3107,-1.9056],[33.3072,-1.9074],[33.283,-1.9224],[33.3142,-1.9445],[33.3528,-1.9247],[33.3925,-1.8971],[33.4276,-1.895],[33.4302,-1.885],[33.4379,-1.8803],[33.449,-1.8797],[33.4617,-1.8815],[33.4552,-1.8935],[33.4608,-1.9015],[33.4823,-1.9156],[33.4903,-1.9268],[33.4885,-1.9324],[33.4617,-1.9498],[33.5044,-1.9536],[33.5441,-1.9633],[33.5424,-1.9674],[33.5418,-1.9683],[33.5406,-1.9683],[33.5368,-1.9701],[33.5444,-1.9733],[33.5471,-1.9754],[33.55,-1.9745],[33.558,-1.9701],[33.5733,-1.9871],[33.5691,-2.0016],[33.5571,-2.0148],[33.5506,-2.0289],[33.5426,-2.0257],[33.4964,-2.0254],[33.4314,-1.9813],[33.3999,-1.9721],[33.3722,-1.998],[33.4002,-2.0389],[33.386,-2.0428],[33.3825,-2.046],[33.3796,-2.0534],[33.3404,-2.0189],[33.3242,-2.0166],[33.3245,-2.0457],[33.3178,-2.0457],[33.3104,-2.031],[33.2969,-2.0113],[33.2815,-2.0004],[33.2698,-2.0116],[33.2848,-2.0189],[33.2924,-2.0316],[33.2927,-2.0454],[33.286,-2.0563],[33.281,-2.0525],[33.2562,-2.0457],[33.2562,-2.0472],[33.2283,-2.0457],[33.2233,-2.0445],[33.2209,-2.0416],[33.2188,-2.0428],[33.2147,-2.0534],[33.2171,-2.0534],[33.2191,-2.0619],[33.2212,-2.0725],[33.2215,-2.0799],[33.2177,-2.0905],[33.2088,-2.1043],[33.2077,-2.1149],[33.21,-2.1231],[33.2136,-2.1302],[33.2215,-2.142],[33.2395,-2.1217],[33.2595,-2.1111],[33.2824,-2.1111],[33.3107,-2.1217],[33.3366,-2.1358],[33.3475,-2.1461],[33.3519,-2.159],[33.3581,-2.1676],[33.3725,-2.1661],[33.4002,-2.1558],[33.4493,-2.1511],[33.5094,-2.1532],[33.5662,-2.1632],[33.6056,-2.1829],[33.6289,-2.1582],[33.6421,-2.1467],[33.6572,-2.142],[33.6666,-2.1376],[33.7122,-2.1046],[33.7493,-2.0857],[33.7864,-2.0949],[33.8158,-2.1231],[33.8314,-2.1626],[33.8311,-2.172],[33.8255,-2.1879],[33.8247,-2.1973],[33.827,-2.2006],[33.8317,-2.2047],[33.8364,-2.2106],[33.8385,-2.2206],[33.7805,-2.2588],[33.7702,-2.2606],[33.7599,-2.2697],[33.7154,-2.2791],[33.7019,-2.2868],[33.6678,-2.3133],[33.6486,-2.3083],[33.6339,-2.3189],[33.6124,-2.3474],[33.5974,-2.3566],[33.5574,-2.3722],[33.5406,-2.3748],[33.5323,-2.3786],[33.5223,-2.3872],[33.5138,-2.3975],[33.51,-2.4054],[33.5114,-2.4143],[33.515,-2.4184],[33.5206,-2.421],[33.527,-2.426],[33.53,-2.4402],[33.5153,-2.4487],[33.4935,-2.4484],[33.4758,-2.4357],[33.4655,-2.4443],[33.4426,-2.4522],[33.417,-2.4672],[33.4075,-2.4672],[33.4075,-2.4678],[33.4208,-2.4773],[33.4564,-2.4937],[33.4617,-2.5017],[33.4588,-2.5161],[33.4508,-2.527],[33.4399,-2.5311],[33.4276,-2.5249],[33.422,-2.5323],[33.4208,-2.5391],[33.4228,-2.5455],[33.4276,-2.5529],[33.4105,-2.5544],[33.3999,-2.552],[33.3943,-2.5441],[33.3928,-2.5288],[33.3869,-2.5308],[33.3731,-2.5326],[33.3572,-2.5314],[33.3448,-2.5249],[33.3475,-2.5223],[33.351,-2.5138],[33.3534,-2.5043],[33.3519,-2.4984],[33.3445,-2.4955],[33.3384,-2.4976],[33.3342,-2.5023],[33.3298,-2.5167],[33.3231,-2.5143],[33.3157,-2.5085],[33.3107,-2.5052],[33.2863,-2.5111],[33.2339,-2.5179],[33.2215,-2.5182],[33.2077,-2.5129],[33.1856,-2.4952],[33.1773,-2.4914],[33.1732,-2.4881],[33.1741,-2.4737],[33.1706,-2.4705],[33.17,-2.469],[33.1511,-2.4634],[33.147,-2.4628],[33.1385,-2.4525],[33.127,-2.429],[33.1191,-2.4163],[33.1194,-2.4001],[33.0805,-2.3889],[32.9993,-2.3804],[32.9628,-2.3884],[32.9265,-2.4093],[32.903,-2.4384],[32.9068,-2.4705],[32.8924,-2.4652],[32.8815,-2.4672],[32.8747,-2.4773],[32.8727,-2.4949],[32.878,-2.5076],[32.9015,-2.5326],[32.9068,-2.5497],[32.9006,-2.5541],[32.8771,-2.5868],[32.8762,-2.5944],[32.8656,-2.6015],[32.865,-2.6174],[32.8697,-2.6344],[32.8762,-2.6456],[32.895,-2.6589],[32.8992,-2.6627],[32.9077,-2.6754],[32.9095,-2.6792],[32.9062,-2.6815],[32.8992,-2.6901],[32.8956,-2.6883],[32.8883,-2.6871],[32.8809,-2.691],[32.8794,-2.7045],[32.8833,-2.7086],[32.9003,-2.7242],[32.9068,-2.731],[32.9109,-2.7386],[32.9165,-2.7534],[32.9204,-2.759],[32.926,-2.7625],[32.9424,-2.7696],[32.9477,-2.7725],[32.9548,-2.7863],[32.948,-2.7937],[32.9357,-2.8022],[32.9271,-2.8205],[32.9601,-2.8187],[32.9686,-2.8205],[32.9695,-2.824],[32.9681,-2.8373],[32.9686,-2.8411],[32.9825,-2.8484],[32.9919,-2.8496],[33.0004,-2.8461],[33.0101,-2.8455],[33.0234,-2.8546],[33.0278,-2.8611],[33.0293,-2.8688],[33.0281,-2.8761],[33.0234,-2.8826],[33.0113,-2.8838],[32.9916,-2.8782],[32.9339,-2.8517],[32.9177,-2.8405],[32.908,-2.8246],[32.9068,-2.7999],[32.8992,-2.7999],[32.8909,-2.822],[32.8777,-2.832],[32.8606,-2.839],[32.8412,-2.8514],[32.8323,-2.8664],[32.8253,-2.8885],[32.822,-2.91],[32.825,-2.9229],[32.8094,-2.9609],[32.8038,-2.9706],[32.7708,-2.9995],[32.7629,-3.0121],[32.7555,-3.0121],[32.7479,-3.0],[32.7455,-2.985],[32.7487,-2.9691],[32.7591,-2.9538],[32.7626,-2.9418],[32.7623,-2.9282],[32.7696,-2.9182],[32.7967,-2.9167],[32.7967,-2.91],[32.7649,-2.8861],[32.7455,-2.8773],[32.7284,-2.8826],[32.7205,-2.8696],[32.7255,-2.8626],[32.749,-2.8546],[32.7817,-2.8367],[32.7932,-2.834],[32.8059,-2.8331],[32.8474,-2.8243],[32.848,-2.8167],[32.8444,-2.8058],[32.8447,-2.7931],[32.8659,-2.7545],[32.873,-2.7289],[32.8621,-2.7175],[32.8341,-2.7142],[32.8229,-2.7054],[32.8271,-2.6924],[32.8447,-2.6765],[32.8256,-2.6656],[32.8176,-2.6645],[32.8106,-2.6689],[32.8059,-2.6609],[32.802,-2.6527],[32.7967,-2.635],[32.8117,-2.6392],[32.8173,-2.6424],[32.8215,-2.6233],[32.8159,-2.6038],[32.8162,-2.5897],[32.8376,-2.5871],[32.8341,-2.5756],[32.8291,-2.5673],[32.8215,-2.5638],[32.8106,-2.5664],[32.8123,-2.55],[32.8206,-2.5394],[32.8309,-2.5302],[32.8376,-2.5182],[32.8376,-2.512],[32.8285,-2.5093],[32.8244,-2.5043],[32.8209,-2.4973],[32.8141,-2.4881],[32.8053,-2.4852],[32.7879,-2.4952],[32.7764,-2.4914],[32.7623,-2.4996],[32.7467,-2.5229],[32.7346,-2.5326],[32.7349,-2.5193],[32.7323,-2.4987],[32.7346,-2.4914],[32.7284,-2.4846],[32.6872,-2.5111],[32.6734,-2.5182],[32.6799,-2.5043],[32.6902,-2.4896],[32.6949,-2.4734],[32.684,-2.4537],[32.6696,-2.434],[32.6663,-2.4181],[32.6657,-2.4016],[32.6596,-2.3804],[32.6507,-2.3889],[32.6419,-2.4054],[32.6351,-2.4222],[32.6325,-2.4325],[32.6304,-2.4534],[32.6248,-2.4672],[32.5495,-2.5385],[32.5247,-2.5529],[32.5021,-2.5461],[32.5162,-2.5182],[32.523,-2.5096],[32.5403,-2.4949],[32.5486,-2.4823],[32.553,-2.4667],[32.5536,-2.4505],[32.5506,-2.4357],[32.5436,-2.4357],[32.538,-2.4466],[32.5177,-2.4599],[32.5094,-2.4705],[32.5006,-2.4619],[32.4921,-2.4558],[32.4832,-2.4555],[32.4753,-2.4628],[32.4659,-2.4587],[32.4556,-2.4564],[32.445,-2.4561],[32.4338,-2.4566],[32.4361,-2.4519],[32.4394,-2.4405],[32.4411,-2.4357],[32.3952,-2.4366],[32.3714,-2.4322],[32.3581,-2.4163],[32.3611,-2.4037],[32.3381,-2.3789],[32.3202,-2.3539],[32.324,-2.3339],[32.3302,-2.333],[32.339,-2.3348],[32.3452,-2.3377],[32.3443,-2.3413],[32.3567,-2.3336],[32.3611,-2.3289],[32.3549,-2.3265],[32.3381,-2.3233],[32.3287,-2.3156],[32.3099,-2.2718],[32.3057,-2.2712],[32.2931,-2.2718],[32.2807,-2.2747],[32.2704,-2.2806],[32.2586,-2.2839],[32.2419,-2.2791],[32.2371,-2.2736],[32.231,-2.2565],[32.2277,-2.2521],[32.2189,-2.2509],[32.2142,-2.2562],[32.2139,-2.2624],[32.2177,-2.2656],[32.2239,-2.2727],[32.2251,-2.2892],[32.2215,-2.3209],[32.203,-2.3215],[32.1774,-2.3704],[32.1594,-2.3884],[32.1462,-2.391],[32.1329,-2.3887],[32.1229,-2.3819],[32.1191,-2.371],[32.082,-2.3695],[32.0776,-2.3675],[32.0705,-2.3751],[32.0664,-2.3857],[32.0644,-2.3987],[32.0638,-2.4128],[32.0679,-2.4246],[32.0773,-2.4296],[32.0888,-2.4319],[32.0979,-2.4357],[32.1023,-2.4419],[32.1044,-2.4543],[32.1079,-2.4599],[32.115,-2.464],[32.13,-2.4699],[32.1462,-2.4823],[32.1574,-2.4884],[32.1668,-2.4964],[32.1736,-2.512],[32.1624,-2.5208],[32.1609,-2.5358],[32.1568,-2.5508],[32.1382,-2.5603],[32.1385,-2.552],[32.1321,-2.5326],[32.1194,-2.5364],[32.1082,-2.5308],[32.1017,-2.5211],[32.1044,-2.512],[32.0956,-2.5064],[32.0867,-2.5032],[32.0779,-2.5029],[32.0699,-2.5052],[32.0744,-2.5132],[32.075,-2.5155],[32.0729,-2.5176],[32.0699,-2.5249],[32.0585,-2.509],[32.0355,-2.4831],[32.0296,-2.4705],[32.0261,-2.4787],[32.0237,-2.4867],[32.0226,-2.4949],[32.0228,-2.5052],[32.0161,-2.5052],[32.0072,-2.487],[31.994,-2.4908],[31.9858,-2.5079],[31.9919,-2.5288],[31.9922,-2.537],[31.9884,-2.5614],[31.9919,-2.5664],[31.9952,-2.5688],[31.9955,-2.5738],[31.9943,-2.5794],[31.9919,-2.5838],[31.9828,-2.5909],[31.9778,-2.5909],[31.974,-2.5876],[31.9684,-2.5871],[31.9569,-2.5885],[31.9484,-2.5882],[31.941,-2.5891],[31.9342,-2.5944],[31.9322,-2.6012],[31.9357,-2.608],[31.9425,-2.613],[31.9507,-2.615],[31.9578,-2.6185],[31.9654,-2.6271],[31.9719,-2.6374],[31.9772,-2.6595],[31.9837,-2.6671],[31.9905,-2.6715],[31.9949,-2.6765],[31.9958,-2.6836],[31.9943,-2.7027],[31.9949,-2.7107],[32.0008,-2.7172],[32.019,-2.7322],[32.0228,-2.7416],[32.0155,-2.7601],[31.999,-2.7684],[31.9808,-2.7657],[31.9684,-2.7522],[31.9652,-2.7298],[31.9654,-2.7098],[31.9599,-2.6957],[31.9372,-2.6901],[31.9372,-2.6807],[31.9387,-2.6618],[31.9319,-2.6486],[31.9063,-2.6559],[31.9066,-2.6412],[31.9045,-2.6347],[31.8995,-2.635],[31.8933,-2.6409],[31.8945,-2.6445],[31.898,-2.6486],[31.8995,-2.6559],[31.8992,-2.6677],[31.9025,-2.6998],[31.9063,-2.7107],[31.888,-2.7125],[31.8721,-2.7175],[31.8745,-2.7024],[31.8683,-2.6874],[31.858,-2.678],[31.848,-2.6798],[31.8395,-2.6868],[31.8321,-2.6913],[31.8265,-2.6971],[31.8242,-2.7074],[31.8292,-2.721],[31.8306,-2.7281],[31.8274,-2.731],[31.8289,-2.7381],[31.8421,-2.7734],[31.8448,-2.7863],[31.8383,-2.7999],[31.8253,-2.8143],[31.81,-2.8267],[31.7965,-2.834],[31.7829,-2.8149],[31.7824,-2.7908],[31.7903,-2.7416],[31.7894,-2.7257],[31.7865,-2.7186],[31.7809,-2.7172],[31.7623,-2.7175],[31.7597,-2.716],[31.7609,-2.7113],[31.7635,-2.6927],[31.7759,-2.6689],[31.7756,-2.6648],[31.7735,-2.6601],[31.7735,-2.6542],[31.7794,-2.6456],[31.785,-2.643],[31.798,-2.6439],[31.8091,-2.64],[31.8133,-2.6412],[31.8159,-2.64],[31.8168,-2.6318],[31.8168,-2.6241],[31.8171,-2.62],[31.8191,-2.618],[31.8242,-2.615],[31.8353,-2.615],[31.8468,-2.6191],[31.8556,-2.6174],[31.8583,-2.6009],[31.8462,-2.6056],[31.8297,-2.608],[31.7997,-2.6082],[31.7691,-2.618],[31.7547,-2.62],[31.7485,-2.6115],[31.7485,-2.5567],[31.7432,-2.547],[31.7314,-2.5444],[31.7197,-2.5391],[31.7144,-2.5217],[31.7179,-2.5076],[31.7267,-2.5049],[31.74,-2.5064],[31.7553,-2.5052],[31.7712,-2.4979],[31.7829,-2.4879],[31.7912,-2.4758],[31.7965,-2.4628],[31.7953,-2.4555],[31.7915,-2.4481],[31.7894,-2.4408],[31.7962,-2.4249],[31.7897,-2.4204],[31.7759,-2.4163],[31.7594,-2.3931],[31.7562,-2.381],[31.7553,-2.3613],[31.7712,-2.3636],[31.7723,-2.3574],[31.7635,-2.348],[31.7485,-2.3413],[31.7511,-2.3371],[31.7553,-2.3265],[31.7252,-2.3204],[31.7041,-2.3318],[31.6849,-2.3492],[31.6593,-2.3613],[31.6416,-2.3619],[31.6337,-2.3563],[31.6316,-2.3433],[31.6319,-2.3236],[31.634,-2.3162],[31.639,-2.3086],[31.6493,-2.2962],[31.6528,-2.2883],[31.6522,-2.2588],[31.6723,-2.1994],[31.6693,-2.19],[31.6749,-2.1826],[31.6937,-2.142],[31.6917,-2.1349],[31.6817,-2.1237],[31.6805,-2.1149],[31.6843,-2.1055],[31.6979,-2.0878],[31.7008,-2.0766],[31.6985,-2.0716],[31.6884,-2.0637],[31.6864,-2.0596],[31.6879,-2.0545],[31.6929,-2.0472],[31.6955,-2.0336],[31.707,-2.0048],[31.6893,-2.006],[31.6805,-2.0119],[31.6743,-2.0195],[31.6661,-2.0254],[31.6567,-2.0278],[31.6511,-2.0275],[31.6452,-2.0263],[31.6352,-2.0254],[31.6293,-2.0286],[31.626,-2.0357],[31.6213,-2.0407],[31.611,-2.0389],[31.6125,-2.0036],[31.6184,-1.9742],[31.6308,-1.948],[31.6737,-1.895],[31.6843,-1.8673],[31.6937,-1.7996],[31.6985,-1.7837],[31.7117,-1.7555],[31.7205,-1.676],[31.7361,-1.6436],[31.7541,-1.6198],[31.7609,-1.5965],[31.7417,-1.5662],[31.7526,-1.5376],[31.7488,-1.4938],[31.7553,-1.4658],[31.7965,-1.4841],[31.8012,-1.4708],[31.803,-1.4561],[31.803,-1.4255],[31.8053,-1.412],[31.8147,-1.3899],[31.8209,-1.3475],[31.8421,-1.3069],[31.8509,-1.278],[31.8586,-1.1823],[31.8686,-1.1588],[31.8701,-1.15],[31.8642,-1.1385],[31.8562,-1.1258],[31.8509,-1.1135],[31.8504,-1.0993],[31.8515,-1.0873],[31.8512,-1.0752],[31.8448,-1.059],[31.8539,-1.0519],[31.8671,-1.0381],[31.8739,-1.0246],[31.8618,-1.0187],[31.8536,-1.021],[31.8459,-1.0246],[31.84,-1.0243],[31.838,-1.0149],[31.8383,-1.004],[31.8374,-0.9951],[31.8336,-0.9884],[31.8242,-0.9839],[31.8247,-1.0016],[31.8212,-1.0213],[31.8138,-1.0399],[31.803,-1.0455],[31.7815,-1.0552],[31.7685,-1.0475],[31.767,-1.0296],[31.785,-0.9987],[31.7879,-0.9887],[31.7865,-0.9804],[31.7723,-0.9733],[31.77,-0.9645],[31.7662,-0.9201],[31.7691,-0.8638],[31.7606,-0.8465],[31.7408,-0.8427],[31.7182,-0.8435],[31.7008,-0.8394],[31.697,-0.8244],[31.699,-0.7994],[31.7061,-0.7752],[31.7176,-0.7646],[31.7179,-0.757],[31.7553,-0.7164],[31.7788,-0.6693],[31.7865,-0.6616],[31.795,-0.6593],[31.7982,-0.6525],[31.7971,-0.6448],[31.7856,-0.6257],[31.7847,-0.6163],[31.7929,-0.576],[31.7965,-0.5657],[31.8277,-0.5227],[31.8347,-0.5085],[31.838,-0.4938],[31.8468,-0.4715],[31.8683,-0.4567],[31.913,-0.4358],[31.9263,-0.4223],[31.9613,-0.3778],[31.9684,-0.3634],[31.9775,-0.3381],[31.9978,-0.3146],[32.019,-0.306],[32.0296,-0.3257],[32.0373,-0.3257],[32.0358,-0.3113],[32.0296,-0.2945],[32.0208,-0.2786],[32.0128,-0.2675],[32.0099,-0.261],[32.0087,-0.253],[32.0061,-0.2466],[31.9987,-0.2442],[31.9902,-0.2445],[31.9843,-0.2442],[31.9796,-0.2404],[31.9746,-0.2304],[31.9802,-0.2048],[31.9805,-0.1895],[31.9713,-0.1827],[31.9613,-0.1836],[31.9266,-0.1956],[31.9354,-0.1553],[31.9401,-0.1403],[31.9345,-0.1391],[31.9198,-0.1341],[31.9398,-0.1247],[31.9949,-0.0858],[32.012,-0.0926],[32.0517,-0.095],[32.0699,-0.0994],[32.0617,-0.0758],[32.0258,-0.0673],[32.0161,-0.0446],[32.0311,-0.0488],[32.0373,-0.0523],[32.0767,-0.0364],[32.1044,-0.0455],[32.1321,-0.0632],[32.17,-0.0726],[32.1883,-0.0685],[32.2003,-0.0576],[32.2062,-0.042],[32.208,-0.0243],[32.2054,-0.0158],[32.1959,0.0025],[32.1936,0.0137],[32.1956,0.0181],[32.208,0.0372],[32.2068,0.031],[32.2068,0.026],[32.2054,0.0216],[32.2003,0.0166],[32.2154,-0.0034],[32.2413,-0.0214],[32.2692,-0.029],[32.2898,-0.0175],[32.2916,0.0019],[32.2795,0.019],[32.2483,0.044],[32.2557,0.0513],[32.286,0.0375],[32.3243,0.0269],[32.3522,0.0095],[32.3519,-0.0243],[32.3728,-0.0252],[32.379,-0.0243],[32.3687,-0.0037],[32.3749,0.054],[32.3655,0.0855],[32.3861,0.0917],[32.4011,0.0778],[32.4211,0.0828],[32.4391,0.0993],[32.4476,0.119],[32.4591,0.1087],[32.4579,0.0952],[32.45,0.0817],[32.4411,0.0714],[32.4197,0.0552],[32.422,0.0487],[32.4376,0.0337],[32.452,0.0301],[32.4629,0.0413],[32.4718,0.0563],[32.4818,0.0678],[32.4841,0.0761],[32.4882,0.0834],[32.4959,0.0855],[32.5006,0.0808],[32.5094,0.0513],[32.518,0.0566],[32.5239,0.074],[32.53,0.0781],[32.5398,0.0749],[32.5471,0.0658],[32.5574,0.044],[32.5701,0.0605],[32.5439,0.1023],[32.5506,0.119],[32.5595,0.1132],[32.578,0.1052],[32.588,0.1079],[32.5715,0.1335],[32.5907,0.1393],[32.5983,0.1402],[32.5983,0.147],[32.5895,0.1499],[32.5715,0.1614],[32.5754,0.1747],[32.563,0.1897],[32.568,0.1985],[32.5789,0.2015],[32.588,0.1973],[32.5948,0.1962],[32.5983,0.2085],[32.616,0.2115],[32.6266,0.24],[32.6348,0.2733],[32.6454,0.2909],[32.6628,0.2889],[32.6669,0.2768],[32.6634,0.2633],[32.6478,0.2477],[32.6481,0.2309],[32.6566,0.2221],[32.6734,0.2365],[32.6808,0.2221],[32.6575,0.1832],[32.6613,0.1717],[32.6905,0.1673],[32.6993,0.1741],[32.7072,0.1879],[32.7149,0.2085],[32.7249,0.2059],[32.7311,0.1962],[32.7361,0.1838],[32.7417,0.1738],[32.7284,0.1664],[32.7111,0.1446],[32.704,0.1402],[32.6858,0.1411],[32.6808,0.1402],[32.6704,0.1352],[32.6625,0.1329],[32.6531,0.1335],[32.6607,0.1199],[32.6613,0.0984],[32.6666,0.0917],[32.6822,0.089],[32.6949,0.0946],[32.7046,0.1023],[32.7111,0.1061],[32.7196,0.1073],[32.7323,0.1105],[32.744,0.1158],[32.749,0.1229],[32.7561,0.1261],[32.7717,0.1202],[32.7967,0.1061],[32.7973,0.1249],[32.7991,0.1388],[32.8032,0.1502],[32.8106,0.1614],[32.8173,0.1614],[32.8223,0.1497],[32.8323,0.1497],[32.8453,0.1517],[32.8591,0.147],[32.8553,0.1549],[32.8532,0.1632],[32.8515,0.1811],[32.8591,0.1811],[32.8641,0.1688],[32.8777,0.1906],[32.893,0.1956],[32.89,0.1915],[32.8883,0.1885],[32.8856,0.1811],[32.8959,0.1814],[32.8992,0.1811],[32.8909,0.1714],[32.8859,0.1611],[32.8874,0.1526],[32.8992,0.147],[32.8889,0.1432],[32.8777,0.1364],[32.8715,0.127],[32.8762,0.1158],[32.888,0.1073],[32.8927,0.1073],[32.8933,0.1049],[32.893,0.0887],[32.9012,0.0769],[32.9207,0.0778],[32.9863,0.1011],[33.0081,0.1129],[33.0776,0.1661],[33.0849,0.1738],[33.092,0.1862],[33.1052,0.2221],[33.0717,0.2235],[33.0431,0.2288],[33.0705,0.2465],[33.0787,0.25],[33.0787,0.2568],[33.0711,0.2568],[33.0711,0.263],[33.0811,0.2603],[33.0987,0.2518],[33.1238,0.2471],[33.1235,0.2397],[33.1129,0.2256],[33.117,0.2144],[33.1264,0.2171],[33.1355,0.2247],[33.1394,0.2288],[33.1408,0.2341],[33.1394,0.2412],[33.1388,0.2474],[33.1432,0.25],[33.1509,0.2512],[33.1561,0.2542],[33.1673,0.263],[33.1564,0.2765],[33.1506,0.2974],[33.1538,0.3163],[33.1706,0.3245],[33.1888,0.3289],[33.22,0.3475],[33.2386,0.3519],[33.2421,0.3545],[33.2642,0.3678],[33.2698,0.3731],[33.2707,0.3863],[33.2668,0.3904],[33.2592,0.3907],[33.2312,0.3969],[33.21,0.3984],[33.1929,0.406],[33.1874,0.4281],[33.2109,0.4228],[33.2359,0.4272],[33.2503,0.4405],[33.2418,0.4617],[33.2739,0.4767],[33.283,0.4829],[33.2907,0.4396],[33.3186,0.4375],[33.3457,0.4564],[33.3519,0.4752],[33.366,0.497],[33.3852,0.4908],[33.3893,0.4846],[33.3722,0.4617],[33.3498,0.4219],[33.3548,0.4161],[33.3625,0.4113],[33.366,0.4072],[33.3493,0.3919],[33.3257,0.3893],[33.3101,0.3819],[33.3178,0.3519],[33.3286,0.3595],[33.366,0.3731],[33.3699,0.3639],[33.369,0.3551],[33.3651,0.3466],[33.3593,0.3389],[33.3769,0.343],[33.3949,0.3413],[33.412,0.3345],[33.4276,0.3245],[33.4261,0.333],[33.4243,0.3389],[33.4208,0.3428],[33.4137,0.3457],[33.442,0.3563],[33.4558,0.3578],[33.4691,0.3519],[33.4549,0.3457],[33.4658,0.3307],[33.4832,0.3245],[33.4947,0.3189],[33.4891,0.3048],[33.5082,0.3004],[33.5079,0.2833],[33.495,0.2703],[33.4758,0.2774],[33.4823,0.2809],[33.4891,0.2836],[33.4752,0.2898],[33.4591,0.2945],[33.444,0.2954],[33.4343,0.2909],[33.4264,0.2957],[33.4184,0.2977],[33.4002,0.2977],[33.4055,0.2889],[33.4134,0.2836],[33.4343,0.2774],[33.4208,0.27],[33.4334,0.2612],[33.439,0.2586],[33.4479,0.2568],[33.4264,0.2436],[33.4396,0.2274],[33.4655,0.2088],[33.4823,0.1879],[33.4891,0.1879],[33.4864,0.2162],[33.4876,0.2303],[33.4926,0.2365],[33.5011,0.2321],[33.5038,0.2215],[33.5026,0.1956],[33.5112,0.2029],[33.522,0.2179],[33.5306,0.2221],[33.5291,0.2112],[33.5256,0.2006],[33.5162,0.1811],[33.5253,0.1826],[33.5312,0.1856],[33.5347,0.1917],[33.5368,0.2018],[33.5441,0.2018],[33.5459,0.1859],[33.5556,0.1797],[33.5665,0.1838],[33.5715,0.1985],[33.58,0.2076],[33.5989,0.2156],[33.6174,0.2271],[33.6262,0.2462],[33.6189,0.2989],[33.6198,0.311],[33.6295,0.3207],[33.6421,0.3233],[33.6557,0.3198],[33.6678,0.311],[33.6857,0.326],[33.6942,0.3301],[33.7087,0.3322],[33.7204,0.3307],[33.7355,0.326],[33.749,0.3192],[33.7558,0.311],[33.7334,0.3068],[33.7151,0.2983],[33.7019,0.2842],[33.6951,0.263],[33.7063,0.268],[33.7184,0.2689],[33.7307,0.2668],[33.7428,0.263],[33.7428,0.2568],[33.7337,0.2489],[33.7204,0.2333],[33.7098,0.2153],[33.7087,0.2018],[33.7219,0.1932],[33.7637,0.1909],[33.777,0.1879],[33.7876,0.1979],[33.7879,0.2085],[33.7861,0.2206],[33.7899,0.2365],[33.8046,0.2203],[33.8079,0.2],[33.8093,0.1773],[33.8179,0.1538],[33.8235,0.1667],[33.827,0.1935],[33.8314,0.2085],[33.862,0.1885],[33.8938,0.1738],[33.8953,0.1923],[33.905,0.1991],[33.9159,0.2044],[33.9209,0.2191],[33.9659,0.2562],[33.9721,0.263],[33.9804,0.2645],[33.9818,0.2656],[33.9892,0.2568],[33.993,0.2515],[34.0019,0.233],[34.0036,0.2256],[34.0013,0.2129],[33.9916,0.1811],[33.9892,0.1644],[33.9904,0.1349],[33.9883,0.119],[33.9824,0.1061],[33.9742,0.1028],[33.9654,0.1058],[33.958,0.1058],[33.9551,0.0952],[33.9562,0.0755],[33.9583,0.0663],[33.9618,0.0575],[33.9689,0.0505],[33.9777,0.0449],[33.986,0.0381],[33.9892,0.0269],[33.9898,0.0181],[33.996,-0.0108],[33.996,-0.0405],[33.9998,-0.0446],[34.018,-0.0458],[34.0245,-0.0482],[34.0301,-0.0523],[34.0301,-0.0585],[34.0207,-0.0705],[34.0272,-0.0749],[34.0389,-0.0747],[34.0437,-0.0726],[34.0551,-0.0879],[34.0513,-0.0858],[34.0545,-0.0911],[34.0551,-0.0967],[34.0572,-0.1017],[34.0649,-0.1067],[34.0649,-0.0967],[34.066,-0.0888],[34.0684,-0.0811],[34.0719,-0.0726],[34.0649,-0.0726],[34.0769,-0.0635],[34.0946,-0.0593],[34.1234,-0.0585],[34.1349,-0.0649],[34.1308,-0.0797],[34.1128,-0.1067],[34.1287,-0.1064],[34.1384,-0.1114],[34.1379,-0.1173],[34.1234,-0.1206],[34.1155,-0.1229],[34.091,-0.1356],[34.0855,-0.1403],[34.094,-0.1689],[34.1223,-0.1853],[34.1582,-0.1912],[34.1879,-0.1889],[34.185,-0.2089],[34.1958,-0.2212],[34.2294,-0.2371],[34.2491,-0.2522],[34.2532,-0.2645],[34.2365,-0.2987],[34.2512,-0.299],[34.2568,-0.3051],[34.2538,-0.3149],[34.2432,-0.3257],[34.2521,-0.3287],[34.2627,-0.3343],[34.2721,-0.3405],[34.2771,-0.3464],[34.2789,-0.3581],[34.2762,-0.3684],[34.2721,-0.3767],[34.2709,-0.3811],[34.288,-0.3964],[34.303,-0.3905],[34.3139,-0.3737],[34.3183,-0.3569],[34.3254,-0.3413],[34.3763,-0.3019],[34.3869,-0.2848],[34.3884,-0.2654],[34.3831,-0.2442],[34.3728,-0.2233],[34.3574,-0.2289],[34.3463,-0.2198],[34.3416,-0.2039],[34.3454,-0.1889],[34.3598,-0.1794],[34.3775,-0.1786],[34.4069,-0.1827],[34.4466,-0.1683],[34.4617,-0.1683],[34.4914,-0.1797],[34.5055,-0.1809],[34.5208,-0.1718],[34.5341,-0.1594],[34.5485,-0.1494],[34.5641,-0.1427],[34.6003,-0.1374],[34.6238,-0.1235],[34.6465,-0.117],[34.6589,-0.1088],[34.6698,-0.0988],[34.6745,-0.0897],[34.7228,-0.0911],[34.7366,-0.0858],[34.7354,-0.1097],[34.731,-0.1238],[34.7313,-0.1379],[34.7434,-0.1621],[34.7501,-0.1544],[34.7569,-0.1656],[34.7681,-0.1792],[34.7816,-0.1906],[34.7952,-0.1956],[34.7987,-0.2062],[34.8328,-0.2713],[34.8367,-0.2725],[34.847,-0.2795],[34.8546,-0.2875],[34.8493,-0.2913],[34.8464,-0.2945],[34.8432,-0.3016],[34.8379,-0.309],[34.829,-0.3122],[34.8093,-0.3063],[34.7828,-0.2869],[34.7707,-0.2913],[34.7495,-0.2872],[34.7484,-0.3007],[34.7543,-0.3204],[34.7537,-0.3358],[34.7404,-0.3402],[34.6783,-0.3464],[34.6583,-0.3449],[34.613,-0.3319],[34.6047,-0.3328],[34.5959,-0.3355],[34.5868,-0.3358],[34.5759,-0.329],[34.5691,-0.3222],[34.5623,-0.3184],[34.5544,-0.319],[34.5441,-0.3257],[34.527,-0.3246],[34.4979,-0.3293],[34.4678,-0.3375],[34.4487,-0.3464],[34.4508,-0.3673],[34.4493,-0.397],[34.4569,-0.4241],[34.4999,-0.4414],[34.5052,-0.4541],[34.5055,-0.4679],[34.5032,-0.4768],[34.4749,-0.4938],[34.4723,-0.4974],[34.4608,-0.5015],[34.4363,-0.5209],[34.424,-0.525],[34.4075,-0.5218],[34.4081,-0.5136],[34.4157,-0.5044],[34.4204,-0.4974],[34.4187,-0.4891],[34.4096,-0.4685],[34.404,-0.46],[34.3954,-0.4509],[34.386,-0.4447],[34.3745,-0.4414],[34.3592,-0.442],[34.3657,-0.4591],[34.3607,-0.4726],[34.3477,-0.4794],[34.3313,-0.4768],[34.3265,-0.4709],[34.3183,-0.4535],[34.3112,-0.4494],[34.3048,-0.4523],[34.3045,-0.4606],[34.3077,-0.4697],[34.3112,-0.4768],[34.2847,-0.4659],[34.2444,-0.4294],[34.2159,-0.4285],[34.22,-0.4188],[34.2226,-0.4152],[34.1891,-0.4223],[34.1744,-0.4509],[34.1611,-0.5177],[34.1502,-0.5315],[34.137,-0.535],[34.1025,-0.5321],[34.1014,-0.5347],[34.0855,-0.5518],[34.0778,-0.5545],[34.0637,-0.5556],[34.0575,-0.5586],[34.0657,-0.5686],[34.0752,-0.5768],[34.0828,-0.5863],[34.0855,-0.5995],[34.0813,-0.6077],[34.0725,-0.6169],[34.0622,-0.6245],[34.0545,-0.6275],[34.0478,-0.6413],[34.0375,-0.7305],[34.0575,-0.7281],[34.0675,-0.7487],[34.0713,-0.7761],[34.0719,-0.7953],[34.0784,-0.7976],[34.1196,-0.8262],[34.1655,-0.8418],[34.1749,-0.8468],[34.1832,-0.8712],[34.1696,-0.8865],[34.1502,-0.8983],[34.1399,-0.9118],[34.1278,-0.9536],[34.1246,-0.9778],[34.1334,-0.9975],[34.1334,-1.0037],[34.1175,-0.9993],[34.0719,-0.9701],[34.066,-0.996],[34.0584,-1.0022],[34.0375,-0.9975],[34.0481,-1.0119],[34.0634,-1.0157],[34.0796,-1.0119],[34.0922,-1.0037],[34.0978,-1.019],[34.0872,-1.0228],[34.0725,-1.0252],[34.0649,-1.0355],[34.0675,-1.044],[34.0725,-1.0461],[34.0754,-1.0484],[34.0719,-1.059],[34.0407,-1.0796],[34.0336,-1.0823],[34.0304,-1.0887],[34.0281,-1.0958],[34.0233,-1.1005],[34.0163,-1.1017],[33.9927,-1.1005],[33.9757,-1.1052],[33.9801,-1.1158],[33.9904,-1.1285],[33.9927,-1.1382],[33.9633,-1.1726],[33.9483,-1.1832],[33.9156,-1.1988],[33.9006,-1.2088],[33.8862,-1.2233],[33.8732,-1.2559],[33.8859,-1.2777],[33.9088,-1.2857],[33.9277,-1.278],[33.9339,-1.278],[33.9318,-1.2827],[33.9297,-1.2892],[33.9277,-1.2924],[33.9277,-1.2986],[33.9465,-1.3036],[33.9668,-1.3163],[33.9827,-1.3331],[33.9892,-1.3501],[33.9886,-1.3598],[33.9857,-1.3699],[33.9795,-1.376],[33.9689,-1.3743],[33.9674,-1.3699],[33.9692,-1.3622],[33.9724,-1.3554],[33.9757,-1.3537],[33.9618,-1.3401],[33.9542,-1.3369],[33.9339,-1.3345],[33.9156,-1.3239],[33.9053,-1.3207],[33.8829,-1.3195],[33.8214,-1.3263],[33.8043,-1.3195],[33.7926,-1.3342],[33.799,-1.3487],[33.8247,-1.3743],[33.8205,-1.3775],[33.8199,-1.3793],[33.8196,-1.3819],[33.8179,-1.3878],[33.832,-1.3831],[33.8438,-1.3875],[33.8529,-1.3975],[33.8588,-1.4084],[33.7976,-1.3878],[33.7814,-1.3975],[33.7814,-1.4096],[33.7911,-1.4214],[33.8043,-1.429],[33.8126,-1.4296],[33.8302,-1.4276],[33.8385,-1.429],[33.8473,-1.4334],[33.85,-1.4373],[33.8517,-1.442],[33.8588,-1.4499],[33.8673,-1.4708],[33.8712,-1.4705],[33.8759,-1.4694],[33.8794,-1.4705],[33.8909,-1.4802],[33.8944,-1.4861],[33.8938,-1.4976],[33.9091,-1.4876],[33.9186,-1.4841],[33.9277,-1.4841],[33.9359,-1.49],[33.94,-1.4991],[33.9427,-1.5076],[33.9448,-1.5114],[33.953,-1.5138],[33.9559,-1.5185],[33.953,-1.5235],[33.9448,-1.5256],[33.94,-1.5244],[33.933,-1.5188],[33.9277,-1.5182],[33.9271,-1.5203],[33.9233,-1.5253],[33.9183,-1.53],[33.9135,-1.5321],[33.9047,-1.5294]],[[34.1196,-0.4152],[34.1196,-0.4279],[34.1328,-0.4317],[34.1499,-0.4326],[34.1611,-0.4358],[34.2041,-0.4073],[34.2173,-0.389],[34.2226,-0.3602],[34.2141,-0.3684],[34.2073,-0.3887],[34.202,-0.3949],[34.1911,-0.3946],[34.182,-0.3873],[34.1673,-0.367],[34.1585,-0.394],[34.1537,-0.4011],[34.1464,-0.4052],[34.1196,-0.4152]],[[33.9456,-0.4729],[33.9518,-0.4768],[33.9718,-0.4803],[33.9986,-0.4979],[34.0172,-0.5047],[34.0269,-0.4977],[34.049,-0.49],[34.0575,-0.4829],[34.0619,-0.4744],[34.0593,-0.4706],[34.054,-0.4673],[34.0513,-0.46],[34.0451,-0.4373],[34.0304,-0.4323],[33.996,-0.442],[33.9642,-0.445],[33.9551,-0.4494],[33.9509,-0.455],[33.9465,-0.4641],[33.9456,-0.4729]],[[31.8106,-1.8194],[31.8406,-1.7952],[31.8492,-1.7799],[31.8509,-1.7584],[31.8453,-1.7531],[31.8424,-1.7516],[31.838,-1.7516],[31.8365,-1.7746],[31.8268,-1.7884],[31.8159,-1.8008],[31.8106,-1.8194]],[[31.7865,-2.1476],[31.798,-2.1514],[31.803,-2.1455],[31.8212,-2.1364],[31.8247,-2.1305],[31.8068,-2.1275],[31.7932,-2.1243],[31.785,-2.1149],[31.7815,-2.1019],[31.7826,-2.0875],[31.7759,-2.0799],[31.7688,-2.0937],[31.7644,-2.1072],[31.7641,-2.1211],[31.7691,-2.1352],[31.7747,-2.1399],[31.7865,-2.1476]],[[31.921,-2.3981],[31.9139,-2.3834],[31.9045,-2.3695],[31.8995,-2.3548],[31.9016,-2.3368],[31.9072,-2.3265],[31.9078,-2.3218],[31.896,-2.3209],[31.8689,-2.3101],[31.8601,-2.2836],[31.8562,-2.2521],[31.8448,-2.2241],[31.8403,-2.2156],[31.8283,-2.21],[31.8177,-2.2029],[31.8168,-2.1829],[31.8106,-2.1829],[31.7909,-2.2341],[31.7882,-2.2597],[31.8106,-2.2521],[31.808,-2.2677],[31.8012,-2.2812],[31.7903,-2.2889],[31.7759,-2.2859],[31.7826,-2.3209],[31.803,-2.3159],[31.8224,-2.3168],[31.8303,-2.3227],[31.8168,-2.3339],[31.8247,-2.3474],[31.8448,-2.3645],[31.8509,-2.3748],[31.8512,-2.3887],[31.8406,-2.411],[31.838,-2.426],[31.8406,-2.441],[31.8483,-2.4546],[31.8601,-2.4605],[31.8754,-2.4537],[31.9128,-2.424],[31.9198,-2.4163],[31.921,-2.3981]],[[31.9401,-1.6622],[31.9375,-1.6513],[31.9334,-1.6439],[31.9198,-1.628],[31.8963,-1.6151],[31.8924,-1.6109],[31.8883,-1.6104],[31.8583,-1.6212],[31.868,-1.6363],[31.8718,-1.653],[31.8721,-1.6901],[31.8671,-1.6907],[31.866,-1.6889],[31.866,-1.6863],[31.8654,-1.6828],[31.8654,-1.6995],[31.8583,-1.7449],[31.8886,-1.6913],[31.8977,-1.6627],[31.8995,-1.6351],[31.9401,-1.6622]],[[32.0714,-2.278],[32.0676,-2.2671],[32.0599,-2.2653],[32.0502,-2.2791],[32.044,-2.2791],[32.0455,-2.2697],[32.0485,-2.2609],[32.052,-2.2527],[32.057,-2.245],[32.0502,-2.2521],[32.0461,-2.2471],[32.0446,-2.2426],[32.044,-2.2315],[32.0258,-2.2335],[32.0096,-2.2429],[31.9931,-2.255],[31.9746,-2.2656],[31.9601,-2.2715],[31.951,-2.2771],[31.9472,-2.2859],[31.951,-2.2924],[31.9722,-2.2897],[31.9813,-2.293],[31.9852,-2.3089],[31.9749,-2.3224],[31.9607,-2.3348],[31.9546,-2.3474],[31.966,-2.341],[31.9699,-2.3436],[31.9713,-2.3501],[31.9746,-2.3548],[31.9755,-2.3577],[31.9746,-2.3619],[31.9743,-2.3657],[31.9778,-2.3675],[31.9816,-2.3666],[31.9866,-2.3645],[31.9899,-2.3625],[31.9887,-2.3613],[32.0037,-2.3613],[32.0208,-2.3577],[32.0376,-2.351],[32.0502,-2.3413],[32.0699,-2.293],[32.0714,-2.278]],[[32.324,-0.354],[32.319,-0.3375],[32.2972,-0.3143],[32.2898,-0.2987],[32.2807,-0.3031],[32.2772,-0.309],[32.2781,-0.3169],[32.2831,-0.3257],[32.2734,-0.3302],[32.2642,-0.3308],[32.256,-0.3269],[32.2483,-0.3184],[32.2557,-0.3054],[32.2127,-0.3213],[32.1874,-0.3275],[32.1662,-0.3257],[32.153,-0.3116],[32.1562,-0.2916],[32.1736,-0.2575],[32.1724,-0.2398],[32.1574,-0.2345],[32.1117,-0.2371],[32.0861,-0.2316],[32.0738,-0.2304],[32.0644,-0.2351],[32.0655,-0.2448],[32.0646,-0.2545],[32.0502,-0.2575],[32.0502,-0.2639],[32.0773,-0.2731],[32.0917,-0.2804],[32.0979,-0.2881],[32.0994,-0.2957],[32.1023,-0.2981],[32.1067,-0.2998],[32.1117,-0.3054],[32.1117,-0.3093],[32.1059,-0.3163],[32.1044,-0.3222],[32.1165,-0.3299],[32.1441,-0.3381],[32.1724,-0.3408],[32.1874,-0.3319],[32.1936,-0.3319],[32.2024,-0.3413],[32.218,-0.3502],[32.2283,-0.3605],[32.2215,-0.3737],[32.2313,-0.3781],[32.2413,-0.3861],[32.248,-0.3967],[32.2483,-0.4085],[32.2421,-0.4135],[32.2333,-0.4132],[32.2251,-0.4091],[32.2165,-0.3987],[32.2059,-0.4079],[32.1971,-0.4214],[32.1971,-0.4285],[32.1856,-0.4291],[32.1768,-0.4311],[32.1706,-0.4355],[32.1662,-0.442],[32.1662,-0.4494],[32.1709,-0.4582],[32.1677,-0.4715],[32.1527,-0.4974],[32.1359,-0.5153],[32.1324,-0.5253],[32.1382,-0.5383],[32.1662,-0.5383],[32.1656,-0.5312],[32.1671,-0.5233],[32.1736,-0.5047],[32.1783,-0.5065],[32.1892,-0.5091],[32.1936,-0.5109],[32.1903,-0.4974],[32.1898,-0.4782],[32.1874,-0.47],[32.2254,-0.4626],[32.2419,-0.4638],[32.2419,-0.47],[32.2363,-0.477],[32.2386,-0.4835],[32.2472,-0.4885],[32.2589,-0.4903],[32.263,-0.4871],[32.266,-0.4797],[32.2719,-0.4723],[32.2831,-0.47],[32.2748,-0.4329],[32.2707,-0.3867],[32.2828,-0.3531],[32.324,-0.354]],[[32.3472,-0.2657],[32.3519,-0.2713],[32.3699,-0.2698],[32.3652,-0.258],[32.3519,-0.2416],[32.3443,-0.2271],[32.3396,-0.2159],[32.3281,-0.2042],[32.3125,-0.198],[32.2966,-0.203],[32.3057,-0.2059],[32.3152,-0.2115],[32.324,-0.2198],[32.3313,-0.2304],[32.3216,-0.2354],[32.3193,-0.2421],[32.3228,-0.2498],[32.3313,-0.2575],[32.3331,-0.2522],[32.3343,-0.2522],[32.3375,-0.2501],[32.3393,-0.2572],[32.3428,-0.2616],[32.3472,-0.2657]],[[32.4005,-0.3661],[32.4135,-0.367],[32.4135,-0.3602],[32.4002,-0.3569],[32.3946,-0.3484],[32.3899,-0.3387],[32.379,-0.3319],[32.3693,-0.3343],[32.3687,-0.3443],[32.3731,-0.3569],[32.379,-0.367],[32.3726,-0.3649],[32.3584,-0.3625],[32.3519,-0.3602],[32.354,-0.3702],[32.3567,-0.3749],[32.3608,-0.3755],[32.3884,-0.3678],[32.4005,-0.3661]],[[32.5368,-2.3071],[32.5327,-2.2839],[32.5239,-2.2824],[32.513,-2.288],[32.5021,-2.2859],[32.4959,-2.2859],[32.4988,-2.3124],[32.5021,-2.3209],[32.4747,-2.3245],[32.465,-2.3142],[32.4679,-2.2718],[32.4617,-2.2718],[32.455,-2.2833],[32.4464,-2.2839],[32.4382,-2.2771],[32.4338,-2.2656],[32.4076,-2.3421],[32.4099,-2.3548],[32.4264,-2.3622],[32.432,-2.3792],[32.4344,-2.3995],[32.4411,-2.4163],[32.452,-2.4204],[32.4626,-2.4184],[32.4723,-2.4119],[32.4818,-2.4022],[32.4921,-2.4043],[32.5068,-2.3966],[32.5194,-2.3831],[32.5233,-2.3675],[32.5194,-2.3695],[32.5183,-2.3719],[32.5162,-2.3748],[32.5121,-2.3589],[32.52,-2.3433],[32.5312,-2.3265],[32.5368,-2.3071]],[[32.5436,-0.3737],[32.5294,-0.3781],[32.5239,-0.3814],[32.5162,-0.3873],[32.5088,-0.3834],[32.5041,-0.384],[32.5021,-0.3911],[32.5027,-0.4055],[32.5021,-0.4085],[32.4897,-0.4185],[32.47,-0.4205],[32.4541,-0.4285],[32.4771,-0.4417],[32.4729,-0.4609],[32.4559,-0.4791],[32.4411,-0.4903],[32.4441,-0.4979],[32.4485,-0.5021],[32.4541,-0.5038],[32.4617,-0.5047],[32.4709,-0.4997],[32.4812,-0.4921],[32.4865,-0.4818],[32.4818,-0.47],[32.4929,-0.4659],[32.5006,-0.4585],[32.5212,-0.4205],[32.5236,-0.4096],[32.5233,-0.3949],[32.53,-0.3949],[32.5368,-0.4085],[32.5371,-0.3985],[32.5383,-0.3902],[32.5436,-0.3737]],[[32.7496,-0.0273],[32.7535,-0.0399],[32.7629,-0.0523],[32.7823,-0.0367],[32.8032,-0.009],[32.8109,0.0192],[32.7894,0.0372],[32.7894,0.0166],[32.7832,0.0166],[32.7735,0.0207],[32.767,0.0116],[32.7652,-0.0037],[32.7696,-0.0175],[32.7538,-0.0184],[32.7496,-0.0273]],[[32.8173,-0.0858],[32.8044,-0.08],[32.7932,-0.0802],[32.7853,-0.0867],[32.7832,-0.0994],[32.7735,-0.097],[32.7629,-0.0932],[32.7658,-0.077],[32.7588,-0.0599],[32.7467,-0.0458],[32.7346,-0.0379],[32.7373,-0.0493],[32.7426,-0.0602],[32.7555,-0.0797],[32.7555,-0.0858],[32.7455,-0.0832],[32.739,-0.0776],[32.7358,-0.0694],[32.7346,-0.0585],[32.7302,-0.0676],[32.724,-0.0723],[32.7164,-0.0714],[32.7075,-0.0652],[32.7096,-0.077],[32.7137,-0.0882],[32.7143,-0.0979],[32.7075,-0.1067],[32.6987,-0.1059],[32.6916,-0.0976],[32.684,-0.0941],[32.6734,-0.1067],[32.6596,-0.0994],[32.6654,-0.1112],[32.674,-0.1179],[32.6858,-0.1209],[32.7008,-0.1206],[32.7187,-0.1256],[32.7408,-0.115],[32.7555,-0.1206],[32.7417,-0.1273],[32.7417,-0.1341],[32.7658,-0.1309],[32.7864,-0.1215],[32.8038,-0.1064],[32.8173,-0.0858]],[[33.0093,-1.8194],[32.9954,-1.8194],[32.9987,-1.8264],[33.0025,-1.8382],[33.0037,-1.8491],[32.9993,-1.8541],[32.9969,-1.8588],[33.0048,-1.8697],[33.0234,-1.8882],[33.0272,-1.8894],[33.0305,-1.89],[33.034,-1.8912],[33.0372,-1.895],[33.0705,-1.8697],[33.0837,-1.8561],[33.0882,-1.8538],[33.0908,-1.8491],[33.0917,-1.8367],[33.0899,-1.8326],[33.0814,-1.8211],[33.0787,-1.8132],[33.0849,-1.8132],[33.0934,-1.8167],[33.0976,-1.8143],[33.097,-1.8079],[33.0917,-1.7996],[33.0834,-1.7955],[33.0723,-1.7958],[33.0508,-1.7996],[33.0157,-1.8005],[33.0057,-1.8052],[33.0093,-1.8194]],[[33.1874,-2.1246],[33.1862,-2.1167],[33.1829,-2.1161],[33.1785,-2.1172],[33.1735,-2.1149],[33.1438,-2.0878],[33.1347,-2.074],[33.147,-2.0669],[33.147,-2.0596],[33.1093,-2.0513],[33.1005,-2.0434],[33.1202,-2.0113],[33.1176,-1.996],[33.1099,-1.9813],[33.1052,-1.9668],[33.0973,-1.9654],[33.0469,-1.9774],[33.0437,-1.9757],[33.0358,-1.9733],[33.0272,-1.9733],[33.0234,-1.9807],[33.019,-1.9818],[32.9925,-1.9913],[32.941,-1.9633],[32.9315,-1.948],[32.936,-1.9368],[32.9448,-1.9256],[32.9477,-1.9094],[32.943,-1.9044],[32.9248,-1.8965],[32.9204,-1.895],[32.9115,-1.8965],[32.9071,-1.8997],[32.8992,-1.9094],[32.8797,-1.9271],[32.868,-1.935],[32.8515,-1.9433],[32.8465,-1.9347],[32.8415,-1.9309],[32.8347,-1.9297],[32.825,-1.9291],[32.8312,-1.9433],[32.8465,-1.9595],[32.8515,-1.9701],[32.8591,-1.9701],[32.8638,-1.9718],[32.8918,-1.9745],[32.8992,-1.9774],[32.8971,-1.9895],[32.8874,-2.003],[32.8503,-2.0416],[32.845,-2.0507],[32.8447,-2.0596],[32.8532,-2.0719],[32.8621,-2.0704],[32.8715,-2.0663],[32.8827,-2.0699],[32.9045,-2.0855],[32.9286,-2.0922],[32.9786,-2.0937],[32.996,-2.099],[33.0431,-2.1352],[33.0558,-2.1405],[33.0667,-2.1393],[33.0746,-2.1328],[33.0787,-2.1217],[33.1023,-2.1343],[33.1205,-2.1523],[33.1417,-2.1667],[33.1735,-2.1693],[33.1635,-2.154],[33.1676,-2.1476],[33.1765,-2.147],[33.1809,-2.1487],[33.1856,-2.1376],[33.1868,-2.132],[33.1874,-2.1246]],[[33.1947,0.1614],[33.1768,0.1614],[33.1659,0.147],[33.1641,0.1255],[33.1735,0.1061],[33.1809,0.1173],[33.1841,0.1499],[33.1947,0.1614]],[[33.3039,0.044],[33.283,0.044],[33.2848,0.0487],[33.288,0.0596],[33.2904,0.0637],[33.2642,0.0575],[33.2503,0.0496],[33.2477,0.0354],[33.2562,0.0104],[33.2845,0.0219],[33.296,0.0307],[33.3039,0.044]],[[33.4002,0.2568],[33.3884,0.2724],[33.381,0.2874],[33.371,0.2977],[33.3519,0.2977],[33.3519,0.2909],[33.3596,0.2889],[33.3657,0.2851],[33.3702,0.2786],[33.3722,0.27],[33.366,0.27],[33.3569,0.2745],[33.3498,0.2671],[33.3472,0.2544],[33.3519,0.2427],[33.3434,0.2459],[33.3416,0.2471],[33.3381,0.25],[33.3292,0.2391],[33.3198,0.2403],[33.3145,0.248],[33.3178,0.2568],[33.3178,0.263],[33.296,0.2633],[33.2939,0.2742],[33.3039,0.2883],[33.3178,0.2977],[33.2983,0.3051],[33.278,0.3045],[33.2386,0.2977],[33.2333,0.2942],[33.2112,0.2665],[33.205,0.2559],[33.2088,0.2497],[33.2215,0.2427],[33.2551,0.2079],[33.2592,0.2018],[33.2633,0.1985],[33.2621,0.1915],[33.2562,0.1844],[33.2456,0.1811],[33.2356,0.1817],[33.2077,0.1879],[33.2283,0.1538],[33.235,0.1538],[33.2468,0.165],[33.2645,0.1532],[33.2792,0.1299],[33.283,0.1061],[33.2939,0.1099],[33.3013,0.1176],[33.3045,0.1279],[33.3039,0.1402],[33.3107,0.1402],[33.3101,0.1002],[33.3163,0.0849],[33.3325,0.0781],[33.3392,0.0799],[33.3422,0.0817],[33.3448,0.0855],[33.3245,0.097],[33.3192,0.119],[33.3251,0.1417],[33.3381,0.1538],[33.3251,0.1602],[33.3178,0.1714],[33.3169,0.1841],[33.3245,0.1956],[33.3183,0.2109],[33.3248,0.2191],[33.3363,0.2174],[33.3448,0.2018],[33.3522,0.2109],[33.3593,0.2174],[33.3663,0.2191],[33.3722,0.2159],[33.3787,0.2277],[33.3816,0.2403],[33.3869,0.2512],[33.4002,0.2568]],[[33.7287,-0.1088],[33.719,-0.0994],[33.7048,-0.1041],[33.6713,-0.1268],[33.6539,-0.1341],[33.6539,-0.1403],[33.6707,-0.1382],[33.6816,-0.1397],[33.6892,-0.1471],[33.6951,-0.1621],[33.7019,-0.1544],[33.7154,-0.1683],[33.726,-0.1297],[33.7287,-0.1088]],[[33.7811,0.0728],[33.8199,0.0649],[33.8314,0.0637],[33.8429,0.0678],[33.8523,0.0731],[33.8635,0.0737],[33.8794,0.0637],[33.8826,0.0787],[33.8667,0.0905],[33.8438,0.0958],[33.8247,0.0917],[33.8123,0.1152],[33.7861,0.1158],[33.7655,0.1008],[33.7696,0.0781],[33.7811,0.0728]]]}}
