{"type":"Feature","properties":{"id":1015,"name":"Lake Winnipeg","featurecla":"Lake","scalerank":0,"wikidataid":"Q3272","source":"Natural Earth 5.2.0-pre ne_10m_lakes (public domain)"},"geometry":{"type":"Polygon","coordinates":[[[-96.2634,51.2224],[-96.2605,51.2171],[-96.2638,51.2048],[-96.2722,51.2027],[-96.294,51.2068],[-96.3162,51.2033],[-96.3357,51.1962],[-96.3513,51.1841],[-96.3622,51.1644],[-96.3439,51.1577],[-96.329,51.1456],[-96.3174,51.1312],[-96.3083,51.1173],[-96.3841,51.1214],[-96.4038,51.1173],[-96.42,51.1011],[-96.4203,51.0829],[-96.4038,51.0484],[-96.3909,51.009],[-96.3499,50.7762],[-96.3492,50.757],[-96.3501,50.7529],[-96.3753,50.7238],[-96.38,50.7138],[-96.3758,50.7032],[-96.3468,50.669],[-96.294,50.624],[-96.395,50.6243],[-96.4243,50.6302],[-96.4505,50.6422],[-96.4799,50.6622],[-96.5037,50.6879],[-96.5202,50.7317],[-96.5352,50.7329],[-96.5513,50.7249],[-96.5616,50.7135],[-96.5611,50.6999],[-96.5572,50.684],[-96.5581,50.6705],[-96.5717,50.6649],[-96.5913,50.6643],[-96.5973,50.6614],[-96.5947,50.6101],[-96.5904,50.5984],[-96.5819,50.5831],[-96.6035,50.5675],[-96.6131,50.5563],[-96.616,50.5418],[-96.5666,50.4812],[-96.5682,50.465],[-96.6054,50.4288],[-96.6505,50.4],[-96.7089,50.3879],[-96.77,50.3879],[-96.9047,50.4191],[-96.9178,50.4288],[-96.932,50.4662],[-96.9362,50.4942],[-96.9382,50.5009],[-96.9696,50.5589],[-96.9693,50.5692],[-96.963,50.5733],[-96.9525,50.5828],[-96.9425,50.5942],[-96.9382,50.6034],[-96.9435,50.6087],[-96.9668,50.6199],[-96.973,50.624],[-96.9746,50.6346],[-96.9724,50.6584],[-96.976,50.6684],[-96.9811,50.6761],[-96.9843,50.6843],[-96.9861,50.6934],[-96.9866,50.7029],[-96.9847,50.7138],[-96.973,50.74],[-96.9725,50.75],[-96.9743,50.7712],[-96.973,50.7809],[-96.9607,50.8021],[-96.9485,50.815],[-96.9457,50.8289],[-96.9744,50.8712],[-96.9769,50.888],[-96.9715,50.9057],[-96.9593,50.9257],[-96.9157,50.9787],[-96.9103,50.9975],[-96.9156,51.0046],[-96.939,51.0252],[-96.945,51.0355],[-96.9441,51.0487],[-96.9387,51.0537],[-96.9313,51.0564],[-96.9245,51.0626],[-96.9225,51.0744],[-96.9235,51.0855],[-96.9207,51.0938],[-96.9072,51.097],[-96.8823,51.0955],[-96.869,51.0964],[-96.8598,51.1003],[-96.8448,51.1135],[-96.8411,51.1191],[-96.8358,51.1309],[-96.8342,51.1403],[-96.8349,51.1497],[-96.8342,51.16],[-96.8284,51.1721],[-96.7563,51.2371],[-96.7385,51.248],[-96.6915,51.2542],[-96.6714,51.2613],[-96.6667,51.2689],[-96.6626,51.2807],[-96.6568,51.2913],[-96.6471,51.296],[-96.6417,51.3001],[-96.6194,51.3263],[-96.6119,51.3455],[-96.6302,51.3522],[-96.6575,51.3484],[-96.6776,51.3363],[-96.6714,51.3431],[-96.6796,51.3378],[-96.6883,51.336],[-96.697,51.3378],[-96.7055,51.3431],[-96.6961,51.3537],[-96.6985,51.3625],[-96.7077,51.3684],[-96.7185,51.3705],[-96.7344,51.3672],[-96.76,51.3502],[-96.7737,51.3431],[-96.7768,51.3201],[-96.7983,51.2934],[-96.8935,51.2121],[-96.921,51.1965],[-96.9519,51.1862],[-96.9822,51.1892],[-96.9887,51.2101],[-96.9791,51.2645],[-96.9613,51.2872],[-96.9275,51.3084],[-96.9078,51.3275],[-96.932,51.3431],[-96.8701,51.4149],[-96.827,51.437],[-96.8021,51.4891],[-96.7775,51.5009],[-96.7618,51.5112],[-96.745,51.535],[-96.7316,51.5624],[-96.726,51.5827],[-96.7336,51.6127],[-96.7538,51.6095],[-96.779,51.5998],[-96.8016,51.6107],[-96.7928,51.618],[-96.7828,51.6313],[-96.7751,51.6463],[-96.7737,51.6593],[-96.7818,51.6698],[-96.795,51.674],[-96.8284,51.6784],[-96.8255,51.7211],[-96.8557,51.734],[-96.8988,51.7252],[-96.9713,51.6828],[-97.0571,51.6725],[-97.0959,51.6593],[-97.0895,51.6422],[-97.1013,51.621],[-97.1209,51.6021],[-97.1375,51.5904],[-97.1375,51.5827],[-97.1328,51.5721],[-97.121,51.5291],[-97.1201,51.5183],[-97.2036,51.4535],[-97.2382,51.4373],[-97.2691,51.4402],[-97.2878,51.4735],[-97.2872,51.4903],[-97.2772,51.5268],[-97.2747,51.5459],[-97.2778,51.5533],[-97.2982,51.573],[-97.3015,51.5801],[-97.3022,51.5892],[-97.2962,51.6445],[-97.2829,51.6769],[-97.2258,51.7835],[-97.2213,51.807],[-97.2333,51.8353],[-97.2399,51.8703],[-97.246,51.8806],[-97.296,51.9421],[-97.3087,51.9642],[-97.305,51.9739],[-97.3116,51.978],[-97.3306,51.9992],[-97.3361,52.0081],[-97.3378,52.0225],[-97.3344,52.0316],[-97.3353,52.0396],[-97.3497,52.049],[-97.3718,52.0528],[-97.3974,52.0487],[-97.4208,52.0407],[-97.455,52.0196],[-97.5031,52.0016],[-97.5211,51.9875],[-97.5306,51.9633],[-97.5324,51.9413],[-97.5387,51.9251],[-97.5624,51.9186],[-97.5844,51.9236],[-97.5879,51.9357],[-97.5804,51.9513],[-97.5689,51.9672],[-97.5764,51.9772],[-97.5857,51.9845],[-97.597,51.9898],[-97.6104,51.9942],[-97.6032,52.0072],[-97.5952,52.0163],[-97.5858,52.0228],[-97.5751,52.0284],[-97.5686,52.031],[-97.5523,52.0349],[-97.5449,52.0354],[-97.5412,52.0381],[-97.5365,52.0519],[-97.5342,52.0563],[-97.5153,52.072],[-97.5084,52.079],[-97.5006,52.0899],[-97.4863,52.1205],[-97.4794,52.1308],[-97.4841,52.1323],[-97.4868,52.1341],[-97.4893,52.1361],[-97.4931,52.1385],[-97.5049,52.1361],[-97.5483,52.1385],[-97.5624,52.1358],[-97.5732,52.1314],[-97.6086,52.1123],[-97.6231,52.1073],[-97.6379,52.1043],[-97.6513,52.1043],[-97.6666,52.1082],[-97.6716,52.1132],[-97.6734,52.1205],[-97.6849,52.1429],[-97.6853,52.1482],[-97.6894,52.1485],[-97.7607,52.1308],[-97.7672,52.1246],[-97.7745,52.114],[-97.7785,52.1017],[-97.7742,52.0899],[-97.7635,52.087],[-97.7255,52.0864],[-97.7123,52.0837],[-97.7379,52.041],[-97.7742,52.0019],[-97.7699,51.9851],[-97.7785,51.9645],[-97.8053,51.9292],[-97.8054,51.9136],[-97.7897,51.8962],[-97.7538,51.8703],[-97.7803,51.8632],[-97.8045,51.8691],[-97.8281,51.8791],[-97.8775,51.8886],[-97.909,51.8989],[-97.9288,51.9121],[-97.9183,51.9254],[-97.9308,51.9321],[-97.9411,51.9315],[-97.9513,51.9277],[-97.9626,51.9254],[-97.9747,51.9277],[-97.9966,51.9371],[-98.0104,51.9392],[-98.0322,51.946],[-98.0412,51.9636],[-98.0486,52.087],[-98.0599,52.1099],[-98.0861,52.1205],[-98.1157,52.1273],[-98.1375,52.1385],[-98.1423,52.1558],[-98.1323,52.1926],[-98.1445,52.2156],[-98.1434,52.2286],[-98.1448,52.2344],[-98.1495,52.2391],[-98.1612,52.2456],[-98.1647,52.2483],[-98.2024,52.2954],[-98.218,52.3057],[-98.2378,52.3092],[-98.296,52.3127],[-98.325,52.3207],[-98.4162,52.3648],[-98.4365,52.3799],[-98.4619,52.4217],[-98.4664,52.4325],[-98.4654,52.4446],[-98.4617,52.4543],[-98.462,52.4617],[-98.4732,52.4673],[-98.4672,52.4814],[-98.4654,52.4944],[-98.4701,52.5041],[-98.4976,52.5106],[-98.5078,52.5176],[-98.5284,52.5362],[-98.6092,52.5783],[-98.6308,52.5977],[-98.6619,52.6357],[-98.6736,52.6421],[-98.7066,52.6465],[-98.7202,52.6524],[-98.7272,52.6601],[-98.7378,52.6766],[-98.7475,52.6836],[-98.7883,52.7022],[-98.8021,52.7137],[-98.8186,52.7343],[-98.8263,52.7472],[-98.8295,52.7584],[-98.8257,52.7681],[-98.8191,52.7805],[-98.8169,52.7911],[-98.8411,52.802],[-98.8806,52.8323],[-98.8915,52.8441],[-98.9084,52.8929],[-98.8906,52.9235],[-98.851,52.9415],[-98.7331,52.9786],[-98.7097,52.9818],[-98.6589,52.9827],[-98.522,53.0051],[-98.4826,53.0192],[-98.446,53.041],[-98.4435,53.0436],[-98.4414,53.0469],[-98.4399,53.051],[-98.439,53.0563],[-98.5444,53.0572],[-98.5856,53.0675],[-98.607,53.0701],[-98.6966,53.0716],[-98.7383,53.0775],[-98.7817,53.091],[-98.796,53.0816],[-98.8045,53.0672],[-98.8111,53.0519],[-98.8192,53.0392],[-98.837,53.0325],[-98.857,53.0381],[-98.8753,53.0492],[-98.8878,53.0601],[-98.9253,53.0696],[-99.0119,53.0404],[-99.0423,53.0501],[-99.0556,53.066],[-99.0702,53.1034],[-99.0834,53.1184],[-99.0969,53.1252],[-99.1246,53.1328],[-99.1386,53.1384],[-99.1408,53.1426],[-99.1551,53.1617],[-99.1585,53.1629],[-99.1648,53.1699],[-99.1929,53.1743],[-99.2062,53.1917],[-99.2218,53.1908],[-99.2393,53.1882],[-99.2512,53.1902],[-99.253,53.2085],[-99.2391,53.2323],[-99.2062,53.2685],[-99.2115,53.27],[-99.2213,53.2741],[-99.2266,53.2753],[-99.2225,53.2821],[-99.2094,53.2971],[-99.2062,53.3027],[-99.2067,53.3109],[-99.21,53.3153],[-99.2131,53.3189],[-99.2137,53.3239],[-99.1992,53.3669],[-99.1932,53.3783],[-99.1833,53.3881],[-99.1704,53.3978],[-99.1448,53.4128],[-99.1047,53.4234],[-99.0936,53.4304],[-99.0859,53.441],[-99.0768,53.4581],[-99.0725,53.4743],[-99.0799,53.4814],[-99.0878,53.4873],[-99.0809,53.5002],[-99.0628,53.5193],[-99.0613,53.5367],[-99.0571,53.5476],[-99.0272,53.58],[-99.0287,53.5867],[-99.0394,53.5926],[-99.056,53.6044],[-99.0457,53.6194],[-99.0114,53.6586],[-98.991,53.6706],[-98.9829,53.6809],[-98.9763,53.6921],[-98.9735,53.7007],[-98.9755,53.7107],[-98.9801,53.7154],[-98.9866,53.7195],[-98.9939,53.728],[-98.9998,53.7381],[-99.007,53.7537],[-99.0101,53.7713],[-99.0045,53.7866],[-98.9707,53.8025],[-98.9548,53.8143],[-98.9612,53.8567],[-98.9236,53.8796],[-98.8716,53.8941],[-98.8332,53.8994],[-98.7923,53.8976],[-98.744,53.8899],[-98.7051,53.8714],[-98.6923,53.8378],[-98.6542,53.8508],[-98.3769,53.8573],[-98.2766,53.8402],[-98.1141,53.7781],[-98.0667,53.7657],[-98.0452,53.7522],[-98.0363,53.7398],[-98.025,53.7127],[-98.014,53.7007],[-97.9895,53.6915],[-97.9642,53.6924],[-97.885,53.7063],[-97.8786,53.7201],[-97.8868,53.736],[-97.9046,53.7492],[-98.0051,53.7684],[-98.0319,53.7772],[-98.0902,53.8378],[-98.1319,53.8573],[-98.2417,53.8858],[-98.2745,53.9203],[-98.2796,53.9618],[-98.288,53.9762],[-98.3122,53.9818],[-98.3183,53.9921],[-98.3078,54.0145],[-98.282,54.0501],[-98.2795,54.0554],[-98.2805,54.0598],[-98.2796,54.0627],[-98.2636,54.0654],[-98.2562,54.0698],[-98.2495,54.0754],[-98.2325,54.0948],[-98.2284,54.1037],[-98.2242,54.1378],[-98.2168,54.159],[-98.2059,54.1781],[-98.1927,54.194],[-98.1544,54.2252],[-98.1494,54.2349],[-98.1522,54.2438],[-98.1562,54.2517],[-98.1544,54.2594],[-98.107,54.3121],[-98.0902,54.3244],[-98.0499,54.3447],[-98.0389,54.3562],[-98.035,54.3756],[-98.0346,54.3948],[-98.0303,54.4086],[-98.018,54.4154],[-97.9934,54.4139],[-97.9767,54.406],[-97.923,54.3733],[-97.9115,54.3621],[-97.9214,54.3444],[-97.9448,54.3353],[-97.9934,54.3244],[-97.9791,54.3129],[-97.9603,54.3088],[-97.9407,54.3091],[-97.8257,54.3244],[-97.7985,54.3179],[-97.8025,54.3026],[-97.8225,54.2844],[-97.8646,54.2561],[-97.8861,54.2479],[-97.9093,54.2438],[-97.9357,54.2426],[-97.9573,54.2373],[-98.0004,54.214],[-98.0275,54.2079],[-98.0793,54.2079],[-98.0912,54.2055],[-98.1145,54.1964],[-98.1275,54.194],[-98.1492,54.1867],[-98.1566,54.1684],[-98.1579,54.1251],[-98.1626,54.1142],[-98.1757,54.0981],[-98.1784,54.0881],[-98.1741,54.0772],[-98.1553,54.063],[-98.151,54.0536],[-98.1638,54.056],[-98.1921,54.0424],[-98.2336,54.0159],[-98.2239,54.0039],[-98.21,53.9944],[-98.145,53.9674],[-98.1313,53.9588],[-98.117,53.9471],[-98.0993,53.9288],[-98.088,53.925],[-98.0684,53.9264],[-98.0508,53.9332],[-98.0384,53.9438],[-98.0362,53.9562],[-98.0486,53.9677],[-98.0311,53.9883],[-98.0046,53.9992],[-97.9772,54.0071],[-97.9364,54.0336],[-97.9101,54.0421],[-97.8827,54.043],[-97.836,54.0251],[-97.815,54.0354],[-97.7811,54.0713],[-97.7717,54.0783],[-97.7604,54.0848],[-97.7483,54.0892],[-97.7367,54.091],[-97.7349,54.0854],[-97.7293,54.0589],[-97.7258,54.0501],[-97.7374,54.0333],[-97.7543,54.0153],[-97.7735,54.0012],[-97.7917,53.9953],[-97.8466,53.9953],[-97.8596,53.9936],[-97.8815,53.9844],[-97.8909,53.9818],[-97.9419,53.9883],[-97.9688,53.9847],[-97.9804,53.9644],[-97.9753,53.9441],[-97.9635,53.927],[-97.9517,53.9156],[-97.9417,53.9108],[-97.9383,53.9082],[-97.9351,53.9044],[-97.9318,53.8994],[-97.9495,53.8855],[-97.9567,53.8743],[-97.9542,53.8629],[-97.9424,53.8481],[-97.9338,53.8434],[-97.9109,53.8399],[-97.9015,53.8343],[-97.8983,53.8272],[-97.8993,53.8113],[-97.8984,53.8037],[-97.8818,53.7787],[-97.8338,53.7419],[-97.8153,53.7213],[-97.8215,53.7086],[-97.8182,53.7021],[-97.8119,53.6974],[-97.8085,53.6907],[-97.8153,53.6494],[-97.82,53.6418],[-97.8296,53.6341],[-97.8362,53.6253],[-97.8326,53.6147],[-97.8065,53.5994],[-97.8022,53.5944],[-97.7922,53.5753],[-97.7686,53.5611],[-97.7411,53.5491],[-97.7198,53.5361],[-97.705,53.5193],[-97.6962,53.5052],[-97.6856,53.4931],[-97.665,53.4814],[-97.6719,53.4746],[-97.6649,53.4643],[-97.6687,53.4534],[-97.6759,53.4413],[-97.6787,53.4269],[-97.6725,53.4119],[-97.6609,53.4037],[-97.6303,53.3928],[-97.6047,53.378],[-97.5917,53.3666],[-97.5824,53.3518],[-97.5793,53.3362],[-97.5823,53.3256],[-97.5869,53.3151],[-97.5894,53.2997],[-97.5854,53.2927],[-97.5589,53.2653],[-97.5471,53.2576],[-97.5169,53.2476],[-97.5037,53.2385],[-97.4632,53.2023],[-97.4186,53.1738],[-97.4251,53.1661],[-97.4425,53.1502],[-97.446,53.142],[-97.4411,53.1311],[-97.4235,53.1222],[-97.4248,53.1111],[-97.4186,53.1111],[-97.4266,53.0881],[-97.4226,53.0669],[-97.4096,53.0489],[-97.3908,53.036],[-97.3762,53.0316],[-97.3449,53.026],[-97.3327,53.0189],[-97.3302,53.0095],[-97.3381,53.0018],[-97.3493,52.9968],[-97.3839,52.9874],[-97.3873,52.9827],[-97.389,52.9762],[-97.3898,52.9704],[-97.3908,52.9677],[-97.4351,52.9639],[-97.4351,52.9474],[-97.4158,52.9306],[-97.3917,52.9141],[-97.3771,52.8994],[-97.3943,52.8882],[-97.4023,52.8806],[-97.4051,52.872],[-97.3949,52.8555],[-97.3578,52.8314],[-97.345,52.8005],[-97.3203,52.7664],[-97.3087,52.7546],[-97.2884,52.7428],[-97.2419,52.7237],[-97.2229,52.7104],[-97.2058,52.6942],[-97.1976,52.6842],[-97.1921,52.6727],[-97.1917,52.6624],[-97.1974,52.6448],[-97.1983,52.6392],[-97.1859,52.6201],[-97.1513,52.5886],[-97.1391,52.5471],[-97.1135,52.5108],[-97.1034,52.4879],[-97.1022,52.4796],[-97.1034,52.4502],[-97.0989,52.4405],[-97.0894,52.434],[-97.0798,52.4323],[-97.0754,52.4361],[-97.0635,52.4331],[-97.0418,52.4219],[-97.0318,52.4052],[-97.0549,52.3854],[-97.0438,52.3799],[-97.0351,52.3737],[-97.0295,52.366],[-97.0276,52.3542],[-97.0335,52.3507],[-97.0465,52.3463],[-97.0604,52.3401],[-97.0686,52.3301],[-97.0552,52.3278],[-97.0468,52.3225],[-97.0052,52.2842],[-97.0003,52.2757],[-97.009,52.2509],[-97.0358,52.2453],[-97.067,52.2462],[-97.0891,52.2409],[-97.0788,52.2356],[-97.0691,52.2259],[-97.0549,52.2068],[-97.0477,52.2003],[-97.0411,52.1971],[-97.0364,52.1926],[-97.0345,52.1826],[-97.0342,52.1753],[-97.0332,52.17],[-97.0311,52.165],[-97.0276,52.1588],[-97.0111,52.1408],[-96.9668,52.1117],[-96.9519,52.0973],[-96.9659,52.0805],[-96.9596,52.0702],[-96.9282,52.0528],[-96.9141,52.0413],[-96.8852,52.0263],[-96.8693,52.0148],[-96.834,51.9733],[-96.8253,51.9672],[-96.8206,51.9586],[-96.8323,51.9398],[-96.8562,51.9118],[-96.864,51.9003],[-96.8674,51.893],[-96.8693,51.8844],[-96.8686,51.8809],[-96.8642,51.8715],[-96.8632,51.8671],[-96.7874,51.8641],[-96.7492,51.8509],[-96.7319,51.8409],[-96.7154,51.8267],[-96.6862,51.7905],[-96.6776,51.782],[-96.6807,51.7785],[-96.684,51.7767],[-96.6918,51.7752],[-96.7104,51.7758],[-96.723,51.7746],[-96.7347,51.7711],[-96.7434,51.7649],[-96.7514,51.7623],[-96.7874,51.7685],[-96.7828,51.7576],[-96.775,51.7508],[-96.7594,51.7411],[-96.721,51.6922],[-96.541,51.5427],[-96.5739,51.5097],[-96.5792,51.4941],[-96.5516,51.4873],[-96.5423,51.4794],[-96.4965,51.4196],[-96.4864,51.4002],[-96.4795,51.3911],[-96.4711,51.3878],[-96.4622,51.3887],[-96.4552,51.3867],[-96.4522,51.374],[-96.4455,51.359],[-96.4285,51.3496],[-96.4072,51.3446],[-96.3867,51.3431],[-96.3713,51.3378],[-96.3569,51.3246],[-96.3349,51.296],[-96.2803,51.241],[-96.2634,51.2224]],[[-96.5994,51.2],[-96.6196,51.2021],[-96.6481,51.2],[-96.6708,51.203],[-96.694,51.2056],[-96.7139,51.1924],[-96.7297,51.1715],[-96.7403,51.1515],[-96.756,51.1082],[-96.7684,51.0861],[-96.7843,51.0764],[-96.8031,51.0755],[-96.8242,51.0708],[-96.8417,51.0605],[-96.8501,51.0417],[-96.8321,51.0134],[-96.7856,51.0117],[-96.7316,51.0249],[-96.6918,51.0417],[-96.6624,51.0711],[-96.6296,51.1503],[-96.6025,51.1862],[-96.5994,51.2]],[[-96.3349,51.241],[-96.3364,51.2624],[-96.3697,51.2672],[-96.4416,51.2613],[-96.4671,51.253],[-96.5485,51.2136],[-96.5682,51.1992],[-96.5713,51.1803],[-96.5586,51.1771],[-96.5267,51.1862],[-96.4956,51.1915],[-96.4296,51.1956],[-96.3941,51.2045],[-96.3607,51.2195],[-96.3349,51.241]],[[-97.0829,51.7473],[-97.091,51.7593],[-97.106,51.7629],[-97.1231,51.7605],[-97.1375,51.7546],[-97.1502,51.7467],[-97.1549,51.7399],[-97.1597,51.6934],[-97.1634,51.6802],[-97.1711,51.6654],[-97.1979,51.6307],[-97.2057,51.6169],[-97.1983,51.6169],[-97.2052,51.6016],[-97.1984,51.5986],[-97.1848,51.603],[-97.1711,51.6107],[-97.1588,51.6207],[-97.1499,51.6322],[-97.1431,51.6451],[-97.1375,51.6593],[-97.1366,51.6657],[-97.1382,51.6796],[-97.1375,51.6857],[-97.1332,51.694],[-97.1275,51.6987],[-97.1215,51.7019],[-97.1163,51.7064],[-97.0829,51.7473]],[[-97.2193,52.3369],[-97.2254,52.3401],[-97.2263,52.3445],[-97.2255,52.3504],[-97.2263,52.3581],[-97.2578,52.3651],[-97.3051,52.3495],[-97.3439,52.3213],[-97.3497,52.2892],[-97.3331,52.2759],[-97.3137,52.2774],[-97.2778,52.2892],[-97.2701,52.2995],[-97.2622,52.3066],[-97.2411,52.3124],[-97.2327,52.3192],[-97.2193,52.3369]],[[-97.8984,52.3746],[-97.9024,52.3796],[-97.9252,52.399],[-97.9291,52.4111],[-97.9282,52.4208],[-97.926,52.4296],[-97.9252,52.4393],[-97.9238,52.4387],[-97.9215,52.4428],[-97.9193,52.4487],[-97.9183,52.4537],[-97.9204,52.4579],[-97.9298,52.4655],[-97.9318,52.4705],[-97.9336,52.4917],[-97.9388,52.5085],[-97.9592,52.5423],[-97.9776,52.5468],[-98.0025,52.535],[-98.0193,52.5167],[-98.014,52.5014],[-98.0249,52.4838],[-98.0084,52.4585],[-98.014,52.4393],[-98.0315,52.4493],[-98.0446,52.4526],[-98.0527,52.4476],[-98.0555,52.4325],[-98.0522,52.4225],[-98.0383,52.4022],[-98.035,52.3887],[-98.0218,52.3616],[-97.9697,52.3169],[-97.9661,52.296],[-97.926,52.3104],[-97.9065,52.3204],[-97.8984,52.3336],[-97.8984,52.3746]]]}}
