{"type":"Feature","properties":{"id":1016,"name":"McLeod Bay","featurecla":"Lake","scalerank":0,"source":"Natural Earth 5.2.0-pre ne_10m_lakes (public domain)"},"geometry":{"type":"Polygon","coordinates":[[[-111.691,62.4159],[-111.6579,62.4783],[-111.6317,62.5172],[-111.6139,62.5339],[-111.593,62.541],[-111.5815,62.5422],[-111.5672,62.5454],[-111.5418,62.5543],[-111.5297,62.5625],[-111.525,62.571],[-111.5207,62.5884],[-111.4794,62.6532],[-111.4735,62.6747],[-111.4604,62.6932],[-111.4307,62.7035],[-111.3766,62.7123],[-111.3551,62.7259],[-111.3175,62.76],[-111.2665,62.7718],[-111.1924,62.808],[-110.7467,62.9178],[-110.4504,62.9537],[-110.3419,62.9452],[-110.2332,62.9537],[-110.1284,62.9446],[-109.9242,62.9514],[-109.9323,62.9443],[-109.9406,62.9387],[-109.9494,62.9343],[-109.959,62.9316],[-109.959,62.9249],[-109.8181,62.9325],[-109.7908,62.9281],[-109.7743,62.9225],[-109.6983,62.9249],[-109.681,62.9225],[-109.6428,62.9131],[-109.6225,62.911],[-109.6359,62.8945],[-109.6431,62.8898],[-109.6206,62.8828],[-109.5339,62.8769],[-109.5227,62.8748],[-109.5062,62.8654],[-109.4957,62.8633],[-109.3315,62.8557],[-109.2578,62.8619],[-109.2316,62.8557],[-109.2254,62.8416],[-109.2254,62.8489],[-109.2042,62.8407],[-109.0883,62.8354],[-108.9648,62.8012],[-108.9916,62.7874],[-109.1639,62.7256],[-109.1052,62.727],[-109.0793,62.7332],[-109.0313,62.7591],[-108.9368,62.7939],[-108.9147,62.7977],[-108.9025,62.793],[-108.9107,62.7739],[-108.9321,62.7585],[-108.9883,62.7447],[-109.013,62.7329],[-108.9929,62.7218],[-108.9845,62.7147],[-108.9785,62.7056],[-109.0158,62.6847],[-109.2378,62.5987],[-109.2856,62.5866],[-109.3352,62.5822],[-109.2993,62.6152],[-109.1989,62.6399],[-109.1639,62.6641],[-109.2612,62.6432],[-109.28,62.6434],[-109.2758,62.6582],[-109.2117,62.6982],[-109.2335,62.6944],[-109.283,62.6791],[-109.3005,62.6844],[-109.3005,62.6905],[-109.2931,62.7103],[-109.2943,62.7194],[-109.3067,62.7297],[-109.3226,62.7332],[-109.3557,62.7329],[-109.6636,62.7671],[-109.735,62.7965],[-109.7743,62.808],[-109.8409,62.798],[-109.9447,62.8221],[-110.454,62.833],[-110.4874,62.8295],[-110.5133,62.8148],[-110.5661,62.8321],[-110.6334,62.8377],[-110.699,62.8283],[-110.7467,62.8012],[-110.7237,62.7942],[-110.6992,62.7942],[-110.6504,62.8012],[-110.6276,62.7998],[-110.6104,62.7939],[-110.5944,62.7862],[-110.5754,62.78],[-110.5754,62.7739],[-110.8166,62.7597],[-111.4198,62.6281],[-111.4592,62.6025],[-111.4658,62.5928],[-111.471,62.5746],[-111.4766,62.5646],[-111.6545,62.4074],[-111.6688,62.3876],[-111.7025,62.4003],[-111.691,62.4159]]]}}
