{"type":"Feature","properties":{"id":1017,"name":"North Aral Sea","featurecla":"Lake","scalerank":0,"wikidataid":"Q3358037","source":"Natural Earth 5.2.0-pre ne_10m_lakes (public domain)"},"geometry":{"type":"Polygon","coordinates":[[[60.7523,46.1177],[60.7961,46.1485],[60.8075,46.1588],[60.8167,46.1705],[60.8226,46.1847],[60.8249,46.1985],[60.8248,46.201],[60.81,46.2336],[60.7474,46.3182],[60.7379,46.3396],[60.7283,46.3499],[60.7224,46.3639],[60.7224,46.3742],[60.7058,46.3752],[60.6849,46.3396],[60.6724,46.3359],[60.665,46.3271],[60.6554,46.3241],[60.637,46.3293],[60.6348,46.3182],[60.6297,46.3197],[60.6252,46.3256],[60.6157,46.3278],[60.6054,46.3212],[60.595,46.3035],[60.5877,46.2961],[60.5796,46.2932],[60.5604,46.2954],[60.5074,46.3175],[60.4714,46.3307],[60.4404,46.3528],[60.4176,46.3683],[60.3808,46.3889],[60.3484,46.4029],[60.3315,46.4051],[60.319,46.397],[60.3028,46.3889],[60.2873,46.3823],[60.2652,46.3793],[60.2218,46.3786],[60.1968,46.3749],[60.1836,46.3678],[60.1769,46.3591],[60.1699,46.3547],[60.1533,46.3539],[60.1334,46.3565],[60.1021,46.369],[60.0771,46.3819],[60.0657,46.3922],[60.0499,46.4036],[60.0547,46.4084],[60.023,46.418],[60.0134,46.4239],[60.0039,46.4254],[59.995,46.4283],[59.9884,46.4379],[59.9833,46.4548],[59.9774,46.4813],[59.9818,46.5078],[59.9899,46.5505],[60.0017,46.5719],[60.0038,46.5734],[60.0048,46.5759],[60.011,46.5843],[60.0364,46.6011],[60.0559,46.607],[60.0761,46.6107],[60.103,46.6144],[60.1159,46.6192],[60.1324,46.6343],[60.1615,46.6501],[60.1851,46.6619],[60.1991,46.6655],[60.2145,46.6781],[60.2373,46.6957],[60.2535,46.7001],[60.2705,46.7031],[60.2867,46.7001],[60.3065,46.6884],[60.3329,46.6692],[60.3492,46.6486],[60.3676,46.617],[60.3831,46.5794],[60.3949,46.5441],[60.4059,46.4984],[60.4054,46.4891],[60.4109,46.4825],[60.4162,46.5],[60.4181,46.5041],[60.421,46.5193],[60.429,46.5273],[60.4539,46.5736],[60.4534,46.6032],[60.4505,46.6121],[60.4507,46.6184],[60.4534,46.6224],[60.4593,46.6275],[60.4689,46.6239],[60.4709,46.6225],[60.4744,46.622],[60.476,46.6191],[60.477,46.6184],[60.4726,46.6101],[60.4729,46.6061],[60.5182,46.5862],[60.5355,46.5755],[60.5587,46.5656],[60.58,46.563],[60.6062,46.566],[60.6297,46.5737],[60.6478,46.5811],[60.6706,46.5892],[60.6822,46.5991],[60.6886,46.603],[60.6917,46.6058],[60.6931,46.6094],[60.6966,46.6129],[60.7582,46.6344],[60.7656,46.6425],[60.7635,46.6466],[60.7644,46.6473],[60.7398,46.6565],[60.6986,46.6771],[60.6353,46.7154],[60.572,46.736],[60.5418,46.7434],[60.5256,46.7508],[60.5212,46.7603],[60.5197,46.7699],[60.5248,46.7773],[60.5425,46.7773],[60.5666,46.7804],[60.5708,46.7827],[60.58,46.7839],[60.594,46.7817],[60.6058,46.7758],[60.6323,46.7758],[60.6529,46.7692],[60.6743,46.7618],[60.692,46.7611],[60.7177,46.7552],[60.7884,46.7552],[60.8108,46.7471],[60.8178,46.739],[60.8223,46.7272],[60.8193,46.7125],[60.7943,46.6639],[60.7877,46.6197],[60.7758,46.5928],[60.776,46.5912],[60.7779,46.5881],[60.7761,46.5814],[60.7842,46.5667],[60.8129,46.5476],[60.8394,46.5085],[60.8924,46.4732],[60.9469,46.46],[61.0117,46.4614],[61.0838,46.46],[61.1339,46.4496],[61.1446,46.4535],[61.1578,46.4546],[61.1978,46.4675],[61.1977,46.4681],[61.2266,46.4681],[61.2443,46.4762],[61.2671,46.4997],[61.2679,46.5137],[61.2561,46.5277],[61.2392,46.535],[61.2303,46.5476],[61.234,46.5571],[61.2362,46.5697],[61.22,46.5667],[61.206,46.5704],[61.2068,46.58],[61.2163,46.5881],[61.2333,46.5807],[61.2966,46.6109],[61.3017,46.633],[61.315,46.6477],[61.3665,46.6492],[61.3842,46.6639],[61.4092,46.6727],[61.4269,46.658],[61.4563,46.6727],[61.5285,46.6771],[61.5064,46.6389],[61.4799,46.6271],[61.4534,46.602],[61.4504,46.5844],[61.3268,46.499],[61.3106,46.4754],[61.2796,46.4798],[61.277,46.4293],[61.2966,46.4092],[61.3003,46.3849],[61.2903,46.3864],[61.2912,46.3816],[61.2888,46.3728],[61.2882,46.3718],[61.29,46.3642],[61.2804,46.3296],[61.2657,46.3068],[61.2572,46.3065],[61.2553,46.3001],[61.2471,46.2896],[61.2443,46.2744],[61.2318,46.2509],[61.2171,46.2369],[61.2061,46.2346],[61.2008,46.2309],[61.1884,46.2259],[61.1791,46.224],[61.1657,46.2155],[61.1201,46.217],[61.095,46.192],[61.0406,46.1802],[61.0032,46.1802],[60.9767,46.1699],[60.9463,46.1404],[60.8963,46.1183],[60.8683,46.1125],[60.8625,46.09],[60.7829,46.086],[60.7523,46.1177]]]}}
