{"type":"Feature","properties":{"id":1018,"name":"South Aral Sea","featurecla":"Lake","scalerank":0,"wikidataid":"Q276776","source":"Natural Earth 5.2.0-pre ne_10m_lakes (public domain)"},"geometry":{"type":"Polygon","coordinates":[[[58.3268,45.0768],[58.357,45.1033],[58.3725,45.1305],[58.3784,45.1747],[58.3865,45.2027],[58.4034,45.2233],[58.41,45.2343],[58.4072,45.2521],[58.4102,45.2757],[58.4129,45.2836],[58.417,45.2907],[58.456,45.3289],[58.4691,45.3484],[58.4874,45.3584],[58.4899,45.3608],[58.4993,45.3643],[58.5236,45.3897],[58.5324,45.3952],[58.5461,45.4029],[58.5494,45.4077],[58.5483,45.4228],[58.5492,45.4246],[58.549,45.4325],[58.5534,45.4493],[58.5526,45.4646],[58.5538,45.4707],[58.5575,45.4802],[58.5645,45.4891],[58.5703,45.5075],[58.5715,45.524],[58.574,45.5321],[58.5803,45.5388],[58.5926,45.5487],[58.5966,45.558],[58.6004,45.5709],[58.6028,45.5771],[58.6044,45.5791],[58.6141,45.5836],[58.6343,45.5873],[58.6384,45.5902],[58.6395,45.5946],[58.6384,45.6149],[58.6387,45.6157],[58.6395,45.6243],[58.6358,45.6395],[58.6407,45.6544],[58.641,45.6574],[58.6472,45.669],[58.6472,45.6862],[58.6492,45.6914],[58.6527,45.722],[58.6584,45.7316],[58.6689,45.7419],[58.6692,45.7636],[58.6719,45.7713],[58.677,45.7849],[58.6855,45.8008],[58.6947,45.8157],[58.6957,45.8181],[58.7117,45.8349],[58.7272,45.8456],[58.7389,45.8507],[58.7459,45.8515],[58.7511,45.8489],[58.7585,45.8441],[58.7658,45.8445],[58.771,45.8474],[58.7787,45.8482],[58.7982,45.8445],[58.8159,45.8401],[58.8321,45.8345],[58.8383,45.8342],[58.8405,45.8371],[58.8394,45.8419],[58.8214,45.8614],[58.814,45.8747],[58.8137,45.8817],[58.8177,45.8964],[58.8225,45.9034],[58.8372,45.9129],[58.8494,45.9181],[58.8615,45.9214],[58.8707,45.9214],[58.8799,45.9181],[58.8862,45.9129],[58.8928,45.9115],[58.9039,45.9118],[58.9304,45.9071],[58.9458,45.9034],[58.9657,45.9048],[58.9893,45.8982],[58.9988,45.8982],[59.0062,45.9063],[59.0172,45.9078],[59.0257,45.9067],[59.0415,45.8956],[59.05,45.8934],[59.0599,45.8945],[59.0655,45.8993],[59.0666,45.9071],[59.0651,45.9159],[59.0691,45.9317],[59.0791,45.9435],[59.0953,45.949],[59.1163,45.9512],[59.149,45.9468],[59.1648,45.9424],[59.1726,45.9372],[59.1766,45.9299],[59.1792,45.9258],[59.1855,45.931],[59.1899,45.9446],[59.1969,45.956],[59.2098,45.9674],[59.2245,45.9752],[59.2403,45.9939],[59.2598,46.0013],[59.2801,46.0061],[59.2941,46.0061],[59.3029,46.0024],[59.3098,45.9938],[59.3095,45.9774],[59.3014,45.9582],[59.2834,45.9291],[59.244,45.8923],[59.2247,45.883],[59.1726,45.8748],[59.1503,45.8777],[59.1048,45.8967],[59.1045,45.8905],[59.0986,45.8861],[59.0842,45.8824],[59.0779,45.8781],[59.0725,45.8778],[59.0677,45.8756],[59.0596,45.8776],[59.0526,45.8783],[59.0452,45.875],[59.0316,45.8636],[59.0261,45.8537],[59.0192,45.8437],[59.0136,45.8385],[58.9867,45.8196],[58.9591,45.8101],[58.9302,45.7962],[58.9245,45.7966],[58.9142,45.7948],[58.9097,45.7907],[58.9095,45.7753],[58.909,45.7747],[58.9031,45.7394],[58.9016,45.6893],[58.8781,45.6172],[58.8694,45.5961],[58.8074,45.57],[58.7662,45.5627],[58.7515,45.5465],[58.7353,45.5067],[58.7102,45.4861],[58.6719,45.4596],[58.6616,45.439],[58.6381,45.3536],[58.6292,45.3021],[58.6292,45.2638],[58.6631,45.2049],[58.6837,45.1489],[58.6823,45.1298],[58.6705,45.1033],[58.644,45.0724],[58.5468,45.0076],[58.5689,45.0046],[58.588,44.9899],[58.5924,44.9737],[58.588,44.9501],[58.5689,44.9295],[58.567,44.9152],[58.5788,44.896],[58.6097,44.8769],[58.623,44.8548],[58.6245,44.818],[58.6112,44.79],[58.595,44.7724],[58.5626,44.7724],[58.5788,44.7562],[58.545,44.6575],[58.5243,44.5692],[58.4831,44.5044],[58.4168,44.444],[58.3643,44.4247],[58.3443,44.4235],[58.3046,44.4238],[58.2781,44.4267],[58.26,44.4315],[58.2446,44.4418],[58.235,44.4609],[58.2335,44.5066],[58.2368,44.5245],[58.246,44.539],[58.2622,44.5574],[58.2762,44.5647],[58.2895,44.5633],[58.3027,44.5603],[58.3138,44.5706],[58.3211,44.603],[58.3162,44.63],[58.2814,44.6892],[58.2564,44.7311],[58.2379,44.7657],[58.2291,44.7966],[58.221,44.8467],[58.2225,44.8695],[58.2276,44.8879],[58.235,44.9013],[58.2365,44.9082],[58.263,44.9454],[58.2814,44.9638],[58.2858,44.9881],[58.3002,45.0156],[58.2998,45.0289],[58.3049,45.0495],[58.3117,45.059],[58.3121,45.062],[58.3268,45.0768]]]}}
