{"type":"Feature","properties":{"id":1019,"name":"Great Salt Lake","featurecla":"Alkaline Lake","scalerank":1,"wikidataid":"Q178741","source":"Natural Earth 5.2.0-pre ne_10m_lakes (public domain)"},"geometry":{"type":"Polygon","coordinates":[[[-111.9324,40.9668],[-111.9309,40.9615],[-111.934,40.9565],[-111.9392,40.9518],[-111.9453,40.9473],[-112.0244,40.9097],[-112.0298,40.9079],[-112.0497,40.907],[-112.0649,40.9044],[-112.0762,40.8994],[-112.0943,40.8873],[-112.1015,40.8832],[-112.1203,40.8761],[-112.129,40.8682],[-112.1334,40.8567],[-112.1351,40.8434],[-112.1352,40.8205],[-112.1358,40.8161],[-112.1379,40.8134],[-112.1501,40.8046],[-112.1839,40.774],[-112.2365,40.7469],[-112.2669,40.7245],[-112.3404,40.6892],[-112.3532,40.6871],[-112.3669,40.6889],[-112.3951,40.6986],[-112.4012,40.7024],[-112.4018,40.706],[-112.395,40.713],[-112.3937,40.7163],[-112.3944,40.7204],[-112.4032,40.7366],[-112.4047,40.7413],[-112.4037,40.7542],[-112.4047,40.7654],[-112.4062,40.7716],[-112.4088,40.7754],[-112.4394,40.8002],[-112.4453,40.8081],[-112.4472,40.8155],[-112.4453,40.8505],[-112.4456,40.8561],[-112.4521,40.8752],[-112.4543,40.8864],[-112.4695,40.9129],[-112.4767,40.9344],[-112.4836,40.9456],[-112.4899,40.9444],[-112.5002,40.9282],[-112.5052,40.9229],[-112.5157,40.915],[-112.5201,40.9094],[-112.5232,40.902],[-112.5313,40.8599],[-112.5339,40.8543],[-112.5426,40.844],[-112.5473,40.8349],[-112.5539,40.8293],[-112.5625,40.8317],[-112.5703,40.8381],[-112.5909,40.8746],[-112.5955,40.8802],[-112.603,40.8855],[-112.6284,40.8979],[-112.6343,40.9044],[-112.6374,40.9117],[-112.6368,40.9182],[-112.6303,40.9312],[-112.629,40.937],[-112.6306,40.9406],[-112.6355,40.9409],[-112.6506,40.9376],[-112.6592,40.9394],[-112.6649,40.9426],[-112.6673,40.9459],[-112.669,40.9494],[-112.6729,40.9541],[-112.6841,40.9653],[-112.6922,40.9703],[-112.7153,40.9797],[-112.7435,40.9965],[-112.7518,41.0044],[-112.7507,41.0124],[-112.7373,41.0274],[-112.7356,41.0324],[-112.7413,41.0342],[-112.7659,41.0362],[-112.7756,41.0401],[-112.7777,41.0454],[-112.7743,41.0492],[-112.7672,41.0498],[-112.7606,41.0495],[-112.7571,41.0513],[-112.7562,41.0545],[-112.7585,41.0621],[-112.7593,41.0666],[-112.7584,41.0783],[-112.7603,41.0848],[-112.7693,41.096],[-112.7696,41.1019],[-112.7674,41.1075],[-112.7668,41.1122],[-112.7681,41.1172],[-112.7765,41.131],[-112.7788,41.1363],[-112.7799,41.1422],[-112.781,41.1596],[-112.7799,41.1675],[-112.7774,41.1749],[-112.7734,41.1825],[-112.7721,41.1905],[-112.7763,41.1978],[-112.784,41.2046],[-112.818,41.2282],[-112.823,41.2346],[-112.8367,41.2635],[-112.8432,41.2706],[-112.8941,41.3006],[-112.9039,41.3103],[-112.9162,41.3265],[-112.9232,41.3271],[-112.9722,41.3032],[-112.9743,41.2979],[-112.9724,41.2903],[-112.9683,41.2794],[-112.9687,41.2708],[-112.9768,41.2694],[-113.0073,41.275],[-113.0126,41.2776],[-113.0158,41.2817],[-113.0167,41.2867],[-113.0151,41.2935],[-113.0017,41.3191],[-112.9965,41.3262],[-112.9884,41.3303],[-112.978,41.3312],[-112.9547,41.3277],[-112.9475,41.3291],[-112.9434,41.3315],[-112.9422,41.333],[-112.9521,41.3812],[-112.9786,41.4292],[-112.9968,41.4545],[-113.0215,41.5116],[-113.0236,41.5228],[-113.0177,41.5255],[-113.0017,41.5214],[-112.9995,41.5234],[-112.9999,41.529],[-112.9993,41.5343],[-112.9943,41.5364],[-112.9862,41.537],[-112.9799,41.5399],[-112.9771,41.5446],[-112.9821,41.5549],[-112.9806,41.5593],[-112.9784,41.5632],[-112.9781,41.5676],[-112.9814,41.572],[-112.9874,41.5764],[-112.9958,41.5805],[-113.0164,41.587],[-113.0221,41.5917],[-113.0246,41.5976],[-113.0254,41.6047],[-113.0212,41.6108],[-113.0112,41.615],[-112.9986,41.6164],[-112.9771,41.6161],[-112.9471,41.6282],[-112.9372,41.6306],[-112.9301,41.6311],[-112.9148,41.6282],[-112.9019,41.6282],[-112.8577,41.6356],[-112.8502,41.6391],[-112.8392,41.652],[-112.8317,41.6556],[-112.8255,41.6576],[-112.8236,41.6612],[-112.8236,41.6656],[-112.823,41.6706],[-112.8187,41.6744],[-112.8109,41.6771],[-112.7802,41.6803],[-112.7746,41.6815],[-112.7601,41.6785],[-112.7521,41.6756],[-112.7285,41.6624],[-112.7276,41.6615],[-112.7261,41.6579],[-112.7236,41.6538],[-112.7207,41.6512],[-112.7022,41.6382],[-112.7,41.6347],[-112.7019,41.6179],[-112.7023,41.617],[-112.703,41.6164],[-112.7082,41.5997],[-112.7076,41.5885],[-112.708,41.5814],[-112.7111,41.5773],[-112.7273,41.5637],[-112.7395,41.5581],[-112.7435,41.5526],[-112.7454,41.5458],[-112.7454,41.5405],[-112.7435,41.5355],[-112.7326,41.5219],[-112.7301,41.5172],[-112.7275,41.509],[-112.7236,41.5019],[-112.7182,41.499],[-112.7123,41.4972],[-112.7063,41.4943],[-112.7005,41.4884],[-112.6827,41.4645],[-112.677,41.4584],[-112.6477,41.4398],[-112.6374,41.4348],[-112.6108,41.426],[-112.5974,41.4239],[-112.5885,41.4263],[-112.5837,41.4307],[-112.5822,41.436],[-112.5806,41.4386],[-112.5765,41.4389],[-112.566,41.4372],[-112.5517,41.4366],[-112.5416,41.4339],[-112.53,41.4283],[-112.5208,41.4227],[-112.5161,41.4186],[-112.5136,41.4139],[-112.508,41.3892],[-112.5064,41.3612],[-112.5029,41.3456],[-112.4958,41.3383],[-112.4804,41.333],[-112.4758,41.3285],[-112.4731,41.323],[-112.4726,41.3168],[-112.4742,41.3106],[-112.4793,41.3006],[-112.4809,41.2962],[-112.4815,41.2906],[-112.4815,41.2764],[-112.4801,41.2691],[-112.4734,41.2564],[-112.4723,41.2511],[-112.4717,41.2385],[-112.4678,41.2308],[-112.4597,41.2237],[-112.4394,41.2111],[-112.4297,41.2067],[-112.42,41.2055],[-112.4121,41.2073],[-112.4072,41.2111],[-112.4028,41.2155],[-112.3971,41.2185],[-112.3463,41.2323],[-112.3463,41.267],[-112.3611,41.2744],[-112.3735,41.3],[-112.3828,41.3309],[-112.386,41.3356],[-112.396,41.3427],[-112.3996,41.3483],[-112.3981,41.3544],[-112.3935,41.3603],[-112.3873,41.365],[-112.3834,41.3689],[-112.3831,41.3733],[-112.384,41.3789],[-112.3835,41.3862],[-112.3847,41.393],[-112.3903,41.3974],[-112.3973,41.401],[-112.4034,41.4048],[-112.4065,41.4095],[-112.4072,41.4154],[-112.4007,41.4475],[-112.3973,41.4542],[-112.3915,41.4575],[-112.3613,41.4625],[-112.3561,41.4619],[-112.3538,41.4581],[-112.3497,41.4531],[-112.3416,41.4492],[-112.3327,41.4478],[-112.3264,41.4495],[-112.3196,41.4563],[-112.3162,41.4587],[-112.3127,41.4595],[-112.309,41.4592],[-112.3051,41.4581],[-112.2849,41.4478],[-112.2787,41.4425],[-112.2706,41.4322],[-112.269,41.423],[-112.2777,41.4207],[-112.2887,41.421],[-112.2942,41.4198],[-112.2926,41.4157],[-112.2848,41.4039],[-112.2818,41.3948],[-112.2771,41.3877],[-112.269,41.3851],[-112.2605,41.3857],[-112.2502,41.3889],[-112.2446,41.3889],[-112.2381,41.3871],[-112.2309,41.3836],[-112.2222,41.3824],[-112.2001,41.3886],[-112.1786,41.3889],[-112.1702,41.3939],[-112.1539,41.4086],[-112.1429,41.4124],[-112.0657,41.4098],[-112.056,41.3933],[-112.0516,41.3804],[-112.0546,41.3712],[-112.0981,41.3365],[-112.1265,41.3415],[-112.1327,41.353],[-112.1367,41.353],[-112.1504,41.3309],[-112.1543,41.3282],[-112.1614,41.328],[-112.1732,41.3312],[-112.2035,41.3453],[-112.2533,41.3477],[-112.2917,41.3191],[-112.3252,41.2708],[-112.2992,41.2647],[-112.2569,41.2647],[-112.2533,41.2435],[-112.251,41.2367],[-112.2466,41.2314],[-112.2023,41.2011],[-112.1939,41.1925],[-112.19,41.182],[-112.185,41.159],[-112.1789,41.1493],[-112.1697,41.1416],[-112.1489,41.1316],[-112.1405,41.126],[-112.134,41.1172],[-112.1293,41.1057],[-112.1265,41.0933],[-112.1224,41.0825],[-112.1084,41.0683],[-112.1043,41.061],[-112.0972,41.0548],[-112.0596,41.0486],[-112.0098,41.0324],[-111.9979,41.0262],[-111.9854,41.0177],[-111.9664,41.0015],[-111.9567,40.9856],[-111.9502,40.9777],[-111.9324,40.9668]],[[-112.5199,41.0145],[-112.5201,41.0189],[-112.5238,41.0251],[-112.5264,41.0315],[-112.5294,41.0359],[-112.5338,41.0362],[-112.5472,41.0315],[-112.5548,41.0301],[-112.5553,41.018],[-112.5542,41.01],[-112.5511,41.0062],[-112.5467,41.0024],[-112.5429,40.9947],[-112.5398,40.9906],[-112.5329,41.0062],[-112.5199,41.0145]],[[-112.312,41.1419],[-112.3133,41.1534],[-112.3148,41.1587],[-112.3204,41.164],[-112.3217,41.1699],[-112.3314,41.1761],[-112.3432,41.1867],[-112.3491,41.189],[-112.3579,41.189],[-112.3769,41.1855],[-112.3837,41.1825],[-112.3876,41.1787],[-112.3881,41.1758],[-112.384,41.174],[-112.3683,41.1734],[-112.36,41.1693],[-112.3505,41.1608],[-112.3386,41.1563],[-112.3174,41.139],[-112.3142,41.1384],[-112.312,41.1419]],[[-112.1689,40.9314],[-112.1619,40.9553],[-112.1657,40.9759],[-112.1717,40.9871],[-112.1873,41.0047],[-112.192,41.0145],[-112.1938,41.0248],[-112.191,41.0286],[-112.1911,41.0351],[-112.1938,41.0433],[-112.2025,41.0566],[-112.2072,41.0604],[-112.2228,41.066],[-112.2349,41.0748],[-112.2388,41.0754],[-112.2478,41.0739],[-112.2527,41.0713],[-112.2485,41.0633],[-112.2503,41.0583],[-112.2555,41.0566],[-112.2689,41.0548],[-112.2712,41.0518],[-112.2655,41.0395],[-112.2494,41.038],[-112.2449,41.0365],[-112.2388,41.0301],[-112.2365,41.0221],[-112.2388,41.0159],[-112.2481,41.0062],[-112.249,41.0018],[-112.2471,40.9933],[-112.2499,40.9809],[-112.2481,40.965],[-112.244,40.9574],[-112.2006,40.9038],[-112.1897,40.8855],[-112.177,40.8732],[-112.1727,40.8749],[-112.172,40.8799],[-112.1747,40.8896],[-112.1669,40.9079],[-112.1666,40.9173],[-112.1689,40.9314]]]}}
