{"type":"Feature","properties":{"id":1020,"name":"Lago de Nicaragua","featurecla":"Lake","scalerank":1,"wikidataid":"Q173862","source":"Natural Earth 5.2.0-pre ne_10m_lakes (public domain)"},"geometry":{"type":"Polygon","coordinates":[[[-84.7786,11.1412],[-84.7664,11.1088],[-84.7677,11.0903],[-84.7764,11.0809],[-84.8195,11.0494],[-84.8515,11.0482],[-84.8572,11.0458],[-84.8624,11.0423],[-84.8883,11.0311],[-84.8981,11.0291],[-84.9186,11.0329],[-84.9342,11.0517],[-84.9561,11.0561],[-84.9728,11.0573],[-85.1526,11.0979],[-85.1687,11.0982],[-85.1853,11.0953],[-85.2015,11.0941],[-85.2247,11.105],[-85.2359,11.1059],[-85.2574,11.1047],[-85.2658,11.1088],[-85.2858,11.1303],[-85.296,11.1389],[-85.3329,11.1515],[-85.3674,11.1592],[-85.4089,11.1624],[-85.4972,11.1936],[-85.5113,11.2036],[-85.5235,11.2157],[-85.5356,11.2248],[-85.5628,11.2413],[-85.5781,11.2478],[-85.595,11.2522],[-85.628,11.2554],[-85.7503,11.3755],[-85.7683,11.4064],[-85.7957,11.5089],[-85.8027,11.5251],[-85.8335,11.5769],[-85.8503,11.5913],[-85.8503,11.5769],[-85.8582,11.5839],[-85.8632,11.5919],[-85.8653,11.6013],[-85.8645,11.6119],[-85.8597,11.6092],[-85.8498,11.6075],[-85.8441,11.6048],[-85.8567,11.6637],[-85.8645,11.6802],[-85.8594,11.6849],[-85.8585,11.6896],[-85.8606,11.6949],[-85.8645,11.7011],[-85.8713,11.7011],[-85.8722,11.6887],[-85.8707,11.6784],[-85.8645,11.6596],[-85.8788,11.6702],[-85.9125,11.7046],[-85.9191,11.7179],[-85.9162,11.727],[-85.9091,11.737],[-85.9012,11.7449],[-85.8851,11.7535],[-85.885,11.7647],[-85.8918,11.7832],[-85.8913,11.8294],[-85.8982,11.8542],[-85.9161,11.865],[-85.9274,11.8748],[-85.9186,11.8924],[-85.9043,11.8998],[-85.8987,11.8786],[-85.8918,11.8786],[-85.9018,11.9083],[-85.9113,11.9172],[-85.9297,11.9201],[-85.9367,11.9283],[-85.938,11.9469],[-85.9362,11.9672],[-85.9334,11.981],[-85.9221,12.0125],[-85.8903,12.0749],[-85.8713,12.0979],[-85.8445,12.0896],[-85.8176,12.0958],[-85.7954,12.1103],[-85.7756,12.12],[-85.7752,12.1182],[-85.7596,12.1064],[-85.6932,12.0711],[-85.6697,12.0629],[-85.6616,12.0573],[-85.6585,12.0461],[-85.6539,12.0402],[-85.6435,12.0387],[-85.632,12.0399],[-85.6243,12.0431],[-85.6243,12.0364],[-85.6182,12.0364],[-85.595,12.0523],[-85.5631,12.0284],[-85.5182,11.9748],[-85.511,11.9684],[-85.4917,11.9389],[-85.4805,11.9124],[-85.4326,11.865],[-85.4102,11.8862],[-85.3675,11.8777],[-85.3232,11.8559],[-85.296,11.8377],[-85.2877,11.8253],[-85.281,11.8091],[-85.2721,11.7953],[-85.2574,11.7894],[-85.2456,11.7873],[-85.2377,11.782],[-85.2237,11.7658],[-85.2156,11.7614],[-85.1938,11.7576],[-85.1862,11.7553],[-85.1473,11.6961],[-85.1104,11.6528],[-85.108,11.649],[-85.1055,11.6416],[-85.1036,11.6384],[-85.1005,11.6363],[-85.0927,11.634],[-85.0899,11.6322],[-85.073,11.6163],[-85.0656,11.6063],[-85.0577,11.5801],[-85.0461,11.5686],[-85.021,11.5498],[-84.9813,11.5015],[-84.9585,11.4874],[-84.9254,11.4403],[-84.9171,11.4359],[-84.9107,11.4347],[-84.9048,11.4329],[-84.8981,11.4262],[-84.8948,11.4182],[-84.8925,11.4079],[-84.8912,11.3885],[-84.8862,11.3682],[-84.8746,11.3567],[-84.8612,11.3467],[-84.8509,11.3308],[-84.8533,11.327],[-84.8593,11.3237],[-84.8627,11.319],[-84.8572,11.3102],[-84.8452,11.3125],[-84.8354,11.3125],[-84.8262,11.3063],[-84.7978,11.2784],[-84.7883,11.2643],[-84.782,11.2413],[-84.782,11.1627],[-84.7786,11.1412]],[[-85.782,11.7111],[-85.7867,11.7438],[-85.7921,11.7617],[-85.7993,11.7694],[-85.8224,11.7623],[-85.8344,11.7614],[-85.8441,11.7694],[-85.8713,11.7485],[-85.874,11.7385],[-85.8725,11.7314],[-85.867,11.724],[-85.8576,11.714],[-85.8638,11.7135],[-85.8782,11.7079],[-85.782,11.7111]],[[-85.4488,11.4415],[-85.4564,11.4571],[-85.466,11.4703],[-85.4689,11.4803],[-85.4724,11.4862],[-85.4992,11.4909],[-85.512,11.4956],[-85.5237,11.4983],[-85.5356,11.4944],[-85.5497,11.5068],[-85.553,11.5215],[-85.5527,11.5383],[-85.5555,11.5571],[-85.5615,11.5669],[-85.5716,11.5748],[-85.5843,11.5807],[-85.5902,11.5839],[-85.5977,11.5913],[-85.6098,11.586],[-85.6522,11.5854],[-85.6728,11.5769],[-85.6857,11.5601],[-85.7022,11.5212],[-85.7137,11.5089],[-85.675,11.4859],[-85.6585,11.4809],[-85.6388,11.4794],[-85.6074,11.4868],[-85.5902,11.4883],[-85.5663,11.4744],[-85.5474,11.4188],[-85.5253,11.4064],[-85.5157,11.4053],[-85.5054,11.4],[-85.4976,11.3988],[-85.4941,11.4011],[-85.4813,11.4103],[-85.4769,11.4126],[-85.4635,11.4167],[-85.4526,11.4273],[-85.4488,11.4415]]]}}
