{"type":"Feature","properties":{"id":1021,"name":"Lago Titicaca","featurecla":"Lake","scalerank":1,"wikidataid":"Q35342","source":"Natural Earth 5.2.0-pre ne_10m_lakes (public domain)"},"geometry":{"type":"Polygon","coordinates":[[[-69.3255,-16.2538],[-69.3509,-16.2488],[-69.3721,-16.2385],[-69.3903,-16.2105],[-69.3812,-16.2064],[-69.3772,-16.2002],[-69.3781,-16.1923],[-69.3834,-16.1834],[-69.3955,-16.1952],[-69.4043,-16.1926],[-69.413,-16.1852],[-69.4245,-16.1834],[-69.4696,-16.2141],[-69.4761,-16.2149],[-69.486,-16.212],[-69.496,-16.2067],[-69.5035,-16.2005],[-69.511,-16.1902],[-69.511,-16.1834],[-69.4883,-16.1546],[-69.4221,-16.0895],[-69.4159,-16.0751],[-69.4203,-16.0607],[-69.4318,-16.0392],[-69.4348,-16.0277],[-69.4337,-16.0192],[-69.4352,-16.0124],[-69.4455,-16.0051],[-69.4546,-16.0045],[-69.4901,-16.0115],[-69.5103,-16.008],[-69.5434,-15.9912],[-69.5615,-15.9847],[-69.6467,-15.9809],[-69.6848,-15.9691],[-69.6987,-15.9362],[-69.7001,-15.9365],[-69.7032,-15.9362],[-69.7059,-15.9341],[-69.7062,-15.9294],[-69.7034,-15.9262],[-69.6985,-15.9241],[-69.6919,-15.9226],[-69.6897,-15.9209],[-69.6857,-15.92],[-69.6816,-15.9167],[-69.6788,-15.9091],[-69.6957,-15.8944],[-69.7072,-15.8894],[-69.7221,-15.9197],[-69.7434,-15.9144],[-69.7647,-15.8926],[-69.7744,-15.8643],[-69.7759,-15.852],[-69.78,-15.8373],[-69.7855,-15.8249],[-69.7915,-15.8196],[-69.8036,-15.8149],[-69.8092,-15.7931],[-69.8221,-15.7855],[-69.8426,-15.7905],[-69.8573,-15.8102],[-69.8769,-15.8611],[-69.8619,-15.8732],[-69.8251,-15.8835],[-69.8086,-15.8953],[-69.7984,-15.912],[-69.804,-15.9173],[-69.8389,-15.9153],[-69.8657,-15.9265],[-69.8828,-15.927],[-69.8904,-15.912],[-69.8929,-15.8929],[-69.9004,-15.8791],[-69.9134,-15.8738],[-69.9321,-15.8811],[-69.953,-15.8638],[-70.0148,-15.8555],[-70.0276,-15.8405],[-70.0099,-15.8105],[-70.0049,-15.7931],[-70.0177,-15.7855],[-70.0297,-15.7802],[-70.0367,-15.7672],[-70.0404,-15.7507],[-70.0413,-15.7345],[-70.04,-15.7169],[-70.0347,-15.706],[-70.0245,-15.6998],[-70.0077,-15.6971],[-69.9968,-15.7001],[-69.9902,-15.706],[-69.9836,-15.7089],[-69.973,-15.7036],[-69.9702,-15.6971],[-69.9668,-15.6662],[-69.9623,-15.6583],[-69.94,-15.635],[-69.9321,-15.6215],[-69.9287,-15.6003],[-69.9343,-15.5903],[-69.9421,-15.5821],[-69.9452,-15.567],[-69.9389,-15.567],[-69.9271,-15.577],[-69.911,-15.5876],[-69.8966,-15.6006],[-69.8904,-15.6183],[-69.8853,-15.6239],[-69.8738,-15.6306],[-69.8622,-15.6397],[-69.857,-15.6524],[-69.8585,-15.6583],[-69.8614,-15.6636],[-69.8636,-15.6692],[-69.8632,-15.6762],[-69.86,-15.6818],[-69.8513,-15.6904],[-69.8495,-15.6936],[-69.8407,-15.7033],[-69.8198,-15.7166],[-69.7949,-15.7281],[-69.7744,-15.7313],[-69.7562,-15.7225],[-69.7914,-15.6907],[-69.7949,-15.6695],[-69.7877,-15.673],[-69.7781,-15.6739],[-69.7718,-15.6707],[-69.7744,-15.663],[-69.7806,-15.6604],[-69.8086,-15.6524],[-69.8132,-15.6409],[-69.9497,-15.4104],[-69.9512,-15.3951],[-69.9419,-15.3775],[-69.9343,-15.3736],[-69.923,-15.3728],[-69.901,-15.3739],[-69.8903,-15.3701],[-69.8734,-15.3522],[-69.8632,-15.3471],[-69.8539,-15.3483],[-69.8461,-15.3533],[-69.8398,-15.3586],[-69.8352,-15.361],[-69.8254,-15.3575],[-69.8142,-15.3501],[-69.8079,-15.343],[-69.8123,-15.3398],[-69.8291,-15.3374],[-69.8784,-15.3221],[-69.8904,-15.313],[-69.8854,-15.3018],[-69.8669,-15.2956],[-69.8257,-15.2918],[-69.8155,-15.2939],[-69.808,-15.2983],[-69.8018,-15.3033],[-69.7949,-15.3062],[-69.7859,-15.3071],[-69.7608,-15.2995],[-69.7521,-15.298],[-69.7297,-15.2995],[-69.7187,-15.2962],[-69.7125,-15.2886],[-69.7116,-15.2812],[-69.716,-15.2777],[-69.734,-15.2744],[-69.7471,-15.2656],[-69.7506,-15.255],[-69.7403,-15.2441],[-69.721,-15.24],[-69.7066,-15.2468],[-69.682,-15.2744],[-69.6576,-15.2959],[-69.651,-15.3062],[-69.6488,-15.3151],[-69.646,-15.3395],[-69.6435,-15.3471],[-69.6305,-15.3539],[-69.6115,-15.3554],[-69.5786,-15.3539],[-69.5672,-15.358],[-69.5504,-15.3683],[-69.5331,-15.3819],[-69.5225,-15.3931],[-69.4721,-15.431],[-69.4529,-15.4534],[-69.4455,-15.4876],[-69.4392,-15.4964],[-69.4242,-15.4893],[-69.4061,-15.4767],[-69.3903,-15.4702],[-69.3698,-15.4761],[-69.3644,-15.4881],[-69.3719,-15.4964],[-69.3903,-15.4911],[-69.3806,-15.5117],[-69.3383,-15.5408],[-69.326,-15.5603],[-69.3192,-15.5635],[-69.3113,-15.5659],[-69.2936,-15.5688],[-69.2913,-15.5732],[-69.2932,-15.5776],[-69.2946,-15.58],[-69.2963,-15.5915],[-69.3004,-15.6074],[-69.3007,-15.6215],[-69.2913,-15.6277],[-69.284,-15.6342],[-69.2704,-15.6695],[-69.2336,-15.6709],[-69.2057,-15.6677],[-69.1681,-15.6695],[-69.1575,-15.6751],[-69.1576,-15.6863],[-69.1673,-15.6942],[-69.1854,-15.6898],[-69.1916,-15.7036],[-69.1801,-15.7125],[-69.1639,-15.7189],[-69.1452,-15.7228],[-69.1264,-15.7239],[-69.1037,-15.7286],[-69.0901,-15.7413],[-69.0784,-15.7587],[-69.0619,-15.7787],[-69.0307,-15.8002],[-69.0184,-15.8143],[-69.0135,-15.837],[-69.0125,-15.847],[-69.0076,-15.8667],[-69.0066,-15.8779],[-69.0092,-15.8891],[-69.0197,-15.9144],[-69.0203,-15.9226],[-69.0072,-15.93],[-68.9599,-15.9326],[-68.9318,-15.9438],[-68.9245,-15.9397],[-68.9171,-15.9329],[-68.9075,-15.9294],[-68.8942,-15.9312],[-68.8632,-15.9429],[-68.7972,-15.9468],[-68.7869,-15.9535],[-68.7838,-15.9591],[-68.777,-15.9671],[-68.7701,-15.9768],[-68.767,-15.9877],[-68.7723,-15.995],[-68.7845,-16.0],[-68.8086,-16.0051],[-68.8216,-16.0133],[-68.835,-16.0265],[-68.8454,-16.0421],[-68.8496,-16.0566],[-68.8572,-16.0592],[-68.8953,-16.0613],[-68.9109,-16.0666],[-68.8655,-16.1546],[-68.8526,-16.1731],[-68.8494,-16.1817],[-68.8515,-16.2017],[-68.8496,-16.2105],[-68.8375,-16.2199],[-68.8272,-16.2102],[-68.816,-16.194],[-68.8011,-16.1834],[-68.7832,-16.1849],[-68.7323,-16.2105],[-68.7133,-16.2152],[-68.6944,-16.2176],[-68.6641,-16.2176],[-68.6366,-16.2114],[-68.6264,-16.2105],[-68.6176,-16.2129],[-68.6124,-16.2185],[-68.6085,-16.2252],[-68.6026,-16.2311],[-68.5802,-16.2426],[-68.5767,-16.2532],[-68.5821,-16.2726],[-68.589,-16.2815],[-68.5958,-16.282],[-68.6007,-16.2838],[-68.6026,-16.2965],[-68.6005,-16.3053],[-68.5954,-16.3133],[-68.5821,-16.3265],[-68.6257,-16.3315],[-68.6389,-16.33],[-68.6772,-16.3109],[-68.6918,-16.3121],[-68.7323,-16.3265],[-68.7323,-16.3336],[-68.7124,-16.3477],[-68.7041,-16.3392],[-68.6956,-16.3368],[-68.6868,-16.3397],[-68.6782,-16.3477],[-68.6841,-16.3506],[-68.6988,-16.3606],[-68.7199,-16.3656],[-68.7261,-16.3683],[-68.7378,-16.3818],[-68.7493,-16.3998],[-68.7637,-16.416],[-68.7838,-16.4228],[-68.8004,-16.4207],[-68.8332,-16.4104],[-68.8526,-16.408],[-68.8883,-16.4133],[-68.9246,-16.4228],[-68.9567,-16.4434],[-68.942,-16.4584],[-68.9042,-16.4675],[-68.8668,-16.4707],[-68.8563,-16.4896],[-68.8535,-16.5317],[-68.8563,-16.5758],[-68.8632,-16.6011],[-68.8924,-16.5902],[-68.9602,-16.5844],[-68.9895,-16.5699],[-69.0057,-16.5596],[-69.0332,-16.5535],[-69.0477,-16.5464],[-69.0959,-16.4946],[-69.0939,-16.4743],[-69.088,-16.4622],[-69.0522,-16.4251],[-69.0432,-16.4122],[-69.0375,-16.3983],[-69.034,-16.3812],[-69.031,-16.3415],[-69.0365,-16.3127],[-69.0527,-16.2897],[-69.0824,-16.2653],[-69.0709,-16.2567],[-69.0584,-16.2576],[-69.046,-16.2638],[-69.034,-16.2726],[-69.0243,-16.2647],[-69.015,-16.2606],[-69.0065,-16.2626],[-68.9998,-16.2726],[-68.9872,-16.2614],[-68.9741,-16.2438],[-68.9638,-16.2255],[-68.9595,-16.2141],[-68.9501,-16.209],[-68.929,-16.2232],[-68.8918,-16.257],[-68.8889,-16.2617],[-68.8833,-16.2647],[-68.8702,-16.2653],[-68.8588,-16.2617],[-68.8487,-16.2547],[-68.8431,-16.2479],[-68.8459,-16.2447],[-68.8609,-16.2364],[-68.9246,-16.1834],[-68.961,-16.174],[-68.9786,-16.1664],[-68.9861,-16.1525],[-68.995,-16.1305],[-69.0162,-16.1116],[-69.0619,-16.0872],[-69.0959,-16.0733],[-69.1188,-16.056],[-69.1196,-16.053],[-69.1395,-16.061],[-69.127,-16.0792],[-69.0886,-16.1081],[-69.0824,-16.1213],[-69.0886,-16.1325],[-69.0898,-16.1443],[-69.0924,-16.1566],[-69.1029,-16.1696],[-69.1313,-16.1867],[-69.1345,-16.1937],[-69.1127,-16.197],[-69.1006,-16.2035],[-69.1034,-16.2182],[-69.1133,-16.2347],[-69.1227,-16.2447],[-69.1366,-16.252],[-69.1533,-16.2564],[-69.2502,-16.2653],[-69.253,-16.2685],[-69.2558,-16.2759],[-69.26,-16.2832],[-69.2673,-16.2865],[-69.2787,-16.2838],[-69.2848,-16.2776],[-69.2889,-16.2709],[-69.2946,-16.2653],[-69.3255,-16.2538]]]}}
