{"type":"Feature","properties":{"id":1022,"name":"Lagoa Mirim","featurecla":"Alkaline Lake","scalerank":1,"wikidataid":"Q876280","source":"Natural Earth 5.2.0-pre ne_10m_lakes (public domain)"},"geometry":{"type":"Polygon","coordinates":[[[-52.5923,-32.4921],[-52.5893,-32.5357],[-52.5921,-32.5801],[-52.6012,-32.616],[-52.6216,-32.6549],[-52.6906,-32.7464],[-52.7144,-32.8041],[-52.7233,-32.8386],[-52.7359,-32.8583],[-52.781,-32.9042],[-52.7977,-32.9151],[-52.8163,-32.9222],[-52.8378,-32.9245],[-52.8622,-32.9242],[-52.8791,-32.9213],[-52.895,-32.913],[-52.9165,-32.8965],[-52.9752,-32.835],[-52.9957,-32.825],[-52.9955,-32.8018],[-52.9877,-32.7764],[-52.9848,-32.76],[-52.9961,-32.7555],[-53.0119,-32.7682],[-53.0366,-32.7976],[-53.0643,-32.8221],[-53.0775,-32.8221],[-53.083,-32.8212],[-53.0946,-32.8147],[-53.1127,-32.8015],[-53.1243,-32.7991],[-53.1293,-32.8112],[-53.1324,-32.8265],[-53.1461,-32.8577],[-53.1494,-32.8733],[-53.1505,-32.8992],[-53.161,-32.9601],[-53.1704,-32.9866],[-53.1847,-33.0114],[-53.2079,-33.0367],[-53.2118,-33.0426],[-53.215,-33.0558],[-53.2175,-33.0611],[-53.2226,-33.0652],[-53.236,-33.0735],[-53.2424,-33.0785],[-53.2591,-33.0952],[-53.2706,-33.1008],[-53.2865,-33.102],[-53.3024,-33.0979],[-53.311,-33.0897],[-53.3213,-33.0611],[-53.357,-33.1123],[-53.3622,-33.1264],[-53.3706,-33.1379],[-53.3897,-33.1459],[-53.4105,-33.1518],[-53.4237,-33.1574],[-53.4316,-33.173],[-53.4443,-33.2165],[-53.4543,-33.2256],[-53.4623,-33.2357],[-53.4659,-33.2592],[-53.4662,-33.2848],[-53.4646,-33.3013],[-53.4459,-33.3666],[-53.4475,-33.377],[-53.4392,-33.3849],[-53.4337,-33.4043],[-53.4312,-33.4267],[-53.4311,-33.4452],[-53.4445,-33.5212],[-53.4608,-33.5506],[-53.4857,-33.5477],[-53.4712,-33.5409],[-53.4801,-33.5327],[-53.4967,-33.533],[-53.5055,-33.5515],[-53.5082,-33.568],[-53.5151,-33.5818],[-53.5241,-33.5895],[-53.5335,-33.5892],[-53.5398,-33.5327],[-53.5491,-33.5044],[-53.571,-33.4762],[-53.5856,-33.4505],[-53.5865,-33.4188],[-53.5769,-33.3875],[-53.5601,-33.3634],[-53.5815,-33.3502],[-53.5925,-33.3346],[-53.5919,-33.3172],[-53.5782,-33.2975],[-53.5657,-33.2736],[-53.5831,-33.2639],[-53.6093,-33.2574],[-53.6228,-33.243],[-53.6261,-33.2327],[-53.6401,-33.2177],[-53.6434,-33.2083],[-53.6455,-33.1877],[-53.6439,-33.1818],[-53.6365,-33.1709],[-53.6277,-33.1644],[-53.6211,-33.1647],[-53.6168,-33.1624],[-53.6153,-33.1468],[-53.6178,-33.1373],[-53.6365,-33.1088],[-53.6143,-33.1002],[-53.6118,-33.0899],[-53.6183,-33.0761],[-53.6228,-33.0576],[-53.62,-33.0473],[-53.6133,-33.0414],[-53.6044,-33.0411],[-53.5956,-33.0473],[-53.5935,-33.0552],[-53.5956,-33.0882],[-53.5785,-33.0761],[-53.4973,-32.9713],[-53.4773,-32.9525],[-53.4475,-32.9451],[-53.3311,-32.9519],[-53.3248,-32.9484],[-53.3299,-32.9413],[-53.3382,-32.9363],[-53.3417,-32.9381],[-53.3444,-32.9366],[-53.3492,-32.9363],[-53.3536,-32.9336],[-53.3554,-32.9245],[-53.3491,-32.9163],[-53.3347,-32.9083],[-53.307,-32.8965],[-53.307,-32.8904],[-53.3126,-32.8886],[-53.322,-32.8845],[-53.3274,-32.8827],[-53.3274,-32.8765],[-53.3043,-32.8692],[-53.2921,-32.8612],[-53.2874,-32.8483],[-53.2865,-32.825],[-53.2959,-32.7923],[-53.297,-32.7868],[-53.2995,-32.7835],[-53.3348,-32.7667],[-53.3526,-32.7523],[-53.3463,-32.7488],[-53.3036,-32.7526],[-53.2808,-32.7505],[-53.2639,-32.7447],[-53.2318,-32.7258],[-53.2097,-32.7176],[-53.1922,-32.7135],[-53.1807,-32.7043],[-53.1719,-32.6561],[-53.1588,-32.6443],[-53.0936,-32.6319],[-53.0472,-32.6163],[-53.0295,-32.6054],[-53.0126,-32.591],[-53.0042,-32.5798],[-53.0007,-32.5648],[-52.9985,-32.5404],[-52.9861,-32.4974],[-52.961,-32.4691],[-52.9273,-32.4512],[-52.808,-32.4094],[-52.7757,-32.3844],[-52.7867,-32.3552],[-52.7971,-32.352],[-52.8192,-32.3534],[-52.8278,-32.349],[-52.8307,-32.3417],[-52.8314,-32.3302],[-52.8276,-32.3196],[-52.8172,-32.3149],[-52.8064,-32.3052],[-52.7726,-32.2454],[-52.7655,-32.2419],[-52.7471,-32.2381],[-52.7384,-32.2325],[-52.7281,-32.1977],[-52.7081,-32.1927],[-52.6717,-32.1754],[-52.6559,-32.1771],[-52.694,-32.2472],[-52.708,-32.2869],[-52.711,-32.3287],[-52.6947,-32.3661],[-52.6273,-32.4262],[-52.6012,-32.4591],[-52.5923,-32.4921]]]}}
