{"type":"Feature","properties":{"id":1023,"name":"Lake Chad","featurecla":"Lake","scalerank":1,"wikidataid":"Q125309","source":"Natural Earth 5.2.0-pre ne_10m_lakes (public domain)"},"geometry":{"type":"Polygon","coordinates":[[[14.7451,13.0758],[14.7681,13.0699],[14.7207,13.0522],[14.7051,13.0446],[14.6986,13.039],[14.6907,13.0095],[14.6889,13.0072],[14.6872,13.0042],[14.6813,13.0019],[14.6786,12.9954],[14.681,12.9895],[14.6839,12.9833],[14.6813,12.9777],[14.6671,12.9745],[14.6527,12.9739],[14.6448,12.9724],[14.6371,12.973],[14.6195,12.9901],[14.6094,12.9939],[14.5988,12.9963],[14.5882,12.9913],[14.5809,12.9819],[14.5785,12.9742],[14.5715,12.9716],[14.565,12.9772],[14.5606,12.9845],[14.5509,12.986],[14.5409,12.9836],[14.5091,12.978],[14.4955,12.9701],[14.4855,12.9574],[14.479,12.9524],[14.4767,12.9442],[14.4734,12.9371],[14.469,12.9392],[14.4652,12.9515],[14.462,12.9574],[14.4564,12.9513],[14.4525,12.9436],[14.4523,12.933],[14.4487,12.9265],[14.4414,12.9333],[14.4325,12.9362],[14.4234,12.9309],[14.4155,12.9233],[14.406,12.9159],[14.3984,12.9071],[14.4102,12.8944],[14.4066,12.8821],[14.4004,12.8821],[14.3946,12.8833],[14.3875,12.8824],[14.3725,12.873],[14.3628,12.8741],[14.3536,12.8788],[14.343,12.8791],[14.3186,12.8703],[14.3133,12.875],[14.3104,12.885],[14.3004,12.8877],[14.2689,12.8883],[14.2759,12.8986],[14.288,12.9042],[14.2733,12.9383],[14.2842,12.9412],[14.2936,12.9468],[14.2859,12.9618],[14.2718,12.9739],[14.2703,12.9801],[14.2709,12.9848],[14.2606,12.9939],[14.2474,12.9992],[14.2512,13.0045],[14.2577,13.0098],[14.2633,13.0116],[14.283,13.0131],[14.2939,13.0195],[14.2942,13.0272],[14.2915,13.0349],[14.2904,13.0422],[14.2853,13.0487],[14.2786,13.0528],[14.2739,13.0581],[14.2851,13.0616],[14.3248,13.0572],[14.3213,13.0699],[14.306,13.099],[14.3024,13.109],[14.2965,13.1182],[14.2848,13.1252],[14.2789,13.1361],[14.3068,13.1267],[14.346,13.0887],[14.3507,13.0817],[14.3628,13.0678],[14.3807,13.0637],[14.3763,13.0734],[14.3731,13.0834],[14.3713,13.1026],[14.3595,13.1123],[14.3448,13.1187],[14.3033,13.1655],[14.3004,13.1726],[14.3089,13.1717],[14.318,13.1676],[14.3271,13.1623],[14.3372,13.1591],[14.3466,13.1582],[14.3563,13.1588],[14.3636,13.1629],[14.3669,13.1703],[14.3642,13.1803],[14.374,13.1938],[14.4375,13.2235],[14.447,13.2221],[14.4573,13.2165],[14.469,13.2144],[14.4626,13.2224],[14.4643,13.2306],[14.5132,13.2512],[14.5367,13.2536],[14.5444,13.2489],[14.5506,13.2421],[14.5706,13.2277],[14.5986,13.1991],[14.6077,13.1929],[14.6121,13.1973],[14.6142,13.2026],[14.6112,13.2094],[14.6097,13.2174],[14.6318,13.2124],[14.6512,13.2159],[14.6674,13.2056],[14.6736,13.1885],[14.6677,13.1806],[14.6668,13.177],[14.671,13.1644],[14.6754,13.1573],[14.6927,13.1488],[14.7028,13.1349],[14.7187,13.1279],[14.7195,13.122],[14.7198,13.1164],[14.7172,13.1093],[14.7187,13.0987],[14.7242,13.089],[14.7337,13.0808],[14.7451,13.0758]]]}}
