{"type":"Feature","properties":{"id":1024,"name":"Lake Eyre North","featurecla":"Alkaline Lake","scalerank":1,"wikidataid":"Q21890573","source":"Natural Earth 5.2.0-pre ne_10m_lakes (public domain)"},"geometry":{"type":"Polygon","coordinates":[[[137.9407,-29.106],[137.9256,-29.091],[137.9124,-29.0742],[137.8933,-29.0663],[137.865,-29.0672],[137.8559,-29.0663],[137.8259,-29.0551],[137.8182,-29.0533],[137.7988,-29.041],[137.7796,-29.0139],[137.7658,-28.9865],[137.7626,-28.9736],[137.7358,-28.9853],[137.6798,-29.0183],[137.6534,-29.0254],[137.636,-29.033],[137.6245,-29.0477],[137.6139,-29.0575],[137.5986,-29.0495],[137.5862,-29.041],[137.4891,-29.0071],[137.4785,-28.998],[137.4726,-28.9789],[137.4806,-28.9653],[137.4926,-28.9556],[137.4988,-28.9465],[137.495,-28.9291],[137.4847,-28.9247],[137.47,-28.9247],[137.4526,-28.9217],[137.4349,-28.9106],[137.3737,-28.8479],[137.3454,-28.8093],[137.3145,-28.7796],[137.3098,-28.7622],[137.3213,-28.7372],[137.3531,-28.7072],[137.369,-28.6854],[137.3625,-28.6754],[137.3269,-28.6821],[137.3181,-28.6786],[137.3028,-28.6577],[137.296,-28.6524],[137.2872,-28.6548],[137.2813,-28.6618],[137.2813,-28.6695],[137.2822,-28.6786],[137.2798,-28.6895],[137.2736,-28.6966],[137.2648,-28.7022],[137.2571,-28.7092],[137.2536,-28.7198],[137.2577,-28.7637],[137.2639,-28.7843],[137.273,-28.7993],[137.3092,-28.8252],[137.3231,-28.8405],[137.3357,-28.9061],[137.3596,-28.983],[137.3566,-29.0257],[137.3519,-29.0342],[137.3281,-29.0672],[137.3142,-29.0486],[137.3098,-29.0318],[137.3066,-28.9936],[137.2798,-28.9465],[137.2789,-28.9432],[137.273,-28.9094],[137.263,-28.9003],[137.2395,-28.887],[137.2301,-28.8767],[137.2253,-28.8635],[137.2242,-28.8367],[137.2212,-28.8231],[137.2124,-28.8046],[137.2039,-28.7972],[137.1941,-28.8022],[137.1827,-28.8214],[137.1744,-28.8564],[137.1724,-28.8779],[137.1765,-28.8891],[137.1615,-28.8841],[137.1462,-28.8805],[137.1306,-28.8802],[137.115,-28.885],[137.1185,-28.9112],[137.1288,-28.9309],[137.1353,-28.9512],[137.1264,-28.9789],[137.1047,-29.0039],[137.0767,-29.0189],[137.0452,-29.0236],[137.0128,-29.0177],[136.9999,-29.0121],[136.9916,-29.0059],[136.9242,-28.9359],[136.9057,-28.9],[136.9021,-28.867],[136.9039,-28.8334],[136.9007,-28.7958],[136.8968,-28.7878],[136.8848,-28.7731],[136.8833,-28.764],[136.8965,-28.7463],[136.9195,-28.7487],[136.9416,-28.7548],[136.9516,-28.7475],[136.9492,-28.7289],[136.9428,-28.7075],[136.9342,-28.6863],[136.9242,-28.6683],[136.9086,-28.6503],[136.898,-28.6415],[136.893,-28.6303],[136.8968,-28.5732],[136.8957,-28.5591],[136.9013,-28.4976],[136.8992,-28.477],[136.8721,-28.4293],[136.8662,-28.4225],[136.8674,-28.421],[136.8683,-28.4193],[136.8692,-28.4157],[136.8951,-28.4184],[136.9481,-28.4299],[136.9731,-28.4249],[136.9907,-28.3987],[136.9955,-28.3548],[136.9893,-28.2294],[136.9843,-28.2064],[136.9751,-28.1961],[136.9578,-28.1879],[136.9481,-28.1682],[136.9442,-28.1449],[136.9436,-28.1255],[136.9481,-28.0863],[136.9425,-28.0722],[136.9233,-28.0551],[136.9163,-28.0513],[136.9024,-28.046],[136.8957,-28.041],[136.8924,-28.0348],[136.8901,-28.0192],[136.8868,-28.0125],[136.8562,-27.9924],[136.8315,-28.001],[136.7897,-28.0448],[136.7803,-28.0128],[136.7812,-27.9833],[136.7941,-27.9574],[136.8218,-27.9359],[136.8377,-27.9303],[136.8701,-27.9256],[136.8857,-27.9206],[136.9887,-27.8641],[137.0269,-27.8523],[137.0531,-27.8497],[137.0779,-27.8529],[137.102,-27.8606],[137.1261,-27.8718],[137.2663,-27.9648],[137.3181,-27.9771],[137.3549,-27.9748],[137.3737,-27.9765],[137.3896,-27.9839],[137.402,-28.0022],[137.424,-28.049],[137.4408,-28.0584],[137.4564,-28.0699],[137.4729,-28.0961],[137.5062,-28.1767],[137.5156,-28.1897],[137.5294,-28.1838],[137.5539,-28.1567],[137.5695,-28.1458],[137.6051,-28.1308],[137.6113,-28.1205],[137.6327,-28.1117],[137.6634,-28.1093],[137.6934,-28.114],[137.7119,-28.1273],[137.7113,-28.1376],[137.7034,-28.149],[137.6916,-28.1582],[137.6807,-28.162],[137.6539,-28.1614],[137.6283,-28.1644],[137.6089,-28.1782],[137.6018,-28.2097],[137.6045,-28.2188],[137.6169,-28.2424],[137.6224,-28.2506],[137.6345,-28.2638],[137.6486,-28.2747],[137.6645,-28.2821],[137.6978,-28.2892],[137.7219,-28.308],[137.7358,-28.3121],[137.767,-28.3086],[137.7802,-28.3121],[137.787,-28.3265],[137.7729,-28.3424],[137.7634,-28.3577],[137.7602,-28.3742],[137.7152,-28.343],[137.6993,-28.3357],[137.6972,-28.3501],[137.7052,-28.381],[137.704,-28.3848],[137.7025,-28.3884],[137.7007,-28.391],[137.6978,-28.3937],[137.6731,-28.3666],[137.6663,-28.3628],[137.6589,-28.361],[137.6519,-28.3583],[137.6457,-28.3516],[137.6433,-28.3442],[137.6433,-28.328],[137.641,-28.3207],[137.6239,-28.3039],[137.6074,-28.3006],[137.5945,-28.3104],[137.5883,-28.3327],[137.5942,-28.3663],[137.6116,-28.3975],[137.6504,-28.4425],[137.7052,-28.4908],[137.7131,-28.5058],[137.7175,-28.5229],[137.7163,-28.5394],[137.7069,-28.5514],[137.689,-28.5302],[137.6645,-28.5129],[137.6378,-28.5076],[137.6133,-28.5232],[137.6039,-28.5491],[137.601,-28.5862],[137.6048,-28.623],[137.6163,-28.648],[137.6757,-28.6824],[137.6904,-28.711],[137.7593,-28.8052],[137.7699,-28.8276],[137.7737,-28.8505],[137.777,-28.8614],[137.7911,-28.8802],[137.7944,-28.8917],[137.7944,-28.9359],[137.7999,-28.955],[137.8303,-29.0133],[137.8853,-29.0086],[137.9033,-29.0112],[137.9124,-29.0154],[137.9268,-29.028],[137.9354,-29.0318],[137.9451,-29.0315],[137.9642,-29.0268],[137.9742,-29.0277],[137.9833,-29.0324],[138.0066,-29.0533],[138.0443,-29.0654],[138.0543,-29.0739],[138.0401,-29.0875],[138.0296,-29.0892],[138.0057,-29.0866],[137.9957,-29.0904],[137.9842,-29.1031],[137.9772,-29.1069],[137.9657,-29.1078],[137.9407,-29.106]]]}}
