{"type":"Feature","properties":{"id":1025,"name":"Lake Okeechobee","featurecla":"Lake","scalerank":1,"wikidataid":"Q202905","source":"Natural Earth 5.2.0-pre ne_10m_lakes (public domain)"},"geometry":{"type":"Polygon","coordinates":[[[-80.6185,26.9777],[-80.6147,26.938],[-80.6204,26.8973],[-80.636,26.8661],[-80.659,26.8399],[-80.6874,26.814],[-80.6918,26.8008],[-80.6942,26.749],[-80.7014,26.7469],[-80.706,26.7434],[-80.7107,26.7407],[-80.7183,26.7428],[-80.7229,26.7475],[-80.7267,26.7552],[-80.732,26.7696],[-80.7357,26.7525],[-80.7283,26.7248],[-80.7252,26.6989],[-80.7417,26.6878],[-80.7563,26.6898],[-80.7813,26.6992],[-80.8141,26.7034],[-80.8244,26.7089],[-80.8481,26.7287],[-80.8605,26.7351],[-80.8835,26.7431],[-80.896,26.749],[-80.931,26.7784],[-80.941,26.7955],[-80.951,26.822],[-80.9656,26.8476],[-80.9853,26.8585],[-80.9787,26.8791],[-80.9884,26.8817],[-81.02,26.872],[-81.0377,26.8761],[-81.0568,26.8859],[-81.0692,26.897],[-81.0673,26.9068],[-81.0673,26.9135],[-81.0741,26.9221],[-81.0779,26.9456],[-81.0877,26.955],[-81.0947,26.9503],[-81.0991,26.9544],[-81.1013,26.9642],[-81.102,26.9756],[-81.086,26.9792],[-81.033,27.003],[-80.9765,27.0436],[-80.9579,27.0507],[-80.964,27.0622],[-80.9603,27.0657],[-80.952,27.0669],[-80.9412,27.0719],[-80.9314,27.0722],[-80.9272,27.0743],[-80.9245,27.0796],[-80.9232,27.0902],[-80.9201,27.0952],[-80.845,27.1726],[-80.8184,27.1908],[-80.7885,27.1964],[-80.7519,27.1879],[-80.7339,27.1623],[-80.6792,27.1134],[-80.6569,27.0781],[-80.6284,27.0116],[-80.6185,26.9777]]]}}
