{"type":"Feature","properties":{"id":1026,"name":"Lake Onega","featurecla":"Lake","scalerank":1,"wikidataid":"Q166162","source":"Natural Earth 5.2.0-pre ne_10m_lakes (public domain)"},"geometry":{"type":"Polygon","coordinates":[[[35.844,60.8596],[35.8199,60.882],[35.8054,60.8893],[35.7892,60.8885],[35.7622,60.8755],[35.7433,60.8758],[35.7563,60.8932],[35.7745,60.9061],[35.7789,60.9141],[35.7504,60.9167],[35.7174,60.9135],[35.6521,60.899],[35.617,60.8958],[35.5897,60.899],[35.5602,60.9079],[35.5328,60.9211],[35.4946,60.9509],[35.4896,60.9594],[35.4896,60.9715],[35.4978,60.9815],[35.5081,60.9818],[35.5128,60.9838],[35.5037,60.9994],[35.4881,61.0127],[35.4651,61.0247],[35.3874,61.0554],[35.3683,61.0586],[35.3533,61.0571],[35.3177,61.0359],[35.2997,61.0286],[35.28,61.0097],[35.2676,61.0056],[35.2532,61.0097],[35.2394,61.0183],[35.2246,61.0247],[35.209,61.0233],[35.1516,61.0003],[35.1234,60.9965],[35.0922,60.9994],[35.1378,61.02],[35.1437,61.0345],[35.1201,61.0539],[35.1081,61.0589],[35.1013,61.0577],[35.0939,61.0548],[35.0783,61.0539],[35.0675,61.0565],[35.0292,61.0721],[35.0154,61.0733],[34.9621,61.0677],[34.9515,61.0718],[34.9356,61.0901],[34.9209,61.0942],[34.8794,61.093],[34.8746,61.0877],[34.9209,61.0539],[34.9023,61.0398],[34.8764,61.0283],[34.849,61.0212],[34.8255,61.0197],[34.8334,61.0412],[34.8231,61.0554],[34.8069,61.0662],[34.7987,61.0774],[34.8002,61.086],[34.8031,61.093],[34.804,61.0992],[34.7984,61.1048],[34.7757,61.1139],[34.7716,61.121],[34.7775,61.1366],[34.7857,61.144],[34.7961,61.1457],[34.8061,61.1463],[34.8122,61.1496],[34.8143,61.1587],[34.8114,61.1681],[34.8069,61.1778],[34.8049,61.1872],[34.8093,61.2058],[34.8214,61.2199],[34.8387,61.229],[34.8593,61.232],[34.8852,61.2267],[34.9318,61.2028],[34.9553,61.1972],[35.0566,61.1993],[35.0722,61.2075],[35.0804,61.2252],[35.0984,61.2217],[35.1337,61.1972],[35.1625,61.1843],[35.1934,61.1769],[35.2573,61.1699],[35.2408,61.171],[35.2264,61.1678],[35.217,61.1587],[35.2164,61.1428],[35.1799,61.1543],[35.1455,61.1696],[35.1101,61.1802],[35.0722,61.1775],[35.0577,61.1719],[35.0486,61.1652],[35.0424,61.1557],[35.0377,61.1428],[35.0315,61.1342],[35.0265,61.1331],[35.0271,61.1316],[35.0377,61.1222],[35.0451,61.1189],[35.0792,61.1116],[35.1561,61.0583],[35.1814,61.0465],[35.2193,61.0504],[35.2903,61.0874],[35.3259,61.0848],[35.3456,61.0763],[35.3665,61.071],[35.4283,61.0651],[35.4428,61.0589],[35.5005,61.0209],[35.5284,61.0094],[35.557,61.0106],[35.6282,61.058],[35.6341,61.0639],[35.6356,61.0801],[35.6397,61.0904],[35.6482,61.0983],[35.6612,61.1086],[35.6859,61.121],[35.6918,61.1281],[35.6889,61.1428],[35.6794,61.1525],[35.6244,61.1778],[35.6159,61.1802],[35.6079,61.1837],[35.5994,61.1911],[35.6103,61.207],[35.6123,61.2237],[35.607,61.2405],[35.5961,61.2561],[35.5885,61.2608],[35.567,61.2682],[35.559,61.2732],[35.554,61.2826],[35.5526,61.3023],[35.5482,61.3106],[35.5326,61.3279],[35.5243,61.3344],[35.4896,61.355],[35.4737,61.3691],[35.4643,61.3736],[35.3918,61.3774],[35.3742,61.383],[35.3559,61.3945],[35.3515,61.4056],[35.3489,61.418],[35.3362,61.4339],[35.3236,61.441],[35.2979,61.4463],[35.2844,61.4513],[35.2791,61.4557],[35.2609,61.4757],[35.24,61.4834],[35.1475,61.4916],[35.1243,61.5013],[35.1128,61.5046],[35.0957,61.5057],[35.0816,61.5031],[35.0704,61.4981],[35.0589,61.4951],[35.0445,61.499],[35.0545,61.5078],[35.0566,61.516],[35.053,61.5246],[35.0445,61.5337],[35.0283,61.5408],[34.9103,61.531],[34.8935,61.5337],[34.8811,61.5399],[34.8741,61.5469],[34.8685,61.5543],[34.8593,61.5611],[34.8261,61.5717],[34.723,61.5823],[34.7016,61.5937],[34.6939,61.6091],[34.6889,61.6255],[34.6745,61.6423],[34.6639,61.6464],[34.633,61.6526],[34.6203,61.6567],[34.5788,61.6832],[34.5105,61.7386],[34.4275,61.7869],[34.341,61.8122],[34.3183,61.8281],[34.3418,61.8275],[34.3304,61.8437],[34.2842,61.8831],[34.308,61.8937],[34.3351,61.8813],[34.3536,61.8596],[34.3522,61.8416],[34.3825,61.8313],[34.419,61.8248],[34.4896,61.821],[34.509,61.8113],[34.5317,61.7916],[34.5547,61.7774],[34.5759,61.7836],[34.5809,61.8022],[34.5785,61.8469],[34.5894,61.8557],[34.6138,61.8537],[34.6233,61.8581],[34.6268,61.8731],[34.6259,61.8961],[34.6241,61.9064],[34.6203,61.9167],[34.61,61.9317],[34.5647,61.9788],[34.5385,62.0147],[34.5214,62.0326],[34.5035,62.0403],[34.4932,62.0432],[34.4552,62.0647],[34.3074,62.1104],[34.2842,62.1295],[34.3036,62.1371],[34.2874,62.1545],[34.2365,62.1842],[34.2771,62.206],[34.2842,62.2116],[34.2812,62.216],[34.2606,62.229],[34.2571,62.2346],[34.2585,62.2393],[34.2618,62.2437],[34.2635,62.249],[34.2641,62.2628],[34.2638,62.2702],[34.258,62.2761],[34.2079,62.3108],[34.154,62.3376],[34.1164,62.385],[34.0757,62.4227],[34.0233,62.4177],[34.0375,62.4038],[34.0204,62.3806],[34.0051,62.3747],[33.9898,62.3826],[33.943,62.433],[33.9321,62.4524],[33.9277,62.4754],[33.9289,62.4863],[33.933,62.5057],[33.935,62.5245],[33.9383,62.5254],[33.943,62.5245],[33.9483,62.5275],[33.9503,62.5275],[33.9606,62.5348],[33.9698,62.5437],[33.9689,62.5472],[33.9815,62.5457],[34.0525,62.5225],[34.0684,62.5139],[34.0707,62.5139],[34.0702,62.5119],[34.0719,62.4995],[34.071,62.4757],[34.0675,62.4536],[34.0737,62.4377],[34.1025,62.4312],[34.1399,62.4038],[34.1641,62.3921],[34.172,62.3841],[34.1749,62.3694],[34.2011,62.3385],[34.3728,62.2599],[34.3224,62.2452],[34.3003,62.2322],[34.3045,62.2116],[34.2998,62.196],[34.3109,62.1837],[34.3295,62.1742],[34.4187,62.1395],[34.4587,62.1307],[34.5005,62.1074],[34.5241,62.1024],[34.5497,62.1001],[34.5747,62.0939],[34.7074,62.0379],[34.7454,62.0332],[34.7434,62.0615],[34.6842,62.1059],[34.6556,62.133],[34.6553,62.1575],[34.5585,62.2319],[34.5832,62.2275],[34.5947,62.2275],[34.6062,62.2319],[34.6,62.2396],[34.6138,62.2469],[34.6238,62.2443],[34.6403,62.2257],[34.7098,62.1669],[34.7233,62.1619],[34.7289,62.171],[34.7245,62.1789],[34.7024,62.2013],[34.6948,62.2116],[34.691,62.2243],[34.6904,62.2334],[34.6889,62.2419],[34.6818,62.2525],[34.6701,62.2625],[34.643,62.2796],[34.5441,62.3623],[34.5123,62.4038],[34.4952,62.4194],[34.4569,62.4412],[34.4452,62.4518],[34.4396,62.4639],[34.4449,62.4754],[34.4555,62.4724],[34.5105,62.4448],[34.5535,62.4047],[34.5797,62.385],[34.6309,62.3685],[34.6553,62.3491],[34.6948,62.3076],[34.7272,62.2811],[34.7669,62.2552],[34.7949,62.2505],[34.7916,62.2867],[34.7704,62.3411],[34.761,62.3494],[34.7366,62.3535],[34.7119,62.3638],[34.6892,62.3782],[34.6712,62.3932],[34.6062,62.4374],[34.5703,62.4545],[34.5564,62.4662],[34.5438,62.5051],[34.527,62.516],[34.5067,62.5236],[34.4896,62.5337],[34.4776,62.5478],[34.4705,62.5622],[34.4617,62.5958],[34.4787,62.5922],[34.4876,62.581],[34.494,62.5669],[34.5032,62.5543],[34.5167,62.5448],[34.5977,62.5045],[34.6718,62.478],[34.7024,62.4592],[34.7113,62.4483],[34.7278,62.4212],[34.7366,62.4106],[34.7916,62.3768],[34.8034,62.3653],[34.8122,62.3538],[34.8255,62.3282],[34.8323,62.3029],[34.8373,62.2902],[34.8464,62.2805],[34.8455,62.2917],[34.8458,62.302],[34.8482,62.3123],[34.8526,62.3214],[34.8682,62.2958],[34.8744,62.2675],[34.8661,62.2511],[34.839,62.2599],[34.8564,62.236],[34.8629,62.229],[34.867,62.2204],[34.8693,62.1945],[34.8723,62.1842],[34.8885,62.1666],[35.051,62.06],[35.1019,62.0394],[35.1617,62.0341],[35.1537,62.0497],[35.1625,62.0618],[35.1775,62.0715],[35.1884,62.0812],[35.1926,62.1009],[35.1864,62.1183],[35.1717,62.131],[35.1508,62.1357],[35.1322,62.1424],[35.0966,62.1713],[35.0792,62.1781],[35.061,62.1828],[35.0418,62.1945],[35.0242,62.2101],[35.0103,62.2257],[35.0519,62.2257],[35.0404,62.2322],[35.0301,62.2405],[35.0103,62.2599],[35.0374,62.2555],[35.0789,62.2416],[35.1169,62.224],[35.1337,62.2081],[35.1546,62.1825],[35.2026,62.1751],[35.2915,62.1707],[35.3356,62.1321],[35.3577,62.1227],[35.3727,62.1604],[35.386,62.1728],[35.4016,62.181],[35.4145,62.181],[35.4342,62.1731],[35.449,62.1701],[35.4643,62.1722],[35.4831,62.1781],[35.5779,62.2328],[35.5932,62.249],[35.5882,62.2787],[35.5761,62.2958],[35.5602,62.3111],[35.5446,62.335],[35.542,62.347],[35.5426,62.3697],[35.5378,62.3829],[35.5284,62.3909],[35.5146,62.3977],[35.5022,62.4065],[35.4969,62.4206],[35.4866,62.4374],[35.4213,62.4927],[35.3639,62.5307],[35.3539,62.5442],[35.3389,62.5737],[35.3262,62.5822],[35.3041,62.5825],[35.2968,62.5704],[35.2997,62.5531],[35.3088,62.5375],[35.3103,62.5239],[35.2868,62.5266],[35.2435,62.541],[35.2164,62.544],[35.1611,62.5572],[35.1075,62.5622],[35.0945,62.5654],[35.0845,62.574],[35.0689,62.5919],[35.0563,62.6014],[35.0192,62.6199],[34.9839,62.6429],[34.9665,62.6514],[34.9471,62.6558],[34.9209,62.6573],[34.9282,62.6458],[34.9388,62.637],[34.9624,62.6231],[34.9359,62.6231],[34.9026,62.6382],[34.8705,62.6458],[34.8464,62.6231],[34.8487,62.6017],[34.8693,62.5893],[34.897,62.5802],[34.9209,62.5684],[34.9291,62.5593],[34.9379,62.5401],[34.945,62.5307],[34.9568,62.5216],[34.9794,62.5089],[34.9897,62.4995],[34.9947,62.4901],[34.9956,62.4813],[34.9983,62.4721],[35.0148,62.4539],[35.0209,62.4442],[35.0307,62.4239],[35.0239,62.4239],[35.0177,62.4356],[34.9897,62.4648],[34.9833,62.4754],[34.9744,62.4966],[34.9685,62.5057],[34.9591,62.5151],[34.9376,62.5316],[34.9276,62.541],[34.9153,62.5634],[34.9058,62.5699],[34.8867,62.5684],[34.8961,62.5507],[34.9079,62.5337],[34.8955,62.536],[34.8879,62.5422],[34.8761,62.5575],[34.867,62.5628],[34.8432,62.5696],[34.8328,62.5746],[34.817,62.5899],[34.7946,62.6202],[34.7392,62.6641],[34.7139,62.6755],[34.7024,62.6605],[34.7113,62.6464],[34.7707,62.5958],[34.7398,62.6122],[34.7186,62.634],[34.7001,62.6582],[34.6783,62.6814],[34.625,62.7206],[34.5647,62.7532],[34.5759,62.7759],[34.5741,62.7965],[34.5623,62.8159],[34.5441,62.8354],[34.5299,62.8563],[34.5193,62.8639],[34.507,62.8595],[34.4934,62.8513],[34.484,62.8548],[34.4549,62.8963],[34.4514,62.9066],[34.4584,62.911],[34.5226,62.9207],[34.5441,62.9178],[34.5564,62.9104],[34.5653,62.9013],[34.5756,62.8934],[34.605,62.8875],[34.6403,62.8695],[34.6403,62.8633],[34.6571,62.8442],[34.6877,62.8239],[34.7195,62.8127],[34.7398,62.8218],[34.7654,62.8424],[34.8066,62.8507],[34.8505,62.8471],[34.8835,62.8321],[34.8961,62.8242],[34.9998,62.783],[35.0139,62.78],[35.0295,62.7789],[35.0466,62.7747],[35.0598,62.7677],[35.0654,62.7565],[34.9762,62.7671],[34.9762,62.7597],[35.0445,62.7391],[35.1196,62.7353],[35.2167,62.6982],[35.3765,62.6729],[35.4151,62.657],[35.418,62.6331],[35.4122,62.6187],[35.4219,62.612],[35.4378,62.6072],[35.4522,62.5993],[35.4631,62.5905],[35.4793,62.5819],[35.4963,62.5757],[35.5105,62.5746],[35.4807,62.5996],[35.4757,62.6093],[35.4804,62.6258],[35.4946,62.637],[35.5122,62.6402],[35.5275,62.6331],[35.5431,62.614],[35.549,62.6031],[35.5514,62.5919],[35.5526,62.5722],[35.557,62.5657],[35.5858,62.5684],[35.6097,62.5672],[35.6862,62.5528],[35.7059,62.5516],[35.7159,62.5472],[35.7192,62.5428],[35.7254,62.5289],[35.7304,62.5236],[35.8051,62.4783],[35.8257,62.4592],[35.8393,62.4365],[35.8469,62.4071],[35.844,62.3788],[35.8187,62.3509],[35.8193,62.3403],[35.8234,62.3288],[35.8257,62.3179],[35.7987,62.284],[35.7919,62.2731],[35.7766,62.1922],[35.7607,62.1672],[35.7377,62.148],[35.688,62.1168],[35.6683,62.0948],[35.66,62.058],[35.6788,62.03],[35.7127,62.0088],[35.7766,61.9841],[35.8284,61.9717],[35.8537,61.9617],[35.872,61.9461],[35.8669,61.9329],[35.8334,61.9099],[35.8605,61.8763],[35.836,61.869],[35.8234,61.8587],[35.8257,61.8472],[35.8469,61.8354],[35.8614,61.8322],[35.9085,61.8281],[35.9138,61.8248],[35.9161,61.8166],[35.922,61.8148],[35.9317,61.8145],[35.94,61.8136],[35.9479,61.8113],[35.9567,61.8075],[35.9579,61.8045],[35.9797,61.7836],[36.0041,61.7521],[36.0339,61.7236],[36.0421,61.7065],[36.035,61.6871],[36.0209,61.6647],[36.0265,61.6544],[36.0453,61.6482],[36.1351,61.6082],[36.1828,61.574],[36.2134,61.5452],[36.2317,61.5125],[36.2231,61.4792],[36.2835,61.4742],[36.3426,61.461],[36.3953,61.436],[36.436,61.3959],[36.4454,61.3759],[36.4489,61.3533],[36.4451,61.3303],[36.4324,61.3106],[36.405,61.2944],[36.3494,61.2797],[36.3329,61.2593],[36.3839,61.2149],[36.4018,61.2043],[36.4339,61.1987],[36.4501,61.1937],[36.4566,61.1837],[36.4483,61.1719],[36.431,61.171],[36.395,61.1775],[36.3797,61.1696],[36.2944,61.103],[36.2652,61.0901],[36.2099,61.0739],[36.1754,61.0683],[36.1587,61.0689],[36.141,61.0739],[36.1325,61.081],[36.1228,61.091],[36.111,61.0969],[36.0966,61.0913],[36.0783,61.0718],[36.0536,61.0318],[36.038,61.0124],[35.9873,60.9753],[35.9314,60.955],[35.8705,60.9464],[35.8054,60.9447],[35.8166,60.9394],[35.8284,60.937],[35.8405,60.9364],[35.8531,60.9373],[35.844,60.9361],[35.8352,60.9332],[35.8269,60.9288],[35.819,60.9229],[35.922,60.9282],[35.9494,60.9229],[35.9279,60.8873],[35.922,60.882],[35.9046,60.8779],[35.8764,60.859],[35.8599,60.8546],[35.844,60.8596]],[[35.1431,62.0059],[35.1405,62.0179],[35.1293,62.0259],[35.0963,62.0376],[35.0828,62.0403],[35.0707,62.0391],[35.0654,62.0303],[35.0675,62.022],[35.0766,62.01],[35.0783,62.0029],[35.0786,61.9523],[35.0822,61.944],[35.1081,61.944],[35.1246,61.9479],[35.1346,61.9596],[35.1408,61.985],[35.1431,62.0059]],[[34.6818,61.9514],[34.6677,61.957],[34.6518,61.9652],[34.638,61.9761],[34.6289,61.9885],[34.6112,62.0023],[34.6015,62.0067],[34.5926,62.0067],[34.5859,62.0003],[34.5844,61.9908],[34.5879,61.9826],[34.6041,61.9749],[34.6118,61.9661],[34.6236,61.9479],[34.6362,61.9393],[34.6512,61.9382],[34.6818,61.944],[34.6818,61.9514]],[[35.3536,62.0162],[35.3489,62.0294],[35.3194,62.075],[35.3194,62.0812],[35.3015,62.0918],[35.28,62.0962],[35.2576,62.0933],[35.2361,62.0812],[35.2232,62.0662],[35.2155,62.0474],[35.2164,62.0285],[35.2299,62.0129],[35.2111,62.002],[35.1955,61.9879],[35.1834,61.9708],[35.1746,61.9514],[35.172,61.9355],[35.1708,61.9058],[35.1522,61.8696],[35.1605,61.8587],[35.1805,61.8557],[35.2026,61.8557],[35.2117,61.8516],[35.2191,61.844],[35.2267,61.8404],[35.2361,61.8484],[35.2361,61.8548],[35.2323,61.8631],[35.227,61.8713],[35.2226,61.8763],[35.2455,61.8872],[35.3068,61.8964],[35.3194,61.9064],[35.3206,61.9161],[35.3259,61.9355],[35.3262,61.944],[35.3236,61.9502],[35.3141,61.9658],[35.3118,61.9714],[35.3183,61.9879],[35.3471,61.9979],[35.3536,62.0162]]]}}
