{"type":"Feature","properties":{"id":1027,"name":"Lake Tana","featurecla":"Lake","scalerank":1,"wikidataid":"Q116685","source":"Natural Earth 5.2.0-pre ne_10m_lakes (public domain)"},"geometry":{"type":"Polygon","coordinates":[[[37.2964,11.7862],[37.2923,11.7988],[37.2846,11.8082],[37.2722,11.8165],[37.259,11.8218],[37.2246,11.8303],[37.2098,11.8303],[37.1948,11.8244],[37.1819,11.8162],[37.1674,11.81],[37.1486,11.8103],[37.1321,11.8165],[37.123,11.8259],[37.1198,11.8394],[37.1206,11.8583],[37.1018,11.8503],[37.095,11.8353],[37.0924,11.8185],[37.0865,11.8035],[37.0724,11.8268],[37.0697,11.8303],[37.0662,11.8321],[37.0444,11.84],[37.0394,11.8412],[37.0356,11.8615],[37.0262,11.8798],[37.0108,11.8898],[36.9914,11.8854],[36.9873,11.9054],[36.9932,11.9225],[37.0008,11.9354],[37.0014,11.9436],[36.9994,11.9551],[37.0153,12.1709],[37.0244,12.1883],[37.0682,12.2421],[37.0812,12.2521],[37.0968,12.256],[37.11,12.2619],[37.123,12.2733],[37.1374,12.2813],[37.1554,12.2766],[37.1674,12.2589],[37.1704,12.2386],[37.176,12.2201],[37.1963,12.2077],[37.2122,12.2206],[37.2266,12.2195],[37.2399,12.2121],[37.251,12.2077],[37.2681,12.2092],[37.2758,12.2156],[37.2949,12.2648],[37.3017,12.2745],[37.3129,12.2828],[37.3267,12.2892],[37.3376,12.291],[37.3479,12.2851],[37.3608,12.2689],[37.3782,12.2851],[37.3947,12.2901],[37.4291,12.2895],[37.4462,12.2954],[37.4618,12.3042],[37.4786,12.3092],[37.4986,12.3039],[37.5051,12.2957],[37.5251,12.256],[37.5342,12.2448],[37.5383,12.2368],[37.5463,12.2077],[37.5598,12.1803],[37.5919,12.1382],[37.601,12.112],[37.6013,12.0932],[37.5981,12.0758],[37.5804,12.0158],[37.5748,12.0063],[37.569,11.9996],[37.5666,11.9919],[37.5737,11.981],[37.5607,11.9684],[37.5489,11.9348],[37.5389,11.9201],[37.5257,11.9139],[37.5004,11.9127],[37.4913,11.906],[37.4933,11.898],[37.508,11.8686],[37.5116,11.8583],[37.5057,11.8383],[37.4901,11.8297],[37.4712,11.8235],[37.4568,11.8103],[37.4547,11.8018],[37.4533,11.78],[37.4503,11.7694],[37.4442,11.7617],[37.4286,11.7464],[37.4291,11.7346],[37.4291,11.7217],[37.4241,11.7123],[37.4118,11.6955],[37.4091,11.6905],[37.4085,11.6687],[37.4062,11.6619],[37.4018,11.6528],[37.3868,11.6319],[37.37,11.6243],[37.3505,11.6257],[37.3267,11.6322],[37.3155,11.6484],[37.3029,11.6563],[37.2937,11.664],[37.2926,11.6802],[37.299,11.6976],[37.3079,11.6976],[37.319,11.6923],[37.3335,11.6937],[37.3441,11.7046],[37.3367,11.7123],[37.3129,11.7217],[37.3052,11.7311],[37.302,11.7402],[37.2964,11.7862]]]}}
