{"type":"Feature","properties":{"id":1028,"name":"Vänern","featurecla":"Lake","scalerank":1,"wikidataid":"Q173596","source":"Natural Earth 5.2.0-pre ne_10m_lakes (public domain)"},"geometry":{"type":"Polygon","coordinates":[[[14.0981,59.0425],[14.0711,59.0231],[14.0404,59.0098],[14.0104,59.0051],[13.9895,59.0048],[13.9783,59.0033],[13.9736,58.9983],[13.9727,58.9877],[13.9771,58.9774],[13.9877,58.9671],[14.0013,58.9595],[14.0142,58.9565],[14.0142,58.9504],[14.0048,58.938],[13.9936,58.8991],[13.9863,58.8815],[13.9739,58.8635],[13.9657,58.8565],[13.9557,58.8535],[13.9539,58.8506],[13.9648,58.8347],[13.966,58.8264],[13.9586,58.8214],[13.9362,58.8161],[13.9315,58.8097],[13.9286,58.8088],[13.9121,58.8176],[13.9044,58.82],[13.8797,58.8132],[13.8685,58.7991],[13.8718,58.7835],[13.89,58.7717],[13.85,58.7396],[13.7119,58.6898],[13.7025,58.6822],[13.6957,58.6748],[13.6869,58.6698],[13.671,58.6692],[13.6531,58.6734],[13.6486,58.6795],[13.6478,58.6884],[13.6404,58.6996],[13.6242,58.699],[13.5474,58.6692],[13.5303,58.6572],[13.5224,58.6551],[13.507,58.6557],[13.4885,58.6634],[13.4756,58.6651],[13.4623,58.6586],[13.4393,58.6442],[13.3631,58.6283],[13.3254,58.6039],[13.2795,58.5362],[13.2459,58.5109],[13.2136,58.5035],[13.1727,58.5029],[13.1376,58.5123],[13.1229,58.5356],[13.1282,58.5424],[13.1603,58.5695],[13.1668,58.5795],[13.1762,58.6024],[13.1844,58.6139],[13.1712,58.6142],[13.1364,58.621],[13.1238,58.6204],[13.006,58.6004],[13.0013,58.6027],[12.9966,58.6068],[12.9901,58.6095],[12.9795,58.6071],[12.984,58.606],[12.9793,58.5968],[12.9657,58.5798],[12.9469,58.5692],[12.9248,58.5671],[12.9007,58.5712],[12.8759,58.5798],[12.8948,58.5715],[12.923,58.5524],[12.9386,58.5465],[12.9272,58.5409],[12.9207,58.5394],[12.9113,58.5388],[12.9177,58.5291],[12.9216,58.5271],[12.9313,58.5247],[12.9151,58.5159],[12.8924,58.4991],[12.8759,58.4911],[12.8241,58.48],[12.8073,58.4738],[12.7967,58.472],[12.7785,58.477],[12.7703,58.4738],[12.762,58.4629],[12.757,58.4582],[12.6705,58.4426],[12.679,58.4282],[12.6843,58.4211],[12.6917,58.4149],[12.651,58.389],[12.6019,58.366],[12.5527,58.3569],[12.5127,58.3737],[12.5315,58.3846],[12.5692,58.4005],[12.5848,58.4117],[12.6192,58.4644],[12.6363,58.4776],[12.6036,58.4688],[12.5904,58.4623],[12.578,58.4529],[12.5418,58.4149],[12.5374,58.4084],[12.5336,58.4064],[12.5289,58.4017],[12.5224,58.397],[12.4782,58.389],[12.465,58.3881],[12.405,58.3911],[12.3832,58.3881],[12.3434,58.3766],[12.3261,58.3761],[12.3108,58.3846],[12.3037,58.399],[12.3072,58.4134],[12.3175,58.4246],[12.3317,58.429],[12.3761,58.47],[12.3952,58.4779],[12.415,58.482],[12.4582,58.4835],[12.4656,58.4956],[12.4877,58.5135],[12.5139,58.5309],[12.5339,58.5388],[12.5306,58.5427],[12.5292,58.5462],[12.5265,58.5491],[12.5203,58.5521],[12.5301,58.5606],[12.5607,58.5798],[12.5983,58.6174],[12.6213,58.631],[12.631,58.6395],[12.6293,58.648],[12.6175,58.6513],[12.5639,58.648],[12.5404,58.6533],[12.5186,58.6669],[12.5018,58.6843],[12.493,58.7028],[12.4915,58.7302],[12.4983,58.7514],[12.5203,58.7923],[12.5006,58.7905],[12.4721,58.774],[12.4582,58.7717],[12.4503,58.774],[12.4441,58.7787],[12.44,58.7858],[12.4382,58.7958],[12.4347,58.7967],[12.4259,58.8005],[12.4161,58.8061],[12.4102,58.8126],[12.4364,58.8282],[12.4515,58.8308],[12.4644,58.8044],[12.4797,58.8011],[12.498,58.8032],[12.5127,58.8064],[12.4938,58.8126],[12.4835,58.8229],[12.4794,58.837],[12.4785,58.8535],[12.4797,58.8632],[12.485,58.88],[12.4862,58.8882],[12.4838,58.8924],[12.4791,58.8977],[12.4762,58.905],[12.4785,58.9156],[12.4538,58.9218],[12.4347,58.9395],[12.4306,58.9554],[12.4515,58.9565],[12.5044,58.9203],[12.5242,58.9018],[12.5339,58.8953],[12.5089,58.8506],[12.5109,58.8332],[12.5404,58.8264],[12.5663,58.8158],[12.5813,58.8155],[12.5925,58.842],[12.6036,58.8494],[12.6293,58.8612],[12.6234,58.8712],[12.6243,58.8782],[12.6275,58.8838],[12.6293,58.8882],[12.6328,58.9256],[12.6428,58.9403],[12.6443,58.9518],[12.6513,58.9615],[12.6772,58.971],[12.6672,58.9877],[12.6811,59.0007],[12.7014,59.0145],[12.712,59.0325],[12.7081,59.0398],[12.6999,59.0481],[12.6946,59.0572],[12.6978,59.0666],[12.7076,59.0705],[12.7173,59.0657],[12.7258,59.0563],[12.7317,59.046],[12.7729,59.0772],[12.7835,59.0799],[12.8076,59.0808],[12.8118,59.0849],[12.8235,59.0928],[12.8362,59.0952],[12.8418,59.0837],[12.8465,59.079],[12.8574,59.0805],[12.8689,59.0864],[12.8759,59.0937],[12.8856,59.0837],[12.8901,59.0725],[12.8874,59.0616],[12.8759,59.0528],[12.8907,59.0499],[12.9354,59.0522],[12.9448,59.0496],[12.9481,59.0395],[12.9557,59.0398],[12.9648,59.0443],[12.9719,59.046],[12.9825,59.0448],[12.9884,59.0454],[12.9937,59.0437],[13.0031,59.0354],[13.0199,59.0269],[13.062,59.0189],[13.0749,59.0113],[13.077,58.9972],[13.0679,58.9851],[13.054,58.9757],[13.0405,58.971],[13.0531,58.9674],[13.0732,58.9583],[13.0858,58.9565],[13.0905,58.9524],[13.1058,58.9256],[13.125,58.9153],[13.1691,58.91],[13.1844,58.9021],[13.1868,58.8968],[13.198,58.8815],[13.2451,58.9041],[13.2595,58.9156],[13.2515,58.9283],[13.2445,58.943],[13.2348,58.956],[13.2192,58.9633],[13.2253,58.9801],[13.2259,58.9975],[13.2215,59.0134],[13.2118,59.0257],[13.2156,59.0357],[13.2145,59.0466],[13.21,59.0572],[13.2047,59.0666],[13.2018,59.0681],[13.1888,59.0784],[13.1877,59.0808],[13.1841,59.0831],[13.1841,59.089],[13.185,59.0958],[13.1844,59.1014],[13.1597,59.1396],[13.142,59.1579],[13.1229,59.1688],[13.1362,59.1814],[13.1335,59.1932],[13.1091,59.2168],[13.1126,59.2229],[13.1141,59.2274],[13.1126,59.2315],[13.1091,59.238],[13.1102,59.2512],[13.1002,59.2577],[13.0864,59.263],[13.0749,59.2712],[13.072,59.283],[13.0829,59.2818],[13.0967,59.2753],[13.1026,59.2712],[13.1267,59.2783],[13.135,59.2948],[13.1306,59.3154],[13.1155,59.3339],[13.13,59.3413],[13.1556,59.3619],[13.1706,59.3681],[13.1774,59.3286],[13.1974,59.3107],[13.2298,59.3062],[13.273,59.3068],[13.2648,59.3151],[13.2386,59.3313],[13.2327,59.3372],[13.238,59.3477],[13.2515,59.3572],[13.2671,59.3642],[13.2804,59.3681],[13.3007,59.3692],[13.3593,59.3613],[13.3634,59.3634],[13.3766,59.3728],[13.3831,59.3748],[13.3934,59.3734],[13.4179,59.3613],[13.4508,59.3569],[13.4832,59.361],[13.5954,59.3943],[13.6283,59.3978],[13.6551,59.4072],[13.671,59.4084],[13.6619,59.3937],[13.6566,59.3887],[13.6695,59.3775],[13.6828,59.376],[13.7119,59.3813],[13.7193,59.3834],[13.7234,59.3884],[13.7261,59.3934],[13.7293,59.3954],[13.7664,59.3954],[13.7664,59.3887],[13.7634,59.3748],[13.7546,59.3672],[13.7264,59.3539],[13.734,59.3463],[13.7361,59.3416],[13.7325,59.3339],[13.7434,59.3254],[13.7637,59.3236],[13.8082,59.3266],[13.7938,59.3389],[13.7846,59.3513],[13.787,59.3601],[13.8082,59.3613],[13.8155,59.3507],[13.8226,59.3433],[13.8317,59.3401],[13.8429,59.3422],[13.8512,59.3454],[13.8594,59.346],[13.87,59.3401],[13.8565,59.3286],[13.8582,59.3227],[13.8674,59.3207],[13.8762,59.3198],[13.888,59.3221],[13.9015,59.3263],[13.9133,59.3251],[13.918,59.3098],[13.9221,59.3059],[13.9315,59.3062],[13.9404,59.3115],[13.9448,59.323],[13.9424,59.3316],[13.9392,59.3392],[13.9406,59.3469],[13.9521,59.3539],[13.9751,59.3533],[13.9857,59.3366],[13.9948,59.3163],[14.0137,59.3068],[14.026,59.311],[14.0325,59.3204],[14.0354,59.3298],[14.0375,59.3339],[14.0504,59.333],[14.0613,59.3298],[14.0702,59.323],[14.0758,59.313],[14.0652,59.3136],[14.0557,59.3118],[14.0475,59.3068],[14.0404,59.2992],[14.0487,59.2853],[14.0555,59.2674],[14.0605,59.2491],[14.0619,59.2341],[14.0546,59.212],[14.0216,59.1838],[14.0089,59.1541],[13.9969,59.1485],[13.9727,59.1423],[13.9621,59.1355],[13.953,59.1276],[13.9321,59.0999],[13.928,59.0955],[13.9274,59.0908],[13.9315,59.0808],[13.9398,59.0716],[13.9486,59.0675],[13.956,59.0628],[13.9589,59.0528],[14.0016,59.0655],[14.0237,59.0678],[14.0484,59.0666],[14.046,59.071],[14.0425,59.0825],[14.0404,59.0869],[14.0599,59.0925],[14.0584,59.1014],[14.0513,59.1114],[14.0546,59.1205],[14.069,59.1217],[14.0816,59.1126],[14.0914,59.0987],[14.0967,59.0869],[14.092,59.0816],[14.0867,59.0719],[14.0825,59.0666],[14.0893,59.0628],[14.097,59.0616],[14.1061,59.0631],[14.1167,59.0666],[14.0981,59.0425]],[[13.2047,58.6557],[13.2047,58.6716],[13.1991,58.6804],[13.1706,58.6966],[13.1576,58.6904],[13.1441,58.6904],[13.1155,58.6966],[13.1011,58.6928],[13.084,58.6831],[13.069,58.6716],[13.0614,58.6619],[13.062,58.6448],[13.0758,58.6407],[13.0941,58.6386],[13.1091,58.6283],[13.1382,58.6392],[13.15,58.6457],[13.1638,58.6557],[13.1706,58.648],[13.1653,58.6457],[13.1565,58.6383],[13.1497,58.6345],[13.1709,58.6271],[13.1874,58.626],[13.1989,58.6342],[13.2047,58.6557]],[[13.5686,59.313],[13.5627,59.316],[13.5615,59.3201],[13.5624,59.3263],[13.5618,59.3339],[13.5338,59.3427],[13.4973,59.3436],[13.4602,59.3348],[13.4314,59.313],[13.4508,59.3163],[13.4729,59.3139],[13.4861,59.3039],[13.4794,59.2856],[13.4882,59.2756],[13.5,59.2712],[13.5082,59.2742],[13.507,59.2856],[13.5474,59.2789],[13.5338,59.2998],[13.5277,59.3068],[13.5686,59.3068],[13.5686,59.313]],[[13.8423,58.82],[13.8217,58.84],[13.7941,58.8317],[13.7799,58.8255],[13.774,58.8164],[13.772,58.8035],[13.7661,58.7996],[13.7573,58.8032],[13.7461,58.8126],[13.7434,58.8217],[13.7452,58.8306],[13.7396,58.8373],[13.7155,58.84],[13.7043,58.8364],[13.6984,58.8282],[13.691,58.8064],[13.711,58.7846],[13.7122,58.777],[13.7119,58.7611],[13.7175,58.7525],[13.7308,58.7546],[13.7567,58.7649],[13.769,58.7637],[13.7911,58.7587],[13.8014,58.7573],[13.8111,58.7596],[13.8132,58.7652],[13.8126,58.7723],[13.815,58.779],[13.8309,58.8005],[13.8423,58.82]]]}}
