{"type":"Feature","properties":{"id":1029,"name":"Georgian Bay","featurecla":"Lake","scalerank":2,"wikidataid":"Q1267413","source":"Natural Earth 5.2.0-pre ne_10m_lakes (public domain)"},"geometry":{"type":"Polygon","coordinates":[[[-79.6626,44.7579],[-79.7394,44.7546],[-79.7652,44.767],[-79.7764,44.765],[-79.7927,44.7579],[-79.7989,44.7599],[-79.7993,44.7647],[-79.7989,44.7694],[-79.8028,44.7714],[-79.8733,44.7694],[-79.8817,44.7714],[-79.8819,44.7811],[-79.8764,44.795],[-79.8745,44.8076],[-79.8856,44.8129],[-79.9268,44.8129],[-79.9418,44.8147],[-79.9421,44.8191],[-79.9356,44.8256],[-79.93,44.8335],[-79.9253,44.8385],[-79.9185,44.8433],[-79.9157,44.8503],[-79.9234,44.8615],[-79.9341,44.8674],[-79.9475,44.8689],[-79.9859,44.8665],[-80.0057,44.8624],[-80.0158,44.8615],[-80.028,44.8568],[-80.0352,44.8465],[-80.0404,44.8347],[-80.0461,44.8268],[-80.0612,44.8191],[-80.0685,44.8206],[-80.0751,44.8253],[-80.0878,44.8268],[-80.0997,44.8253],[-80.1082,44.8224],[-80.1134,44.8156],[-80.1152,44.8023],[-80.1138,44.7747],[-80.1078,44.7599],[-80.0934,44.752],[-80.0673,44.7441],[-80.0483,44.7349],[-80.0086,44.7084],[-79.9948,44.7031],[-79.9923,44.6928],[-80.0052,44.6275],[-80.0052,44.5489],[-80.013,44.5312],[-80.0311,44.515],[-80.0673,44.4909],[-80.1087,44.4753],[-80.1506,44.4868],[-80.1954,44.5086],[-80.2454,44.525],[-80.3245,44.5315],[-80.3658,44.5524],[-80.4259,44.5592],[-80.4509,44.566],[-80.4952,44.5992],[-80.5123,44.6069],[-80.5358,44.6104],[-80.5573,44.6095],[-80.5775,44.6119],[-80.5981,44.6239],[-80.6163,44.656],[-80.624,44.6905],[-80.6391,44.7184],[-80.6805,44.7299],[-80.7631,44.7193],[-80.8262,44.6905],[-80.9375,44.5933],[-80.9428,44.6287],[-80.889,44.7517],[-80.8974,44.7909],[-80.935,44.8109],[-80.9855,44.8153],[-81.033,44.8062],[-81.078,44.7841],[-81.1191,44.7546],[-81.1273,44.7535],[-81.1315,44.7635],[-81.1313,44.7776],[-81.1262,44.7888],[-81.1179,44.795],[-81.0517,44.8224],[-81.0368,44.8315],[-81.0065,44.8609],[-81.0006,44.8692],[-80.9983,44.8783],[-81.0003,44.8895],[-81.0071,44.911],[-81.0058,44.9224],[-80.9877,44.9401],[-80.9619,44.9572],[-80.9531,44.9707],[-80.9853,44.9775],[-81.0077,44.9751],[-81.0317,44.9663],[-81.0443,44.951],[-81.033,44.9292],[-81.0501,44.9274],[-81.071,44.9104],[-81.0877,44.9086],[-81.087,44.9251],[-81.1054,44.9254],[-81.1491,44.9154],[-81.1491,44.9224],[-81.1262,44.9369],[-81.1129,44.9525],[-81.1169,44.9648],[-81.2009,44.9775],[-81.2045,44.9813],[-81.192,45.0016],[-81.1908,45.011],[-81.2102,45.0181],[-81.2355,45.0078],[-81.2572,45.0019],[-81.2664,45.0216],[-81.2627,45.089],[-81.2664,45.1079],[-81.2806,45.1226],[-81.3013,45.1341],[-81.3199,45.1488],[-81.3279,45.1724],[-81.32,45.1924],[-81.2861,45.22],[-81.2795,45.2374],[-81.3022,45.2524],[-81.6074,45.2521],[-81.7258,45.6218],[-81.7105,45.6463],[-81.65,45.7037],[-81.6644,45.7099],[-81.6217,45.7402],[-81.6126,45.7446],[-81.6048,45.752],[-81.5957,45.7684],[-81.5888,45.787],[-81.588,45.7999],[-81.6057,45.8058],[-81.7115,45.7999],[-81.696,45.8182],[-81.6759,45.8373],[-81.6598,45.8597],[-81.6569,45.8885],[-81.6657,45.9053],[-81.6797,45.9088],[-81.6423,45.9557],[-81.5402,46.0054],[-81.5038,46.0184],[-81.4893,46.0198],[-81.4959,46.0086],[-81.5088,45.9927],[-81.5068,45.9839],[-81.4934,45.9819],[-81.4725,45.9848],[-81.4617,45.9886],[-81.4532,45.993],[-81.4438,45.9966],[-81.4302,45.998],[-81.4177,45.9957],[-81.3955,45.9869],[-81.2613,45.9663],[-81.2271,45.9695],[-81.1953,45.9801],[-81.1634,45.998],[-81.1805,46.0122],[-81.203,46.0086],[-81.2249,45.9966],[-81.2392,45.9848],[-81.246,45.9916],[-81.2155,46.0095],[-81.1794,46.0181],[-81.1562,46.0101],[-81.1634,45.978],[-81.1763,45.9448],[-81.1616,45.9365],[-81.0601,45.9562],[-81.02,45.9568],[-80.9531,45.9442],[-80.9307,45.9439],[-80.9232,45.9462],[-80.9036,45.9548],[-80.9033,45.9568],[-80.893,45.9539],[-80.8779,45.9412],[-80.8693,45.9365],[-80.8515,45.9333],[-80.8342,45.9356],[-80.8185,45.9433],[-80.8065,45.9568],[-80.8024,45.9415],[-80.8012,45.9277],[-80.7979,45.9168],[-80.7873,45.9097],[-80.7873,45.9133],[-80.7826,45.92],[-80.7759,45.9268],[-80.7692,45.9297],[-80.7584,45.9292],[-80.7526,45.9268],[-80.7491,45.9227],[-80.7451,45.9159],[-80.7391,45.9009],[-80.7336,45.8718],[-80.7246,45.8609],[-80.706,45.8547],[-80.6879,45.8538],[-80.6798,45.8517],[-80.6911,45.8409],[-80.6952,45.8423],[-80.7046,45.8444],[-80.7141,45.8438],[-80.7183,45.8373],[-80.7166,45.8288],[-80.7118,45.8252],[-80.7051,45.8235],[-80.6973,45.8197],[-80.6879,45.8176],[-80.679,45.8197],[-80.6725,45.8191],[-80.6684,45.8023],[-80.6649,45.7988],[-80.6605,45.7964],[-80.6569,45.7926],[-80.6505,45.7873],[-80.6416,45.7829],[-80.636,45.7773],[-80.6396,45.7684],[-80.6447,45.7608],[-80.6462,45.7534],[-80.6453,45.7455],[-80.6427,45.7372],[-80.6337,45.7234],[-80.6193,45.7119],[-80.6028,45.7031],[-80.5875,45.6969],[-80.6022,45.6916],[-80.6085,45.6907],[-80.6085,45.6831],[-80.5988,45.6831],[-80.5904,45.6816],[-80.5744,45.6763],[-80.5798,45.6622],[-80.5732,45.6513],[-80.5594,45.6445],[-80.5245,45.6389],[-80.5179,45.6301],[-80.5195,45.6165],[-80.526,45.6006],[-80.5121,45.598],[-80.5087,45.5892],[-80.5092,45.5795],[-80.5061,45.5733],[-80.4928,45.5721],[-80.4808,45.5765],[-80.4693,45.5827],[-80.4578,45.5871],[-80.4456,45.5874],[-80.4337,45.5865],[-80.4237,45.5877],[-80.4167,45.5939],[-80.4163,45.6027],[-80.4216,45.6118],[-80.4372,45.628],[-80.4169,45.6271],[-80.4063,45.6171],[-80.3963,45.5871],[-80.3914,45.5783],[-80.3876,45.5736],[-80.3845,45.5689],[-80.3826,45.5591],[-80.3822,45.5474],[-80.3835,45.5409],[-80.3858,45.5353],[-80.3951,45.497],[-80.3948,45.4811],[-80.3888,45.4635],[-80.361,45.4358],[-80.3548,45.4223],[-80.3689,45.409],[-80.3629,45.399],[-80.3549,45.3908],[-80.3454,45.3846],[-80.3342,45.3816],[-80.3286,45.3955],[-80.328,45.4099],[-80.3323,45.4237],[-80.3411,45.4361],[-80.3302,45.437],[-80.3196,45.4358],[-80.3094,45.4335],[-80.3,45.4299],[-80.3097,45.4158],[-80.3112,45.404],[-80.3068,45.3781],[-80.3002,45.3663],[-80.2847,45.3637],[-80.2553,45.3672],[-80.2437,45.3643],[-80.2294,45.3504],[-80.182,45.3416],[-80.1684,45.3419],[-80.1629,45.3507],[-80.1676,45.359],[-80.1777,45.364],[-80.1873,45.3699],[-80.1902,45.3816],[-80.1838,45.3943],[-80.1714,45.4017],[-80.1424,45.409],[-80.1143,45.4111],[-80.0846,45.4052],[-80.0651,45.3905],[-80.0673,45.3672],[-80.0544,45.3616],[-80.0448,45.3516],[-80.0379,45.3393],[-80.0332,45.3263],[-80.0726,45.2789],[-80.0844,45.2716],[-80.1059,45.2654],[-80.1237,45.2507],[-80.1278,45.2345],[-80.1082,45.2239],[-80.1144,45.2133],[-80.1152,45.2038],[-80.1106,45.1956],[-80.1007,45.1897],[-80.0966,45.1988],[-80.0912,45.2038],[-80.0775,45.2133],[-80.0663,45.218],[-80.0595,45.2115],[-80.0541,45.2018],[-80.0467,45.1965],[-80.0367,45.1962],[-80.0297,45.195],[-80.0242,45.193],[-80.0189,45.1897],[-80.0179,45.1862],[-80.0018,45.1647],[-79.9985,45.1618],[-80.0039,45.137],[-80.0307,45.1276],[-80.067,45.1285],[-80.1007,45.1344],[-80.0956,45.1241],[-80.0881,45.1164],[-80.0785,45.1108],[-80.0673,45.1079],[-80.0748,45.1064],[-80.0779,45.1049],[-80.0809,45.1011],[-80.0737,45.097],[-80.0607,45.0846],[-80.0536,45.0799],[-80.0141,45.0702],[-80.0018,45.0626],[-79.9977,45.0543],[-79.9983,45.0452],[-79.9964,45.0352],[-79.9848,45.0246],[-79.9727,45.0216],[-79.9434,45.0199],[-79.9332,45.0149],[-79.9284,44.9978],[-79.9303,44.9784],[-79.9275,44.961],[-79.9091,44.9495],[-79.8985,44.9519],[-79.8731,44.9631],[-79.868,44.9601],[-79.8629,44.9539],[-79.8511,44.9486],[-79.8376,44.9448],[-79.827,44.9433],[-79.8349,44.9254],[-79.8321,44.9154],[-79.8134,44.9012],[-79.8074,44.8983],[-79.8014,44.8986],[-79.7961,44.8971],[-79.793,44.888],[-79.7964,44.8836],[-79.8051,44.8795],[-79.8148,44.8765],[-79.8209,44.875],[-79.8049,44.8686],[-79.7911,44.8656],[-79.7799,44.8606],[-79.7725,44.8471],[-79.7747,44.8353],[-79.7818,44.8279],[-79.7825,44.8212],[-79.7656,44.8129],[-79.7387,44.8135],[-79.7184,44.8282],[-79.715,44.8488],[-79.7384,44.8677],[-79.6964,44.8848],[-79.6905,44.888],[-79.6819,44.8777],[-79.6797,44.8621],[-79.682,44.8465],[-79.6869,44.8368],[-79.7135,44.8162],[-79.724,44.8023],[-79.721,44.7888],[-79.7059,44.78],[-79.6714,44.7679],[-79.6626,44.7579]],[[-80.2379,44.875],[-80.2454,44.8547],[-80.2311,44.8327],[-80.2094,44.8097],[-80.1867,44.7938],[-80.1698,44.7926],[-80.183,44.8073],[-80.1755,44.8259],[-80.1601,44.8447],[-80.1492,44.8615],[-80.1658,44.8715],[-80.2161,44.865],[-80.2379,44.875]],[[-80.2213,45.311],[-80.2273,45.2966],[-80.2175,45.2716],[-80.2102,45.2612],[-80.202,45.2524],[-80.1921,45.2465],[-80.1799,45.2445],[-80.1712,45.248],[-80.1609,45.266],[-80.1492,45.2716],[-80.1561,45.258],[-80.0968,45.291],[-80.0741,45.2995],[-80.0809,45.3066],[-80.0756,45.311],[-80.0722,45.316],[-80.0673,45.3263],[-80.0598,45.334],[-80.0695,45.339],[-80.0743,45.3404],[-80.0809,45.3404],[-80.0741,45.3475],[-80.0912,45.3478],[-80.1049,45.3422],[-80.116,45.3331],[-80.1256,45.3234],[-80.1384,45.3186],[-80.1552,45.3213],[-80.1717,45.3275],[-80.1833,45.334],[-80.2213,45.311]]]}}
