{"type":"Feature","properties":{"id":1030,"name":"IJsselmeer","featurecla":"Alkaline Lake","scalerank":2,"wikidataid":"Q4121","source":"Natural Earth 5.2.0-pre ne_10m_lakes (public domain)"},"geometry":{"type":"Polygon","coordinates":[[[5.8745,52.5214],[5.8727,52.5014],[5.8606,52.4782],[5.8415,52.4579],[5.8009,52.4228],[5.7791,52.4081],[5.7467,52.3934],[5.7123,52.3825],[5.654,52.3716],[5.6237,52.3563],[5.5778,52.3227],[5.5454,52.2757],[5.5333,52.268],[5.4474,52.255],[5.4047,52.2574],[5.3611,52.2701],[5.2684,52.3116],[5.2478,52.3127],[5.2051,52.3095],[5.1813,52.3116],[5.163,52.3166],[5.1124,52.3378],[5.0921,52.3422],[5.047,52.3445],[5.0305,52.3478],[4.9681,52.371],[4.9737,52.3757],[4.982,52.3781],[4.982,52.3854],[4.9967,52.384],[5.0023,52.3822],[5.0093,52.3781],[5.0093,52.3854],[5.0249,52.3781],[5.0341,52.3887],[5.0417,52.404],[5.0538,52.4122],[5.0647,52.4143],[5.0753,52.4202],[5.0847,52.429],[5.0918,52.4393],[5.0756,52.4443],[5.0679,52.4529],[5.0617,52.4614],[5.0503,52.4673],[5.07,52.4729],[5.0782,52.4735],[5.0735,52.4838],[5.0706,52.4879],[5.0909,52.5008],[5.0832,52.5256],[5.0503,52.5703],[5.0364,52.5997],[5.035,52.6251],[5.0497,52.6418],[5.085,52.6454],[5.1118,52.6392],[5.1188,52.6362],[5.1365,52.6251],[5.1509,52.6265],[5.1657,52.6301],[5.2272,52.6533],[5.2431,52.6645],[5.2563,52.6886],[5.2707,52.6969],[5.304,52.7069],[5.3008,52.7169],[5.2978,52.7307],[5.294,52.7431],[5.2869,52.7484],[5.236,52.7622],[5.2201,52.7628],[5.2063,52.7616],[5.1945,52.7581],[5.1842,52.7516],[5.1704,52.746],[5.158,52.7505],[5.1471,52.7581],[5.1365,52.7622],[5.1227,52.7755],[5.1203,52.8394],[5.115,52.8611],[5.0653,52.923],[5.0441,52.9336],[5.0859,52.9439],[5.1292,52.96],[5.2878,53.0445],[5.3723,53.0769],[5.3832,53.0554],[5.39,53.0463],[5.3997,53.036],[5.4094,53.0322],[5.4138,53.0198],[5.4126,53.0069],[5.4064,52.9951],[5.4162,52.9839],[5.4203,52.9677],[5.4162,52.9515],[5.3997,52.9403],[5.4132,52.9244],[5.4041,52.9165],[5.3879,52.9112],[5.3767,52.8994],[5.3708,52.8982],[5.3661,52.895],[5.3655,52.885],[5.3691,52.8785],[5.3752,52.8756],[5.3826,52.8729],[5.3894,52.8682],[5.4109,52.8573],[5.4424,52.8523],[5.5059,52.8508],[5.5186,52.8488],[5.5421,52.8394],[5.5575,52.8373],[5.5736,52.8385],[5.5842,52.8417],[5.6057,52.8508],[5.6222,52.8544],[5.6375,52.855],[5.7099,52.8423],[5.7217,52.8373],[5.6858,52.8326],[5.6564,52.8196],[5.6319,52.7999],[5.6119,52.7752],[5.6034,52.7505],[5.5963,52.7087],[5.5978,52.6695],[5.6157,52.6524],[5.6281,52.6463],[5.6522,52.6189],[5.6605,52.6115],[5.6767,52.6086],[5.8088,52.613],[5.8265,52.6103],[5.8406,52.6042],[5.8509,52.5933],[5.8577,52.5768],[5.8704,52.54],[5.8745,52.5214]],[[5.8589,52.5262],[5.8392,52.5703],[5.6808,52.5936],[5.6537,52.6115],[5.6358,52.6027],[5.5778,52.5909],[5.5604,52.5836],[5.5162,52.5568],[5.5068,52.5559],[5.4862,52.5571],[5.4786,52.5529],[5.4544,52.5153],[5.4412,52.5085],[5.4035,52.4991],[5.3585,52.4735],[5.2837,52.4552],[5.241,52.4293],[5.1786,52.4084],[5.1501,52.3913],[5.133,52.3854],[5.143,52.3698],[5.1459,52.3554],[5.153,52.3439],[5.1739,52.3369],[5.2192,52.3384],[5.236,52.3369],[5.3046,52.321],[5.3367,52.3101],[5.3964,52.2807],[5.4232,52.2739],[5.4892,52.2757],[5.5248,52.2842],[5.5457,52.3024],[5.5519,52.3275],[5.5436,52.3581],[5.5716,52.3672],[5.5857,52.3701],[5.6022,52.371],[5.6166,52.3754],[5.6378,52.3946],[5.6499,52.399],[5.6758,52.4022],[5.7238,52.4164],[5.7529,52.4196],[5.7812,52.4258],[5.8074,52.4414],[5.8294,52.4614],[5.8453,52.4808],[5.8583,52.5064],[5.8589,52.5262]]]}}
