{"type":"Feature","properties":{"id":1031,"name":"Issyk-Kul","featurecla":"Alkaline Lake","scalerank":2,"wikidataid":"Q42191","source":"Natural Earth 5.2.0-pre ne_10m_lakes (public domain)"},"geometry":{"type":"Polygon","coordinates":[[[78.3063,42.6026],[78.3275,42.5952],[78.3201,42.5716],[78.3004,42.5634],[78.173,42.5752],[78.1509,42.574],[78.1282,42.5655],[78.1076,42.551],[78.0558,42.4933],[78.0287,42.4751],[77.9958,42.4657],[77.9254,42.4618],[77.9007,42.458],[77.8294,42.4348],[77.8124,42.4209],[77.8227,42.4027],[77.8927,42.3918],[77.9148,42.3738],[77.8795,42.3727],[77.8518,42.3615],[77.83,42.3426],[77.7921,42.2938],[77.6873,42.2146],[77.6569,42.2031],[77.6222,42.1966],[77.5831,42.1949],[77.553,42.1857],[77.5154,42.169],[77.4812,42.1619],[77.463,42.1813],[77.427,42.1701],[77.39,42.1698],[77.3187,42.1813],[77.2893,42.181],[77.1748,42.166],[77.1512,42.1601],[77.1368,42.1534],[77.1291,42.1551],[77.1215,42.1592],[77.1135,42.1607],[77.0482,42.1607],[77.0185,42.1687],[76.9879,42.1822],[76.9608,42.1866],[76.9422,42.1672],[76.9355,42.1672],[76.9266,42.1843],[76.9075,42.1975],[76.8836,42.2057],[76.8407,42.2119],[76.8198,42.2205],[76.7653,42.2567],[76.755,42.262],[76.7435,42.2637],[76.7294,42.2599],[76.7179,42.2534],[76.7064,42.2511],[76.692,42.2602],[76.6758,42.2667],[76.6064,42.2708],[76.5619,42.2802],[76.3968,42.3456],[76.3717,42.3473],[76.3494,42.3359],[76.3329,42.3229],[76.3141,42.3155],[76.2932,42.3138],[76.2705,42.3185],[76.2587,42.3229],[76.2478,42.3288],[76.2396,42.3373],[76.2331,42.3644],[76.2257,42.3732],[76.2166,42.3812],[76.2084,42.393],[76.2125,42.3947],[76.2228,42.4003],[76.2196,42.4041],[76.2163,42.4056],[76.2084,42.4071],[76.2154,42.4071],[76.2019,42.4186],[76.196,42.4398],[76.2025,42.4601],[76.2257,42.4692],[76.3046,42.4822],[76.3326,42.4827],[76.4433,42.4677],[76.4562,42.4683],[76.4656,42.4727],[76.488,42.5028],[76.4971,42.5101],[76.5204,42.5148],[76.5752,42.5092],[76.5996,42.5137],[76.6199,42.5272],[76.6532,42.5557],[76.6746,42.5655],[76.9764,42.6096],[76.9817,42.614],[76.994,42.6123],[77.014,42.6064],[77.027,42.6099],[77.0473,42.6279],[77.0582,42.6343],[77.0838,42.6396],[77.1359,42.6435],[77.1739,42.6535],[77.1848,42.652],[77.1954,42.6491],[77.2063,42.6473],[77.2195,42.6488],[77.2298,42.6526],[77.2389,42.657],[77.3255,42.6797],[77.3496,42.6817],[77.3735,42.6779],[77.4356,42.6535],[77.528,42.6473],[77.5377,42.6502],[77.5495,42.657],[77.5692,42.6714],[77.5792,42.6761],[77.6204,42.6817],[77.7043,42.7056],[77.7455,42.7109],[77.7714,42.72],[77.7844,42.7227],[77.7976,42.7227],[77.8327,42.7162],[77.9172,42.7268],[77.956,42.7141],[77.9831,42.7132],[78.0116,42.7159],[78.0331,42.7203],[78.0829,42.7224],[78.1038,42.7256],[78.1176,42.733],[78.1373,42.7403],[78.2048,42.7462],[78.2239,42.743],[78.236,42.7465],[78.3063,42.743],[78.3063,42.7362],[78.2828,42.733],[78.2498,42.7194],[78.2336,42.7162],[78.2118,42.7215],[78.2015,42.7212],[78.1933,42.7035],[78.175,42.6803],[78.1691,42.6747],[78.1579,42.6717],[78.1323,42.6711],[78.1209,42.6679],[78.1111,42.6591],[78.09,42.6326],[78.0835,42.627],[78.0817,42.6229],[78.0888,42.6131],[78.0997,42.604],[78.1109,42.5996],[78.2548,42.5996],[78.3063,42.6026]]]}}
