{"type":"Feature","properties":{"id":1032,"name":"Laguna Madre","featurecla":"Alkaline Lake","scalerank":2,"source":"Natural Earth 5.2.0-pre ne_10m_lakes (public domain)"},"geometry":{"type":"Polygon","coordinates":[[[-97.4127,25.4235],[-97.4023,25.4114],[-97.4074,25.3984],[-97.4282,25.3923],[-97.4366,25.3878],[-97.4326,25.3781],[-97.4248,25.3675],[-97.4217,25.3616],[-97.4251,25.3534],[-97.4261,25.341],[-97.425,25.3287],[-97.4217,25.3201],[-97.4214,25.2901],[-97.442,25.2471],[-97.4869,25.1794],[-97.4869,25.2006],[-97.4931,25.2006],[-97.5102,25.1185],[-97.5072,25.11],[-97.5415,25.0567],[-97.5415,25.0349],[-97.5368,25.0137],[-97.537,24.9922],[-97.5582,24.9628],[-97.561,24.9522],[-97.564,24.9154],[-97.5692,24.9057],[-97.576,24.8965],[-97.5824,24.8851],[-97.5941,24.8489],[-97.6166,24.7208],[-97.665,24.5563],[-97.6852,24.3838],[-97.7084,24.2481],[-97.7415,23.8212],[-97.7476,23.8095],[-97.7523,23.8951],[-97.7605,23.939],[-97.7742,23.9605],[-97.7623,23.9787],[-97.7546,24.0079],[-97.7535,24.0388],[-97.7607,24.0626],[-97.7672,24.0455],[-97.7773,24.0541],[-97.7841,24.077],[-97.7811,24.1038],[-97.7742,24.1038],[-97.7722,24.0947],[-97.7694,24.0879],[-97.7657,24.082],[-97.7607,24.0765],[-97.7546,24.0888],[-97.7505,24.1062],[-97.7454,24.1618],[-97.7355,24.2007],[-97.7242,24.3855],[-97.7145,24.4197],[-97.7123,24.4362],[-97.7186,24.4562],[-97.7334,24.455],[-97.7507,24.4426],[-97.7638,24.4288],[-97.7785,24.42],[-97.7978,24.4188],[-97.8165,24.4232],[-97.8296,24.4326],[-97.8359,24.4497],[-97.8341,24.4691],[-97.8221,24.5086],[-97.8312,24.5018],[-97.8418,24.5012],[-97.8494,24.508],[-97.85,24.5227],[-97.8421,24.5309],[-97.8293,24.5377],[-97.8218,24.5471],[-97.8296,24.5624],[-97.8178,24.5548],[-97.805,24.551],[-97.7922,24.5527],[-97.7811,24.5624],[-97.7714,24.5571],[-97.7689,24.5518],[-97.7691,24.5448],[-97.7669,24.5351],[-97.7733,24.5286],[-97.7752,24.5245],[-97.7705,24.5227],[-97.7692,24.5215],[-97.762,24.5162],[-97.7607,24.5159],[-97.7513,24.493],[-97.7476,24.488],[-97.734,24.4806],[-97.7242,24.4786],[-97.7198,24.4841],[-97.7152,24.5195],[-97.6787,24.6246],[-97.6735,24.6799],[-97.6719,24.7002],[-97.6787,24.7002],[-97.6868,24.6722],[-97.702,24.6802],[-97.7115,24.7017],[-97.7028,24.7137],[-97.6899,24.7255],[-97.6946,24.7511],[-97.7123,24.7926],[-97.7078,24.8021],[-97.7012,24.8097],[-97.7008,24.815],[-97.7159,24.8168],[-97.7249,24.8233],[-97.7301,24.8377],[-97.7307,24.8536],[-97.7258,24.8642],[-97.6753,24.8642],[-97.6655,24.8665],[-97.6575,24.8733],[-97.644,24.8921],[-97.6498,24.9051],[-97.6463,24.9116],[-97.6363,24.9113],[-97.6235,24.9051],[-97.6226,24.9204],[-97.6245,24.9289],[-97.6295,24.9342],[-97.6487,24.9472],[-97.6625,24.9537],[-97.6768,24.9584],[-97.6887,24.9604],[-97.6971,24.9628],[-97.7047,24.969],[-97.7102,24.9769],[-97.7123,24.9846],[-97.7189,24.9857],[-97.734,24.9816],[-97.7505,24.9751],[-97.7607,24.9678],[-97.7423,24.9828],[-97.7268,25.0031],[-97.7162,25.0287],[-97.7037,25.1291],[-97.6899,25.1471],[-97.6849,25.1594],[-97.6868,25.1818],[-97.6946,25.2156],[-97.7052,25.2445],[-97.7159,25.2518],[-97.7277,25.2483],[-97.742,25.2524],[-97.7569,25.2586],[-97.7705,25.2619],[-97.7766,25.2616],[-97.795,25.2574],[-97.7769,25.2689],[-97.7674,25.2736],[-97.7573,25.2757],[-97.7326,25.2651],[-97.7184,25.261],[-97.7123,25.2657],[-97.7111,25.2772],[-97.7077,25.2919],[-97.7024,25.3048],[-97.6958,25.3104],[-97.6908,25.3157],[-97.6849,25.3513],[-97.6912,25.3622],[-97.6914,25.3684],[-97.6818,25.3711],[-97.6766,25.3702],[-97.6697,25.3684],[-97.6646,25.3664],[-97.665,25.3649],[-97.6403,25.3672],[-97.63,25.3669],[-97.6235,25.3649],[-97.6172,25.3566],[-97.6184,25.3484],[-97.6257,25.3416],[-97.6378,25.3375],[-97.6235,25.3301],[-97.6366,25.3231],[-97.6344,25.3175],[-97.6234,25.3134],[-97.6104,25.3104],[-97.601,25.3107],[-97.5689,25.3166],[-97.5589,25.309],[-97.5558,25.2904],[-97.5483,25.283],[-97.5362,25.283],[-97.5272,25.2919],[-97.5219,25.3045],[-97.5211,25.3166],[-97.5365,25.3145],[-97.5381,25.3228],[-97.5365,25.3366],[-97.5415,25.3513],[-97.5318,25.3672],[-97.5102,25.3943],[-97.5006,25.4129],[-97.5224,25.4176],[-97.5367,25.4346],[-97.5362,25.4547],[-97.5137,25.4673],[-97.4726,25.447],[-97.466,25.4408],[-97.4603,25.4338],[-97.4522,25.4279],[-97.4127,25.4235]]]}}
