{"type":"Feature","properties":{"id":1033,"name":"Lake Athabasca","featurecla":"Lake","scalerank":2,"wikidataid":"Q272463","source":"Natural Earth 5.2.0-pre ne_10m_lakes (public domain)"},"geometry":{"type":"Polygon","coordinates":[[[-109.2031,59.1017],[-109.2117,59.1081],[-109.2369,59.1379],[-109.2462,59.1423],[-109.2768,59.1399],[-109.2984,59.1332],[-109.3414,59.1081],[-109.3926,59.0866],[-109.9206,59.0113],[-109.9287,59.0072],[-109.951,58.9883],[-109.9622,58.9839],[-109.9743,58.9827],[-110.2117,58.9021],[-110.2756,58.8659],[-110.2979,58.8612],[-110.3035,58.8567],[-110.3181,58.8297],[-110.3291,58.8229],[-110.3693,58.8126],[-110.3855,58.8038],[-110.3977,58.7935],[-110.4211,58.7681],[-110.4436,58.7493],[-110.4504,58.739],[-110.4451,58.7308],[-110.4724,58.6931],[-110.4796,58.6713],[-110.4623,58.6619],[-110.4512,58.6651],[-110.4428,58.6734],[-110.4279,58.6931],[-110.4135,58.7001],[-110.3923,58.7031],[-110.3711,58.7019],[-110.3564,58.6966],[-110.3455,58.6863],[-110.3468,58.6819],[-110.3545,58.6781],[-110.3624,58.6692],[-110.3705,58.6539],[-110.3693,58.6377],[-110.3746,58.6292],[-110.3982,58.6239],[-110.4035,58.6174],[-110.4094,58.6057],[-110.4227,58.608],[-110.4451,58.621],[-110.5071,58.6283],[-110.5481,58.6398],[-110.5645,58.6413],[-110.5863,58.648],[-110.5982,58.648],[-110.6033,58.6377],[-110.6072,58.6251],[-110.617,58.6177],[-110.6303,58.6148],[-110.6443,58.6139],[-110.6602,58.6157],[-110.705,58.6283],[-110.7708,58.6283],[-110.786,58.6189],[-110.7811,58.5977],[-110.7604,58.5594],[-110.7613,58.54],[-110.7716,58.5271],[-110.8047,58.5015],[-110.8181,58.485],[-110.826,58.4797],[-110.8391,58.4776],[-110.854,58.4803],[-110.8559,58.4876],[-110.8521,58.4982],[-110.8491,58.5109],[-110.851,58.5356],[-110.8491,58.5465],[-110.8375,58.5765],[-110.836,58.5898],[-110.836,58.6316],[-110.8427,58.6374],[-110.8584,58.6351],[-110.8765,58.6301],[-110.8906,58.6283],[-110.8996,58.633],[-110.9071,58.6407],[-110.9165,58.6469],[-110.9317,58.648],[-110.945,58.6439],[-110.9558,58.6354],[-110.9631,58.6239],[-110.9659,58.6107],[-110.9766,58.6021],[-111.0266,58.5739],[-111.0415,58.5594],[-111.0434,58.55],[-111.0455,58.5268],[-111.0483,58.5185],[-111.059,58.5079],[-111.0677,58.5065],[-111.086,58.5109],[-111.1173,58.5359],[-111.1235,58.5427],[-111.1198,58.555],[-111.1021,58.5697],[-111.0961,58.5798],[-111.0993,58.5821],[-111.116,58.6004],[-111.0749,58.621],[-111.094,58.6257],[-111.1311,58.6174],[-111.1473,58.6245],[-111.1592,58.6363],[-111.167,58.6463],[-111.1641,58.6548],[-111.1439,58.6619],[-111.1751,58.6754],[-111.2879,58.6966],[-111.2933,58.7169],[-111.2951,58.7346],[-111.3036,58.7481],[-111.3295,58.7573],[-111.3198,58.774],[-111.3013,58.7835],[-111.2149,58.8041],[-111.1918,58.8058],[-111.1713,58.7996],[-111.1775,58.7896],[-111.1666,58.7823],[-111.1487,58.7758],[-111.1341,58.7681],[-111.136,58.7578],[-111.1503,58.7428],[-111.1684,58.7296],[-111.1818,58.7237],[-111.1852,58.7205],[-111.1849,58.7134],[-111.1813,58.706],[-111.175,58.7028],[-111.1638,58.7031],[-111.1551,58.7046],[-111.1298,58.7134],[-111.1126,58.7225],[-111.1061,58.7272],[-111.0977,58.7311],[-111.0782,58.7296],[-111.0689,58.7308],[-111.0378,58.747],[-111.0124,58.7649],[-110.9834,58.7793],[-110.9108,58.7926],[-110.8471,58.8276],[-110.8143,58.84],[-110.8201,58.8806],[-110.7854,58.9109],[-110.705,58.9504],[-110.6924,58.9677],[-110.6771,59.006],[-110.6675,59.0219],[-110.5777,59.0958],[-110.5602,59.1061],[-110.5399,59.1123],[-110.4503,59.117],[-110.3898,59.1279],[-110.1706,59.2241],[-110.1433,59.2538],[-110.1332,59.2583],[-110.1054,59.2615],[-110.0795,59.2703],[-110.0563,59.2824],[-110.0265,59.3036],[-110.0058,59.3151],[-109.9862,59.3316],[-109.9752,59.3383],[-109.9637,59.3436],[-109.9522,59.3477],[-109.9228,59.3539],[-109.856,59.3581],[-109.8287,59.3539],[-109.8458,59.3648],[-109.8613,59.3798],[-109.8673,59.3954],[-109.856,59.4084],[-109.8268,59.4119],[-109.7946,59.4066],[-109.7656,59.4057],[-109.7462,59.4222],[-109.8349,59.4222],[-109.8203,59.4381],[-109.7706,59.4631],[-109.7598,59.4811],[-109.7492,59.4929],[-109.6977,59.5173],[-109.6057,59.5491],[-109.5651,59.5788],[-109.5394,59.593],[-109.5118,59.6033],[-109.4861,59.6077],[-109.2256,59.615],[-109.216,59.6139],[-109.198,59.6077],[-109.1845,59.6009],[-109.1542,59.6012],[-109.1496,59.598],[-109.1461,59.5723],[-109.1356,59.555],[-109.1186,59.5426],[-109.095,59.532],[-109.0732,59.5253],[-109.0638,59.5208],[-109.0541,59.5114],[-109.064,59.4929],[-109.0454,59.4814],[-109.0148,59.4793],[-108.9889,59.4879],[-108.9665,59.5058],[-108.9474,59.5176],[-108.9259,59.5238],[-108.8349,59.532],[-108.8195,59.527],[-108.7983,59.5144],[-108.7559,59.5041],[-108.7677,59.487],[-108.8634,59.4346],[-108.8999,59.4054],[-108.9478,59.3887],[-108.9515,59.3866],[-108.9524,59.3819],[-108.95,59.3772],[-108.9445,59.3748],[-108.9355,59.376],[-108.9107,59.3813],[-108.8158,59.3678],[-108.778,59.3828],[-108.7285,59.3813],[-108.7156,59.3828],[-108.6767,59.3954],[-108.6179,59.4063],[-108.6049,59.4122],[-108.5892,59.4352],[-108.579,59.444],[-108.5606,59.4502],[-108.4439,59.457],[-108.4111,59.4508],[-108.3991,59.4502],[-108.3952,59.4478],[-108.3832,59.4384],[-108.3756,59.4364],[-108.3544,59.4384],[-108.3341,59.4437],[-108.292,59.4729],[-108.2832,59.4773],[-108.2627,59.474],[-108.2274,59.4623],[-108.2043,59.4631],[-108.1642,59.4746],[-108.1451,59.4761],[-108.1224,59.4705],[-108.1242,59.4661],[-108.1267,59.4546],[-108.1286,59.4502],[-108.102,59.4469],[-108.0705,59.452],[-108.04,59.4537],[-108.016,59.4402],[-108.0068,59.4366],[-107.9648,59.4437],[-107.9482,59.4414],[-107.8959,59.4222],[-107.864,59.416],[-107.7723,59.416],[-107.7423,59.4122],[-107.7273,59.4125],[-107.7146,59.419],[-107.7042,59.4205],[-107.6631,59.4022],[-107.6497,59.4034],[-107.6147,59.416],[-107.5976,59.4187],[-107.5227,59.4122],[-107.3194,59.3372],[-107.2529,59.3224],[-107.1895,59.3198],[-107.1649,59.3257],[-107.1144,59.3266],[-107.0511,59.3348],[-106.9994,59.3254],[-106.922,59.3448],[-106.8885,59.3477],[-106.8992,59.3348],[-106.9052,59.3251],[-106.9014,59.3177],[-106.8823,59.313],[-106.8658,59.3139],[-106.8255,59.3239],[-106.8065,59.3266],[-106.6499,59.3174],[-106.6353,59.313],[-106.6446,59.311],[-106.6524,59.3068],[-106.6584,59.3009],[-106.6625,59.293],[-106.6402,59.2892],[-106.3199,59.2712],[-106.0941,59.2939],[-106.0183,59.2789],[-106.0183,59.2712],[-106.7534,59.2583],[-106.7991,59.2521],[-106.796,59.2556],[-106.794,59.2589],[-106.7912,59.2621],[-106.786,59.265],[-106.8053,59.2756],[-106.9089,59.265],[-106.9054,59.2683],[-106.896,59.2789],[-106.9329,59.2889],[-107.0904,59.2865],[-107.1085,59.2892],[-107.1245,59.2948],[-107.1421,59.303],[-107.1633,59.3089],[-107.2577,59.3045],[-107.2926,59.2948],[-107.3131,59.293],[-107.3839,59.3009],[-107.4503,59.293],[-107.4595,59.2956],[-107.4629,59.3018],[-107.465,59.3083],[-107.4707,59.313],[-107.4901,59.3157],[-107.5131,59.3154],[-107.5355,59.3121],[-107.5533,59.3068],[-107.5484,59.3015],[-107.5462,59.2983],[-107.5442,59.2956],[-107.539,59.293],[-107.539,59.2856],[-107.5905,59.2889],[-107.6125,59.2951],[-107.6351,59.3068],[-107.6258,59.3101],[-107.6175,59.3142],[-107.6095,59.3198],[-107.6017,59.3266],[-107.6261,59.3425],[-107.6691,59.3457],[-107.7586,59.3401],[-107.7486,59.3195],[-107.7571,59.3086],[-107.7716,59.2989],[-107.7792,59.2821],[-107.7845,59.265],[-107.7979,59.2553],[-107.8344,59.238],[-107.8141,59.2212],[-107.8064,59.2168],[-107.8343,59.2041],[-107.9012,59.2247],[-107.9262,59.2203],[-107.9498,59.2085],[-108.0399,59.2038],[-108.1944,59.152],[-108.602,59.1408],[-108.6399,59.1246],[-108.6692,59.1282],[-108.6801,59.1243],[-108.6919,59.1173],[-108.7073,59.1146],[-108.7381,59.1143],[-108.8517,59.1014],[-108.8664,59.1028],[-108.876,59.1073],[-108.8926,59.1243],[-108.9069,59.1332],[-108.9194,59.1323],[-108.9442,59.1205],[-109.0543,59.0884],[-109.1134,59.0811],[-109.1701,59.0869],[-109.1807,59.0905],[-109.2031,59.1017]]]}}
