{"type":"Feature","properties":{"id":1034,"name":"Lake Manitoba","featurecla":"Lake","scalerank":2,"wikidataid":"Q645901","source":"Natural Earth 5.2.0-pre ne_10m_lakes (public domain)"},"geometry":{"type":"Polygon","coordinates":[[[-97.9364,50.3961],[-97.9318,50.3532],[-97.9405,50.3337],[-97.9611,50.322],[-98.0071,50.3093],[-98.0505,50.289],[-98.1279,50.2387],[-98.1722,50.2198],[-98.3175,50.188],[-98.4174,50.1868],[-98.4683,50.1942],[-98.5132,50.211],[-98.549,50.2404],[-98.5581,50.2543],[-98.5669,50.2725],[-98.5736,50.2928],[-98.5762,50.3122],[-98.5736,50.3384],[-98.5656,50.3529],[-98.5253,50.3844],[-98.5197,50.387],[-98.5169,50.3917],[-98.5147,50.4047],[-98.5163,50.4153],[-98.5369,50.4591],[-98.5769,50.4974],[-98.5899,50.5142],[-98.5927,50.5345],[-98.5921,50.5542],[-98.5983,50.5695],[-98.621,50.5754],[-98.6185,50.5854],[-98.6265,50.6078],[-98.6451,50.6443],[-98.6801,50.6817],[-98.6941,50.7026],[-98.6997,50.7302],[-98.7079,50.7553],[-98.728,50.775],[-98.7748,50.8082],[-98.8021,50.8436],[-98.8133,50.8512],[-98.8414,50.8642],[-98.8537,50.8736],[-98.8572,50.8865],[-98.8431,50.9095],[-98.8469,50.9219],[-98.8529,50.9348],[-98.8498,50.9484],[-98.841,50.9598],[-98.8295,50.9666],[-98.8517,50.9769],[-98.8641,50.974],[-98.8748,50.9657],[-98.8915,50.9595],[-98.913,50.9666],[-98.9249,50.9857],[-98.9328,51.0058],[-98.9427,51.0149],[-98.9568,51.0234],[-98.9636,51.042],[-98.9738,51.0605],[-98.9977,51.0691],[-99.0101,51.0761],[-99.0183,51.0935],[-99.0222,51.1141],[-99.0219,51.1309],[-99.0192,51.1403],[-99.0142,51.1515],[-99.0069,51.1606],[-98.9977,51.1644],[-98.9861,51.1615],[-98.9807,51.1547],[-98.9777,51.1459],[-98.9735,51.1379],[-98.9418,51.1079],[-98.9216,51.0953],[-98.9015,51.09],[-98.8924,51.0794],[-98.8982,51.032],[-98.8878,51.0211],[-98.8451,51.0214],[-98.8383,51.0308],[-98.8506,51.0552],[-98.789,51.0911],[-98.7817,51.1038],[-98.7945,51.1182],[-98.8161,51.1097],[-98.8386,51.0955],[-98.8537,51.0935],[-98.8539,51.1135],[-98.8569,51.1256],[-98.8754,51.1362],[-98.8766,51.1485],[-98.871,51.1721],[-98.846,51.2268],[-98.8432,51.251],[-98.8516,51.2639],[-98.8712,51.263],[-98.8932,51.2545],[-98.9264,51.2321],[-98.9342,51.2242],[-98.929,51.2204],[-98.9262,51.2162],[-98.9209,51.2062],[-98.9171,51.1947],[-98.9189,51.1862],[-98.9347,51.1841],[-98.9534,51.1968],[-98.9711,51.2124],[-98.9841,51.2204],[-98.9926,51.2286],[-99.0157,51.2713],[-99.0219,51.2892],[-99.0526,51.2792],[-99.0652,51.2822],[-99.0703,51.2992],[-99.0747,51.3087],[-99.1037,51.3502],[-99.1114,51.3737],[-99.1125,51.3896],[-99.1017,51.4155],[-99.1058,51.432],[-99.1168,51.4564],[-99.1174,51.4712],[-99.1167,51.4782],[-99.1093,51.4932],[-99.1128,51.4997],[-99.1243,51.5082],[-99.1401,51.5347],[-99.1514,51.5492],[-99.1619,51.5556],[-99.1697,51.5545],[-99.1832,51.5503],[-99.1894,51.5495],[-99.1973,51.5515],[-99.2069,51.5556],[-99.214,51.5603],[-99.2137,51.563],[-99.2306,51.5565],[-99.2466,51.535],[-99.2615,51.5283],[-99.2699,51.5468],[-99.28,51.5568],[-99.2842,51.568],[-99.2752,51.5904],[-99.288,51.6027],[-99.3012,51.6354],[-99.3093,51.6448],[-99.3273,51.6451],[-99.3377,51.6331],[-99.3513,51.6236],[-99.3782,51.6313],[-99.3903,51.6463],[-99.3988,51.6522],[-99.4088,51.6484],[-99.4219,51.6401],[-99.4313,51.6422],[-99.4408,51.6463],[-99.4533,51.6448],[-99.4634,51.6398],[-99.4696,51.6336],[-99.4728,51.6257],[-99.4758,51.601],[-99.4811,51.5966],[-99.4887,51.5936],[-99.498,51.5865],[-99.4995,51.5798],[-99.4898,51.5659],[-99.4874,51.5556],[-99.4899,51.5462],[-99.499,51.5294],[-99.501,51.5183],[-99.5064,51.5018],[-99.5185,51.5021],[-99.5304,51.5141],[-99.5358,51.5315],[-99.5391,51.5518],[-99.5531,51.5865],[-99.5563,51.6074],[-99.5557,51.6272],[-99.5538,51.6357],[-99.5495,51.6448],[-99.5431,51.6516],[-99.5276,51.6631],[-99.5222,51.6722],[-99.5619,51.6828],[-99.5486,51.719],[-99.512,51.7608],[-99.4812,51.7882],[-99.4584,51.8023],[-99.4452,51.8079],[-99.4331,51.81],[-99.4255,51.8067],[-99.4079,51.7897],[-99.3979,51.782],[-99.3791,51.7738],[-99.3508,51.7652],[-99.3257,51.7652],[-99.3161,51.782],[-99.2927,51.7355],[-99.2895,51.7234],[-99.2615,51.6784],[-99.2516,51.6501],[-99.2431,51.6369],[-99.2304,51.6313],[-99.2135,51.6333],[-99.1848,51.6428],[-99.1536,51.6454],[-99.1412,51.6487],[-99.1351,51.6566],[-99.1386,51.6722],[-99.1473,51.6831],[-99.1583,51.6916],[-99.168,51.7016],[-99.176,51.7311],[-99.1917,51.7585],[-99.1932,51.7752],[-99.1858,51.7885],[-99.1727,51.7967],[-99.1596,51.7941],[-99.1454,51.757],[-99.1293,51.7317],[-99.1081,51.7137],[-99.0774,51.7181],[-99.0634,51.714],[-99.05,51.7072],[-99.0423,51.7002],[-99.0409,51.6878],[-99.0448,51.6743],[-99.056,51.6516],[-99.0412,51.6422],[-99.0329,51.6266],[-99.0294,51.6071],[-99.0287,51.5865],[-99.0248,51.5662],[-99.0154,51.5527],[-99.0041,51.54],[-98.9939,51.5221],[-98.9885,51.4791],[-98.9824,51.4558],[-98.9701,51.4455],[-98.967,51.4355],[-98.8988,51.3455],[-98.8843,51.3396],[-98.8779,51.3611],[-98.8797,51.3834],[-98.9108,51.5035],[-98.9125,51.5804],[-98.9147,51.5868],[-98.9337,51.603],[-98.9605,51.6169],[-98.9687,51.6233],[-98.9908,51.6484],[-98.9923,51.6657],[-98.9791,51.6872],[-98.9607,51.7055],[-98.9462,51.7137],[-98.9375,51.7116],[-98.9118,51.7013],[-98.8977,51.7002],[-98.8837,51.7031],[-98.8756,51.7072],[-98.8603,51.7234],[-98.852,51.7258],[-98.8417,51.7217],[-98.8323,51.7155],[-98.826,51.7102],[-98.8176,51.6993],[-98.8151,51.6922],[-98.8139,51.6846],[-98.8096,51.6722],[-98.7896,51.6339],[-98.7752,51.613],[-98.7615,51.6039],[-98.7494,51.6013],[-98.7393,51.5948],[-98.7237,51.5798],[-98.7259,51.5727],[-98.7612,51.5427],[-98.7745,51.528],[-98.7804,51.5138],[-98.7776,51.4997],[-98.7649,51.4838],[-98.7667,51.4714],[-98.8096,51.4123],[-98.7995,51.4043],[-98.7923,51.4002],[-98.7765,51.3961],[-98.7727,51.3899],[-98.7702,51.382],[-98.7565,51.3608],[-98.749,51.3296],[-98.7408,51.3166],[-98.7333,51.3125],[-98.7127,51.306],[-98.7029,51.2992],[-98.6926,51.2942],[-98.6817,51.296],[-98.6711,51.3001],[-98.6619,51.3022],[-98.5793,51.296],[-98.5628,51.2901],[-98.5643,51.2757],[-98.5725,51.2595],[-98.5762,51.2477],[-98.5664,51.2304],[-98.5574,51.2257],[-98.5569,51.2209],[-98.5728,51.203],[-98.5883,51.195],[-98.6279,51.1927],[-98.6451,51.1862],[-98.6551,51.1718],[-98.6511,51.1415],[-98.6588,51.1235],[-98.6402,51.1138],[-98.6427,51.1047],[-98.6683,51.0864],[-98.6823,51.0799],[-98.6973,51.0849],[-98.7107,51.0947],[-98.7202,51.1038],[-98.7256,51.0997],[-98.7368,51.0882],[-98.7408,51.0826],[-98.7129,51.0782],[-98.6985,51.0741],[-98.6923,51.0658],[-98.6966,51.057],[-98.7072,51.047],[-98.7197,51.039],[-98.7305,51.0355],[-98.7434,51.0384],[-98.7552,51.0437],[-98.7656,51.0446],[-98.7748,51.0355],[-98.7774,51.0222],[-98.7737,51.0096],[-98.7655,50.9996],[-98.7545,50.9946],[-98.7702,50.9766],[-98.7748,50.9728],[-98.7525,50.964],[-98.7368,50.9625],[-98.734,50.959],[-98.7506,50.9425],[-98.7555,50.926],[-98.7431,50.9092],[-98.7227,50.896],[-98.7029,50.891],[-98.6369,50.888],[-98.6017,50.9021],[-98.5764,50.8977],[-98.5384,50.8845],[-98.5288,50.8833],[-98.511,50.8783],[-98.4886,50.8762],[-98.4788,50.8736],[-98.4595,50.8636],[-98.4552,50.8589],[-98.447,50.8462],[-98.4421,50.8436],[-98.3906,50.8362],[-98.3749,50.8253],[-98.3222,50.7738],[-98.3173,50.7673],[-98.3108,50.7629],[-98.2879,50.7588],[-98.2802,50.7532],[-98.2774,50.7464],[-98.282,50.74],[-98.2574,50.7188],[-98.2473,50.7135],[-98.2355,50.7117],[-98.224,50.7129],[-98.2172,50.7108],[-98.2193,50.699],[-98.2012,50.6799],[-98.1164,50.6169],[-98.1101,50.6101],[-98.1088,50.6043],[-98.1111,50.5889],[-98.1101,50.5831],[-98.099,50.5725],[-98.0857,50.5639],[-98.0779,50.5548],[-98.0829,50.5418],[-98.0671,50.5289],[-98.0225,50.5109],[-97.9959,50.4924],[-97.9713,50.4815],[-97.9661,50.4765],[-97.9633,50.4674],[-97.9455,50.432],[-97.9364,50.3961]]]}}
