{"type":"Feature","properties":{"id":1035,"name":"Lake Mistassini","featurecla":"Lake","scalerank":2,"wikidataid":"Q1458051","source":"Natural Earth 5.2.0-pre ne_10m_lakes (public domain)"},"geometry":{"type":"Polygon","coordinates":[[[-73.4265,50.8077],[-73.503,50.7514],[-73.5227,50.7473],[-73.5297,50.7473],[-73.5433,50.7338],[-73.5292,50.757],[-73.479,50.7879],[-73.4681,50.8188],[-73.4622,50.8277],[-73.4272,50.8636],[-73.4174,50.8759],[-73.3988,50.8951],[-73.3467,50.9348],[-73.3192,50.9434],[-73.2887,50.9622],[-73.2794,50.9666],[-73.2652,50.9687],[-73.2245,50.9804],[-73.2137,50.9869],[-73.21,51.0025],[-73.2176,51.014],[-73.2416,51.0278],[-73.1923,51.0814],[-73.1801,51.09],[-73.1694,51.09],[-73.1599,51.0861],[-73.1537,51.0788],[-73.1529,51.0691],[-73.1944,51.0417],[-73.1666,51.0476],[-73.1446,51.0652],[-73.1119,51.11],[-73.1211,51.1097],[-73.127,51.1111],[-73.1392,51.1173],[-73.129,51.1344],[-73.1398,51.1524],[-73.1589,51.1662],[-73.1736,51.1721],[-73.249,51.1067],[-73.3139,51.0658],[-73.329,51.0396],[-73.3343,51.0355],[-73.3433,51.0326],[-73.4787,50.9345],[-73.509,50.9051],[-73.5951,50.7991],[-73.6327,50.7673],[-73.6293,50.7876],[-73.6122,50.8032],[-73.5932,50.8174],[-73.5843,50.8327],[-73.5875,50.8489],[-73.5963,50.8447],[-73.6093,50.8356],[-73.6252,50.8362],[-73.6346,50.82],[-73.6661,50.7809],[-73.6648,50.7685],[-73.6755,50.7585],[-73.6852,50.7464],[-73.6805,50.727],[-73.6992,50.7208],[-73.7216,50.7096],[-73.7403,50.694],[-73.7481,50.6755],[-73.7519,50.6705],[-73.7701,50.6525],[-73.776,50.6443],[-73.7785,50.6334],[-73.7788,50.6178],[-73.7828,50.6101],[-73.7884,50.6066],[-73.8062,50.599],[-73.8139,50.5928],[-73.8187,50.5842],[-73.822,50.5733],[-73.8239,50.5619],[-73.8228,50.518],[-73.8168,50.5062],[-73.8034,50.5071],[-73.8058,50.4918],[-73.8209,50.468],[-73.8245,50.4559],[-73.822,50.4438],[-73.8159,50.4338],[-73.7862,50.4011],[-73.7857,50.3947],[-73.7915,50.3885],[-73.7965,50.382],[-73.7931,50.3738],[-73.779,50.367],[-73.7665,50.3693],[-73.7562,50.3749],[-73.7481,50.377],[-73.7351,50.3696],[-73.7406,50.3632],[-73.7562,50.3582],[-73.7921,50.3561],[-73.8056,50.3573],[-73.8156,50.3632],[-73.8245,50.377],[-73.8273,50.387],[-73.8312,50.4223],[-73.8334,50.43],[-73.8427,50.4532],[-73.8449,50.4662],[-73.8663,50.4267],[-73.844,50.3761],[-73.8172,50.3293],[-73.8245,50.3016],[-73.8075,50.2525],[-73.8296,50.2175],[-74.096,50.082],[-74.1125,50.0623],[-74.0995,50.0647],[-74.0763,50.0726],[-74.0641,50.0753],[-74.0498,50.0747],[-74.0483,50.07],[-74.0555,50.062],[-74.0677,50.0517],[-74.0792,50.0453],[-74.0932,50.0423],[-74.1686,50.0394],[-74.1814,50.0411],[-74.1739,50.0547],[-74.1842,50.0511],[-74.1948,50.0494],[-74.2051,50.0503],[-74.2148,50.0547],[-74.201,50.0629],[-74.1486,50.0794],[-74.1075,50.0873],[-74.095,50.0994],[-74.0853,50.115],[-74.0714,50.1303],[-74.0638,50.135],[-74.0421,50.1427],[-74.033,50.1442],[-73.9992,50.1818],[-73.985,50.1924],[-73.9681,50.2007],[-73.9487,50.2054],[-73.9269,50.2057],[-73.929,50.201],[-73.9322,50.1895],[-73.9343,50.1851],[-73.9114,50.1874],[-73.8799,50.196],[-73.8499,50.2074],[-73.8312,50.2198],[-73.8271,50.2286],[-73.8231,50.2428],[-73.8217,50.2572],[-73.8245,50.2675],[-73.8326,50.2701],[-73.8688,50.2746],[-73.8901,50.2819],[-73.9014,50.3005],[-73.9057,50.324],[-73.9064,50.3464],[-73.9175,50.3661],[-73.9209,50.3782],[-73.9135,50.3838],[-73.9036,50.3808],[-73.8698,50.3646],[-73.8579,50.3564],[-73.8561,50.3746],[-73.8848,50.407],[-73.8928,50.4288],[-73.8876,50.4388],[-73.8777,50.4482],[-73.8713,50.4582],[-73.8814,50.4809],[-73.8777,50.49],[-73.8705,50.4986],[-73.8654,50.5071],[-73.8646,50.5139],[-73.8654,50.5345],[-73.8626,50.5466],[-73.8536,50.5689],[-73.8517,50.5792],[-73.8452,50.5951],[-73.814,50.6249],[-73.8034,50.6443],[-73.8003,50.6705],[-73.8084,50.6749],[-73.8234,50.6649],[-73.8514,50.6402],[-73.8723,50.6293],[-73.8827,50.6204],[-73.8889,50.6087],[-73.8875,50.5992],[-73.8844,50.591],[-73.8858,50.5831],[-73.8922,50.5769],[-73.9042,50.5754],[-73.9132,50.5692],[-73.9192,50.5613],[-73.93,50.5413],[-73.9373,50.5312],[-73.9393,50.5239],[-73.9343,50.49],[-73.9293,50.4865],[-73.9179,50.493],[-73.8995,50.5071],[-73.8928,50.5101],[-73.8897,50.5124],[-73.8866,50.5118],[-73.8797,50.5071],[-73.9064,50.4736],[-73.9178,50.4547],[-73.9269,50.432],[-73.9329,50.4474],[-73.9476,50.4653],[-73.9668,50.4803],[-73.9858,50.4868],[-74.0099,50.4833],[-74.0292,50.4738],[-74.0641,50.4459],[-74.0981,50.4253],[-74.105,50.4173],[-74.116,50.3964],[-74.1224,50.3873],[-74.1269,50.3788],[-74.1312,50.3564],[-74.136,50.3464],[-74.2005,50.2949],[-74.2145,50.2884],[-74.2245,50.2849],[-74.2271,50.2875],[-74.2183,50.2984],[-74.1596,50.3458],[-74.1459,50.3638],[-74.1419,50.3738],[-74.1368,50.3953],[-74.133,50.4047],[-74.1249,50.4159],[-74.0776,50.4562],[-74.073,50.4635],[-74.0701,50.4915],[-74.066,50.5009],[-74.023,50.5551],[-74.0339,50.5642],[-74.0311,50.5736],[-74.0162,50.5892],[-74.0106,50.601],[-74.0093,50.6072],[-74.0087,50.6302],[-74.0002,50.6549],[-73.9616,50.7202],[-73.9481,50.7332],[-73.9134,50.7856],[-73.8976,50.8318],[-73.8767,50.8515],[-73.8312,50.8845],[-73.8433,50.8968],[-73.8507,50.9066],[-73.8596,50.9074],[-73.8872,50.8848],[-73.9022,50.8759],[-73.9188,50.8718],[-73.9343,50.8771],[-73.9282,50.8913],[-73.9244,50.9222],[-73.9169,50.9354],[-73.9045,50.9445],[-73.8892,50.9516],[-73.8579,50.9595],[-73.8704,50.9687],[-73.8922,50.9678],[-73.9139,50.9613],[-73.9269,50.9534],[-73.9341,50.9584],[-73.9409,50.9669],[-73.944,50.9772],[-73.9404,50.9869],[-73.9312,50.9893],[-73.8626,50.9869],[-73.8449,51.0008],[-73.8286,51.0175],[-73.819,51.0249],[-73.8071,51.0278],[-73.7575,51.0246],[-73.7326,51.0273],[-73.7111,51.0384],[-73.6918,51.0537],[-73.6327,51.0826],[-73.6119,51.0961],[-73.5638,51.1447],[-73.4927,51.1721],[-73.4608,51.2],[-73.3377,51.2675],[-73.3407,51.2819],[-73.3232,51.2854],[-73.2862,51.2819],[-73.249,51.2928],[-73.2447,51.3069],[-73.2343,51.3122],[-73.2075,51.3166],[-73.0997,51.3681],[-73.0701,51.3911],[-73.0579,51.3852],[-73.0467,51.3881],[-73.0351,51.394],[-73.0219,51.3984],[-73.0076,51.3993],[-72.9698,51.3958],[-72.9536,51.3911],[-72.9286,51.374],[-72.9397,51.3637],[-72.969,51.359],[-72.9983,51.3575],[-73.0229,51.3522],[-73.0631,51.3281],[-73.0877,51.3228],[-73.1092,51.3148],[-73.1365,51.2957],[-73.1608,51.273],[-73.1733,51.2545],[-73.1439,51.2574],[-73.0999,51.2831],[-73.0631,51.2925],[-73.0401,51.306],[-73.0111,51.3113],[-72.9246,51.3528],[-72.8928,51.3596],[-72.8785,51.3466],[-72.8641,51.3449],[-72.7968,51.3614],[-72.7761,51.3705],[-72.7765,51.3622],[-72.7742,51.3566],[-72.7686,51.3502],[-72.7867,51.3284],[-72.8141,51.309],[-72.8456,51.2945],[-72.8899,51.2866],[-72.9337,51.2675],[-72.9393,51.268],[-72.9493,51.2742],[-72.9536,51.2751],[-72.9571,51.2725],[-72.9634,51.2639],[-72.9673,51.2613],[-72.9916,51.2542],[-72.9983,51.251],[-73.0231,51.2348],[-73.0797,51.2124],[-73.1044,51.1992],[-73.1306,51.1741],[-73.1143,51.1694],[-73.0793,51.1712],[-73.0498,51.1644],[-73.0578,51.1577],[-73.0613,51.1521],[-73.0609,51.1465],[-73.0572,51.1379],[-73.0379,51.145],[-72.981,51.1788],[-72.9105,51.2101],[-72.899,51.2171],[-72.8949,51.2227],[-72.8856,51.2271],[-72.8765,51.233],[-72.8723,51.2442],[-72.8664,51.2477],[-72.8276,51.2477],[-72.8052,51.2504],[-72.7801,51.2572],[-72.7344,51.2751],[-72.7324,51.2672],[-72.7333,51.2586],[-72.7365,51.2498],[-72.7413,51.241],[-72.7294,51.241],[-72.7228,51.2454],[-72.7184,51.2513],[-72.714,51.2545],[-72.6751,51.2539],[-72.6177,51.241],[-72.711,51.2174],[-72.7344,51.1992],[-72.7683,51.2083],[-72.7926,51.1998],[-72.8161,51.1859],[-72.8759,51.1724],[-72.9262,51.1441],[-72.9637,51.1335],[-72.9758,51.1238],[-72.9945,51.1038],[-72.9988,51.1003],[-73.0094,51.0932],[-73.0155,51.09],[-73.022,51.0888],[-73.0307,51.0879],[-73.0372,51.0882],[-73.0362,51.09],[-73.0545,51.0752],[-73.066,51.0532],[-73.0846,51.0008],[-73.0972,51.0255],[-73.1136,51.0072],[-73.1343,50.9752],[-73.1596,50.9595],[-73.1296,51.0084],[-73.1255,51.0211],[-73.1278,51.0346],[-73.1317,51.0381],[-73.149,51.0355],[-73.1529,51.0311],[-73.1529,51.0008],[-73.1614,50.9796],[-73.173,50.9687],[-73.2263,50.9454],[-73.2328,50.9395],[-73.2353,50.9286],[-73.2396,50.9198],[-73.258,50.9142],[-73.2703,50.8971],[-73.3089,50.8636],[-73.3204,50.8565],[-73.341,50.8512],[-73.3789,50.8274],[-73.3962,50.8218],[-73.4265,50.8077]],[[-73.6951,50.8359],[-73.7011,50.8415],[-73.718,50.8436],[-73.7273,50.838],[-73.7389,50.8138],[-73.745,50.8082],[-73.7613,50.7988],[-73.78,50.7779],[-73.794,50.7547],[-73.7965,50.74],[-73.7709,50.7591],[-73.7297,50.7997],[-73.7077,50.8156],[-73.6979,50.8271],[-73.6951,50.8359]],[[-73.1801,51.241],[-73.4263,51.0961],[-73.5297,51.0081],[-73.5728,50.9781],[-73.5806,50.9651],[-73.56,50.9595],[-73.5508,50.964],[-73.5455,50.974],[-73.5419,50.9855],[-73.537,50.9946],[-73.3014,51.1656],[-73.2696,51.1786],[-73.22,51.2098],[-73.2075,51.2204],[-73.1983,51.2227],[-73.191,51.2268],[-73.185,51.233],[-73.1801,51.241]]]}}
