{"type":"Feature","properties":{"id":1036,"name":"Lake Nipigon","featurecla":"Lake","scalerank":2,"wikidataid":"Q122184","source":"Natural Earth 5.2.0-pre ne_10m_lakes (public domain)"},"geometry":{"type":"Polygon","coordinates":[[[-88.9275,50.0508],[-88.9003,50.0485],[-88.8787,50.0544],[-88.8587,50.0659],[-88.8439,50.0832],[-88.836,50.1186],[-88.8261,50.1368],[-88.8239,50.1474],[-88.8238,50.1709],[-88.8219,50.1818],[-88.8177,50.1924],[-88.8038,50.2066],[-88.7643,50.2189],[-88.7458,50.2295],[-88.6906,50.2728],[-88.6738,50.2813],[-88.6588,50.2855],[-88.646,50.2863],[-88.6335,50.2849],[-88.6191,50.2813],[-88.5815,50.2607],[-88.577,50.2572],[-88.5712,50.2487],[-88.5665,50.2384],[-88.5644,50.2295],[-88.5587,50.2204],[-88.5458,50.2248],[-88.5042,50.2513],[-88.4941,50.2545],[-88.482,50.254],[-88.4742,50.2484],[-88.4692,50.2387],[-88.4627,50.2298],[-88.4513,50.226],[-88.4246,50.2219],[-88.4114,50.211],[-88.3908,50.1742],[-88.3909,50.1709],[-88.3905,50.1683],[-88.3864,50.1645],[-88.3786,50.1618],[-88.3725,50.163],[-88.3665,50.1651],[-88.3584,50.1645],[-88.3494,50.1586],[-88.3316,50.1409],[-88.3212,50.1374],[-88.2767,50.1327],[-88.266,50.14],[-88.2696,50.1645],[-88.2752,50.1768],[-88.281,50.1824],[-88.297,50.1924],[-88.3013,50.1936],[-88.3129,50.1918],[-88.3175,50.1924],[-88.3188,50.1971],[-88.3175,50.2039],[-88.3169,50.2098],[-88.3212,50.2125],[-88.3285,50.2186],[-88.3331,50.2313],[-88.3385,50.2404],[-88.3485,50.2366],[-88.3599,50.2289],[-88.3693,50.2292],[-88.4312,50.2696],[-88.441,50.2813],[-88.4273,50.2931],[-88.4123,50.2999],[-88.3962,50.3011],[-88.316,50.2678],[-88.3014,50.2392],[-88.2932,50.2328],[-88.2284,50.226],[-88.2142,50.2207],[-88.2055,50.208],[-88.1988,50.1933],[-88.1908,50.1818],[-88.1763,50.1659],[-88.1603,50.1418],[-88.15,50.1162],[-88.1529,50.0962],[-88.1678,50.0865],[-88.1784,50.0929],[-88.1946,50.1174],[-88.2037,50.1244],[-88.2128,50.1283],[-88.2248,50.13],[-88.2423,50.1303],[-88.2124,50.0779],[-88.2083,50.0585],[-88.2112,50.0367],[-88.2349,49.9864],[-88.2078,49.9914],[-88.1934,50.0082],[-88.1835,50.0258],[-88.1704,50.0344],[-88.1604,50.0364],[-88.1548,50.0402],[-88.1476,50.0408],[-88.1325,50.0344],[-88.1258,50.0291],[-88.1033,50.0064],[-88.0983,49.9967],[-88.087,49.9993],[-88.0611,49.9967],[-88.0334,49.9899],[-88.0165,49.9796],[-88.011,49.9561],[-88.024,49.9458],[-88.0434,49.9511],[-88.0574,49.9734],[-88.0655,49.9599],[-88.0861,49.9387],[-88.0848,49.9313],[-88.0946,49.9237],[-88.1052,49.9181],[-88.1279,49.9254],[-88.1541,49.9252],[-88.1799,49.9199],[-88.2013,49.9113],[-88.1871,49.9007],[-88.1587,49.8969],[-88.1019,49.8978],[-88.0983,49.8869],[-88.0989,49.8622],[-88.1052,49.8227],[-88.1135,49.8133],[-88.121,49.8124],[-88.1292,49.813],[-88.14,49.8083],[-88.1479,49.798],[-88.1522,49.7842],[-88.1492,49.7724],[-88.1129,49.7597],[-88.107,49.7403],[-88.112,49.6917],[-88.1107,49.6817],[-88.1058,49.6626],[-88.1052,49.6576],[-88.1104,49.647],[-88.1286,49.6258],[-88.1325,49.6199],[-88.136,49.6114],[-88.1442,49.6037],[-88.1545,49.5981],[-88.1638,49.5961],[-88.1735,49.5908],[-88.174,49.5781],[-88.165,49.5457],[-88.1625,49.541],[-88.1607,49.536],[-88.1604,49.5272],[-88.1643,49.5166],[-88.1706,49.5101],[-88.1725,49.5027],[-88.1557,49.4765],[-88.1463,49.4553],[-88.1398,49.433],[-88.14,49.4174],[-88.1462,49.4041],[-88.1607,49.4144],[-88.1663,49.4306],[-88.1697,49.4483],[-88.1772,49.4621],[-88.1975,49.4748],[-88.2084,49.4686],[-88.2165,49.4533],[-88.2281,49.4383],[-88.2645,49.4621],[-88.2696,49.4692],[-88.2745,49.4795],[-88.287,49.4798],[-88.3212,49.4724],[-88.3459,49.4742],[-88.3459,49.4686],[-88.3524,49.4521],[-88.3606,49.4383],[-88.3958,49.3935],[-88.4242,49.3665],[-88.4348,49.3673],[-88.4473,49.3826],[-88.4577,49.4018],[-88.463,49.4168],[-88.4651,49.42],[-88.4672,49.4247],[-88.4683,49.4309],[-88.4658,49.4386],[-88.4551,49.4521],[-88.4546,49.4589],[-88.4648,49.4668],[-88.4782,49.4615],[-88.5031,49.4383],[-88.5118,49.4709],[-88.5044,49.4986],[-88.5047,49.5219],[-88.5366,49.5407],[-88.5343,49.561],[-88.5471,49.5743],[-88.5634,49.5716],[-88.5714,49.5445],[-88.5693,49.5278],[-88.5634,49.5242],[-88.5547,49.5228],[-88.544,49.5136],[-88.5415,49.5016],[-88.5438,49.4907],[-88.5428,49.4824],[-88.5297,49.4801],[-88.5391,49.4656],[-88.5572,49.4542],[-88.5912,49.4383],[-88.6226,49.4141],[-88.6342,49.4103],[-88.647,49.4147],[-88.6595,49.4212],[-88.6706,49.4247],[-88.6831,49.4262],[-88.6907,49.43],[-88.6976,49.4344],[-88.7085,49.4383],[-88.7458,49.4383],[-88.764,49.4445],[-88.7829,49.4589],[-88.7977,49.4771],[-88.8046,49.4936],[-88.7876,49.4989],[-88.7726,49.5086],[-88.7598,49.521],[-88.7495,49.5345],[-88.7436,49.5493],[-88.7384,49.5675],[-88.7312,49.5828],[-88.7191,49.5893],[-88.6896,49.5878],[-88.6806,49.5893],[-88.6734,49.5943],[-88.6723,49.6005],[-88.6703,49.6061],[-88.6601,49.6096],[-88.6458,49.6075],[-88.614,49.5928],[-88.5949,49.5893],[-88.5812,49.5955],[-88.5773,49.6099],[-88.5805,49.6267],[-88.5881,49.6405],[-88.6049,49.6493],[-88.6273,49.6511],[-88.6498,49.6482],[-88.6675,49.6437],[-88.715,49.6146],[-88.7259,49.6131],[-88.7347,49.6276],[-88.7415,49.6423],[-88.7499,49.6502],[-88.7637,49.6437],[-88.7598,49.6305],[-88.7609,49.5987],[-88.7564,49.5816],[-88.7739,49.5787],[-88.7805,49.5693],[-88.7836,49.5575],[-88.7904,49.5481],[-88.7998,49.5451],[-88.8067,49.546],[-88.8123,49.5481],[-88.8177,49.5481],[-88.8413,49.5363],[-88.8488,49.5345],[-88.8544,49.5316],[-88.9037,49.5172],[-88.9162,49.5089],[-88.9306,49.5036],[-88.9446,49.496],[-88.9555,49.4801],[-88.9791,49.521],[-88.9823,49.531],[-88.9838,49.5392],[-88.9882,49.5404],[-88.9948,49.5392],[-89.0028,49.5407],[-89.0126,49.5451],[-89.0189,49.5472],[-89.025,49.5504],[-89.0341,49.5584],[-89.0426,49.5687],[-89.0493,49.5816],[-89.0491,49.5943],[-89.0375,49.6034],[-89.0206,49.6025],[-89.0072,49.5916],[-88.9891,49.5681],[-88.9755,49.5575],[-88.9624,49.5516],[-88.9482,49.549],[-88.9308,49.5481],[-88.9197,49.546],[-88.9172,49.5428],[-88.9156,49.5422],[-88.9071,49.5481],[-88.9031,49.5534],[-88.9008,49.5651],[-88.8966,49.5719],[-88.891,49.5846],[-88.8919,49.6005],[-88.8962,49.6146],[-88.9003,49.6234],[-88.9193,49.6458],[-88.9184,49.654],[-88.9071,49.6717],[-88.9245,49.6732],[-88.9412,49.6779],[-88.9339,49.6855],[-88.9421,49.7061],[-88.9255,49.7335],[-88.9175,49.7571],[-88.9518,49.7674],[-88.9551,49.7635],[-88.9592,49.7459],[-88.9618,49.7394],[-88.968,49.7329],[-88.9891,49.7188],[-88.9973,49.707],[-89.005,49.7026],[-89.017,49.7053],[-89.0216,49.7109],[-89.0257,49.7206],[-89.0306,49.7394],[-89.0391,49.7335],[-89.0438,49.7253],[-89.0512,49.7053],[-89.0599,49.722],[-89.0599,49.7653],[-89.0644,49.7741],[-89.0763,49.7677],[-89.0869,49.7568],[-89.0967,49.7547],[-89.1058,49.7741],[-89.102,49.8],[-89.0883,49.8395],[-89.0697,49.8666],[-89.0512,49.8566],[-89.0515,49.8401],[-89.0563,49.8195],[-89.0544,49.8021],[-89.0257,49.7927],[-89.0079,49.7833],[-88.9911,49.7791],[-88.9889,49.7759],[-88.986,49.7753],[-88.9754,49.7809],[-88.9718,49.7859],[-88.9618,49.8083],[-88.9508,49.8127],[-88.942,49.8104],[-88.9361,49.8112],[-88.9339,49.8257],[-88.9389,49.8463],[-88.952,49.858],[-88.9891,49.8698],[-88.9845,49.8836],[-88.9755,49.8931],[-88.9632,49.8963],[-88.9482,49.8907],[-88.932,49.9034],[-88.8828,49.9066],[-88.8671,49.9287],[-88.8568,49.9328],[-88.85,49.9381],[-88.8556,49.9484],[-88.8676,49.9555],[-88.8788,49.9567],[-88.8875,49.9599],[-88.8928,49.9734],[-88.8893,49.9776],[-88.8812,49.979],[-88.8754,49.9826],[-88.8791,49.9932],[-88.8871,49.999],[-88.9153,50.012],[-88.9361,50.0167],[-88.9434,50.0232],[-88.9471,50.0329],[-88.9482,50.0447],[-88.9418,50.0503],[-88.9275,50.0508]],[[-88.4074,50.022],[-88.3995,50.0076],[-88.3862,49.9961],[-88.3379,49.9667],[-88.3175,50.0076],[-88.3331,50.0105],[-88.3449,50.0193],[-88.3568,50.0305],[-88.3727,50.0411],[-88.3945,50.04],[-88.4059,50.0332],[-88.4074,50.022]],[[-88.462,50.1159],[-88.4498,50.0924],[-88.4274,50.1032],[-88.4333,50.113],[-88.4383,50.1268],[-88.4414,50.1424],[-88.4408,50.1645],[-88.4414,50.1698],[-88.4435,50.1745],[-88.4477,50.1789],[-88.4619,50.1521],[-88.462,50.1159]],[[-88.4957,49.619],[-88.4831,49.6119],[-88.4583,49.6096],[-88.3897,49.6199],[-88.3903,49.6308],[-88.3752,49.667],[-88.3727,49.6855],[-88.3993,49.7],[-88.4237,49.6811],[-88.4546,49.637],[-88.4491,49.6473],[-88.4486,49.6549],[-88.452,49.6614],[-88.4583,49.6682],[-88.4669,49.6711],[-88.4735,49.6652],[-88.482,49.6499],[-88.4957,49.6317],[-88.4957,49.619]],[[-88.6479,49.9696],[-88.6464,49.959],[-88.6435,49.9522],[-88.6385,49.9469],[-88.626,49.9387],[-88.6245,49.9564],[-88.6155,49.9693],[-88.5912,49.9864],[-88.568,49.994],[-88.5644,49.9967],[-88.563,50.0043],[-88.5544,50.0208],[-88.5503,50.0273],[-88.5612,50.0397],[-88.5762,50.0455],[-88.6341,50.05],[-88.6404,50.0494],[-88.6327,50.0273],[-88.632,50.0211],[-88.6327,50.0002],[-88.6316,49.9973],[-88.6285,49.9946],[-88.6258,49.9911],[-88.626,49.9864],[-88.6288,49.9837],[-88.6335,49.9811],[-88.6377,49.9796],[-88.6397,49.9796],[-88.6425,49.9743],[-88.6458,49.9728],[-88.6479,49.9696]],[[-88.7637,49.8698],[-88.7158,49.853],[-88.7059,49.8516],[-88.6737,49.8513],[-88.6601,49.8492],[-88.647,49.8448],[-88.6398,49.8413],[-88.6226,49.8257],[-88.6135,49.8192],[-88.602,49.8136],[-88.5898,49.8098],[-88.5781,49.8083],[-88.6154,49.8669],[-88.6464,49.8978],[-88.6414,49.901],[-88.6383,49.9045],[-88.636,49.9078],[-88.6327,49.9113],[-88.6675,49.9098],[-88.6816,49.9137],[-88.6873,49.9249],[-88.6976,49.9193],[-88.7228,49.8907],[-88.7637,49.8698]]]}}
