{"type":"Feature","properties":{"id":1037,"name":"Lake of the Woods","featurecla":"Lake","scalerank":2,"wikidataid":"Q845876","source":"Natural Earth 5.2.0-pre ne_10m_lakes (public domain)"},"geometry":{"type":"Polygon","coordinates":[[[-94.3207,49.0691],[-94.4101,49.0064],[-94.4357,48.9941],[-94.4466,48.9861],[-94.4511,48.9755],[-94.4581,48.967],[-94.4741,48.9643],[-94.5057,48.9655],[-94.533,48.9617],[-94.5626,48.9543],[-94.5913,48.942],[-94.6155,48.9237],[-94.6497,48.8749],[-94.6715,48.8593],[-94.6975,48.8699],[-94.7352,48.854],[-94.7876,48.8543],[-94.8387,48.8663],[-94.8719,48.8866],[-94.8789,48.8934],[-94.903,48.9108],[-94.9304,48.9449],[-94.9455,48.9585],[-94.9651,48.9699],[-94.9876,48.9773],[-95.0122,48.9791],[-95.0176,48.9767],[-95.0206,48.9676],[-95.0265,48.9655],[-95.0572,48.9655],[-95.0677,48.9623],[-95.0762,48.954],[-95.0837,48.944],[-95.1076,48.9184],[-95.1227,48.9067],[-95.1414,48.899],[-95.1885,48.8937],[-95.2299,48.8831],[-95.2524,48.8828],[-95.2739,48.8893],[-95.2948,48.9011],[-95.3133,48.9161],[-95.3276,48.9314],[-95.3276,48.9376],[-95.3235,48.9458],[-95.3279,48.9694],[-95.3276,48.9791],[-95.3194,48.99],[-95.3085,48.9953],[-95.25,49.007],[-95.2361,49.0147],[-95.2319,49.0276],[-95.2704,49.0532],[-95.2804,49.0618],[-95.2913,49.0871],[-95.2904,49.1124],[-95.2792,49.1363],[-95.2593,49.1572],[-95.2271,49.1716],[-95.1632,49.176],[-95.1357,49.1919],[-95.1248,49.1851],[-95.1238,49.1786],[-95.1273,49.1707],[-95.1295,49.1607],[-95.1263,49.151],[-95.118,49.1507],[-95.1079,49.1548],[-95.0984,49.1572],[-95.0798,49.1598],[-94.9717,49.1928],[-94.9448,49.2151],[-94.933,49.2475],[-94.9304,49.2911],[-94.9336,49.3079],[-94.9424,49.3226],[-94.9554,49.3344],[-94.9713,49.3429],[-94.9922,49.3441],[-95.0421,49.3355],[-95.0572,49.3391],[-95.0655,49.3432],[-95.0762,49.345],[-95.0851,49.3482],[-95.0886,49.3559],[-95.0839,49.367],[-95.0736,49.3706],[-95.0477,49.37],[-95.0238,49.3744],[-94.9635,49.3953],[-94.9569,49.3897],[-94.9474,49.3844],[-94.9368,49.3823],[-94.9271,49.3868],[-94.9201,49.3959],[-94.9155,49.4097],[-94.9105,49.4174],[-94.927,49.423],[-94.9326,49.4286],[-94.9305,49.4356],[-94.9148,49.4574],[-94.9073,49.4618],[-94.8825,49.4656],[-94.8731,49.4656],[-94.8631,49.4642],[-94.8543,49.4671],[-94.8484,49.4801],[-94.8479,49.491],[-94.8513,49.4992],[-94.8584,49.5045],[-94.8688,49.5066],[-94.8565,49.5178],[-94.8432,49.5219],[-94.8142,49.521],[-94.8084,49.5195],[-94.8044,49.5169],[-94.7994,49.5145],[-94.7901,49.5136],[-94.7832,49.5157],[-94.7699,49.5251],[-94.7627,49.5272],[-94.738,49.5295],[-94.7108,49.5366],[-94.6862,49.5478],[-94.6696,49.5619],[-94.6728,49.5657],[-94.6771,49.5754],[-94.6582,49.5831],[-94.6335,49.5981],[-94.6161,49.6164],[-94.6191,49.634],[-94.6385,49.6432],[-94.6631,49.644],[-94.7248,49.6349],[-94.7499,49.6278],[-94.759,49.6234],[-94.7668,49.6146],[-94.7705,49.6058],[-94.7763,49.5987],[-94.8114,49.5925],[-94.8348,49.5834],[-94.8556,49.5704],[-94.8688,49.5551],[-94.8599,49.5531],[-94.8559,49.5504],[-94.8532,49.5463],[-94.8484,49.5407],[-94.914,49.5233],[-94.9448,49.5192],[-94.9548,49.5145],[-94.9622,49.5069],[-94.9651,49.4966],[-94.97,49.4874],[-94.9814,49.4857],[-94.9951,49.4866],[-95.006,49.4863],[-95.0166,49.4815],[-95.0369,49.4701],[-95.0477,49.4656],[-95.0839,49.4589],[-95.1123,49.445],[-95.1364,49.4471],[-95.1545,49.4595],[-95.1569,49.4801],[-95.1451,49.4921],[-95.1037,49.5233],[-95.0948,49.5378],[-95.1001,49.559],[-95.1139,49.569],[-95.1569,49.5816],[-95.1822,49.599],[-95.1787,49.6131],[-95.1157,49.654],[-95.0971,49.6502],[-95.0801,49.639],[-95.0606,49.6308],[-94.9869,49.6358],[-94.9582,49.6214],[-94.9483,49.6202],[-94.9442,49.6164],[-94.9508,49.6034],[-94.958,49.599],[-94.9925,49.5893],[-94.9891,49.5822],[-94.9847,49.5766],[-94.9788,49.5722],[-94.9713,49.5681],[-94.9651,49.5754],[-94.9576,49.5681],[-94.9417,49.5749],[-94.9028,49.5678],[-94.8825,49.5681],[-94.8663,49.5752],[-94.8516,49.5858],[-94.8157,49.6228],[-94.8098,49.6317],[-94.8144,49.6384],[-94.8341,49.6437],[-94.8521,49.6446],[-94.8681,49.6434],[-94.8844,49.6437],[-94.903,49.6499],[-94.8229,49.6935],[-94.6566,49.7126],[-94.5421,49.6964],[-94.5163,49.7017],[-94.514,49.7138],[-94.5296,49.7223],[-94.5611,49.7326],[-94.5643,49.7479],[-94.5565,49.7606],[-94.5331,49.7809],[-94.5439,49.7915],[-94.5549,49.7959],[-94.5637,49.8024],[-94.5671,49.8189],[-94.5726,49.8342],[-94.5966,49.8501],[-94.602,49.8601],[-94.6063,49.8731],[-94.6169,49.8828],[-94.6291,49.8887],[-94.6392,49.8907],[-94.6445,49.8957],[-94.6941,49.9216],[-94.7065,49.9455],[-94.6991,49.9667],[-94.6779,49.9834],[-94.6491,49.9932],[-94.6236,49.9943],[-94.5976,49.9896],[-94.5733,49.9799],[-94.5294,49.9475],[-94.5209,49.9169],[-94.5305,49.8869],[-94.5611,49.8698],[-94.5611,49.8636],[-94.5525,49.8566],[-94.5422,49.8398],[-94.5331,49.8363],[-94.52,49.8354],[-94.5088,49.8318],[-94.5012,49.8245],[-94.4982,49.8118],[-94.4974,49.7924],[-94.4934,49.7803],[-94.4554,49.735],[-94.4447,49.7273],[-94.4311,49.7259],[-94.4065,49.7265],[-94.3862,49.7223],[-94.3695,49.7156],[-94.3531,49.7144],[-94.3344,49.7265],[-94.3107,49.6994],[-94.2982,49.6935],[-94.2729,49.6917],[-94.2954,49.6661],[-94.3224,49.6546],[-94.3519,49.6476],[-94.3823,49.637],[-94.3571,49.6205],[-94.2751,49.6102],[-94.2519,49.5893],[-94.3921,49.6034],[-94.4154,49.5996],[-94.4157,49.5902],[-94.4015,49.5787],[-94.3655,49.5593],[-94.3527,49.5504],[-94.3282,49.5272],[-94.3235,49.521],[-94.3209,49.5163],[-94.3165,49.5116],[-94.3065,49.5066],[-94.2998,49.5054],[-94.2764,49.5066],[-94.2558,49.5045],[-94.2186,49.4957],[-94.2003,49.4936],[-94.1952,49.4913],[-94.1737,49.4762],[-94.1647,49.4718],[-94.129,49.4724],[-94.1113,49.4701],[-94.096,49.4656],[-94.0676,49.4521],[-94.0953,49.4468],[-94.1582,49.4598],[-94.1774,49.445],[-94.1491,49.4291],[-94.1001,49.3885],[-94.0738,49.3762],[-94.0362,49.3732],[-94.017,49.3685],[-94.0158,49.3591],[-94.0249,49.3564],[-94.0449,49.3647],[-94.0533,49.3626],[-94.0577,49.3547],[-94.0574,49.3456],[-94.0526,49.3385],[-94.0433,49.3352],[-94.0245,49.3214],[-94.0259,49.2896],[-94.0379,49.2561],[-94.0498,49.236],[-94.071,49.2199],[-94.1032,49.2007],[-94.1351,49.1919],[-94.1557,49.2057],[-94.1401,49.2184],[-94.1023,49.236],[-94.0875,49.2466],[-94.0799,49.2546],[-94.0752,49.2622],[-94.0749,49.2702],[-94.0805,49.2802],[-94.0898,49.2849],[-94.115,49.2861],[-94.1256,49.2911],[-94.1441,49.3058],[-94.1613,49.3129],[-94.1793,49.3149],[-94.2003,49.3149],[-94.2208,49.3244],[-94.2184,49.3456],[-94.2098,49.3688],[-94.2109,49.39],[-94.2064,49.3912],[-94.1967,49.3968],[-94.2148,49.4088],[-94.2226,49.4168],[-94.2311,49.4165],[-94.2879,49.3803],[-94.3082,49.3732],[-94.3282,49.3762],[-94.3165,49.3915],[-94.2786,49.4118],[-94.2655,49.4247],[-94.258,49.4571],[-94.2491,49.4656],[-94.2246,49.4656],[-94.2689,49.4818],[-94.3187,49.4866],[-94.5091,49.4724],[-94.5737,49.4589],[-94.5951,49.4589],[-94.6074,49.4633],[-94.6144,49.468],[-94.622,49.4698],[-94.6361,49.4656],[-94.6696,49.4347],[-94.6818,49.4268],[-94.7396,49.4218],[-94.759,49.4174],[-94.7636,49.4112],[-94.7733,49.3838],[-94.7807,49.3729],[-94.8039,49.3523],[-94.8089,49.3411],[-94.8023,49.3332],[-94.7922,49.3264],[-94.7836,49.3138],[-94.7764,49.3202],[-94.7664,49.3352],[-94.7477,49.3461],[-94.7365,49.35],[-94.7317,49.3458],[-94.7286,49.3347],[-94.7218,49.3317],[-94.7149,49.3358],[-94.7118,49.3458],[-94.7021,49.3665],[-94.6793,49.3676],[-94.6329,49.3559],[-94.5686,49.3485],[-94.5611,49.3429],[-94.5804,49.3332],[-94.6072,49.3311],[-94.6226,49.3261],[-94.6082,49.3082],[-94.591,49.2979],[-94.5531,49.2826],[-94.5269,49.2637],[-94.5193,49.2605],[-94.5144,49.2555],[-94.5125,49.2428],[-94.5071,49.2363],[-94.4944,49.2337],[-94.4682,49.2328],[-94.4435,49.2363],[-94.4255,49.2446],[-94.3884,49.267],[-94.3461,49.2814],[-94.3228,49.2843],[-94.3065,49.2802],[-94.3096,49.2764],[-94.314,49.267],[-94.2953,49.2584],[-94.2878,49.2372],[-94.2813,49.226],[-94.2655,49.2466],[-94.2604,49.2334],[-94.2614,49.221],[-94.2611,49.2116],[-94.2519,49.2057],[-94.2557,49.196],[-94.2619,49.1881],[-94.27,49.1819],[-94.2798,49.1784],[-94.2798,49.1707],[-94.247,49.1786],[-94.0124,49.1845],[-94.0124,49.1784],[-94.0271,49.1757],[-94.0429,49.171],[-94.0536,49.163],[-94.0533,49.151],[-94.1153,49.1195],[-94.1321,49.1059],[-94.1502,49.0956],[-94.1728,49.093],[-94.2146,49.0956],[-94.2209,49.0986],[-94.233,49.1112],[-94.2383,49.1157],[-94.2494,49.1201],[-94.2608,49.123],[-94.2731,49.1239],[-94.2866,49.123],[-94.3101,49.1174],[-94.3259,49.1071],[-94.3306,49.0909],[-94.3207,49.0691]],[[-94.4982,49.1301],[-94.5062,49.1436],[-94.5241,49.1366],[-94.5611,49.1095],[-94.6026,49.0959],[-94.6219,49.0844],[-94.6332,49.0556],[-94.6394,49.0474],[-94.6431,49.0394],[-94.6392,49.0306],[-94.6311,49.0285],[-94.6151,49.0432],[-94.6051,49.0474],[-94.5886,49.0397],[-94.5662,49.0253],[-94.5486,49.017],[-94.5468,49.0276],[-94.5318,49.0338],[-94.5165,49.0477],[-94.5069,49.0641],[-94.5091,49.0786],[-94.5225,49.0959],[-94.5237,49.1074],[-94.5149,49.1174],[-94.4982,49.1301]],[[-94.4369,49.1784],[-94.4461,49.1831],[-94.4506,49.1892],[-94.45,49.1966],[-94.4438,49.2057],[-94.4486,49.2057],[-94.4514,49.2075],[-94.4538,49.2098],[-94.4573,49.2125],[-94.4807,49.2187],[-94.4887,49.2193],[-94.4987,49.2175],[-94.5041,49.2137],[-94.5078,49.2093],[-94.5125,49.2057],[-94.5156,49.2022],[-94.5163,49.1975],[-94.5194,49.1937],[-94.5296,49.1919],[-94.5368,49.1931],[-94.552,49.1978],[-94.5611,49.1981],[-94.5764,49.1934],[-94.6073,49.1789],[-94.6225,49.1784],[-94.6314,49.1842],[-94.6395,49.1937],[-94.6509,49.2022],[-94.6696,49.2057],[-94.684,49.2013],[-94.7199,49.1828],[-94.7386,49.1784],[-94.7529,49.1828],[-94.7686,49.1904],[-94.7816,49.1919],[-94.7869,49.1784],[-94.7842,49.1713],[-94.7777,49.1622],[-94.7698,49.1542],[-94.7627,49.151],[-94.7523,49.1489],[-94.7461,49.1439],[-94.7312,49.1151],[-94.7218,49.0868],[-94.7118,49.0747],[-94.6965,49.0836],[-94.6721,49.1021],[-94.6566,49.1095],[-94.6447,49.1104],[-94.6289,49.1095],[-94.6125,49.1112],[-94.5985,49.1195],[-94.5723,49.143],[-94.5442,49.1583],[-94.513,49.1651],[-94.4778,49.1639],[-94.4825,49.1545],[-94.4853,49.151],[-94.4731,49.1451],[-94.4613,49.151],[-94.4369,49.1784]]]}}
