{"type":"Feature","properties":{"id":1038,"name":"Lake Saimaa","featurecla":"Lake","scalerank":2,"wikidataid":"Q192770","source":"Natural Earth 5.2.0-pre ne_10m_lakes (public domain)"},"geometry":{"type":"Polygon","coordinates":[[[28.066,61.0892],[28.076,61.088],[28.0548,61.0963],[28.0263,61.1039],[28.0001,61.1051],[27.9865,61.0942],[27.9948,61.0904],[28.0027,61.0833],[28.0057,61.0768],[27.9968,61.0739],[27.9874,61.0757],[27.9836,61.0798],[27.9786,61.0824],[27.9662,61.0813],[27.9597,61.0768],[27.9544,61.0698],[27.9483,61.063],[27.9388,61.0601],[27.9303,61.0618],[27.9041,61.0739],[27.9091,61.0833],[27.9171,61.0901],[27.9383,61.1013],[27.9279,61.1133],[27.915,61.1133],[27.9009,61.1116],[27.887,61.1183],[27.8679,61.1407],[27.8567,61.1463],[27.8358,61.1496],[27.8285,61.1496],[27.8211,61.1504],[27.8143,61.1525],[27.8078,61.1557],[27.8246,61.1607],[27.8614,61.1563],[27.8732,61.1596],[27.8959,61.1796],[27.9091,61.1878],[27.9215,61.1911],[27.9368,61.1931],[27.9662,61.2022],[27.9833,61.2043],[28.0018,61.2022],[28.0389,61.1931],[28.0763,61.1905],[28.0881,61.1881],[28.1099,61.1775],[28.134,61.1693],[28.1375,61.1666],[28.1375,61.1534],[28.1393,61.1478],[28.1443,61.1428],[28.1702,61.134],[28.1994,61.1372],[28.2609,61.1557],[28.2503,61.159],[28.2423,61.1628],[28.2382,61.1687],[28.2397,61.1775],[28.1584,61.1775],[28.139,61.1819],[28.129,61.1925],[28.1213,61.2061],[28.1099,61.2184],[28.0922,61.2252],[28.0719,61.2293],[28.0548,61.2373],[28.0404,61.2758],[28.0227,61.2773],[27.9833,61.2655],[27.9733,61.2667],[27.9633,61.272],[27.9556,61.2732],[27.945,61.2711],[27.9268,61.2626],[27.9176,61.2593],[27.9076,61.2588],[27.8864,61.2605],[27.8767,61.2593],[27.8685,61.2546],[27.8623,61.2476],[27.8561,61.2414],[27.8458,61.239],[27.6574,61.2593],[27.6872,61.2458],[27.6945,61.2364],[27.6916,61.2184],[27.6798,61.2019],[27.6633,61.1972],[27.515,61.2252],[27.4799,61.2246],[27.4852,61.237],[27.4852,61.2479],[27.4787,61.2555],[27.4658,61.2593],[27.4696,61.2446],[27.4726,61.239],[27.4552,61.2408],[27.4478,61.2502],[27.4422,61.2608],[27.4317,61.2655],[27.4202,61.2635],[27.3834,61.2458],[27.3951,61.2717],[27.4266,61.2808],[27.464,61.2791],[27.4932,61.2732],[27.479,61.2882],[27.4105,61.3141],[27.3857,61.3303],[27.3766,61.3344],[27.3642,61.3368],[27.3404,61.3379],[27.3286,61.3412],[27.3301,61.3468],[27.3298,61.3488],[27.3289,61.3506],[27.3286,61.355],[27.3195,61.3488],[27.3151,61.3421],[27.3157,61.335],[27.3219,61.3282],[27.3219,61.3209],[27.3007,61.3197],[27.2798,61.315],[27.2594,61.3132],[27.2391,61.3209],[27.2512,61.3215],[27.2618,61.3238],[27.2715,61.3279],[27.2809,61.3344],[27.2706,61.34],[27.2665,61.3412],[27.2809,61.355],[27.2762,61.3562],[27.2665,61.3618],[27.2868,61.3756],[27.2759,61.3747],[27.2653,61.3762],[27.2553,61.3789],[27.2462,61.383],[27.2583,61.3948],[27.2839,61.4036],[27.3422,61.4162],[27.3327,61.4224],[27.3286,61.4239],[27.336,61.4289],[27.3442,61.433],[27.3533,61.4357],[27.3628,61.4369],[27.3551,61.4492],[27.3395,61.4551],[27.3221,61.4554],[27.308,61.4513],[27.3107,61.4472],[27.3151,61.4369],[27.3024,61.4363],[27.2898,61.4377],[27.2665,61.4442],[27.2706,61.4542],[27.2742,61.458],[27.2597,61.4572],[27.2456,61.4583],[27.2318,61.4607],[27.2188,61.4648],[27.2483,61.4957],[27.263,61.4998],[27.2809,61.4854],[27.2836,61.4907],[27.2918,61.5007],[27.2945,61.5057],[27.3124,61.4884],[27.3324,61.4757],[27.3834,61.458],[27.376,61.4748],[27.3881,61.4757],[27.4181,61.4648],[27.4364,61.4654],[27.4534,61.4689],[27.4696,61.4707],[27.4864,61.4648],[27.4814,61.4804],[27.4684,61.4857],[27.4384,61.4854],[27.3707,61.5034],[27.3266,61.509],[27.3074,61.5169],[27.2904,61.5269],[27.2774,61.5369],[27.2756,61.5478],[27.2809,61.5628],[27.2815,61.5793],[27.2665,61.5952],[27.2845,61.612],[27.2854,61.6229],[27.2818,61.6335],[27.2868,61.65],[27.2739,61.6594],[27.2933,61.6756],[27.3266,61.6871],[27.3557,61.6832],[27.3528,61.6759],[27.3525,61.6732],[27.3539,61.6709],[27.3557,61.6635],[27.308,61.6226],[27.3269,61.6052],[27.3375,61.599],[27.3422,61.6052],[27.3463,61.6217],[27.356,61.6329],[27.3692,61.6347],[27.3834,61.6226],[27.3787,61.6082],[27.3669,61.5979],[27.3513,61.5879],[27.3348,61.5746],[27.3422,61.5678],[27.3366,61.5646],[27.3336,61.5611],[27.3286,61.5543],[27.3221,61.5561],[27.3136,61.5519],[27.3036,61.5437],[27.2945,61.5337],[27.323,61.5322],[27.4163,61.5093],[27.4328,61.5093],[27.4658,61.5134],[27.5279,61.5134],[27.5279,61.5196],[27.5141,61.5184],[27.5035,61.5219],[27.4864,61.5337],[27.4999,61.5469],[27.4446,61.5487],[27.4249,61.5543],[27.469,61.5611],[27.4787,61.5649],[27.4779,61.5734],[27.4743,61.5837],[27.4764,61.592],[27.4764,61.6011],[27.4693,61.6155],[27.4631,61.6329],[27.4658,61.65],[27.487,61.6326],[27.4988,61.6279],[27.5141,61.6288],[27.5017,61.6155],[27.4905,61.5999],[27.4876,61.5843],[27.4999,61.5714],[27.5179,61.5667],[27.5444,61.5646],[27.57,61.5658],[27.5859,61.5714],[27.6027,61.5802],[27.6639,61.589],[27.7175,61.6129],[27.7328,61.6226],[27.633,61.6155],[27.6233,61.6164],[27.6109,61.6194],[27.6,61.6244],[27.5956,61.6323],[27.6012,61.6382],[27.6145,61.6388],[27.6433,61.6361],[27.6542,61.6385],[27.6801,61.6476],[27.6916,61.65],[27.7531,61.6423],[27.7634,61.6467],[27.7669,61.6567],[27.7675,61.6665],[27.7705,61.6709],[27.7802,61.6738],[27.789,61.6812],[27.797,61.69],[27.8014,61.6977],[27.7805,61.7009],[27.754,61.7003],[27.7357,61.7035],[27.7396,61.718],[27.7157,61.7262],[27.6989,61.7365],[27.6713,61.7598],[27.6495,61.7671],[27.6118,61.7618],[27.5956,61.7733],[27.6089,61.7804],[27.6186,61.7898],[27.6218,61.8013],[27.6159,61.8148],[27.678,61.8007],[27.6574,61.7869],[27.7025,61.7792],[27.7122,61.7733],[27.7148,61.7636],[27.7066,61.7495],[27.7089,61.7424],[27.7284,61.7374],[27.7587,61.7424],[27.7872,61.7533],[27.8014,61.7665],[27.8173,61.7592],[27.8258,61.7453],[27.8234,61.7321],[27.8078,61.7256],[27.832,61.7015],[27.8417,61.6968],[27.8494,61.7012],[27.8561,61.7083],[27.8632,61.7112],[27.8791,61.7053],[27.9135,61.6818],[27.925,61.6709],[27.9176,61.672],[27.9132,61.672],[27.9041,61.6709],[27.9185,61.6647],[27.9335,61.66],[27.9441,61.6535],[27.9456,61.6423],[27.9129,61.6226],[27.9041,61.6155],[27.9185,61.6173],[27.9244,61.6191],[27.9321,61.6226],[27.9456,61.6088],[27.9383,61.6014],[27.9438,61.5932],[27.9503,61.5861],[27.9574,61.5802],[27.9662,61.5746],[28.016,61.5449],[28.0319,61.5234],[28.0345,61.4854],[28.0504,61.4895],[28.0628,61.4892],[28.0745,61.4904],[28.0896,61.499],[28.0916,61.504],[28.0925,61.5199],[28.0963,61.5269],[28.1025,61.5284],[28.1305,61.5269],[28.1272,61.5316],[28.1231,61.539],[28.1202,61.5461],[28.1202,61.5505],[28.1246,61.5519],[28.1355,61.5575],[28.1446,61.564],[28.1443,61.5678],[28.1561,61.5634],[28.1564,61.5558],[28.154,61.5458],[28.1573,61.5337],[28.1802,61.5166],[28.1979,61.5308],[28.2141,61.5567],[28.2335,61.5746],[28.2282,61.5767],[28.2194,61.5811],[28.2123,61.5823],[28.2211,61.5917],[28.2394,61.6073],[28.2465,61.6155],[28.2476,61.6202],[28.2459,61.6314],[28.2465,61.6361],[28.2497,61.6394],[28.2582,61.6456],[28.2609,61.65],[28.2626,61.6615],[28.2609,61.6909],[28.2565,61.7103],[28.2562,61.7212],[28.2609,61.7324],[28.2509,61.7324],[28.2423,61.7312],[28.2338,61.7289],[28.2256,61.7256],[28.2429,61.743],[28.2738,61.7568],[28.308,61.7654],[28.3353,61.7665],[28.3353,61.7598],[28.3248,61.7601],[28.3177,61.7589],[28.3127,61.7545],[28.3089,61.7459],[28.3889,61.7445],[28.4048,61.7386],[28.4022,61.7571],[28.3875,61.7642],[28.3695,61.7686],[28.3565,61.7801],[28.4039,61.7715],[28.4187,61.7665],[28.4272,61.7568],[28.4348,61.7439],[28.4443,61.7371],[28.459,61.7459],[28.4451,61.753],[28.441,61.7642],[28.4451,61.793],[28.4831,61.763],[28.5081,61.7503],[28.5279,61.7521],[28.5332,61.7689],[28.5164,61.7836],[28.4793,61.8007],[28.5134,61.8154],[28.5273,61.8251],[28.5346,61.8416],[28.5179,61.841],[28.5014,61.8425],[28.4861,61.8475],[28.4731,61.8557],[28.5023,61.8619],[28.5326,61.854],[28.5629,61.8416],[28.6491,61.8239],[28.6753,61.8101],[28.6851,61.8122],[28.6921,61.8178],[28.6992,61.821],[28.7163,61.8186],[28.7531,61.8089],[28.7669,61.8075],[28.7822,61.8133],[28.7957,61.8222],[28.8093,61.826],[28.8255,61.8181],[28.8493,61.8116],[28.8646,61.8263],[28.8593,61.8443],[28.8219,61.8484],[28.8219,61.8557],[28.8302,61.8557],[28.8499,61.8622],[28.8422,61.8755],[28.8316,61.8813],[28.6633,61.8966],[28.63,61.9049],[28.6035,61.924],[28.7742,61.924],[28.7672,61.9267],[28.7531,61.9349],[28.7469,61.9379],[28.7419,61.9384],[28.7051,61.9387],[28.693,61.9414],[28.5853,61.9879],[28.5196,61.9979],[28.4537,62.0212],[28.3951,62.0318],[28.3636,62.0447],[28.3089,62.075],[28.3574,62.0671],[28.4048,62.0538],[28.4404,62.0341],[28.451,62.035],[28.474,62.0335],[28.4869,62.0341],[28.4451,62.0477],[28.4525,62.0538],[28.4248,62.0668],[28.3589,62.0697],[28.3086,62.1003],[28.2747,62.1089],[28.2394,62.1101],[28.2123,62.1024],[28.2877,62.0812],[28.2576,62.0821],[28.1994,62.098],[28.1708,62.1024],[28.1779,62.0948],[28.1531,62.0903],[28.1013,62.1115],[28.076,62.1092],[28.0831,62.1059],[28.0963,62.098],[28.1034,62.0948],[28.071,62.0892],[28.0348,62.0998],[27.9983,62.1151],[27.9662,62.1227],[27.9403,62.1254],[27.9115,62.1324],[27.8844,62.1433],[27.8632,62.1575],[27.892,62.1657],[27.9229,62.1686],[27.9865,62.1636],[27.9865,62.1707],[27.9335,62.1995],[27.9147,62.219],[27.9176,62.2458],[27.8923,62.2519],[27.8835,62.2525],[27.8867,62.2564],[27.8888,62.2599],[27.8914,62.2634],[27.897,62.2667],[27.8859,62.2829],[27.865,62.3008],[27.8417,62.3152],[27.822,62.3214],[27.822,62.3282],[27.9383,62.3214],[27.9259,62.3438],[27.9032,62.3485],[27.8529,62.3417],[27.8285,62.3414],[27.8179,62.3453],[27.8152,62.3556],[27.8234,62.3617],[27.8573,62.3682],[27.87,62.3768],[27.8617,62.3829],[27.8302,62.4003],[27.8187,62.4038],[27.817,62.4109],[27.7872,62.44],[27.7805,62.4448],[27.7908,62.4524],[27.7843,62.4577],[27.774,62.4633],[27.7737,62.4721],[27.7437,62.4707],[27.7363,62.4648],[27.7602,62.4312],[27.7708,62.4106],[27.7716,62.3944],[27.7616,62.385],[27.7396,62.3829],[27.7219,62.3871],[27.6639,62.4177],[27.6574,62.4345],[27.5959,62.4559],[27.5859,62.4621],[27.5788,62.4627],[27.5774,62.4536],[27.58,62.4427],[27.5859,62.4374],[27.595,62.4359],[27.6186,62.4262],[27.6265,62.4206],[27.625,62.4077],[27.6056,62.395],[27.5797,62.3885],[27.5582,62.3932],[27.4832,62.4374],[27.4726,62.4397],[27.4573,62.4453],[27.4464,62.4533],[27.4484,62.4621],[27.4602,62.4659],[27.5067,62.4648],[27.5067,62.4721],[27.4899,62.4771],[27.4602,62.4901],[27.4417,62.4927],[27.4393,62.4945],[27.4181,62.5057],[27.386,62.5142],[27.3766,62.5201],[27.3716,62.5036],[27.3828,62.4916],[27.401,62.4833],[27.4181,62.4783],[27.4181,62.4721],[27.3404,62.4715],[27.3057,62.4554],[27.2942,62.4551],[27.2703,62.4592],[27.2541,62.4651],[27.2565,62.4768],[27.2668,62.4866],[27.2742,62.486],[27.2627,62.5048],[27.2433,62.5139],[27.2215,62.5201],[27.2018,62.5307],[27.1929,62.5369],[27.1732,62.5475],[27.1641,62.5543],[27.1252,62.5934],[27.1199,62.6005],[27.1173,62.6084],[27.1164,62.6193],[27.1208,62.6329],[27.1305,62.6273],[27.1399,62.6152],[27.1432,62.6093],[27.1947,62.561],[27.215,62.5563],[27.3104,62.5027],[27.3183,62.4963],[27.3289,62.493],[27.3383,62.498],[27.3386,62.506],[27.3219,62.513],[27.3292,62.5248],[27.3416,62.5281],[27.3557,62.5289],[27.3704,62.5337],[27.3581,62.5428],[27.3428,62.5593],[27.333,62.5752],[27.3386,62.5822],[27.3557,62.574],[27.3757,62.559],[27.3937,62.5501],[27.4043,62.561],[27.386,62.5707],[27.3887,62.5837],[27.4031,62.5913],[27.4213,62.5852],[27.4293,62.5743],[27.4343,62.5596],[27.4375,62.5442],[27.4384,62.5307],[27.4452,62.5122],[27.4605,62.5154],[27.4896,62.5337],[27.5088,62.5369],[27.5367,62.551],[27.5515,62.5543],[27.5532,62.5478],[27.552,62.5172],[27.5544,62.5057],[27.5656,62.4977],[27.6159,62.4783],[27.6227,62.4721],[27.6306,62.4574],[27.6365,62.4518],[27.6451,62.448],[27.678,62.4374],[27.7054,62.4239],[27.7148,62.4212],[27.7231,62.4206],[27.7313,62.4186],[27.7396,62.4106],[27.7225,62.4368],[27.6933,62.4659],[27.658,62.4898],[27.6127,62.5027],[27.6039,62.5101],[27.598,62.5204],[27.5956,62.5307],[27.6018,62.5351],[27.6165,62.5334],[27.6563,62.5219],[27.6751,62.5086],[27.6907,62.4924],[27.698,62.4783],[27.7157,62.4889],[27.7325,62.5027],[27.7357,62.5148],[27.6919,62.5242],[27.6298,62.5543],[27.6206,62.5599],[27.6147,62.5657],[27.6077,62.5687],[27.5847,62.5619],[27.5721,62.5643],[27.5603,62.5702],[27.5515,62.5784],[27.537,62.5872],[27.5182,62.5952],[27.507,62.6058],[27.5141,62.6231],[27.5244,62.6143],[27.5356,62.6102],[27.5482,62.6075],[27.5621,62.6025],[27.5535,62.6019],[27.5341,62.5958],[27.56,62.5852],[27.5747,62.5819],[27.5991,62.5899],[27.6156,62.5875],[27.6315,62.5813],[27.6433,62.5746],[27.6159,62.6025],[27.6227,62.6161],[27.618,62.6276],[27.6071,62.6367],[27.5956,62.6434],[27.6006,62.657],[27.5853,62.6685],[27.5924,62.6814],[27.5991,62.685],[27.6165,62.6888],[27.6233,62.692],[27.628,62.6976],[27.6286,62.702],[27.6301,62.7064],[27.6365,62.7123],[27.6327,62.7218],[27.6283,62.73],[27.6159,62.7459],[27.6301,62.7435],[27.6486,62.7288],[27.6607,62.7256],[27.6727,62.7306],[27.6789,62.7424],[27.6801,62.7562],[27.678,62.7671],[27.6689,62.7753],[27.6557,62.7824],[27.6457,62.7895],[27.6468,62.7977],[27.6439,62.8003],[27.6342,62.8006],[27.6227,62.795],[27.6159,62.78],[27.6033,62.7915],[27.6086,62.8042],[27.623,62.8151],[27.6365,62.8221],[27.6483,62.8262],[27.661,62.828],[27.6739,62.8274],[27.6907,62.8236],[27.6983,62.8198],[27.6833,62.8286],[27.6433,62.8354],[27.6471,62.8466],[27.6433,62.8522],[27.6374,62.8563],[27.6365,62.8633],[27.6415,62.8739],[27.6468,62.8728],[27.6557,62.8686],[27.6713,62.8695],[27.6892,62.8789],[27.6995,62.8922],[27.701,62.9063],[27.698,62.9178],[27.6624,62.9302],[27.6501,62.9316],[27.6377,62.9293],[27.6224,62.9202],[27.6097,62.9178],[27.6118,62.9131],[27.6142,62.9016],[27.6159,62.8969],[27.5971,62.8931],[27.583,62.8987],[27.5697,62.9001],[27.5544,62.8837],[27.5647,62.8754],[27.5688,62.8657],[27.5712,62.8545],[27.5756,62.8416],[27.5509,62.8313],[27.5338,62.836],[27.5035,62.8663],[27.4773,62.8848],[27.4537,62.8913],[27.3901,62.8898],[27.3954,62.9001],[27.3972,62.909],[27.3937,62.9151],[27.3834,62.9178],[27.3969,62.9299],[27.4013,62.9416],[27.3949,62.9496],[27.3766,62.9514],[27.3843,62.9664],[27.3896,62.9731],[27.3969,62.9793],[27.3569,62.9861],[27.3422,62.9861],[27.3557,62.9999],[27.3436,63.0038],[27.308,63.0082],[27.3007,63.0102],[27.2939,63.0202],[27.278,63.0255],[27.2597,63.0276],[27.2462,63.027],[27.2547,63.0388],[27.2692,63.0417],[27.2856,63.0429],[27.3007,63.0476],[27.2262,63.0679],[27.2203,63.0665],[27.2126,63.0576],[27.205,63.055],[27.1959,63.057],[27.1897,63.0617],[27.1829,63.0647],[27.1711,63.0612],[27.165,63.07],[27.165,63.0765],[27.1711,63.0806],[27.1847,63.0818],[27.1708,63.0932],[27.1661,63.1003],[27.1641,63.1097],[27.2159,63.0929],[27.2415,63.0894],[27.2665,63.0959],[27.2324,63.1165],[27.2247,63.1244],[27.2179,63.1333],[27.2091,63.1403],[27.1947,63.1433],[27.1832,63.1492],[27.1499,63.1771],[27.1299,63.1848],[27.1711,63.1848],[27.1661,63.1901],[27.1567,63.206],[27.1761,63.201],[27.2006,63.2027],[27.2462,63.2122],[27.2377,63.2351],[27.2256,63.2593],[27.2103,63.2719],[27.1909,63.2604],[27.1847,63.2672],[27.1879,63.2731],[27.1891,63.2775],[27.1894,63.2819],[27.1909,63.2878],[27.182,63.2863],[27.175,63.2902],[27.1691,63.2981],[27.1641,63.3084],[27.1817,63.3175],[27.1982,63.3287],[27.2056,63.3125],[27.225,63.2981],[27.248,63.2919],[27.2665,63.3014],[27.2394,63.3193],[27.2277,63.3326],[27.2291,63.3458],[27.235,63.3617],[27.2247,63.3691],[27.2088,63.3655],[27.1982,63.3493],[27.1917,63.3579],[27.1912,63.3649],[27.195,63.372],[27.2018,63.3797],[27.2015,63.3852],[27.1776,63.4038],[27.1676,63.4162],[27.16,63.4306],[27.1611,63.4435],[27.1776,63.4524],[27.1667,63.465],[27.1655,63.4791],[27.1705,63.4936],[27.1776,63.5074],[27.1511,63.5198],[27.1158,63.528],[27.0234,63.5389],[27.0116,63.5366],[27.0072,63.5242],[27.0128,63.5148],[27.0393,63.5042],[27.0475,63.4933],[27.0116,63.4912],[26.9792,63.4933],[26.9819,63.5033],[26.9783,63.5109],[26.9698,63.5168],[26.9589,63.5212],[26.9719,63.5392],[26.9527,63.5471],[26.8971,63.5486],[26.9006,63.5519],[26.903,63.5554],[26.9062,63.5589],[26.9115,63.5622],[26.8847,63.5807],[26.8774,63.591],[26.8936,63.5957],[26.9127,63.5948],[26.928,63.5916],[26.9415,63.5842],[26.9554,63.5716],[26.973,63.5592],[26.9886,63.5592],[27.0039,63.5645],[27.0201,63.5678],[27.0354,63.5663],[27.044,63.5616],[27.0578,63.5448],[27.0719,63.5386],[27.0905,63.5401],[27.1226,63.5486],[27.129,63.5516],[27.1388,63.5604],[27.1467,63.5622],[27.1494,63.5604],[27.1529,63.5519],[27.1567,63.5486],[27.1853,63.5333],[27.197,63.5183],[27.1973,63.4992],[27.1909,63.4727],[27.2079,63.47],[27.2268,63.4633],[27.2603,63.445],[27.2727,63.4335],[27.2795,63.4209],[27.2868,63.3903],[27.26,63.405],[27.2374,63.4335],[27.2121,63.4488],[27.1776,63.4244],[27.2462,63.3903],[27.2745,63.3691],[27.2742,63.3426],[27.2939,63.337],[27.3074,63.3387],[27.3186,63.3467],[27.3316,63.3599],[27.3416,63.3661],[27.3542,63.3702],[27.3654,63.3691],[27.3704,63.3599],[27.3678,63.3532],[27.3622,63.344],[27.3572,63.3334],[27.3557,63.3214],[27.3536,63.3161],[27.3489,63.3096],[27.3481,63.304],[27.3557,63.3014],[27.3645,63.3019],[27.3713,63.304],[27.3775,63.3081],[27.3834,63.3152],[27.3957,63.3025],[27.384,63.2943],[27.3616,63.2893],[27.3419,63.2878],[27.3354,63.281],[27.3216,63.2493],[27.308,63.2392],[27.3628,63.2122],[27.3219,63.1983],[27.3472,63.1986],[27.3589,63.1966],[27.3704,63.1916],[27.3466,63.1854],[27.3342,63.1839],[27.3219,63.1848],[27.3348,63.1807],[27.3483,63.1783],[27.3622,63.1774],[27.3766,63.178],[27.3766,63.1712],[27.3557,63.1671],[27.3404,63.1589],[27.3224,63.1551],[27.2945,63.1648],[27.2547,63.1854],[27.233,63.1871],[27.2188,63.1712],[27.2371,63.168],[27.2453,63.1592],[27.2512,63.148],[27.2603,63.1371],[27.2721,63.1321],[27.3012,63.1239],[27.308,63.1165],[27.2998,63.1171],[27.2824,63.1159],[27.2742,63.1165],[27.2742,63.1097],[27.3289,63.1038],[27.356,63.0962],[27.3766,63.0818],[27.3651,63.0794],[27.3533,63.0806],[27.3286,63.0885],[27.351,63.0453],[27.4002,63.0129],[27.4602,62.9929],[27.5141,62.9861],[27.5621,62.9861],[27.5756,62.9829],[27.5885,62.977],[27.6027,62.9728],[27.6171,62.9731],[27.6298,62.9793],[27.6303,62.992],[27.5877,63.0161],[27.5756,63.0332],[27.6206,63.022],[27.6401,63.0126],[27.6433,62.9999],[27.6645,62.9937],[27.676,62.9814],[27.6848,62.9661],[27.698,62.9514],[27.7184,62.9405],[27.7449,62.9328],[27.7719,62.9313],[27.794,62.9384],[27.7987,62.9484],[27.812,62.9646],[27.8164,62.9796],[27.7946,62.9861],[27.7808,62.984],[27.7675,62.9802],[27.756,62.9796],[27.7463,62.9861],[27.7419,62.9973],[27.7463,63.0058],[27.7675,63.0202],[27.7257,63.0441],[27.7251,63.0544],[27.7219,63.0617],[27.7157,63.0662],[27.7054,63.0679],[27.7213,63.0856],[27.7404,63.0985],[27.7572,63.0994],[27.7675,63.0818],[27.7737,63.0818],[27.7819,63.0944],[27.7981,63.1056],[27.8167,63.1135],[27.832,63.1165],[27.8491,63.11],[27.8526,63.0815],[27.87,63.0756],[27.87,63.0679],[27.8544,63.0662],[27.8391,63.0588],[27.827,63.0464],[27.822,63.0302],[27.8308,63.0214],[27.8508,63.0114],[27.8735,63.0032],[27.8903,62.9999],[27.9118,63.0046],[27.9224,63.0167],[27.9282,63.0314],[27.935,63.0441],[27.95,63.0458],[28.011,63.0438],[28.0274,63.0408],[28.0354,63.0252],[28.0634,63.0099],[28.0975,62.9982],[28.1237,62.9934],[28.1864,62.9917],[28.2164,62.9973],[28.2335,63.0141],[28.2194,63.0141],[28.2194,63.0202],[28.2768,63.0432],[28.295,63.0476],[28.3056,63.0473],[28.3256,63.042],[28.3362,63.0408],[28.3454,63.0429],[28.3557,63.047],[28.3668,63.0497],[28.3769,63.0476],[28.3839,63.0238],[28.3771,63.0208],[28.3627,63.0196],[28.3353,63.0202],[28.3021,63.0311],[28.2844,63.0297],[28.2671,63.0141],[28.2812,63.0152],[28.2888,63.0108],[28.2938,63.0043],[28.3012,62.9999],[28.3489,62.9934],[28.3489,62.9861],[28.2774,62.9861],[28.24,62.9908],[28.2267,62.9876],[28.2335,62.9731],[28.22,62.967],[28.2035,62.9649],[28.1743,62.9658],[28.1623,62.964],[28.1237,62.9514],[28.1237,62.9452],[28.1852,62.9452],[28.1696,62.9296],[28.1349,62.9057],[28.1237,62.8898],[28.1561,62.8878],[28.1923,62.881],[28.2253,62.8683],[28.2465,62.8489],[28.2191,62.8495],[28.1305,62.8416],[28.1369,62.8389],[28.1502,62.8315],[28.1573,62.8292],[28.1525,62.8207],[28.147,62.8139],[28.1305,62.8012],[28.147,62.7995],[28.1646,62.7933],[28.1793,62.7833],[28.1852,62.7703],[28.1893,62.753],[28.2008,62.7382],[28.2161,62.727],[28.2335,62.7194],[28.2229,62.7182],[28.2135,62.7141],[28.2055,62.707],[28.1988,62.6982],[28.2152,62.697],[28.2306,62.7061],[28.247,62.7129],[28.2671,62.7056],[28.2759,62.6932],[28.2747,62.6826],[28.2712,62.6711],[28.2738,62.6573],[28.2335,62.6508],[28.2335,62.6434],[28.3353,62.6293],[28.406,62.6002],[28.4216,62.5958],[28.4331,62.5937],[28.4867,62.574],[28.5346,62.5746],[28.562,62.5713],[28.6209,62.5569],[28.6512,62.5543],[28.6315,62.5484],[28.6232,62.5472],[28.6232,62.541],[28.6427,62.5357],[28.6544,62.5269],[28.6718,62.5057],[28.6986,62.4824],[28.7145,62.4727],[28.7327,62.4648],[28.892,62.4265],[28.912,62.4106],[28.9464,62.4068],[28.96,62.3994],[28.9662,62.3829],[28.9344,62.3871],[28.9005,62.3982],[28.867,62.405],[28.8364,62.3965],[28.8523,62.3853],[28.8879,62.3688],[28.8976,62.3556],[28.877,62.3579],[28.8216,62.3762],[28.7937,62.3938],[28.7801,62.3944],[28.7536,62.3903],[28.7398,62.3927],[28.7065,62.4106],[28.6073,62.4191],[28.5861,62.4277],[28.5644,62.4536],[28.547,62.4671],[28.5279,62.4721],[28.5246,62.4857],[28.5049,62.4954],[28.459,62.5057],[28.5158,62.5098],[28.5432,62.5086],[28.5688,62.4995],[28.5761,62.4942],[28.5873,62.4833],[28.5967,62.4783],[28.6256,62.4707],[28.6397,62.4698],[28.6512,62.4721],[28.607,62.5077],[28.5111,62.5607],[28.4316,62.5684],[28.4125,62.5769],[28.3763,62.5981],[28.3565,62.6025],[28.3565,62.5958],[28.3621,62.5943],[28.3769,62.5884],[28.358,62.569],[28.3274,62.5707],[28.2941,62.5793],[28.2671,62.5822],[28.2509,62.5734],[28.2052,62.5275],[28.2152,62.5178],[28.2141,62.5098],[28.2085,62.501],[28.2026,62.4765],[28.1955,62.4698],[28.1849,62.4665],[28.1708,62.4648],[28.1708,62.4606],[28.1726,62.4574],[28.1779,62.4518],[28.1743,62.4509],[28.1717,62.4506],[28.1705,62.4495],[28.1708,62.4448],[28.1861,62.4418],[28.2023,62.4271],[28.2194,62.4239],[28.2002,62.418],[28.1732,62.4188],[28.1461,62.4244],[28.1272,62.4345],[28.1087,62.4409],[28.0872,62.4397],[28.0678,62.4421],[28.0554,62.4592],[28.0754,62.4604],[28.0857,62.4592],[28.0931,62.4554],[28.0981,62.4551],[28.1237,62.4648],[28.1169,62.4721],[28.1293,62.4771],[28.1355,62.4786],[28.1443,62.4783],[28.1346,62.4883],[28.1346,62.5022],[28.142,62.5145],[28.1546,62.5201],[28.1552,62.5239],[28.1169,62.5472],[28.1287,62.5551],[28.1263,62.5613],[28.1193,62.5672],[28.1169,62.5746],[28.1211,62.5831],[28.1375,62.6025],[28.1113,62.6087],[28.0775,62.6355],[28.0554,62.6434],[28.0566,62.6529],[28.0507,62.6588],[28.0401,62.6623],[28.0274,62.6641],[28.0466,62.6764],[28.0716,62.6741],[28.0984,62.6667],[28.1237,62.6641],[28.1119,62.6714],[28.076,62.6844],[28.0804,62.7067],[28.0566,62.7153],[28.0245,62.7179],[28.0036,62.7223],[27.9998,62.73],[28.0004,62.7488],[27.9968,62.7565],[27.9848,62.7636],[27.9692,62.7683],[27.9521,62.7694],[27.9383,62.7671],[27.9212,62.7553],[27.9065,62.7394],[27.8897,62.7253],[27.8664,62.7194],[27.8146,62.7144],[27.789,62.7076],[27.7675,62.6982],[27.7761,62.6961],[27.779,62.6941],[27.7816,62.6905],[27.7878,62.6844],[27.7784,62.6832],[27.7669,62.6802],[27.7572,62.6752],[27.7499,62.6596],[27.7413,62.6558],[27.7189,62.6508],[27.7769,62.627],[27.794,62.6231],[27.8108,62.6261],[27.8267,62.6334],[27.8438,62.637],[27.8632,62.6293],[27.8538,62.624],[27.8296,62.6064],[27.822,62.6025],[27.812,62.6061],[27.8087,62.6128],[27.8067,62.6196],[27.8014,62.6231],[27.7958,62.6223],[27.792,62.6202],[27.7843,62.6125],[27.7769,62.609],[27.7711,62.6105],[27.7658,62.6137],[27.7602,62.6155],[27.7481,62.6173],[27.7254,62.6231],[27.7122,62.6231],[27.7178,62.6196],[27.7269,62.6122],[27.7328,62.6093],[27.7307,62.6049],[27.7278,62.5928],[27.7257,62.5884],[27.7351,62.5849],[27.7419,62.5852],[27.7484,62.5872],[27.7755,62.5893],[27.779,62.5875],[27.799,62.574],[27.8108,62.5625],[27.8179,62.5504],[27.8152,62.541],[27.8152,62.5337],[27.8323,62.5307],[27.8538,62.5216],[27.875,62.5101],[27.8903,62.4995],[27.9012,62.4854],[27.8985,62.4736],[27.887,62.463],[27.87,62.4518],[27.8782,62.4418],[27.8923,62.4327],[27.91,62.4262],[27.9483,62.4203],[27.9868,62.4059],[28.0071,62.4038],[28.0174,62.4068],[28.0224,62.4109],[28.0248,62.415],[28.0369,62.4274],[28.0436,62.4309],[28.0519,62.4277],[28.0551,62.4215],[28.0563,62.4138],[28.0551,62.4062],[28.0466,62.3924],[28.0478,62.3876],[28.0501,62.3832],[28.048,62.3768],[28.0345,62.3653],[27.9948,62.3385],[27.9865,62.3249],[27.9777,62.3152],[27.9371,62.3002],[27.925,62.2867],[27.9394,62.2584],[27.9851,62.2455],[28.076,62.2319],[28.0731,62.2358],[28.0692,62.2458],[28.0975,62.2496],[28.1499,62.2461],[28.1779,62.2525],[28.1708,62.2581],[28.1626,62.2625],[28.1534,62.2655],[28.1443,62.2667],[28.1443,62.2731],[28.1905,62.2702],[28.2052,62.2667],[28.2532,62.2478],[28.2738,62.2458],[28.2991,62.2493],[28.252,62.2675],[28.2335,62.2805],[28.3077,62.2932],[28.3421,62.2943],[28.3769,62.2805],[28.3607,62.2734],[28.3495,62.2649],[28.3483,62.254],[28.3633,62.2396],[28.3816,62.2343],[28.4142,62.2419],[28.4437,62.2299],[28.4905,62.2246],[28.5005,62.2222],[28.5081,62.2072],[28.5267,62.2019],[28.5491,62.204],[28.5688,62.2116],[28.5661,62.2172],[28.5626,62.2319],[28.5829,62.2234],[28.5891,62.2184],[28.5838,62.2322],[28.575,62.2464],[28.5691,62.2593],[28.572,62.2699],[28.5808,62.2728],[28.6138,62.2667],[28.6221,62.2693],[28.6194,62.2752],[28.6132,62.282],[28.6103,62.2867],[28.6182,62.307],[28.6212,62.3076],[28.625,62.2993],[28.6344,62.294],[28.6615,62.294],[28.6709,62.297],[28.6783,62.302],[28.6862,62.3052],[28.6992,62.3008],[28.6853,62.3146],[28.7157,62.3144],[28.7289,62.3182],[28.7401,62.3282],[28.693,62.3417],[28.6862,62.3476],[28.6544,62.3632],[28.6444,62.3768],[28.7271,62.3556],[28.6559,62.3829],[28.6377,62.3965],[28.6609,62.3994],[28.6933,62.3941],[28.7254,62.3853],[28.7469,62.3768],[28.748,62.3732],[28.7469,62.3685],[28.7463,62.3641],[28.7504,62.3623],[28.7551,62.3612],[28.774,62.3523],[28.7996,62.3438],[28.8107,62.3382],[28.8219,62.3282],[28.8107,62.3247],[28.7863,62.3223],[28.7775,62.3179],[28.7792,62.3138],[28.7913,62.294],[28.8001,62.2911],[28.8063,62.2849],[28.8113,62.2776],[28.8158,62.2731],[28.8252,62.269],[28.8467,62.2637],[28.8567,62.2599],[28.9255,62.2184],[28.9582,62.1913],[28.9803,62.1636],[28.9568,62.1589],[28.9329,62.1719],[28.9088,62.1892],[28.8837,62.1978],[28.8576,62.2031],[28.8367,62.2157],[28.8172,62.2316],[28.7946,62.2458],[28.7878,62.2396],[28.7913,62.2352],[28.7946,62.2337],[28.7981,62.2334],[28.8022,62.2319],[28.8025,62.2255],[28.8393,62.1945],[28.8564,62.1845],[28.932,62.1636],[28.8955,62.1577],[28.6853,62.2046],[28.6992,62.1907],[28.7236,62.1842],[28.7742,62.1781],[28.776,62.1751],[28.774,62.1701],[28.774,62.1657],[28.781,62.1636],[28.8025,62.1648],[28.8084,62.1636],[28.8275,62.1542],[28.8349,62.1472],[28.8425,62.1357],[28.8284,62.1363],[28.8022,62.1427],[28.7878,62.1433],[28.7913,62.1389],[28.7928,62.138],[28.7946,62.1357],[28.7787,62.1307],[28.7704,62.1292],[28.7604,62.1295],[28.811,62.1154],[28.8737,62.1189],[29.028,62.1501],[29.0324,62.153],[29.0374,62.1575],[29.0412,62.1619],[29.0418,62.1636],[29.0586,62.1633],[29.0883,62.1533],[29.1036,62.1501],[29.2267,62.1575],[29.1881,62.1786],[29.1039,62.1869],[29.0621,62.1978],[29.0786,62.2043],[29.098,62.206],[29.1375,62.2046],[29.1575,62.2004],[29.1949,62.1822],[29.2099,62.1781],[29.2405,62.1781],[29.2464,62.1763],[29.2555,62.1722],[29.3023,62.1604],[29.3221,62.1589],[29.3433,62.1636],[29.3165,62.1701],[29.3132,62.1769],[29.3271,62.1822],[29.3533,62.1842],[29.3665,62.1875],[29.3686,62.1951],[29.3671,62.2043],[29.37,62.2116],[29.378,62.2154],[29.3874,62.2175],[29.4115,62.2184],[29.4115,62.2257],[29.2747,62.2458],[29.2838,62.2502],[29.2938,62.2525],[29.3041,62.2531],[29.3156,62.2525],[29.3115,62.2608],[29.3056,62.2667],[29.2976,62.2708],[29.2882,62.2731],[29.2953,62.2758],[29.3082,62.2837],[29.3156,62.2867],[29.3044,62.3035],[29.2976,62.3096],[29.2882,62.3146],[29.2929,62.3194],[29.3017,62.335],[29.2932,62.3414],[29.2841,62.352],[29.2773,62.3635],[29.2747,62.3732],[29.2685,62.3865],[29.2541,62.395],[29.2205,62.4038],[29.2205,62.4106],[29.2423,62.4094],[29.2962,62.4127],[29.3156,62.4177],[29.325,62.425],[29.3318,62.4359],[29.3356,62.4483],[29.3353,62.4592],[29.3191,62.4892],[29.2635,62.5328],[29.2405,62.561],[29.2317,62.5566],[29.2237,62.5548],[29.2061,62.5543],[29.2143,62.5672],[29.2258,62.5707],[29.2396,62.571],[29.2546,62.5746],[29.2638,62.5825],[29.2755,62.6028],[29.2814,62.6093],[29.3085,62.6146],[29.3397,62.6087],[29.3659,62.5943],[29.3774,62.5746],[29.3644,62.5787],[29.3509,62.5816],[29.3365,62.5828],[29.3224,62.5822],[29.3639,62.541],[29.3597,62.5281],[29.3674,62.5169],[29.3818,62.5089],[29.398,62.5057],[29.3898,62.5269],[29.3889,62.5339],[29.3918,62.541],[29.4018,62.5495],[29.4127,62.5519],[29.4192,62.5481],[29.4148,62.5375],[29.4115,62.5231],[29.4242,62.5142],[29.4533,62.5057],[29.4583,62.5036],[29.4737,62.4995],[29.4757,62.4939],[29.4737,62.4871],[29.4728,62.481],[29.4916,62.4757],[29.5449,62.4483],[29.5808,62.4397],[29.5973,62.4312],[29.6058,62.4203],[29.6114,62.4091],[29.6185,62.4],[29.6467,62.3927],[29.6623,62.3859],[29.6779,62.3829],[29.6927,62.3903],[29.6774,62.4041],[29.6794,62.4174],[29.6771,62.4274],[29.6264,62.4347],[29.602,62.4436],[29.5811,62.4568],[29.5693,62.4721],[29.6076,62.4671],[29.6244,62.4668],[29.6314,62.4754],[29.6238,62.4854],[29.5879,62.4936],[29.5761,62.4995],[29.5717,62.5266],[29.5917,62.5434],[29.6232,62.5519],[29.6517,62.5543],[29.6326,62.5649],[29.6173,62.576],[29.5896,62.6025],[29.6138,62.6143],[29.642,62.6237],[29.6718,62.6293],[29.6994,62.6293],[29.6968,62.6258],[29.6927,62.6231],[29.7212,62.6078],[29.8001,62.5763],[29.8163,62.5575],[29.811,62.5357],[29.8095,62.5337],[29.8078,62.5348],[29.8045,62.5337],[29.8025,62.5313],[29.8025,62.5275],[29.8075,62.5225],[29.8134,62.5216],[29.8192,62.5216],[29.8231,62.5201],[29.8319,62.5089],[29.8637,62.4783],[29.8946,62.4412],[29.9046,62.4445],[29.927,62.4486],[29.9473,62.4489],[29.9493,62.4412],[29.9193,62.415],[29.9114,62.4106],[29.8964,62.4118],[29.8696,62.423],[29.8504,62.4239],[29.8504,62.4177],[29.856,62.4062],[29.8481,62.3938],[29.8328,62.385],[29.8163,62.3829],[29.8301,62.3697],[29.8295,62.3612],[29.8248,62.3544],[29.8169,62.3523],[29.7907,62.367],[29.7733,62.3667],[29.7412,62.3556],[29.7412,62.3494],[29.7512,62.3503],[29.7595,62.3491],[29.7674,62.3461],[29.7754,62.3417],[29.7721,62.3382],[29.7707,62.335],[29.768,62.3282],[29.8354,62.3152],[29.8566,62.3076],[29.7854,62.3076],[29.7766,62.3102],[29.7557,62.3202],[29.7474,62.3214],[29.7424,62.317],[29.7412,62.3038],[29.7377,62.3008],[29.7221,62.3014],[29.7136,62.3032],[29.6753,62.3223],[29.657,62.3261],[29.6394,62.3244],[29.6238,62.3146],[29.6397,62.3049],[29.6544,62.2937],[29.6576,62.2843],[29.6376,62.2805],[29.6264,62.2837],[29.6058,62.2976],[29.5935,62.3008],[29.5419,62.3008],[29.5419,62.294],[29.5596,62.2873],[29.5699,62.2755],[29.5755,62.2649],[29.5799,62.2599],[29.5902,62.2561],[29.6032,62.2461],[29.6276,62.2222],[29.6547,62.2066],[29.6971,62.1931],[29.7398,62.186],[29.768,62.191],[29.7618,62.2046],[29.7686,62.2093],[29.7707,62.2099],[29.7718,62.211],[29.7754,62.2184],[29.8175,62.2084],[29.8378,62.1998],[29.8722,62.1754],[29.8955,62.1707],[29.975,62.171],[29.9838,62.1672],[30.0035,62.1536],[30.0197,62.1374],[30.0203,62.1318],[30.0079,62.1295],[29.9997,62.1268],[29.9823,62.1142],[29.9735,62.1092],[29.9488,62.1107],[29.9393,62.1092],[29.934,62.1027],[29.9293,62.0921],[29.9226,62.0842],[29.912,62.085],[29.8575,62.1239],[29.8328,62.1316],[29.8254,62.1357],[29.8128,62.1466],[29.801,62.1533],[29.7892,62.1536],[29.768,62.1501],[29.6662,62.1575],[29.6824,62.1457],[29.6994,62.1357],[29.685,62.123],[29.6673,62.1295],[29.6485,62.1427],[29.6308,62.1501],[29.6058,62.1516],[29.5946,62.1536],[29.5835,62.1575],[29.574,62.1636],[29.5676,62.1707],[29.5605,62.1763],[29.5487,62.1781],[29.5564,62.1707],[29.544,62.1642],[29.5308,62.1645],[29.5181,62.1695],[29.5081,62.1781],[29.5222,62.1651],[29.5305,62.1542],[29.5343,62.1421],[29.5352,62.1263],[29.5275,62.1139],[29.514,62.1018],[29.5072,62.0906],[29.5216,62.0812],[29.4966,62.0747],[29.4704,62.0836],[29.4439,62.0962],[29.4177,62.1024],[29.4366,62.0768],[29.461,62.0585],[29.5216,62.0341],[29.5166,62.0288],[29.5081,62.0129],[29.529,62.0076],[29.5664,61.9841],[29.607,61.9738],[29.6506,61.9535],[29.6724,61.9514],[29.6618,61.9599],[29.6379,61.9685],[29.6276,61.9749],[29.6217,61.9841],[29.6223,61.9903],[29.6238,61.9958],[29.6208,62.0029],[29.607,62.0165],[29.6335,62.0323],[29.6432,62.035],[29.6538,62.0356],[29.6662,62.0341],[29.7018,62.0153],[29.7612,61.949],[29.8025,61.9305],[29.7948,61.919],[29.7674,61.9131],[29.7548,61.9031],[29.7624,61.8981],[29.7707,61.894],[29.7798,61.8911],[29.7889,61.8893],[29.7748,61.8757],[29.7518,61.8752],[29.7271,61.8816],[29.7071,61.8893],[29.7412,61.8416],[29.7186,61.8189],[29.6906,61.8339],[29.6603,61.854],[29.6314,61.8484],[29.6456,61.8443],[29.6603,61.8425],[29.6744,61.8381],[29.6859,61.8281],[29.6697,61.8284],[29.6618,61.8225],[29.6576,61.8139],[29.6517,61.8075],[29.6367,61.8001],[29.6258,61.7977],[29.567,61.801],[29.5364,61.7977],[29.5072,61.7904],[29.4798,61.7801],[29.5116,61.773],[29.5249,61.7665],[29.5278,61.7521],[29.5202,61.7418],[29.5081,61.743],[29.4937,61.7489],[29.4804,61.7521],[29.4704,61.7489],[29.4631,61.7412],[29.4498,61.7218],[29.4386,61.7183],[29.428,61.7271],[29.4115,61.7521],[29.4062,61.7448],[29.4004,61.7392],[29.393,61.7353],[29.3839,61.7324],[29.3853,61.7262],[29.3839,61.723],[29.3839,61.718],[29.4127,61.713],[29.4245,61.7083],[29.4321,61.6977],[29.4207,61.6971],[29.4104,61.6953],[29.4007,61.6918],[29.3909,61.6871],[29.3774,61.6844],[29.3288,61.6909],[29.302,61.6891],[29.2988,61.6838],[29.3291,61.6635],[29.3094,61.6464],[29.2982,61.6391],[29.285,61.6361],[29.2702,61.6355],[29.2576,61.6329],[29.2473,61.6264],[29.2405,61.6155],[29.2814,61.6155],[29.2635,61.6082],[29.2529,61.6017],[29.2414,61.5985],[29.2205,61.6014],[29.1649,61.6211],[29.1448,61.6226],[29.151,61.6185],[29.1525,61.6152],[29.1516,61.6088],[29.1404,61.6135],[29.1284,61.6158],[29.1163,61.6164],[29.1036,61.6155],[29.1036,61.6088],[29.1242,61.6014],[29.1048,61.5976],[29.0839,61.6035],[29.0627,61.6117],[29.0418,61.6155],[29.0539,61.6052],[29.0963,61.589],[29.1028,61.5837],[29.1072,61.5776],[29.1131,61.572],[29.1242,61.5678],[29.1033,61.562],[29.0598,61.577],[29.0418,61.5746],[29.0359,61.5796],[29.0289,61.5843],[29.0212,61.5876],[29.0041,61.5902],[29.0027,61.5929],[29.0036,61.597],[29.0006,61.6014],[28.9874,61.6093],[28.8149,61.6838],[28.7742,61.6903],[28.7336,61.6909],[28.7218,61.6894],[28.716,61.6835],[28.7127,61.6709],[28.7195,61.6514],[28.7189,61.6408],[28.7065,61.6361],[28.6998,61.6411],[28.6762,61.6641],[28.665,61.6709],[28.6677,61.6464],[28.6518,61.6388],[28.5967,61.6423],[28.5973,61.6379],[28.5985,61.635],[28.6035,61.6288],[28.6,61.622],[28.6029,61.6141],[28.6091,61.6064],[28.6173,61.6014],[28.6315,61.5993],[28.6562,61.607],[28.6718,61.6088],[28.6692,61.6158],[28.6677,61.6185],[28.665,61.6226],[28.7101,61.6152],[28.7271,61.6155],[28.748,61.6208],[28.7601,61.6214],[28.7966,61.6079],[28.8219,61.6023],[28.8158,61.6014],[28.8102,61.5923],[28.8219,61.584],[28.8411,61.5779],[28.8567,61.5746],[28.8393,61.5699],[28.8281,61.5734],[28.8084,61.589],[28.7907,61.5952],[28.7737,61.597],[28.7039,61.5929],[28.6853,61.589],[28.6718,61.5823],[28.6624,61.5696],[28.6668,61.5634],[28.6992,61.5543],[28.6927,61.5464],[28.6845,61.5411],[28.6753,61.539],[28.665,61.5399],[28.6745,61.5366],[28.6848,61.534],[28.6954,61.5331],[28.7065,61.5337],[28.6697,61.5187],[28.6583,61.5099],[28.675,61.5057],[28.6815,61.5087],[28.6839,61.5131],[28.688,61.514],[28.7071,61.4993],[28.7115,61.4945],[28.7118,61.4887],[28.7065,61.4792],[28.6703,61.4633],[28.5747,61.5001],[28.5346,61.499],[28.542,61.4916],[28.5502,61.4857],[28.5591,61.4816],[28.5688,61.4792],[28.5635,61.4645],[28.5685,61.4507],[28.5785,61.4392],[28.5891,61.4307],[28.5591,61.4045],[28.5052,61.3948],[28.3501,61.3986],[28.3433,61.3924],[28.3415,61.3744],[28.3468,61.3727],[28.3633,61.3691],[28.3913,61.3668],[28.4469,61.3727],[28.4731,61.3691],[28.4454,61.3491],[28.4178,61.3462],[28.3036,61.3638],[28.295,61.3618],[28.2983,61.353],[28.3094,61.345],[28.3454,61.3247],[28.3601,61.3244],[28.3872,61.3282],[28.4039,61.3262],[28.4363,61.3165],[28.4525,61.3141],[28.4828,61.32],[28.5267,61.3482],[28.5549,61.355],[28.5514,61.3474],[28.5517,61.3441],[28.5538,61.3412],[28.5549,61.3344],[28.5832,61.3485],[28.6135,61.3518],[28.6786,61.3482],[28.6695,61.3535],[28.6627,61.3594],[28.6568,61.3665],[28.6512,61.3756],[28.6692,61.3721],[28.6871,61.3633],[28.7348,61.3318],[28.7504,61.3253],[28.7672,61.3218],[28.7878,61.3209],[28.7957,61.305],[28.8667,61.2873],[28.884,61.2694],[28.879,61.2423],[28.8649,61.2264],[28.8434,61.2173],[28.7604,61.1972],[28.7475,61.1911],[28.7374,61.1846],[28.726,61.1796],[28.6954,61.1752],[28.6692,61.1654],[28.5891,61.1557],[28.5105,61.1266],[28.4831,61.1222],[28.4231,61.1192],[28.396,61.1128],[28.3695,61.1013],[28.3359,61.078],[28.3215,61.0739],[28.3089,61.0748],[28.2938,61.0783],[28.2785,61.0786],[28.2641,61.0707],[28.242,61.0642],[28.1272,61.0595],[28.0545,61.071],[28.0448,61.0745],[28.0419,61.0813],[28.0463,61.0866],[28.0554,61.0889],[28.066,61.0892]],[[28.5597,61.2414],[28.5688,61.232],[28.5814,61.2237],[28.5861,61.2214],[28.6047,61.2072],[28.6224,61.2025],[28.6418,61.2067],[28.6606,61.2173],[28.6718,61.2111],[28.6786,61.2184],[28.6589,61.2205],[28.6456,61.2287],[28.6335,61.2387],[28.6173,61.2458],[28.6041,61.242],[28.5655,61.2458],[28.5597,61.2414]],[[27.973,61.4792],[27.9553,61.4931],[27.9524,61.5013],[27.9592,61.5134],[27.9462,61.5275],[27.9327,61.526],[27.9197,61.5181],[27.9076,61.5134],[27.8455,61.5107],[27.8285,61.5134],[27.8234,61.5175],[27.8211,61.5296],[27.8152,61.5337],[27.8061,61.5349],[27.7772,61.5337],[27.7669,61.5361],[27.7481,61.544],[27.7396,61.5434],[27.7122,61.5337],[27.7181,61.521],[27.7184,61.5087],[27.7157,61.4951],[27.7295,61.4875],[27.7587,61.489],[27.7737,61.4792],[27.7513,61.4789],[27.7549,61.4707],[27.7713,61.4595],[27.7878,61.4513],[27.741,61.4495],[27.7178,61.451],[27.698,61.458],[27.7054,61.4648],[27.6922,61.4772],[27.673,61.4751],[27.6515,61.4681],[27.6298,61.4648],[27.6097,61.4698],[27.5774,61.4845],[27.5544,61.4854],[27.5423,61.4795],[27.5285,61.4798],[27.4999,61.4854],[27.4999,61.4792],[27.5482,61.4648],[27.5409,61.458],[27.7719,61.4383],[27.8014,61.4307],[27.7787,61.4227],[27.7337,61.4168],[27.7122,61.4027],[27.8176,61.4042],[27.8494,61.4104],[27.8726,61.4198],[27.9038,61.4369],[27.9197,61.4542],[27.897,61.4648],[27.8985,61.4725],[27.8973,61.4772],[27.8929,61.4807],[27.8835,61.4854],[27.9026,61.4878],[27.9515,61.4842],[27.973,61.4792]],[[27.7189,61.2732],[27.678,61.2873],[27.6824,61.3044],[27.658,61.3215],[27.6713,61.3344],[27.6542,61.34],[27.6459,61.3415],[27.6365,61.3412],[27.6398,61.345],[27.6418,61.3482],[27.6451,61.3515],[27.6501,61.355],[27.6501,61.3618],[27.6415,61.3641],[27.6386,61.3689],[27.6365,61.383],[27.6165,61.3892],[27.5497,61.3915],[27.5279,61.3892],[27.5341,61.4027],[27.5023,61.4071],[27.4528,61.4263],[27.4213,61.4307],[27.3887,61.4245],[27.3333,61.3989],[27.3007,61.3959],[27.3007,61.3892],[27.4119,61.3588],[27.4484,61.355],[27.5203,61.3553],[27.5559,61.3477],[27.5827,61.3282],[27.5241,61.3344],[27.467,61.348],[27.4523,61.3482],[27.4408,61.335],[27.4581,61.3209],[27.5173,61.2888],[27.5526,61.2838],[27.5688,61.28],[27.58,61.2729],[27.588,61.2664],[27.5971,61.2614],[27.613,61.2593],[27.6259,61.2632],[27.6471,61.2814],[27.6574,61.2873],[27.6698,61.2867],[27.7189,61.2732]],[[28.2691,61.3912],[28.29,61.3995],[28.2877,61.4162],[28.4216,61.4162],[28.4378,61.4183],[28.4869,61.4307],[28.5285,61.433],[28.5414,61.4369],[28.5335,61.4474],[28.5137,61.461],[28.5073,61.4722],[28.5043,61.4707],[28.5008,61.4707],[28.4955,61.4728],[28.4869,61.4792],[28.4937,61.4854],[28.4693,61.4895],[28.4616,61.4948],[28.459,61.5057],[28.4387,61.511],[28.4101,61.5128],[28.3889,61.5075],[28.3907,61.4916],[28.373,61.4928],[28.3651,61.4948],[28.3565,61.499],[28.3727,61.4745],[28.3769,61.4648],[28.3621,61.4519],[28.3427,61.446],[28.2944,61.4442],[28.2061,61.4578],[28.1852,61.4513],[28.2135,61.451],[28.2197,61.4421],[28.217,61.4277],[28.2194,61.4104],[28.24,61.3942],[28.2691,61.3912]],[[28.2256,61.5134],[28.2412,61.5128],[28.2553,61.5149],[28.2685,61.5196],[28.2809,61.5269],[28.2909,61.5125],[28.3044,61.516],[28.3183,61.5269],[28.3292,61.5337],[28.3312,61.5308],[28.3395,61.5246],[28.3512,61.5196],[28.3633,61.5196],[28.3654,61.5231],[28.3683,61.5302],[28.373,61.5369],[28.3804,61.5399],[28.3842,61.5434],[28.3836,61.5505],[28.3839,61.5578],[28.3907,61.5611],[28.3978,61.559],[28.416,61.5481],[28.4216,61.5434],[28.4325,61.5408],[28.4466,61.5475],[28.4593,61.5584],[28.4663,61.5678],[28.4719,61.574],[28.4731,61.5776],[28.4731,61.5823],[28.4546,61.587],[28.4304,61.5896],[28.3839,61.589],[28.3683,61.5837],[28.338,61.5652],[28.3253,61.5611],[28.2953,61.5596],[28.2665,61.5534],[28.2426,61.539],[28.2256,61.5134]],[[28.2927,61.6844],[28.2874,61.6694],[28.2738,61.6423],[28.2809,61.6408],[28.2933,61.6367],[28.3012,61.6361],[28.2947,61.6297],[28.2809,61.6088],[28.3109,61.6232],[28.3224,61.6314],[28.3292,61.6423],[28.3421,61.617],[28.3601,61.6079],[28.5414,61.6226],[28.5246,61.6435],[28.517,61.655],[28.5143,61.667],[28.5061,61.6765],[28.4672,61.6874],[28.4525,61.6977],[28.466,61.7021],[28.4943,61.7059],[28.5073,61.7112],[28.5005,61.718],[28.4755,61.723],[28.4519,61.72],[28.4048,61.705],[28.4048,61.6977],[28.4142,61.6953],[28.4213,61.6924],[28.4263,61.6882],[28.4316,61.6832],[28.4293,61.6762],[28.4278,61.6738],[28.4284,61.6715],[28.4316,61.6635],[28.4145,61.6573],[28.3983,61.6567],[28.3854,61.6615],[28.3769,61.6709],[28.3769,61.6771],[28.3836,61.71],[28.3839,61.718],[28.3695,61.7265],[28.3468,61.7309],[28.305,61.7324],[28.29,61.7292],[28.2815,61.7206],[28.2812,61.7085],[28.2912,61.6941],[28.2927,61.6844]],[[28.8705,61.9031],[28.8758,61.9052],[28.8899,61.914],[28.8976,61.9167],[28.884,61.9031],[28.8964,61.8996],[28.9099,61.8981],[28.9205,61.8949],[28.925,61.8863],[28.9255,61.876],[28.9267,61.8675],[28.9288,61.861],[28.932,61.8557],[28.9409,61.8478],[28.9609,61.8381],[28.9694,61.8316],[28.975,61.8228],[28.9782,61.8142],[28.9832,61.8066],[28.9938,61.8007],[28.9865,61.793],[29.0077,61.7801],[29.0227,61.7863],[29.0374,61.786],[29.0692,61.7801],[29.0966,61.781],[29.1116,61.7795],[29.1242,61.7733],[29.1169,61.7665],[29.1266,61.7624],[29.1337,61.7633],[29.1448,61.7665],[29.1584,61.7668],[29.1584,61.7665],[29.1634,61.7642],[29.1669,61.7548],[29.1722,61.7521],[29.1796,61.753],[29.1905,61.7583],[29.2075,61.7615],[29.2202,61.7668],[29.2299,61.7745],[29.234,61.7836],[29.2287,61.7883],[29.2023,61.8004],[29.1925,61.8075],[29.2093,61.8125],[29.2246,61.8119],[29.2546,61.8075],[29.2679,61.8083],[29.2776,61.811],[29.3017,61.821],[29.2929,61.8354],[29.2938,61.8469],[29.3012,61.854],[29.3126,61.8548],[29.3073,61.8587],[29.3017,61.8622],[29.3091,61.8696],[29.2917,61.8755],[29.3238,61.9149],[29.3156,61.9305],[29.3433,61.944],[29.3244,61.957],[29.3309,61.9694],[29.35,61.9776],[29.37,61.9788],[29.4121,61.9676],[29.4298,61.9596],[29.4321,61.9514],[29.4321,61.944],[29.514,61.9379],[29.514,61.944],[29.4828,61.9585],[29.4707,61.9673],[29.4595,61.9788],[29.4542,61.9879],[29.4466,62.01],[29.4389,62.0197],[29.4642,62.0285],[29.4495,62.0421],[29.4012,62.0647],[29.3789,62.0906],[29.3697,62.1056],[29.3639,62.1227],[29.3556,62.1277],[29.3453,62.1289],[29.3341,62.1286],[29.3224,62.1295],[29.2941,62.1377],[29.2808,62.143],[29.2682,62.1501],[29.2926,62.1201],[29.2994,62.1027],[29.285,62.0948],[29.2776,62.0718],[29.267,62.0556],[29.2479,62.0477],[29.2806,62.0321],[29.2882,62.0265],[29.292,62.0179],[29.2923,61.9964],[29.295,61.985],[29.2803,61.9876],[29.2626,62.0029],[29.2473,62.0067],[29.2196,62.0085],[29.2084,62.0123],[29.1999,62.0197],[29.2078,62.0238],[29.2267,62.0403],[29.1584,62.0812],[29.1737,62.0836],[29.2411,62.075],[29.2473,62.08],[29.2352,62.1071],[29.2373,62.1198],[29.2264,62.1342],[29.1831,62.1413],[29.1419,62.1368],[29.1381,62.1165],[29.1239,62.1092],[29.1131,62.1112],[29.1025,62.1177],[29.0901,62.1227],[29.0427,62.1224],[29.0277,62.1263],[29.0036,62.1289],[28.9765,62.1215],[28.932,62.1024],[28.8776,62.0912],[28.6992,62.075],[28.6992,62.0683],[28.7065,62.0612],[28.6936,62.0606],[28.6786,62.055],[28.6786,62.0341],[28.6883,62.0229],[28.7442,61.9861],[28.7663,61.9785],[28.8281,61.9676],[28.8767,61.9379],[28.8767,61.9305],[28.8655,61.9299],[28.8455,61.9252],[28.8358,61.924],[28.8272,61.922],[28.8222,61.917],[28.8213,61.912],[28.8255,61.9099],[28.8581,61.9037],[28.8705,61.9031]],[[27.8152,62.486],[27.8096,62.4907],[27.8025,62.4983],[27.7967,62.5075],[27.7899,62.5286],[27.7802,62.5313],[27.769,62.5304],[27.7602,62.5307],[27.7095,62.5501],[27.6833,62.5572],[27.6574,62.561],[27.6886,62.546],[27.7293,62.5334],[27.7646,62.5178],[27.7805,62.4927],[27.7872,62.4845],[27.7952,62.4795],[27.8046,62.4774],[27.8152,62.4783],[27.8152,62.486]],[[27.822,62.9316],[27.8299,62.9202],[27.8346,62.9154],[27.842,62.911],[27.8296,62.9016],[27.8343,62.8884],[27.8664,62.8501],[27.8691,62.8439],[27.8711,62.8233],[27.8747,62.8177],[27.8811,62.8151],[27.8903,62.8148],[27.8835,62.8292],[27.9165,62.8251],[27.9671,62.7962],[28.0419,62.7391],[28.0519,62.7344],[28.0613,62.7362],[28.0822,62.7459],[28.0716,62.7456],[28.0613,62.7471],[28.051,62.7497],[28.0419,62.7532],[28.0757,62.7624],[28.1378,62.7432],[28.1652,62.7459],[28.1411,62.7641],[28.1119,62.7744],[28.0798,62.7789],[28.048,62.78],[28.0595,62.7995],[28.0784,62.8098],[28.1237,62.8221],[28.1237,62.8292],[28.0589,62.8301],[28.0419,62.8354],[28.0595,62.8416],[28.0987,62.8439],[28.1169,62.8489],[28.1169,62.8557],[28.0807,62.8548],[28.0634,62.8569],[28.048,62.8633],[28.0678,62.8695],[28.1105,62.8698],[28.1305,62.8769],[28.1057,62.8863],[28.0557,62.8781],[28.0345,62.8837],[28.0448,62.8907],[28.0595,62.8931],[28.0707,62.8931],[28.0822,62.8969],[28.0519,62.8966],[28.0386,62.9004],[28.0274,62.911],[28.0433,62.916],[28.0748,62.9187],[28.0896,62.9249],[28.0748,62.9352],[28.0657,62.9661],[28.0554,62.9793],[28.0339,62.9858],[28.013,62.9808],[27.9957,62.9684],[27.9865,62.9514],[27.9933,62.9514],[27.9933,62.9452],[27.9824,62.9455],[27.9612,62.9508],[27.9518,62.9514],[27.9471,62.9493],[27.9362,62.9408],[27.9321,62.9384],[27.9041,62.9343],[27.8932,62.9366],[27.8835,62.9452],[27.9003,62.9531],[27.9176,62.9587],[27.8988,62.9673],[27.8788,62.9714],[27.8605,62.9675],[27.8494,62.9514],[27.8635,62.9434],[27.8882,62.9222],[27.9041,62.9178],[27.8817,62.9098],[27.8617,62.9151],[27.8426,62.9252],[27.822,62.9316]]]}}
