{"type":"Feature","properties":{"id":1039,"name":"Lake Winnipegosis","featurecla":"Lake","scalerank":2,"wikidataid":"Q934638","source":"Natural Earth 5.2.0-pre ne_10m_lakes (public domain)"},"geometry":{"type":"Polygon","coordinates":[[[-99.6097,51.6757],[-99.6047,51.6687],[-99.6047,51.6275],[-99.6106,51.6172],[-99.6243,51.6148],[-99.6518,51.6169],[-99.6571,51.6148],[-99.6605,51.606],[-99.6655,51.6039],[-99.6735,51.6048],[-99.6929,51.6107],[-99.6957,51.6142],[-99.7052,51.621],[-99.7154,51.623],[-99.7295,51.5915],[-99.7518,51.5789],[-99.779,51.5759],[-99.8027,51.5827],[-99.8037,51.5865],[-99.8019,51.5998],[-99.8027,51.6039],[-99.8069,51.6057],[-99.819,51.6086],[-99.8233,51.6107],[-99.8542,51.6413],[-99.8755,51.656],[-99.9216,51.676],[-99.9406,51.6928],[-99.9459,51.7078],[-99.9406,51.7649],[-99.944,51.7711],[-99.9584,51.7864],[-99.9603,51.7958],[-99.9527,51.8088],[-99.9397,51.8123],[-99.9251,51.8094],[-99.9126,51.8026],[-99.9112,51.8073],[-99.9094,51.81],[-99.9073,51.8123],[-99.9051,51.8161],[-99.9095,51.8279],[-99.9044,51.8368],[-99.8858,51.8509],[-99.8917,51.8577],[-99.9089,51.87],[-99.9126,51.8738],[-99.9141,51.8827],[-99.9179,51.8936],[-99.9269,51.9118],[-99.9325,51.9177],[-99.9388,51.9218],[-99.944,51.9265],[-99.946,51.936],[-99.944,51.9448],[-99.9351,51.961],[-99.9331,51.9704],[-99.9435,52.0057],[-99.9688,52.0402],[-100.0003,52.0543],[-100.0293,52.0284],[-100.0242,52.0198],[-100.022,52.0113],[-100.0218,51.991],[-100.0186,51.9857],[-100.0115,51.981],[-100.0046,51.9745],[-100.0014,51.9633],[-100.0014,51.9221],[-99.9971,51.9106],[-99.9783,51.9036],[-99.974,51.895],[-99.974,51.8606],[-99.9718,51.8532],[-99.9681,51.8447],[-99.9665,51.8359],[-99.9709,51.8267],[-99.993,51.8176],[-100.0018,51.8103],[-99.998,51.7991],[-99.9852,51.7858],[-99.9819,51.7776],[-99.9808,51.7649],[-99.9837,51.7443],[-99.9925,51.7267],[-100.0077,51.7152],[-100.0293,51.7137],[-100.0466,51.7234],[-100.0499,51.7396],[-100.048,51.7602],[-100.0497,51.782],[-100.0532,51.7867],[-100.0653,51.7914],[-100.0703,51.7958],[-100.071,51.8003],[-100.0692,51.8117],[-100.0703,51.8161],[-100.0739,51.8188],[-100.0862,51.825],[-100.0907,51.83],[-100.092,51.8362],[-100.0895,51.8465],[-100.0907,51.8509],[-100.1333,51.8997],[-100.1453,51.9186],[-100.1252,51.9262],[-100.1218,51.9404],[-100.1216,51.9574],[-100.1112,51.9739],[-100.1225,51.9866],[-100.1533,52.0107],[-100.1596,52.0251],[-100.1533,52.0708],[-100.1516,52.1326],[-100.1547,52.1659],[-100.1583,52.1788],[-100.1733,52.2068],[-100.1531,52.225],[-100.1578,52.2459],[-100.172,52.2668],[-100.1801,52.2854],[-100.1746,52.3089],[-100.1615,52.3375],[-100.1316,52.3854],[-100.1157,52.3993],[-100.0901,52.4149],[-100.0622,52.4272],[-100.0389,52.4325],[-100.0157,52.4434],[-100.0036,52.4679],[-100.0067,52.4935],[-100.0293,52.5076],[-100.0198,52.5229],[-99.99,52.5429],[-99.9808,52.5568],[-99.9833,52.5685],[-99.9925,52.5844],[-100.0054,52.598],[-100.0184,52.6039],[-100.0442,52.6021],[-100.0539,52.6047],[-100.0669,52.6145],[-100.0695,52.6201],[-100.0708,52.6283],[-100.0701,52.636],[-100.0669,52.6392],[-100.0541,52.643],[-100.0542,52.6507],[-100.0598,52.6574],[-100.0633,52.6592],[-100.0601,52.6951],[-100.0423,52.7378],[-100.0399,52.7531],[-100.0519,52.7781],[-100.0508,52.7926],[-100.0535,52.8046],[-100.0703,52.8093],[-100.1087,52.8096],[-100.1272,52.8058],[-100.1386,52.7958],[-100.1481,52.8029],[-100.1696,52.8114],[-100.1867,52.8202],[-100.1909,52.8214],[-100.1949,52.8235],[-100.2005,52.8305],[-100.1961,52.8397],[-100.1942,52.8473],[-100.1971,52.8544],[-100.2033,52.857],[-100.2182,52.8582],[-100.2211,52.8611],[-100.2223,52.862],[-100.2273,52.8753],[-100.2279,52.8782],[-100.2367,52.8885],[-100.2401,52.895],[-100.2469,52.8985],[-100.2654,52.8994],[-100.2924,52.8682],[-100.2956,52.862],[-100.295,52.8558],[-100.2957,52.8482],[-100.303,52.8373],[-100.3131,52.8293],[-100.3262,52.8229],[-100.3406,52.8185],[-100.3545,52.8167],[-100.3624,52.8132],[-100.3668,52.8046],[-100.3718,52.7825],[-100.3041,52.8002],[-100.2825,52.7958],[-100.2645,52.7784],[-100.2666,52.7605],[-100.2766,52.7428],[-100.2825,52.7275],[-100.262,52.6934],[-100.2601,52.6886],[-100.2566,52.6763],[-100.2551,52.6727],[-100.25,52.6707],[-100.2279,52.666],[-100.2267,52.6483],[-100.2373,52.6368],[-100.2519,52.6242],[-100.262,52.6039],[-100.2715,52.6095],[-100.2924,52.6283],[-100.2954,52.6377],[-100.2806,52.6521],[-100.2825,52.6592],[-100.3034,52.6613],[-100.3259,52.6501],[-100.3473,52.6436],[-100.3651,52.6592],[-100.3555,52.6831],[-100.3545,52.6872],[-100.3474,52.6904],[-100.3234,52.7137],[-100.3458,52.7237],[-100.406,52.7316],[-100.43,52.7449],[-100.4401,52.7699],[-100.4354,52.7984],[-100.4219,52.8249],[-100.406,52.8441],[-100.4264,52.8511],[-100.4382,52.8567],[-100.447,52.8647],[-100.4507,52.8744],[-100.4475,52.8815],[-100.4423,52.8894],[-100.4395,52.9024],[-100.4322,52.9233],[-100.4182,52.9344],[-100.4101,52.9439],[-100.4203,52.96],[-100.4382,52.9706],[-100.4584,52.9721],[-100.479,52.9651],[-100.4986,52.9503],[-100.51,52.9471],[-100.5227,52.9539],[-100.5352,52.963],[-100.557,52.973],[-100.5546,52.9845],[-100.5474,52.996],[-100.5432,53.0013],[-100.553,53.0083],[-100.5633,53.0083],[-100.5841,53.0013],[-100.5897,52.998],[-100.5981,52.9895],[-100.6047,52.9874],[-100.6134,52.9892],[-100.6278,52.9989],[-100.635,53.0013],[-100.6556,52.9989],[-100.7145,52.9845],[-100.7282,52.9745],[-100.7051,52.9497],[-100.649,52.93],[-100.5998,52.9035],[-100.5978,52.8576],[-100.6144,52.845],[-100.6605,52.8397],[-100.6803,52.8305],[-100.6628,52.8176],[-100.6578,52.794],[-100.6625,52.7696],[-100.6736,52.7546],[-100.6877,52.7543],[-100.7182,52.764],[-100.7401,52.754],[-100.8268,52.7407],[-100.8494,52.7487],[-100.8511,52.7752],[-100.8335,52.7899],[-100.8087,52.8008],[-100.7982,52.8126],[-100.8237,52.8305],[-100.8358,52.8223],[-100.9063,52.8032],[-100.9142,52.7993],[-100.9199,52.7949],[-100.9266,52.7911],[-100.9367,52.7896],[-100.9576,52.7958],[-100.9241,52.8341],[-100.933,52.8576],[-100.9482,52.862],[-100.9856,52.8594],[-101.0019,52.8647],[-101.0108,52.8747],[-101.0165,52.8882],[-101.014,52.9003],[-100.9988,52.9056],[-100.9903,52.9115],[-100.966,52.935],[-100.9609,52.9368],[-100.9657,52.9512],[-100.9775,52.9574],[-100.9932,52.9612],[-101.0093,52.9677],[-100.9947,52.9727],[-100.9794,52.9821],[-100.9694,52.9936],[-100.9712,53.0048],[-100.9862,53.0154],[-101.0428,53.0283],[-101.0698,53.0422],[-101.0977,53.0631],[-101.1145,53.0866],[-101.108,53.1078],[-101.0839,53.1246],[-101.0553,53.1387],[-101.0241,53.1484],[-100.9919,53.152],[-100.9557,53.1511],[-100.9338,53.1473],[-100.9194,53.1384],[-100.9195,53.1296],[-100.9473,53.0972],[-100.9308,53.0981],[-100.9199,53.0943],[-100.9108,53.0887],[-100.8995,53.0837],[-100.8696,53.0778],[-100.8374,53.0769],[-100.7457,53.0978],[-100.7248,53.0943],[-100.7089,53.0854],[-100.6931,53.0854],[-100.6627,53.091],[-100.6575,53.0978],[-100.6535,53.1114],[-100.6462,53.1225],[-100.6319,53.1219],[-100.622,53.1172],[-100.6109,53.1146],[-100.6017,53.119],[-100.5978,53.1352],[-100.5882,53.1381],[-100.5694,53.1343],[-100.5561,53.1352],[-100.5636,53.152],[-100.5563,53.1593],[-100.5611,53.1643],[-100.5661,53.1708],[-100.5705,53.1738],[-100.5705,53.1799],[-100.5315,53.1764],[-100.4264,53.152],[-100.406,53.1175],[-100.3914,53.1031],[-100.3684,53.0972],[-100.0839,53.0663],[-100.0354,53.0428],[-100.008,53.016],[-99.9945,53.0086],[-99.9883,53.0074],[-99.9743,53.0092],[-99.9678,53.0086],[-99.9615,53.0042],[-99.9502,52.9904],[-99.9432,52.9874],[-99.9138,52.9845],[-99.8596,52.9715],[-99.8299,52.9677],[-99.7753,52.9665],[-99.7437,52.9618],[-99.7378,52.9503],[-99.7459,52.943],[-99.7637,52.9303],[-99.7719,52.923],[-99.7763,52.9153],[-99.7916,52.8797],[-99.7997,52.87],[-99.8027,52.8647],[-99.774,52.8756],[-99.7432,52.9047],[-99.7104,52.9265],[-99.6761,52.9162],[-99.6624,52.8997],[-99.6649,52.8932],[-99.6771,52.8885],[-99.6929,52.8782],[-99.698,52.8703],[-99.7027,52.8526],[-99.7066,52.8441],[-99.7133,52.8367],[-99.7284,52.8258],[-99.7344,52.8167],[-99.6963,52.7946],[-99.6867,52.7825],[-99.7092,52.7549],[-99.7133,52.7484],[-99.7086,52.7354],[-99.6907,52.7266],[-99.6833,52.7113],[-99.6687,52.6989],[-99.6655,52.6901],[-99.6677,52.6845],[-99.677,52.6754],[-99.6792,52.6695],[-99.6764,52.666],[-99.6633,52.658],[-99.6593,52.6524],[-99.6593,52.6174],[-99.6615,52.613],[-99.671,52.6015],[-99.673,52.5977],[-99.6704,52.5912],[-99.6658,52.5871],[-99.6612,52.5839],[-99.6593,52.5806],[-99.6581,52.5653],[-99.654,52.5594],[-99.6465,52.5556],[-99.6352,52.5459],[-99.6355,52.537],[-99.6427,52.5238],[-99.6662,52.4938],[-99.6798,52.4814],[-99.6976,52.4585],[-99.6997,52.4537],[-99.6994,52.4446],[-99.6946,52.4393],[-99.6892,52.4352],[-99.6867,52.4293],[-99.6932,52.4099],[-99.7088,52.3969],[-99.7269,52.3854],[-99.7413,52.371],[-99.7428,52.3645],[-99.7406,52.3504],[-99.7413,52.3445],[-99.749,52.3313],[-99.7597,52.3201],[-99.7725,52.3124],[-99.7989,52.3063],[-99.8069,52.2983],[-99.82,52.2786],[-99.8333,52.273],[-99.8443,52.2765],[-99.8527,52.2768],[-99.8579,52.2612],[-99.8563,52.2453],[-99.8486,52.2327],[-99.8387,52.2203],[-99.8299,52.2068],[-99.8237,52.1888],[-99.8231,52.1762],[-99.8343,52.1149],[-99.834,52.0834],[-99.824,52.059],[-99.799,52.049],[-99.7662,52.0599],[-99.7488,52.0584],[-99.7413,52.039],[-99.7425,51.9884],[-99.7332,51.9633],[-99.7398,51.9471],[-99.7498,51.9304],[-99.7548,51.9153],[-99.7622,51.9065],[-99.8003,51.9086],[-99.817,51.9056],[-99.81,51.893],[-99.8108,51.8809],[-99.8147,51.8683],[-99.817,51.8541],[-99.8147,51.8403],[-99.8049,51.8214],[-99.8027,51.81],[-99.8049,51.8041],[-99.8147,51.7914],[-99.817,51.7852],[-99.8158,51.7776],[-99.8108,51.7658],[-99.8096,51.7582],[-99.8022,51.744],[-99.7856,51.7443],[-99.7546,51.7546],[-99.7472,51.7496],[-99.7406,51.739],[-99.7325,51.7311],[-99.7201,51.7337],[-99.7155,51.7426],[-99.7066,51.7788],[-99.7036,51.8329],[-99.6955,51.8606],[-99.6792,51.8777],[-99.6405,51.8521],[-99.6289,51.8359],[-99.6246,51.8132],[-99.6289,51.8026],[-99.6476,51.7823],[-99.6518,51.7717],[-99.6536,51.7402],[-99.6474,51.6928],[-99.6456,51.6857],[-99.635,51.6796],[-99.6097,51.6757]],[[-99.8683,52.386],[-99.8538,52.4011],[-99.8505,52.409],[-99.8521,52.4187],[-99.8583,52.4361],[-99.8579,52.447],[-99.8535,52.4564],[-99.8402,52.4732],[-99.8374,52.4844],[-99.8368,52.4947],[-99.8299,52.522],[-99.8359,52.5368],[-99.8535,52.535],[-99.8757,52.5267],[-99.8956,52.522],[-99.9231,52.5194],[-99.9309,52.5106],[-99.9323,52.4955],[-99.9406,52.4735],[-99.9474,52.4655],[-99.9618,52.4555],[-99.9678,52.447],[-99.9694,52.4387],[-99.9678,52.409],[-99.9615,52.3875],[-99.9474,52.3725],[-99.9332,52.3601],[-99.9269,52.3475],[-99.9359,52.3154],[-99.9309,52.3057],[-99.9051,52.3095],[-99.8889,52.3195],[-99.8786,52.3342],[-99.8732,52.3531],[-99.8716,52.3746],[-99.8683,52.386]]]}}
