{"type":"Feature","properties":{"id":1040,"name":"Mälaren","featurecla":"Lake","scalerank":2,"wikidataid":"Q184492","source":"Natural Earth 5.2.0-pre ne_10m_lakes (public domain)"},"geometry":{"type":"Polygon","coordinates":[[[18.0197,59.3271],[17.9887,59.3372],[17.9696,59.3339],[17.9119,59.3054],[17.8996,59.2962],[17.8975,59.2903],[17.8878,59.2809],[17.8854,59.275],[17.8866,59.2692],[17.8919,59.26],[17.8928,59.2553],[17.8913,59.2409],[17.8866,59.2291],[17.8781,59.2244],[17.8651,59.2306],[17.8675,59.2583],[17.8289,59.27],[17.7415,59.2715],[17.7415,59.2653],[17.783,59.2583],[17.7721,59.2471],[17.7524,59.2403],[17.7306,59.2391],[17.7135,59.2447],[17.7329,59.2518],[17.7415,59.2521],[17.7297,59.2562],[17.7053,59.2612],[17.6935,59.2653],[17.6961,59.2692],[17.7006,59.2789],[17.637,59.2918],[17.6055,59.2918],[17.5769,59.2789],[17.5928,59.2721],[17.5999,59.2606],[17.6037,59.2306],[17.5975,59.2244],[17.5896,59.2335],[17.5755,59.2597],[17.5663,59.2653],[17.5519,59.268],[17.5107,59.2824],[17.4718,59.3054],[17.4297,59.3165],[17.3509,59.3266],[17.365,59.283],[17.3776,59.2662],[17.3994,59.2583],[17.3994,59.2521],[17.214,59.2583],[17.214,59.2653],[17.2499,59.2677],[17.2702,59.2718],[17.2823,59.2789],[17.2784,59.2865],[17.2416,59.3198],[17.3061,59.3295],[17.3161,59.3372],[17.3067,59.3536],[17.2843,59.3601],[17.2343,59.3616],[17.1439,59.3757],[17.0989,59.3772],[17.0435,59.3616],[17.0394,59.3666],[17.0388,59.3751],[17.0359,59.3813],[16.9717,59.4078],[16.9676,59.4122],[16.9614,59.4246],[16.9558,59.4328],[16.9464,59.439],[16.9332,59.452],[16.9264,59.457],[16.9158,59.4617],[16.8849,59.4705],[16.8407,59.4908],[16.8213,59.4935],[16.8239,59.4776],[16.7483,59.4776],[16.7398,59.4793],[16.7244,59.4849],[16.7147,59.4849],[16.7062,59.4823],[16.6974,59.4773],[16.6944,59.4729],[16.7262,59.4658],[16.8398,59.4125],[16.8513,59.4087],[16.8784,59.4102],[16.8849,59.4087],[16.8899,59.4031],[16.8928,59.3966],[16.8919,59.391],[16.8855,59.389],[16.8172,59.389],[16.8083,59.3922],[16.7824,59.416],[16.7103,59.4505],[16.6897,59.467],[16.6659,59.4784],[16.6406,59.4711],[16.6152,59.4575],[16.5902,59.4502],[16.5743,59.4525],[16.5461,59.4623],[16.5287,59.4634],[16.5237,59.4611],[16.5128,59.4522],[16.5081,59.4502],[16.4993,59.4511],[16.484,59.4558],[16.4772,59.457],[16.1655,59.444],[16.1254,59.4467],[16.081,59.4552],[16.0424,59.472],[16.0215,59.4979],[16.1239,59.4776],[16.2337,59.4776],[16.2337,59.4849],[16.2131,59.4849],[16.2131,59.4911],[16.2485,59.5035],[16.2673,59.5029],[16.2752,59.4882],[16.2823,59.4705],[16.2985,59.4608],[16.3188,59.4587],[16.3368,59.4634],[16.3256,59.4767],[16.3303,59.4811],[16.3427,59.4832],[16.3541,59.4882],[16.373,59.5044],[16.3836,59.5096],[16.3954,59.5117],[16.4427,59.4999],[16.4686,59.4985],[16.4946,59.5117],[16.446,59.5258],[16.4698,59.53],[16.5037,59.5308],[16.5343,59.5358],[16.549,59.5526],[16.5358,59.5662],[16.5102,59.5847],[16.4981,59.6009],[16.5246,59.608],[16.5384,59.6097],[16.5493,59.613],[16.5602,59.6127],[16.5864,59.5965],[16.617,59.5874],[16.6317,59.5806],[16.645,59.5679],[16.6585,59.5517],[16.6747,59.5379],[16.6965,59.532],[16.7268,59.5291],[16.7418,59.53],[16.7483,59.5358],[16.7533,59.5429],[16.7645,59.5509],[16.7771,59.5573],[16.786,59.56],[16.7898,59.5656],[16.793,59.5774],[16.7977,59.5894],[16.8063,59.5947],[16.8713,59.5874],[16.879,59.5882],[16.884,59.5894],[16.8899,59.5897],[16.8987,59.5874],[16.9081,59.5832],[16.9093,59.5812],[16.9087,59.5785],[16.9128,59.5732],[16.9438,59.5494],[16.9538,59.5473],[17.0697,59.5464],[17.0583,59.5615],[17.0215,59.5803],[17.0079,59.5947],[17.0276,59.5974],[17.0379,59.6003],[17.0556,59.6097],[17.0609,59.6047],[17.0644,59.5953],[17.0697,59.5874],[17.0839,59.575],[17.0921,59.5694],[17.1006,59.5668],[17.103,59.5638],[17.1295,59.5512],[17.1542,59.5447],[17.2093,59.5453],[17.2207,59.5358],[17.2299,59.5264],[17.3444,59.4776],[17.3641,59.4779],[17.3606,59.4876],[17.3532,59.4993],[17.3612,59.5049],[17.3732,59.4982],[17.4059,59.4737],[17.4124,59.474],[17.4121,59.4908],[17.4094,59.5011],[17.3921,59.5258],[17.4071,59.5417],[17.3956,59.5612],[17.3753,59.5812],[17.3647,59.598],[17.3456,59.6139],[17.3367,59.6239],[17.3408,59.6283],[17.3541,59.6315],[17.3644,59.6389],[17.3741,59.648],[17.3859,59.6557],[17.3779,59.6377],[17.3738,59.62],[17.38,59.6065],[17.4027,59.6009],[17.405,59.598],[17.4353,59.5738],[17.4866,59.5479],[17.4951,59.5464],[17.5063,59.5485],[17.5245,59.5579],[17.5331,59.56],[17.5481,59.5538],[17.5448,59.5403],[17.5316,59.5258],[17.5154,59.5185],[17.5195,59.5117],[17.5251,59.5049],[17.5322,59.4999],[17.5443,59.497],[17.551,59.4923],[17.5566,59.4911],[17.5625,59.4932],[17.5646,59.5023],[17.5696,59.5049],[17.5902,59.5052],[17.652,59.4979],[17.6685,59.4929],[17.68,59.4805],[17.697,59.4534],[17.715,59.4443],[17.7309,59.4481],[17.7374,59.4605],[17.7276,59.4776],[17.74,59.4858],[17.78,59.5264],[17.7892,59.5397],[17.7653,59.5768],[17.7535,59.5871],[17.74,59.5947],[17.7253,59.5994],[17.7106,59.6009],[17.6108,59.6327],[17.5749,59.6512],[17.564,59.661],[17.5634,59.6766],[17.6178,59.6972],[17.6128,59.7019],[17.6087,59.7075],[17.6037,59.7104],[17.6176,59.7304],[17.5969,59.7384],[17.536,59.7384],[17.5504,59.7328],[17.5566,59.7313],[17.5434,59.721],[17.5275,59.7163],[17.5142,59.7095],[17.5086,59.6936],[17.5154,59.6698],[17.5142,59.6583],[17.5019,59.6495],[17.516,59.6365],[17.5292,59.613],[17.5372,59.5888],[17.536,59.5732],[17.5186,59.5906],[17.4904,59.633],[17.4745,59.6421],[17.4807,59.6604],[17.4701,59.6668],[17.4551,59.6704],[17.4474,59.6798],[17.4515,59.6913],[17.4621,59.7025],[17.4848,59.7207],[17.4951,59.7342],[17.4889,59.739],[17.4139,59.7398],[17.3906,59.7437],[17.3715,59.7519],[17.5189,59.7519],[17.5481,59.7566],[17.5678,59.7696],[17.5828,59.789],[17.5975,59.8134],[17.6025,59.8037],[17.6108,59.7969],[17.6317,59.7866],[17.6252,59.7643],[17.6443,59.7513],[17.6708,59.7422],[17.6867,59.7313],[17.6644,59.7304],[17.6573,59.7216],[17.6564,59.7075],[17.6526,59.6898],[17.6426,59.6736],[17.6299,59.6654],[17.6134,59.6627],[17.5908,59.6624],[17.6064,59.6527],[17.627,59.6442],[17.6482,59.638],[17.6661,59.6359],[17.7056,59.625],[17.72,59.6253],[17.7135,59.6421],[17.7179,59.6589],[17.7112,59.6777],[17.7094,59.6939],[17.7276,59.7033],[17.7309,59.6877],[17.7365,59.678],[17.7429,59.6689],[17.7488,59.6557],[17.7527,59.6295],[17.7588,59.6189],[17.7756,59.608],[17.7845,59.6053],[17.8054,59.6015],[17.8133,59.598],[17.8195,59.5906],[17.8195,59.585],[17.8171,59.5797],[17.8171,59.5732],[17.8165,59.5709],[17.8151,59.5682],[17.8154,59.5641],[17.8204,59.5565],[17.8274,59.5491],[17.8389,59.5403],[17.8439,59.532],[17.8189,59.5258],[17.7933,59.5091],[17.7777,59.4867],[17.783,59.4634],[17.76,59.421],[17.7903,59.3875],[17.8442,59.3631],[17.8928,59.3477],[17.9228,59.3433],[17.9955,59.3539],[18.095,59.3386],[18.095,59.3268],[18.0197,59.3271]]]}}
