{"type":"Feature","properties":{"id":1041,"name":"Reindeer Lake","featurecla":"Lake","scalerank":2,"wikidataid":"Q1134446","source":"Natural Earth 5.2.0-pre ne_10m_lakes (public domain)"},"geometry":{"type":"Polygon","coordinates":[[[-101.5397,57.9101],[-101.5503,57.8995],[-101.5471,57.8948],[-101.533,57.8904],[-101.5259,57.8803],[-101.5269,57.8689],[-101.5363,57.8603],[-101.531,57.8391],[-101.5447,57.8162],[-101.5812,57.7814],[-101.592,57.7758],[-101.6185,57.7723],[-101.6291,57.7673],[-101.638,57.7579],[-101.6628,57.7108],[-101.6691,57.7031],[-101.6797,57.6961],[-101.7088,57.6922],[-101.7241,57.6875],[-101.725,57.679],[-101.7206,57.6687],[-101.7209,57.6563],[-101.7259,57.6457],[-101.7352,57.6413],[-101.749,57.6378],[-101.7539,57.6293],[-101.7564,57.6181],[-101.7629,57.6072],[-101.7776,57.5975],[-101.8294,57.5716],[-101.8485,57.5663],[-101.8612,57.5657],[-101.8759,57.563],[-101.8905,57.5574],[-101.9028,57.5483],[-101.9253,57.5118],[-101.9342,57.5036],[-101.9617,57.4974],[-102.054,57.5036],[-102.0855,57.5012],[-102.0949,57.4941],[-102.0849,57.4626],[-102.0828,57.4444],[-102.0858,57.4306],[-102.0936,57.417],[-102.1055,57.4011],[-102.1198,57.3873],[-102.156,57.3599],[-102.1675,57.3467],[-102.1421,57.3396],[-102.1201,57.3381],[-102.0708,57.3399],[-102.0253,57.3322],[-102.0092,57.3322],[-101.9976,57.3361],[-101.9832,57.3428],[-101.9683,57.3478],[-101.9546,57.3467],[-101.9482,57.3396],[-101.9499,57.3314],[-101.9504,57.3222],[-101.9404,57.3119],[-101.8931,57.3119],[-101.8881,57.3096],[-101.8778,57.301],[-101.8721,57.2981],[-101.8681,57.2996],[-101.8612,57.3031],[-101.8528,57.3057],[-101.8447,57.3057],[-101.8361,57.2999],[-101.8311,57.2916],[-101.825,57.271],[-101.8485,57.2528],[-101.8615,57.2472],[-101.8981,57.2372],[-101.9089,57.2357],[-101.9137,57.2398],[-101.9137,57.2578],[-101.9174,57.2619],[-101.9268,57.2645],[-101.939,57.2607],[-101.9888,57.2298],[-102.0437,57.2098],[-102.0577,57.2018],[-102.0672,57.1904],[-102.0663,57.1821],[-102.0609,57.1718],[-102.0577,57.1547],[-102.0597,57.1486],[-102.0687,57.133],[-102.0708,57.1238],[-102.0684,57.1194],[-102.0048,57.0703],[-101.9869,57.0482],[-101.988,57.0279],[-101.9746,57.0385],[-101.9617,57.0449],[-101.9517,57.0411],[-101.9477,57.0208],[-101.9567,56.9887],[-101.9788,56.9822],[-102.0365,56.9896],[-102.0587,56.9811],[-102.0837,56.9646],[-102.1226,56.9316],[-102.1357,56.9151],[-102.1608,56.8745],[-102.1732,56.8601],[-102.1963,56.8489],[-102.2201,56.8501],[-102.2727,56.8601],[-102.2983,56.8598],[-102.3148,56.8563],[-102.3299,56.8462],[-102.3519,56.8259],[-102.3738,56.8133],[-102.4012,56.8036],[-102.4246,56.7921],[-102.4344,56.7744],[-102.4238,56.7591],[-102.3988,56.7626],[-102.3694,56.7729],[-102.3457,56.7774],[-102.3208,56.7603],[-102.3158,56.7591],[-102.2905,56.7638],[-102.2578,56.7647],[-102.2419,56.7629],[-102.2284,56.7571],[-102.2531,56.7553],[-102.2674,56.7456],[-102.2787,56.7347],[-102.2939,56.7297],[-102.3589,56.7397],[-102.3798,56.7364],[-102.4324,56.7029],[-102.4412,56.692],[-102.4489,56.677],[-102.5027,56.6402],[-102.4793,56.6246],[-102.4571,56.6255],[-102.434,56.6325],[-102.4071,56.634],[-102.4185,56.6102],[-102.4399,56.5987],[-102.4668,56.596],[-102.5487,56.6052],[-102.5747,56.6002],[-102.5716,56.5787],[-102.5822,56.571],[-102.581,56.5651],[-102.5784,56.5592],[-102.5853,56.5522],[-102.5981,56.5489],[-102.647,56.5522],[-102.6582,56.5504],[-102.6707,56.5466],[-102.6824,56.5407],[-102.6914,56.5342],[-102.7032,56.5295],[-102.7175,56.5289],[-102.7263,56.5266],[-102.7223,56.5166],[-102.734,56.5071],[-102.7506,56.5007],[-102.7684,56.4971],[-102.7839,56.4968],[-102.794,56.5015],[-102.8064,56.5098],[-102.8204,56.5139],[-102.8351,56.5071],[-102.8829,56.4659],[-102.8987,56.4592],[-102.9384,56.46],[-102.9552,56.4486],[-102.9387,56.4359],[-102.9229,56.4271],[-102.9129,56.4171],[-102.9143,56.4006],[-102.9265,56.3838],[-102.9459,56.3682],[-102.9677,56.357],[-102.9862,56.3529],[-103.0597,56.362],[-103.0713,56.3697],[-103.0714,56.382],[-103.0738,56.397],[-103.08,56.4112],[-103.0923,56.4212],[-103.0884,56.438],[-103.111,56.44],[-103.1396,56.4282],[-103.1648,56.3885],[-103.2176,56.3547],[-103.2363,56.3391],[-103.2253,56.3249],[-103.2208,56.3131],[-103.2241,56.3005],[-103.2363,56.284],[-103.2513,56.2702],[-103.264,56.2663],[-103.2781,56.2702],[-103.2978,56.2778],[-103.2935,56.2808],[-103.2922,56.284],[-103.2918,56.2872],[-103.2903,56.2908],[-103.2944,56.2981],[-103.2897,56.3237],[-103.2903,56.3391],[-103.2978,56.3497],[-103.3071,56.3582],[-103.308,56.3673],[-103.2903,56.3803],[-103.3034,56.3906],[-103.2519,56.4359],[-103.2276,56.4715],[-103.1896,56.4803],[-103.1811,56.4901],[-103.1923,56.4998],[-103.2631,56.5104],[-103.2726,56.4918],[-103.2888,56.4695],[-103.3041,56.458],[-103.3108,56.4727],[-103.2999,56.4983],[-103.2978,56.5071],[-103.3019,56.5189],[-103.32,56.5339],[-103.325,56.5445],[-103.3225,56.5572],[-103.314,56.5692],[-103.3024,56.579],[-103.2903,56.5857],[-103.2763,56.5887],[-103.2671,56.5875],[-103.2585,56.5878],[-103.2463,56.596],[-103.2242,56.6007],[-103.2097,56.5804],[-103.1948,56.5377],[-103.1846,56.5325],[-103.1734,56.5322],[-103.1627,56.536],[-103.1539,56.5445],[-103.1487,56.5581],[-103.152,56.5681],[-103.158,56.5775],[-103.1612,56.5893],[-103.1606,56.5996],[-103.1587,56.611],[-103.1553,56.6219],[-103.1503,56.6302],[-103.1471,56.639],[-103.1483,56.6637],[-103.147,56.6749],[-103.1415,56.684],[-103.1256,56.6985],[-103.1197,56.7085],[-103.1162,56.7217],[-103.1166,56.7297],[-103.1185,56.7364],[-103.1206,56.7562],[-103.1262,56.78],[-103.1299,56.7847],[-103.14,56.7906],[-103.1355,56.8039],[-103.1197,56.8259],[-103.1183,56.8301],[-103.1122,56.8395],[-103.114,56.8695],[-103.0848,56.8869],[-103.0541,56.8824],[-103.0514,56.8462],[-103.0657,56.8189],[-103.0682,56.8062],[-103.0651,56.7847],[-103.0604,56.7741],[-103.0558,56.7685],[-103.0539,56.7626],[-103.0576,56.75],[-103.0625,56.7447],[-103.085,56.7297],[-103.0712,56.6994],[-103.0687,56.6661],[-103.0812,56.6355],[-103.1122,56.6128],[-103.1068,56.6049],[-103.1009,56.5981],[-103.085,56.5857],[-103.0891,56.5804],[-103.0944,56.5701],[-103.0985,56.5651],[-103.0935,56.5589],[-103.0937,56.5542],[-103.0962,56.5498],[-103.0985,56.5445],[-103.1054,56.5195],[-103.106,56.5071],[-103.1103,56.5045],[-103.1197,56.5027],[-103.129,56.498],[-103.1333,56.4865],[-103.1271,56.4759],[-103.1127,56.475],[-103.0224,56.5048],[-102.9864,56.5239],[-102.97,56.5269],[-102.9591,56.5351],[-102.9552,56.5616],[-102.9424,56.596],[-102.8861,56.6505],[-102.8733,56.6849],[-102.8655,56.6999],[-102.827,56.7238],[-102.8112,56.7364],[-102.8067,56.7453],[-102.7993,56.7659],[-102.7939,56.7744],[-102.7852,56.78],[-102.7653,56.7888],[-102.756,56.798],[-102.7597,56.7847],[-102.7733,56.7606],[-102.7763,56.7438],[-102.7734,56.735],[-102.7677,56.7258],[-102.7646,56.7155],[-102.7696,56.7023],[-102.7821,56.6914],[-102.8317,56.6676],[-102.8788,56.6317],[-102.8863,56.6234],[-102.8733,56.5966],[-102.8429,56.6057],[-102.8077,56.6278],[-102.7683,56.6467],[-102.7528,56.6746],[-102.7388,56.6811],[-102.6991,56.6858],[-102.6783,56.6923],[-102.6671,56.7023],[-102.6748,56.7038],[-102.6841,56.7073],[-102.6919,56.7126],[-102.6951,56.7191],[-102.6972,56.7288],[-102.7017,56.7341],[-102.7064,56.7382],[-102.7088,56.7438],[-102.7061,56.7571],[-102.6975,56.7676],[-102.6841,56.7765],[-102.6492,56.7918],[-102.6306,56.7959],[-102.6115,56.7959],[-102.5921,56.7912],[-102.5672,56.7765],[-102.5554,56.7788],[-102.5506,56.8015],[-102.5587,56.8648],[-102.5568,56.891],[-102.5403,56.9184],[-102.5381,56.9293],[-102.5378,56.9681],[-102.5403,56.9766],[-102.5442,56.9802],[-102.5423,56.9975],[-102.5437,57.004],[-102.554,57.0096],[-102.5797,57.0131],[-102.5921,57.0176],[-102.5878,57.0323],[-102.5885,57.047],[-102.584,57.0591],[-102.5643,57.0652],[-102.5766,57.075],[-102.6046,57.077],[-102.6156,57.0826],[-102.6258,57.0932],[-102.6353,57.0979],[-102.6471,57.0994],[-102.6638,57.0997],[-102.6764,57.0967],[-102.6978,57.0838],[-102.7088,57.0791],[-102.7269,57.0773],[-102.7449,57.0797],[-102.7616,57.0856],[-102.7763,57.0926],[-102.7656,57.1],[-102.7474,57.1227],[-102.7388,57.1274],[-102.7272,57.1288],[-102.7128,57.1321],[-102.6876,57.1412],[-102.7016,57.1539],[-102.7443,57.1594],[-102.7497,57.1748],[-102.7357,57.1871],[-102.6851,57.1974],[-102.6739,57.2057],[-102.6695,57.2433],[-102.6758,57.2536],[-102.6985,57.2572],[-102.7421,57.2433],[-102.7632,57.2436],[-102.7634,57.2645],[-102.7696,57.2645],[-102.7702,57.2766],[-102.7834,57.2834],[-102.818,57.2913],[-102.8131,57.2981],[-102.8043,57.3193],[-102.8519,57.3107],[-102.9356,57.2734],[-102.9831,57.2645],[-102.9235,57.3125],[-102.9068,57.3322],[-102.9101,57.3452],[-102.9146,57.3537],[-102.9221,57.3587],[-102.9515,57.3629],[-102.9562,57.369],[-102.9519,57.3779],[-102.9415,57.3876],[-102.9294,57.3917],[-102.916,57.3929],[-102.9051,57.3976],[-102.9006,57.4117],[-102.9048,57.4256],[-102.9151,57.4356],[-102.9415,57.4491],[-102.9194,57.4568],[-102.8686,57.4638],[-102.7768,57.493],[-102.756,57.5036],[-102.6958,57.5427],[-102.6898,57.5483],[-102.6668,57.5798],[-102.6598,57.5966],[-102.6668,57.6048],[-102.6951,57.5998],[-102.6907,57.6104],[-102.6867,57.626],[-102.6851,57.6419],[-102.6876,57.6552],[-102.6986,57.6634],[-102.7141,57.6693],[-102.7251,57.6763],[-102.7223,57.6884],[-102.7154,57.6931],[-102.6961,57.6943],[-102.6876,57.6961],[-102.682,57.7005],[-102.6745,57.7123],[-102.6671,57.7164],[-102.6511,57.7199],[-102.6346,57.7208],[-102.6208,57.7193],[-102.6125,57.7164],[-102.6071,57.707],[-102.6037,57.6943],[-102.5981,57.6828],[-102.5853,57.6755],[-102.5688,57.6775],[-102.5563,57.6881],[-102.5369,57.7164],[-102.4487,57.7985],[-102.4483,57.8165],[-102.4318,57.8371],[-102.4081,57.8536],[-102.3745,57.8633],[-102.3511,57.8762],[-102.3382,57.8803],[-102.3329,57.8798],[-102.3157,57.875],[-102.3077,57.8742],[-102.3052,57.8768],[-102.302,57.8898],[-102.2973,57.8948],[-102.2566,57.9009],[-102.2458,57.9051],[-102.2322,57.9139],[-102.2184,57.9189],[-102.2047,57.921],[-102.1912,57.9213],[-102.1464,57.943],[-102.1373,57.9531],[-102.1262,57.9757],[-102.1192,57.984],[-102.1418,57.9919],[-102.1586,57.9943],[-102.1677,58.0019],[-102.1675,58.0249],[-102.1614,58.0419],[-102.1502,58.0514],[-102.1129,58.0661],[-102.0962,58.0443],[-102.0799,58.0517],[-102.0688,58.0696],[-102.0677,58.0796],[-102.0725,58.082],[-102.0783,58.0876],[-102.083,58.0955],[-102.0849,58.1035],[-102.0241,58.1276],[-101.998,58.1332],[-101.9717,58.1335],[-101.9512,58.1241],[-101.9557,58.1129],[-101.9708,58.0929],[-102.0031,58.0584],[-101.9958,58.0478],[-101.9983,58.0402],[-102.0162,58.0249],[-102.0471,57.9872],[-102.0633,57.9722],[-102.0621,57.9669],[-102.0507,57.9601],[-102.0435,57.9586],[-102.0316,57.9622],[-102.0229,57.9601],[-102.017,57.956],[-102.0076,57.946],[-102.0031,57.943],[-101.9754,57.9433],[-101.9532,57.9554],[-101.9327,57.9695],[-101.8856,57.9813],[-101.8701,57.9949],[-101.8618,58.0146],[-101.8584,58.0387],[-101.8594,58.1082],[-101.8553,58.1205],[-101.8354,58.1294],[-101.8101,58.1473],[-101.7863,58.1606],[-101.7704,58.1553],[-101.773,58.1373],[-101.7905,58.1167],[-101.8281,58.0829],[-101.8341,58.0634],[-101.8244,58.044],[-101.797,58.0113],[-101.7974,58.0081],[-101.7983,57.991],[-101.797,57.984],[-101.7908,57.9775],[-101.783,57.9754],[-101.7754,57.9725],[-101.7704,57.9636],[-101.7707,57.9478],[-101.7782,57.936],[-101.7904,57.9277],[-101.8038,57.9213],[-101.8116,57.9195],[-101.8313,57.9174],[-101.8379,57.9151],[-101.8398,57.9104],[-101.8409,57.8945],[-101.8447,57.8877],[-101.8816,57.863],[-101.9404,57.8126],[-101.9415,57.7953],[-101.9339,57.785],[-101.9208,57.7814],[-101.9062,57.7847],[-101.8828,57.805],[-101.8604,57.8321],[-101.8354,57.8512],[-101.8038,57.8468],[-101.8105,57.838],[-101.8108,57.8324],[-101.8067,57.8279],[-101.8004,57.8224],[-101.7891,57.8159],[-101.781,57.8194],[-101.7704,57.8332],[-101.7252,57.8715],[-101.7077,57.8803],[-101.7188,57.8886],[-101.7303,57.8992],[-101.7365,57.9115],[-101.7315,57.9251],[-101.7163,57.9357],[-101.7047,57.9339],[-101.6954,57.9251],[-101.6692,57.8948],[-101.6616,57.8939],[-101.6425,57.8948],[-101.6288,57.8974],[-101.6154,57.9051],[-101.6045,57.9163],[-101.5984,57.9289],[-101.577,57.9139],[-101.5603,57.9166],[-101.5421,57.9251],[-101.5157,57.9289],[-101.5397,57.9101]],[[-102.1713,57.1018],[-102.1851,57.1091],[-102.2079,57.0997],[-102.216,57.0932],[-102.2201,57.0876],[-102.2215,57.0806],[-102.2225,57.0564],[-102.2254,57.0499],[-102.2771,56.9908],[-102.283,56.9766],[-102.2799,56.9681],[-102.2662,56.954],[-102.2631,56.9454],[-102.265,56.936],[-102.2697,56.9281],[-102.283,56.9219],[-102.2948,56.9051],[-102.284,56.8928],[-102.2618,56.8904],[-102.239,56.9039],[-102.2066,56.9378],[-102.1873,56.9504],[-102.1666,56.9555],[-102.1398,56.9587],[-102.133,56.9672],[-102.1395,57.0005],[-102.1352,57.0388],[-102.1377,57.0526],[-102.1501,57.0691],[-102.1713,57.1018]],[[-102.4344,57.49],[-102.4534,57.495],[-102.4689,57.4935],[-102.4833,57.4859],[-102.4991,57.4729],[-102.5126,57.4647],[-102.5279,57.4621],[-102.561,57.4626],[-102.5878,57.4594],[-102.6208,57.45],[-102.6487,57.4353],[-102.6604,57.4155],[-102.6571,57.4052],[-102.6414,57.4085],[-102.6215,57.417],[-102.6058,57.4217],[-102.583,57.417],[-102.5538,57.3979],[-102.5369,57.3943],[-102.52,57.4029],[-102.5033,57.435],[-102.4921,57.4423],[-102.4748,57.4473],[-102.4596,57.46],[-102.4344,57.49]]]}}
