{"type":"Feature","properties":{"id":1042,"name":"Rybinsk Reservoir","featurecla":"Reservoir","scalerank":2,"wikidataid":"Q375029","source":"Natural Earth 5.2.0-pre ne_10m_lakes (public domain)"},"geometry":{"type":"Polygon","coordinates":[[[38.6796,58.1082],[38.6334,58.13],[38.6116,58.1241],[38.606,58.1155],[38.6037,58.1076],[38.5995,58.1002],[38.5881,58.0932],[38.573,58.0911],[38.5616,58.0955],[38.5398,58.1099],[38.4933,58.1306],[38.4406,58.1459],[38.3882,58.145],[38.344,58.117],[38.3299,58.0964],[38.3308,58.0855],[38.3846,58.0611],[38.4282,58.034],[38.437,58.0213],[38.4247,58.0158],[38.3967,58.0222],[38.3476,58.0419],[38.3346,58.0449],[38.306,58.0417],[38.2907,58.0437],[38.281,58.0425],[38.2737,58.0364],[38.2651,58.0322],[38.2516,58.0387],[38.2545,58.0425],[38.2584,58.0523],[38.2531,58.0534],[38.2431,58.0573],[38.2378,58.0584],[38.2498,58.0737],[38.2469,58.0879],[38.2375,58.1029],[38.231,58.1205],[38.233,58.1423],[38.2431,58.1565],[38.2719,58.1821],[38.2642,58.1986],[38.2645,58.2136],[38.2616,58.2283],[38.2439,58.2448],[38.2195,58.2545],[38.1857,58.2613],[38.1518,58.2633],[38.1285,58.2577],[38.1424,58.2509],[38.0876,58.2509],[38.09,58.2548],[38.0944,58.2645],[38.0703,58.2677],[38.0341,58.2819],[37.9914,58.2892],[37.9563,58.3078],[37.9363,58.3131],[37.9113,58.3142],[37.9069,58.3107],[37.9122,58.3007],[37.9163,58.2816],[37.9098,58.268],[37.896,58.2777],[37.8504,58.3316],[37.765,58.3814],[37.76,58.3861],[37.7479,58.4049],[37.7365,58.4117],[37.717,58.4078],[37.7064,58.4117],[37.702,58.4181],[37.7008,58.424],[37.6982,58.4302],[37.6897,58.4364],[37.6782,58.439],[37.6352,58.4364],[37.644,58.4461],[37.6481,58.4496],[37.6234,58.4708],[37.609,58.48],[37.5943,58.4835],[37.5863,58.4882],[37.5563,58.5215],[37.5375,58.5309],[37.5189,58.5282],[37.503,58.5229],[37.4913,58.5247],[37.4857,58.5368],[37.4871,58.5524],[37.4924,58.568],[37.4986,58.5798],[37.4456,58.5948],[37.4244,58.6051],[37.4018,58.621],[37.3764,58.6348],[37.3241,58.6492],[37.2993,58.6619],[37.2669,58.6878],[37.2472,58.6951],[37.2169,58.6966],[37.1989,58.6943],[37.1554,58.6828],[37.1374,58.6834],[37.1042,58.6898],[37.0865,58.6898],[37.0865,58.6966],[37.178,58.711],[37.2098,58.7102],[37.1984,58.729],[37.1642,58.7561],[37.1486,58.7717],[37.1365,58.7946],[37.1398,58.8085],[37.1542,58.8173],[37.1751,58.8264],[37.1583,58.84],[37.1374,58.8526],[37.1221,58.8662],[37.1206,58.8815],[37.1981,58.8423],[37.2098,58.8297],[37.216,58.8108],[37.2307,58.7893],[37.2487,58.772],[37.2649,58.7649],[37.3123,58.7711],[37.3264,58.7681],[37.3364,58.7599],[37.3391,58.7502],[37.3405,58.7405],[37.347,58.7308],[37.375,58.7213],[37.4118,58.7237],[37.4489,58.7331],[37.4774,58.7443],[37.4536,58.7222],[37.4241,58.704],[37.392,58.6907],[37.3608,58.6828],[37.3764,58.6651],[37.4389,58.6242],[37.4639,58.6139],[37.4865,58.613],[37.4989,58.6192],[37.5071,58.6289],[37.5183,58.6377],[37.5283,58.6357],[37.5401,58.6257],[37.5548,58.6157],[37.5737,58.6139],[37.5616,58.603],[37.5495,58.5874],[37.5445,58.5697],[37.5534,58.5521],[37.5654,58.5459],[37.5781,58.5465],[37.6046,58.5521],[37.6172,58.5483],[37.6384,58.535],[37.6484,58.5356],[37.6799,58.5583],[37.6944,58.5753],[37.6932,58.5898],[37.6735,58.5971],[37.6543,58.5927],[37.6367,58.5933],[37.6214,58.6139],[37.6364,58.6201],[37.642,58.621],[37.6281,58.6269],[37.6149,58.6277],[37.6049,58.6313],[37.601,58.6448],[37.6081,58.6516],[37.6243,58.6528],[37.6549,58.648],[37.6773,58.6363],[37.6958,58.621],[37.7164,58.6092],[37.7444,58.6071],[37.7356,58.623],[37.7309,58.6283],[37.7541,58.6336],[37.7771,58.6254],[37.8201,58.6004],[37.8972,58.578],[37.931,58.555],[37.9404,58.5553],[37.9487,58.5586],[37.9566,58.5594],[37.9669,58.5547],[37.9887,58.5415],[37.9981,58.5388],[38.0591,58.5291],[38.0844,58.5297],[38.0944,58.5465],[38.0867,58.5615],[38.0461,58.6004],[38.0588,58.6157],[38.1156,58.6068],[38.1285,58.6174],[38.12,58.6289],[38.1006,58.6436],[38.0785,58.6566],[38.0635,58.6619],[38.0511,58.6639],[38.0258,58.6731],[38.012,58.6754],[37.9608,58.6689],[37.9437,58.6692],[37.9599,58.6813],[37.982,58.686],[38.0261,58.6898],[37.9984,58.7001],[37.9422,58.7072],[37.9163,58.7163],[37.924,58.7208],[37.9316,58.7237],[37.9402,58.7249],[37.9505,58.7237],[37.9413,58.7355],[37.9299,58.7431],[37.9234,58.7511],[37.9301,58.7649],[37.9437,58.7525],[37.9749,58.7422],[37.9881,58.734],[37.999,58.724],[38.0143,58.7134],[38.0311,58.7072],[38.0461,58.7102],[38.0529,58.7296],[38.0417,58.7546],[38.012,58.7923],[38.0061,58.7979],[37.9996,58.8017],[37.994,58.8061],[37.9914,58.8126],[37.9949,58.8191],[38.0031,58.8244],[38.0099,58.83],[38.0064,58.847],[38.0096,58.86],[38.0099,58.8726],[37.9981,58.8815],[37.9737,58.8718],[37.944,58.8482],[37.916,58.8376],[37.8957,58.8673],[37.9013,58.8682],[37.911,58.8726],[37.9163,58.8741],[37.8969,58.8856],[37.8695,58.8915],[37.8504,58.8991],[37.8542,58.9156],[37.8377,58.9224],[37.7785,58.9286],[37.7453,58.9412],[37.7285,58.9442],[37.71,58.9395],[37.6752,58.9253],[37.6552,58.9239],[37.6384,58.9324],[37.6219,58.9389],[37.6019,58.9339],[37.5666,58.9156],[37.551,58.9118],[37.5389,58.9103],[37.5304,58.9047],[37.5251,58.8882],[37.5278,58.8768],[37.5428,58.8541],[37.5463,58.8403],[37.5319,58.8247],[37.4977,58.8361],[37.4365,58.8673],[37.4774,58.8971],[37.491,58.9159],[37.4762,58.9515],[37.4877,58.9562],[37.5351,58.9586],[37.5478,58.9633],[37.5737,58.9771],[37.5793,58.9813],[37.5831,58.986],[37.5872,58.9898],[37.5943,58.9913],[37.6005,58.9892],[37.6046,58.9842],[37.6078,58.9771],[37.6255,58.9763],[37.6428,58.9774],[37.6596,58.981],[37.7176,59.0039],[37.7238,59.0081],[37.72,59.0225],[37.7097,59.0304],[37.6823,59.0387],[37.6967,59.0446],[37.7029,59.046],[37.6791,59.0825],[37.6761,59.0937],[37.6811,59.1008],[37.6991,59.1011],[37.7029,59.1078],[37.7002,59.1152],[37.6935,59.1187],[37.6849,59.1208],[37.5389,59.1894],[37.6623,59.1538],[37.7035,59.1485],[37.7179,59.1446],[37.7285,59.1385],[37.7394,59.1364],[37.7547,59.1452],[37.7691,59.1567],[37.7765,59.1567],[37.7838,59.1502],[37.7992,59.1423],[37.8351,59.134],[37.8551,59.1329],[37.8748,59.1346],[37.8904,59.1405],[37.9246,59.1579],[37.9399,59.1614],[37.9513,59.167],[37.974,59.1938],[37.9846,59.2038],[38.0023,59.2103],[38.0199,59.2118],[38.0603,59.21],[38.0423,59.2047],[38.0261,59.1967],[38.0179,59.1909],[38.0017,59.1723],[37.9505,59.1423],[37.9696,59.1237],[38.1082,59.1014],[38.1447,59.0864],[38.1633,59.0831],[38.1801,59.0905],[38.1877,59.102],[38.1862,59.1123],[38.1809,59.1229],[38.1765,59.1346],[38.1768,59.1455],[38.1798,59.1555],[38.1801,59.1664],[38.1733,59.1794],[38.1577,59.1894],[38.1144,59.1976],[38.0944,59.2038],[38.11,59.2162],[38.1297,59.2194],[38.1874,59.2159],[38.1998,59.2126],[38.2007,59.2044],[38.1839,59.1894],[38.2021,59.1864],[38.2225,59.1785],[38.241,59.1685],[38.2548,59.1582],[38.2766,59.1461],[38.3034,59.1402],[38.3308,59.1396],[38.3537,59.1423],[38.3746,59.1485],[38.3829,59.1564],[38.3891,59.1673],[38.4029,59.1832],[38.4197,59.1944],[38.478,59.2168],[38.4715,59.2067],[38.437,59.1832],[38.4276,59.1729],[38.4091,59.1423],[38.3894,59.1205],[38.387,59.119],[38.369,59.1031],[38.3682,59.1014],[38.3552,59.0928],[38.3493,59.0899],[38.3408,59.0869],[38.3299,59.0872],[38.3202,59.0908],[38.3108,59.0928],[38.2993,59.0869],[38.3166,59.0766],[38.3172,59.0678],[38.3058,59.0646],[38.2628,59.0766],[38.2201,59.0728],[38.1968,59.0734],[38.2024,59.0702],[38.2172,59.0596],[38.1742,59.0531],[38.1627,59.0528],[38.1497,59.0572],[38.1294,59.0705],[38.1074,59.0761],[38.0664,59.0937],[38.0199,59.0996],[37.9534,59.1173],[37.8851,59.1179],[37.8186,59.1078],[37.7724,59.0869],[37.7797,59.0831],[37.7862,59.0813],[37.8024,59.0808],[37.8115,59.079],[37.8162,59.0749],[37.8198,59.0702],[37.8262,59.0666],[37.873,59.0554],[37.8886,59.0496],[37.9042,59.0451],[37.9307,59.0478],[37.9437,59.046],[37.9537,59.0401],[37.9743,59.0148],[37.9846,59.0057],[38.019,58.9877],[38.0338,58.9863],[38.0594,59.003],[38.0741,59.0051],[38.0932,58.9936],[38.1218,58.9565],[38.1556,58.9171],[38.6911,58.5656],[38.7252,58.5506],[38.8035,58.5282],[38.8409,58.5247],[38.8565,58.5206],[38.8865,58.502],[38.9027,58.4979],[39.0746,58.5047],[38.9916,58.4803],[38.9554,58.4561],[38.961,58.4255],[38.9657,58.4187],[38.9695,58.4049],[38.9746,58.3981],[38.9837,58.3922],[39.0005,58.384],[39.0261,58.3655],[39.0643,58.3481],[39.0808,58.3328],[38.9531,58.3602],[38.8798,58.3613],[38.8474,58.3298],[38.84,58.3078],[38.8071,58.2742],[38.7997,58.2545],[38.7997,58.2171],[38.8065,58.1821],[38.8338,58.142],[38.8453,58.12],[38.8441,58.1035],[38.8309,58.0973],[38.8147,58.0991],[38.7988,58.1055],[38.7779,58.1182],[38.7753,58.1211],[38.7723,58.1273],[38.7714,58.135],[38.7747,58.14],[38.7782,58.1438],[38.7791,58.1479],[38.7629,58.1726],[38.7361,58.1921],[38.7052,58.2053],[38.6767,58.21],[38.6522,58.2215],[38.6204,58.243],[38.5895,58.2548],[38.568,58.2371],[38.5875,58.2247],[38.6178,58.1918],[38.6546,58.1665],[38.704,58.1132],[38.6796,58.1082]]]}}
