{"type":"Feature","properties":{"id":1043,"name":"Réservoir Manicouagan","featurecla":"Reservoir","scalerank":2,"wikidataid":"Q756106","source":"Natural Earth 5.2.0-pre ne_10m_lakes (public domain)"},"geometry":{"type":"Polygon","coordinates":[[[-68.1719,51.3172],[-68.1644,51.2992],[-68.1759,51.2863],[-68.2296,51.2672],[-68.2464,51.2545],[-68.2482,51.243],[-68.2448,51.2365],[-68.2436,51.2307],[-68.2526,51.2204],[-68.2614,51.2177],[-68.3042,51.2136],[-68.3269,51.2056],[-68.3294,51.1856],[-68.3254,51.1609],[-68.3288,51.1379],[-68.3378,51.1256],[-68.343,51.1259],[-68.348,51.132],[-68.3562,51.1379],[-68.3603,51.1423],[-68.3722,51.1506],[-68.3846,51.1535],[-68.3903,51.1412],[-68.4027,51.1441],[-68.4791,51.1235],[-68.5118,51.1073],[-68.6216,51.0281],[-68.6463,51.0022],[-68.6645,50.9719],[-68.6715,50.9392],[-68.6609,50.9072],[-68.6585,50.8865],[-68.6781,50.8683],[-68.7049,50.8156],[-68.7283,50.7891],[-68.7365,50.7762],[-68.7398,50.7576],[-68.7402,50.7226],[-68.7381,50.7055],[-68.7323,50.6929],[-68.7496,50.6929],[-68.7567,50.7188],[-68.7602,50.7747],[-68.7496,50.7912],[-68.7499,50.8347],[-68.7429,50.8533],[-68.703,50.903],[-68.6988,50.918],[-68.7108,50.9325],[-68.7317,50.9422],[-68.7514,50.9545],[-68.7602,50.9763],[-68.7948,51.0134],[-68.7936,51.039],[-68.7944,51.0484],[-68.8668,51.097],[-68.8937,51.1273],[-68.9025,51.1335],[-68.9377,51.1447],[-69.0,51.1765],[-69.0169,51.1894],[-69.0674,51.2418],[-69.0824,51.2545],[-69.1196,51.2675],[-69.1224,51.2728],[-69.1235,51.2972],[-69.1264,51.3057],[-69.1448,51.3066],[-69.1613,51.291],[-69.1734,51.2831],[-69.1781,51.3057],[-69.177,51.399],[-69.1754,51.4087],[-69.1717,51.4191],[-69.1628,51.4246],[-69.1498,51.4302],[-69.146,51.4352],[-69.1642,51.4397],[-69.1542,51.4582],[-69.151,51.4944],[-69.1444,51.5147],[-69.1364,51.5218],[-69.1261,51.5247],[-69.116,51.5297],[-69.109,51.5427],[-69.1111,51.5506],[-69.1176,51.5565],[-69.1217,51.5636],[-69.1165,51.5765],[-69.1285,51.5804],[-69.1357,51.5865],[-69.1507,51.6039],[-69.1578,51.6089],[-69.1854,51.6239],[-69.2605,51.6928],[-69.2756,51.7152],[-69.2804,51.7199],[-69.2865,51.7222],[-69.3011,51.7243],[-69.3083,51.727],[-69.3114,51.7302],[-69.3136,51.7387],[-69.3151,51.7411],[-69.3523,51.7617],[-69.3623,51.7767],[-69.3635,51.8026],[-69.3308,51.7741],[-69.3132,51.7664],[-69.2946,51.7685],[-69.2823,51.7785],[-69.269,51.8094],[-69.2605,51.8238],[-69.2537,51.8067],[-69.257,51.7885],[-69.2636,51.7696],[-69.2673,51.7511],[-69.263,51.7323],[-69.2521,51.7193],[-69.1651,51.6487],[-69.1261,51.6322],[-69.0959,51.6448],[-69.0918,51.659],[-69.0886,51.7169],[-69.0905,51.7273],[-69.0995,51.7449],[-69.1029,51.7546],[-69.1042,51.7652],[-69.1029,51.792],[-69.0993,51.8126],[-69.0928,51.827],[-69.0896,51.8418],[-69.0959,51.8641],[-69.1061,51.8836],[-69.1108,51.8974],[-69.1062,51.9115],[-69.0886,51.933],[-69.0833,51.9142],[-69.0597,51.8847],[-69.0544,51.8671],[-69.0561,51.8485],[-69.0681,51.7958],[-69.0687,51.7688],[-69.0606,51.6834],[-69.051,51.6654],[-69.0409,51.659],[-69.0209,51.628],[-69.0066,51.6169],[-68.9864,51.6127],[-68.9679,51.6157],[-68.9508,51.6254],[-68.9346,51.6413],[-68.9198,51.6528],[-68.8828,51.6693],[-68.8702,51.6784],[-68.8615,51.6978],[-68.8637,51.7352],[-68.8559,51.7546],[-68.855,51.7273],[-68.8459,51.7019],[-68.8298,51.6825],[-68.8086,51.6722],[-68.7911,51.6722],[-68.7633,51.6831],[-68.7496,51.6857],[-68.7421,51.6831],[-68.7352,51.6772],[-68.7264,51.6722],[-68.7124,51.6722],[-68.71,51.6746],[-68.7019,51.6893],[-68.6925,51.6937],[-68.6818,51.6922],[-68.6707,51.6881],[-68.661,51.6857],[-68.6294,51.6878],[-68.6147,51.6919],[-68.6026,51.7002],[-68.5935,51.7202],[-68.6011,51.7384],[-68.6129,51.7596],[-68.6169,51.7882],[-68.5986,51.7755],[-68.5857,51.7546],[-68.5702,51.7355],[-68.5442,51.727],[-68.5311,51.7399],[-68.4991,51.8008],[-68.4928,51.82],[-68.4928,51.9056],[-68.5018,51.9277],[-68.5157,51.9498],[-68.5216,51.9719],[-68.5069,51.9942],[-68.4891,51.971],[-68.4707,51.9348],[-68.4591,51.8983],[-68.462,51.8738],[-68.4647,51.8674],[-68.466,51.8571],[-68.4653,51.8476],[-68.462,51.8435],[-68.4488,51.8456],[-68.4466,51.8503],[-68.4495,51.855],[-68.4517,51.8571],[-68.4266,51.8912],[-68.4083,51.908],[-68.3903,51.9118],[-68.3939,51.8933],[-68.451,51.8156],[-68.4654,51.7852],[-68.4735,51.7431],[-68.4946,51.7175],[-68.5542,51.6784],[-68.5392,51.6728],[-68.501,51.6651],[-68.4853,51.6654],[-68.4707,51.671],[-68.4505,51.6875],[-68.438,51.6928],[-68.4045,51.6875],[-68.3575,51.6422],[-68.3251,51.6313],[-68.3104,51.6345],[-68.2705,51.6516],[-68.2598,51.6581],[-68.2355,51.6863],[-68.2224,51.6928],[-68.2155,51.6996],[-68.1959,51.7328],[-68.1874,51.7443],[-68.1844,51.7537],[-68.1877,51.7679],[-68.1978,51.7958],[-68.1706,51.7752],[-68.1646,51.7449],[-68.1703,51.7131],[-68.185,51.6852],[-68.2053,51.6654],[-68.2947,51.6245],[-68.3151,51.6039],[-68.2982,51.5898],[-68.2523,51.5771],[-68.2389,51.563],[-68.2557,51.5633],[-68.2713,51.5665],[-68.286,51.568],[-68.3009,51.563],[-68.2917,51.5512],[-68.2864,51.535],[-68.2804,51.5009],[-68.2811,51.4918],[-68.2845,51.4865],[-68.2841,51.4812],[-68.2742,51.4735],[-68.2655,51.4714],[-68.232,51.4735],[-68.2385,51.4653],[-68.2549,51.4535],[-68.2599,51.4455],[-68.2605,51.4332],[-68.2555,51.4255],[-68.2493,51.4188],[-68.2464,51.4085],[-68.2474,51.4037],[-68.2535,51.3917],[-68.2605,51.382],[-68.2586,51.379],[-68.2546,51.3773],[-68.2526,51.374],[-68.2504,51.3667],[-68.2449,51.3575],[-68.2382,51.349],[-68.232,51.3431],[-68.2124,51.3346],[-68.19,51.3275],[-68.1719,51.3172]],[[-68.5889,51.11],[-68.6381,51.1179],[-68.6913,51.0788],[-68.7258,51.0211],[-68.7186,50.9728],[-68.7003,50.9593],[-68.694,50.9643],[-68.6913,50.9946],[-68.6837,51.0081],[-68.6735,51.0155],[-68.662,51.0205],[-68.6088,51.0614],[-68.5929,51.0829],[-68.5889,51.11]],[[-68.3697,51.2892],[-68.3893,51.3037],[-68.4243,51.314],[-68.489,51.3228],[-68.5049,51.3302],[-68.5194,51.3478],[-68.5405,51.3843],[-68.5542,51.4199],[-68.5645,51.4379],[-68.5787,51.4455],[-68.5955,51.4494],[-68.5895,51.457],[-68.5757,51.4647],[-68.5684,51.4673],[-68.5637,51.4782],[-68.5662,51.4856],[-68.5646,51.4906],[-68.548,51.4941],[-68.5247,51.4912],[-68.5074,51.4782],[-68.4965,51.4588],[-68.4928,51.4361],[-68.4929,51.4111],[-68.4906,51.3937],[-68.4807,51.3796],[-68.4586,51.3643],[-68.4369,51.3537],[-68.4096,51.3458],[-68.3865,51.3496],[-68.3767,51.374],[-68.3802,51.3984],[-68.3908,51.4202],[-68.408,51.437],[-68.4313,51.4455],[-68.3945,51.4617],[-68.3817,51.4744],[-68.3767,51.4976],[-68.3812,51.5153],[-68.3924,51.5339],[-68.4176,51.563],[-68.4516,51.5857],[-68.5369,51.6172],[-68.5752,51.6375],[-68.6504,51.6593],[-68.6751,51.6563],[-68.7209,51.636],[-68.7465,51.6313],[-68.7735,51.6295],[-68.9153,51.5924],[-69.0066,51.5221],[-69.1023,51.4226],[-69.1115,51.4014],[-69.109,51.3775],[-69.0964,51.3628],[-69.0781,51.3511],[-69.0616,51.336],[-69.0544,51.3128],[-69.0512,51.2919],[-69.0419,51.271],[-69.0269,51.2545],[-69.0066,51.2477],[-69.0045,51.2677],[-68.9897,51.2654],[-68.9626,51.2477],[-68.9315,51.2477],[-68.9268,51.2513],[-68.9234,51.2577],[-68.919,51.2589],[-68.9109,51.2477],[-68.9151,51.2312],[-68.9022,51.2212],[-68.8818,51.2156],[-68.8632,51.2136],[-68.8687,51.2012],[-68.8702,51.1894],[-68.8663,51.1794],[-68.8559,51.1721],[-68.8441,51.2036],[-68.8335,51.2092],[-68.8148,51.1992],[-68.8055,51.1868],[-68.8001,51.173],[-68.7916,51.1603],[-68.7733,51.1515],[-68.7533,51.1506],[-68.7049,51.1644],[-68.6859,51.1621],[-68.6569,51.1521],[-68.6361,51.1515],[-68.6026,51.1559],[-68.5817,51.1621],[-68.5684,51.1721],[-68.5662,51.1897],[-68.5724,51.2024],[-68.573,51.2086],[-68.5542,51.2068],[-68.5365,51.2006],[-68.5202,51.1924],[-68.5021,51.1862],[-68.4791,51.1862],[-68.4629,51.19],[-68.4479,51.1962],[-68.4399,51.2062],[-68.4444,51.2204],[-68.4235,51.2295],[-68.3954,51.2454],[-68.373,51.2663],[-68.3697,51.2892]]]}}
