{"type":"Feature","properties":{"id":1044,"name":"Syvash","featurecla":"Alkaline Lake","scalerank":2,"source":"Natural Earth 5.2.0-pre ne_10m_lakes (public domain)"},"geometry":{"type":"Polygon","coordinates":[[[35.4066,45.3001],[35.4245,45.2975],[35.441,45.2922],[35.4554,45.2792],[35.4336,45.2612],[35.4201,45.2542],[35.4045,45.2512],[35.3865,45.2565],[35.3712,45.2683],[35.3592,45.2801],[35.3498,45.2854],[35.2349,45.3145],[35.2164,45.3234],[35.2093,45.3307],[35.1934,45.3366],[35.1752,45.3401],[35.1617,45.3404],[35.1443,45.3363],[35.1334,45.3322],[35.1228,45.3325],[35.0648,45.3646],[35.0519,45.3749],[35.0242,45.4128],[35.0103,45.4226],[35.0103,45.4299],[35.0224,45.434],[35.056,45.4396],[35.0689,45.4467],[35.0748,45.4508],[35.0878,45.4579],[35.0922,45.4635],[35.0957,45.4744],[35.0937,45.4776],[35.0892,45.4805],[35.0722,45.5491],[35.0669,45.5615],[35.043,45.5777],[35.0377,45.5903],[35.0339,45.6048],[35.0257,45.6115],[35.0142,45.6157],[35.0033,45.6218],[34.9768,45.6631],[34.9656,45.6689],[34.915,45.6654],[34.9003,45.6689],[34.892,45.6748],[34.8802,45.6901],[34.8723,45.6969],[34.8652,45.6999],[34.839,45.7037],[34.8473,45.7131],[34.8649,45.7249],[34.8723,45.7316],[34.8723,45.7372],[34.8511,45.7349],[34.814,45.7196],[34.7916,45.7172],[34.7554,45.726],[34.7372,45.7284],[34.716,45.7243],[34.7313,45.7419],[34.7534,45.762],[34.7648,45.7837],[34.7501,45.8061],[34.7242,45.8132],[34.6986,45.8055],[34.673,45.7932],[34.6471,45.7855],[34.6524,45.7982],[34.6656,45.8161],[34.6683,45.8303],[34.6718,45.8406],[34.6804,45.8482],[34.6927,45.8529],[34.706,45.8544],[34.7089,45.8559],[34.7401,45.86],[34.7472,45.8582],[34.7545,45.867],[34.7569,45.8776],[34.7554,45.8894],[34.7501,45.9024],[34.7228,45.8797],[34.7072,45.8715],[34.6648,45.8656],[34.6477,45.8588],[34.5464,45.7926],[34.5061,45.7779],[34.4617,45.772],[34.4617,45.7787],[34.4923,45.7926],[34.5032,45.7999],[34.5082,45.8079],[34.5132,45.8194],[34.5208,45.8297],[34.5338,45.8341],[34.5411,45.8394],[34.5461,45.8629],[34.5547,45.8682],[34.5679,45.8694],[34.5809,45.8726],[34.5915,45.8771],[34.6,45.8818],[34.6077,45.8882],[34.6227,45.9038],[34.6268,45.9097],[34.6327,45.925],[34.6321,45.9324],[34.6286,45.9377],[34.6268,45.9474],[34.6156,45.9527],[34.5441,45.9707],[34.5441,45.9645],[34.5644,45.9495],[34.5753,45.9392],[34.5788,45.9297],[34.5691,45.9183],[34.5526,45.9192],[34.5373,45.923],[34.5305,45.9197],[34.527,45.9109],[34.5185,45.8991],[34.4999,45.8785],[34.4881,45.8756],[34.4773,45.8853],[34.4617,45.9097],[34.4752,45.9253],[34.4826,45.9297],[34.4655,45.9362],[34.4449,45.9324],[34.4278,45.9192],[34.4204,45.8988],[34.4178,45.8741],[34.4116,45.8647],[34.4069,45.8712],[34.4069,45.8956],[34.4007,45.8956],[34.3981,45.8888],[34.3939,45.885],[34.3881,45.8832],[34.3795,45.8818],[34.3831,45.8853],[34.386,45.8888],[34.3875,45.8941],[34.3866,45.9024],[34.3592,45.8818],[34.3622,45.8918],[34.371,45.908],[34.3728,45.9197],[34.3778,45.9247],[34.4001,45.9324],[34.4069,45.9365],[34.4107,45.9562],[34.3969,45.9668],[34.3757,45.9745],[34.3592,45.9848],[34.3669,45.9857],[34.3866,45.9916],[34.363,46.0169],[34.3498,46.026],[34.3313,46.0251],[34.3274,46.0201],[34.323,46.003],[34.3183,45.998],[34.3083,45.9969],[34.2977,45.9992],[34.288,46.0033],[34.2806,46.0086],[34.2768,46.0231],[34.2791,46.0398],[34.2771,46.046],[34.2397,46.0075],[34.2268,46.0045],[34.2159,46.0184],[34.2285,46.0292],[34.212,46.0363],[34.1673,46.0463],[34.1611,46.0387],[34.1564,46.0434],[34.1502,46.0478],[34.1423,46.0513],[34.1334,46.0531],[34.1296,46.0543],[34.1214,46.059],[34.1161,46.0599],[34.1131,46.0578],[34.1119,46.0531],[34.1131,46.0484],[34.1161,46.0463],[34.127,46.0428],[34.1847,46.0086],[34.1953,46.0004],[34.2008,45.9886],[34.202,45.9674],[34.1961,45.9501],[34.182,45.9456],[34.1658,45.9445],[34.1537,45.9365],[34.1281,45.9548],[34.1172,45.9683],[34.1128,45.9848],[34.1296,45.9792],[34.1446,45.9789],[34.1573,45.9833],[34.1673,45.9916],[34.1673,45.998],[34.1122,46.0334],[34.079,46.0454],[34.0375,46.0872],[34.0189,46.0964],[33.9989,46.1008],[33.9518,46.1017],[33.9397,46.0987],[33.9433,46.0922],[33.9618,46.0805],[33.9736,46.0775],[33.9836,46.0784],[33.9913,46.0769],[33.996,46.0669],[33.9765,46.0607],[33.976,46.0522],[33.9842,46.0413],[33.9892,46.0289],[33.9815,46.0175],[33.9654,46.0201],[33.9498,46.0281],[33.9448,46.0328],[33.9371,46.0369],[33.9327,46.0463],[33.9265,46.0557],[33.9135,46.0599],[33.9038,46.0557],[33.8947,46.0466],[33.8829,46.0393],[33.8656,46.0387],[33.8732,46.0463],[33.8676,46.0525],[33.8662,46.0551],[33.8656,46.0599],[33.8856,46.0652],[33.8765,46.0816],[33.8385,46.1152],[33.8488,46.1223],[33.8523,46.1326],[33.852,46.1594],[33.8458,46.1649],[33.8043,46.1767],[33.8043,46.1435],[33.7996,46.1279],[33.787,46.1214],[33.7419,46.1396],[33.7322,46.1455],[33.6878,46.2029],[33.6798,46.2103],[33.6678,46.2176],[33.6678,46.2238],[33.6951,46.2238],[33.714,46.2191],[33.7278,46.2256],[33.7408,46.2365],[33.7558,46.2456],[33.7714,46.2474],[33.7923,46.2447],[33.8102,46.2382],[33.8179,46.2276],[33.8229,46.2241],[33.8341,46.2232],[33.8556,46.2238],[33.8656,46.2253],[33.8812,46.2312],[33.8938,46.2312],[33.9521,46.2138],[33.9721,46.2109],[33.9818,46.2012],[34.0069,46.1591],[34.0204,46.1493],[34.026,46.1473],[34.0284,46.1426],[34.0304,46.1379],[34.0339,46.1358],[34.0395,46.1367],[34.0425,46.1387],[34.0445,46.1408],[34.0548,46.144],[34.0604,46.1482],[34.0672,46.1508],[34.0778,46.1493],[34.0778,46.1467],[34.0799,46.1399],[34.0825,46.1329],[34.0855,46.1282],[34.0896,46.1273],[34.1011,46.1284],[34.1061,46.1282],[34.1264,46.124],[34.1381,46.1243],[34.1367,46.132],[34.132,46.1417],[34.1234,46.1652],[34.1161,46.17],[34.1049,46.1714],[34.0949,46.1752],[34.0778,46.1835],[34.0778,46.1903],[34.1049,46.1858],[34.1155,46.1891],[34.1196,46.2009],[34.1243,46.2097],[34.1352,46.2079],[34.1467,46.2],[34.1537,46.1903],[34.1535,46.1832],[34.1476,46.1623],[34.1546,46.1505],[34.159,46.147],[34.1611,46.1529],[34.202,46.1835],[34.167,46.2067],[34.1532,46.22],[34.1476,46.2347],[34.1482,46.26],[34.1526,46.2762],[34.1629,46.2827],[34.1817,46.2792],[34.2132,46.2606],[34.2373,46.2344],[34.2897,46.1614],[34.2933,46.1543],[34.2971,46.142],[34.2965,46.1176],[34.2986,46.1064],[34.308,46.1017],[34.3183,46.1125],[34.3265,46.1373],[34.3313,46.1629],[34.3313,46.1767],[34.3224,46.1817],[34.2986,46.1841],[34.2909,46.1903],[34.2921,46.1973],[34.2995,46.2035],[34.3077,46.2088],[34.3112,46.2144],[34.3204,46.2126],[34.3795,46.1903],[34.4487,46.1523],[34.4846,46.1455],[34.5173,46.1623],[34.5229,46.1779],[34.5273,46.1864],[34.5338,46.1903],[34.5444,46.1873],[34.5573,46.1794],[34.5682,46.1694],[34.5726,46.1594],[34.5726,46.132],[34.5706,46.1208],[34.5606,46.1078],[34.5585,46.0981],[34.5523,46.0852],[34.5391,46.0981],[34.527,46.1184],[34.5241,46.1282],[34.5123,46.1217],[34.5011,46.1043],[34.4929,46.0946],[34.4896,46.1117],[34.492,46.117],[34.4955,46.1226],[34.4943,46.127],[34.4826,46.1282],[34.4487,46.1078],[34.4396,46.0908],[34.4399,46.0728],[34.4496,46.0572],[34.469,46.0463],[34.4614,46.0342],[34.4525,46.0366],[34.4413,46.044],[34.4275,46.0463],[34.4169,46.039],[34.4057,46.0248],[34.4013,46.0113],[34.4107,46.0054],[34.4381,46.0057],[34.4617,46.003],[34.4725,45.993],[34.4617,45.9707],[34.4828,45.9668],[34.5143,45.9948],[34.5553,45.9824],[34.5756,45.9969],[34.6294,46.0713],[34.6333,46.084],[34.6294,46.1022],[34.6215,46.1214],[34.6165,46.1414],[34.6203,46.1623],[34.6521,46.1844],[34.6977,46.1805],[34.7422,46.1623],[34.7707,46.142],[34.7787,46.1296],[34.7872,46.1114],[34.7881,46.0946],[34.7743,46.0872],[34.766,46.0905],[34.7528,46.1046],[34.7469,46.1078],[34.7219,46.1096],[34.683,46.102],[34.6704,46.0964],[34.6609,46.0872],[34.6801,46.0796],[34.698,46.066],[34.711,46.0501],[34.716,46.0357],[34.746,46.0154],[34.7537,46.0116],[34.7631,46.0163],[34.766,46.0263],[34.7707,46.036],[34.7846,46.0387],[34.7952,46.0292],[34.804,46.0083],[34.8102,45.9848],[34.8122,45.9674],[34.8125,45.9454],[34.8155,45.9356],[34.8222,45.9265],[34.8261,45.9239],[34.8384,45.9171],[34.8426,45.9159],[34.8479,45.913],[34.8461,45.9071],[34.8414,45.9024],[34.839,45.9024],[34.8367,45.9018],[34.8273,45.8959],[34.8255,45.8956],[34.8255,45.8897],[34.8278,45.8841],[34.8308,45.8812],[34.8328,45.8818],[34.8131,45.8279],[34.8114,45.8179],[34.8158,45.8135],[34.8273,45.8147],[34.8373,45.8173],[34.8458,45.8214],[34.8526,45.8267],[34.859,45.8353],[34.8617,45.8435],[34.8646,45.85],[34.8723,45.8544],[34.8838,45.8532],[34.8947,45.8464],[34.9044,45.8376],[34.9109,45.8303],[34.9203,45.8141],[34.9329,45.7764],[34.9421,45.759],[34.9771,45.7178],[34.9791,45.7099],[34.9812,45.706],[34.9965,45.6869],[34.9998,45.6748],[35.0074,45.6695],[35.0162,45.6669],[35.0239,45.6628],[35.0324,45.6519],[35.0519,45.6218],[35.0783,45.5971],[35.0845,45.5871],[35.1269,45.553],[35.3383,45.3401],[35.3453,45.3354],[35.3568,45.334],[35.3668,45.3304],[35.3733,45.3228],[35.3792,45.3139],[35.3877,45.3066],[35.4066,45.3001]]]}}
