{"type":"Feature","properties":{"id":1045,"name":"Wollaston Lake","featurecla":"Lake","scalerank":2,"wikidataid":"Q1640500","source":"Natural Earth 5.2.0-pre ne_10m_lakes (public domain)"},"geometry":{"type":"Polygon","coordinates":[[[-103.6209,58.4073],[-103.5711,58.4346],[-103.5579,58.4564],[-103.5488,58.4538],[-103.5401,58.4488],[-103.5333,58.442],[-103.5305,58.4329],[-103.5243,58.4205],[-103.5099,58.4181],[-103.4828,58.4223],[-103.387,58.4226],[-103.3695,58.4255],[-103.352,58.4346],[-103.23,58.4641],[-103.2102,58.4767],[-103.1948,58.4979],[-103.2079,58.5035],[-103.2425,58.5138],[-103.2494,58.5215],[-103.245,58.5285],[-103.2158,58.5594],[-103.1873,58.5724],[-103.1702,58.5692],[-103.1689,58.5541],[-103.188,58.5321],[-103.1732,58.5212],[-103.1527,58.5185],[-103.1309,58.5215],[-103.0775,58.54],[-103.072,58.5453],[-103.0682,58.5465],[-103.0629,58.5441],[-103.06,58.5394],[-103.0576,58.5321],[-103.0249,58.5303],[-102.9204,58.5521],[-102.9304,58.5371],[-102.9347,58.5321],[-102.9756,58.5109],[-102.9671,58.4994],[-102.9278,58.4632],[-102.9079,58.457],[-102.8682,58.457],[-102.8488,58.4461],[-102.838,58.4435],[-102.8042,58.4426],[-102.797,58.4396],[-102.794,58.4282],[-102.7867,58.4226],[-102.7768,58.4184],[-102.7665,58.4117],[-102.7674,58.3996],[-102.7809,58.3834],[-102.8112,58.354],[-102.8365,58.3207],[-102.8541,58.3072],[-102.8733,58.3054],[-102.8791,58.3192],[-102.8735,58.3404],[-102.8711,58.3572],[-102.8866,58.3569],[-102.9222,58.3393],[-102.9881,58.2925],[-103.0167,58.2645],[-102.9864,58.2442],[-103.0067,58.2324],[-103.0372,58.2215],[-103.0372,58.203],[-103.0204,58.1988],[-102.9159,58.2171],[-102.8931,58.2153],[-102.8972,58.1997],[-102.9203,58.1797],[-102.9509,58.1585],[-102.9836,58.1417],[-103.0136,58.135],[-103.0469,58.1173],[-103.0642,58.1129],[-103.0713,58.1273],[-103.0642,58.1376],[-103.0167,58.1685],[-103.0488,58.1779],[-103.0848,58.1618],[-103.147,58.1205],[-103.1917,58.1108],[-103.2361,58.107],[-103.2456,58.0991],[-103.2774,58.0455],[-103.269,58.0464],[-103.2432,58.0455],[-103.254,58.0243],[-103.29,57.989],[-103.3047,57.9698],[-103.2937,57.9648],[-103.2821,57.9631],[-103.2569,57.9636],[-103.2769,57.9336],[-103.3012,57.9051],[-103.305,57.8898],[-103.2877,57.8777],[-103.2494,57.8603],[-103.2456,57.8541],[-103.246,57.8503],[-103.2481,57.8453],[-103.2494,57.8362],[-103.2462,57.8253],[-103.2379,57.8256],[-103.228,57.8303],[-103.2035,57.838],[-103.1846,57.8494],[-103.1539,57.8742],[-103.1746,57.8365],[-103.2924,57.7196],[-103.3292,57.6996],[-103.4078,57.6681],[-103.3957,57.6787],[-103.3749,57.7023],[-103.3461,57.7229],[-103.3183,57.7582],[-103.2885,57.7761],[-103.2757,57.7864],[-103.2704,57.8017],[-103.2769,57.8112],[-103.3044,57.797],[-103.3108,57.8088],[-103.3172,57.8412],[-103.3351,57.8612],[-103.3623,57.8712],[-103.3972,57.8742],[-103.4733,57.8668],[-103.5151,57.8674],[-103.5374,57.8803],[-103.5261,57.888],[-103.524,57.8951],[-103.5302,57.9001],[-103.5442,57.9021],[-103.557,57.8995],[-103.5714,57.893],[-103.5957,57.8774],[-103.615,57.8547],[-103.6262,57.8468],[-103.639,57.8424],[-103.6678,57.8385],[-103.6814,57.8332],[-103.7008,57.8147],[-103.7171,57.7917],[-103.7344,57.7723],[-103.7572,57.7644],[-103.7723,57.7673],[-103.7913,57.7808],[-103.8049,57.7847],[-103.8215,57.782],[-103.8514,57.7644],[-103.8664,57.7582],[-103.86,57.7738],[-103.8503,57.79],[-103.8393,57.8047],[-103.8287,57.8159],[-103.8107,57.8244],[-103.7663,57.8312],[-103.7469,57.8433],[-103.7321,57.855],[-103.6814,57.8803],[-103.6674,57.8933],[-103.6477,57.9216],[-103.6329,57.9357],[-103.7155,57.9492],[-103.7276,57.9557],[-103.7376,57.9575],[-103.7469,57.9531],[-103.7588,57.9333],[-103.7639,57.9289],[-103.7784,57.9269],[-103.8006,57.9286],[-103.8215,57.9339],[-103.8322,57.943],[-103.826,57.9569],[-103.8068,57.9675],[-103.784,57.9742],[-103.7673,57.9766],[-103.7497,57.9843],[-103.7319,58.0175],[-103.7189,58.0249],[-103.6921,58.0237],[-103.6814,58.0249],[-103.6705,58.0284],[-103.6553,58.0369],[-103.625,58.0408],[-103.5856,58.0502],[-103.568,58.0523],[-103.5551,58.0599],[-103.5554,58.0764],[-103.5679,58.0908],[-103.592,58.0932],[-103.5383,58.1111],[-103.5168,58.125],[-103.5305,58.1412],[-103.5579,58.1414],[-103.5858,58.1264],[-103.6329,58.0932],[-103.6525,58.0882],[-103.6599,58.0908],[-103.6609,58.0964],[-103.6609,58.0999],[-103.6642,58.1046],[-103.664,58.1088],[-103.6665,58.112],[-103.678,58.1132],[-103.6945,58.1123],[-103.7011,58.1105],[-103.7087,58.107],[-103.7104,58.1023],[-103.7099,58.0955],[-103.7112,58.089],[-103.7255,58.0846],[-103.7435,58.0723],[-103.7558,58.0673],[-103.785,58.0599],[-103.7987,58.0584],[-103.7859,58.0702],[-103.7533,58.1099],[-103.7423,58.1155],[-103.6951,58.1273],[-103.6672,58.1403],[-103.6558,58.1479],[-103.6438,58.1588],[-103.6328,58.1721],[-103.6306,58.1806],[-103.6306,58.1894],[-103.6262,58.203],[-103.6422,58.2115],[-103.6463,58.2192],[-103.6412,58.2283],[-103.6084,58.2686],[-103.5953,58.2804],[-103.5554,58.2925],[-103.5564,58.3066],[-103.5711,58.316],[-103.5889,58.3092],[-103.6019,58.2995],[-103.6363,58.2845],[-103.6647,58.2639],[-103.6799,58.2577],[-103.6914,58.2592],[-103.6951,58.2713],[-103.6881,58.2804],[-103.5942,58.3658],[-103.5969,58.3816],[-103.6405,58.3881],[-103.6209,58.4073]],[[-103.5786,58.0178],[-103.592,58.004],[-103.5819,58.0022],[-103.578,57.9984],[-103.5797,57.9922],[-103.5858,57.984],[-103.5666,57.9784],[-103.5317,57.984],[-103.4444,58.0131],[-103.4292,58.0163],[-103.4107,58.0175],[-103.4011,58.0231],[-103.4072,58.0358],[-103.4281,58.0584],[-103.415,58.0711],[-103.4083,58.0761],[-103.4001,58.0796],[-103.4203,58.084],[-103.4506,58.0808],[-103.5039,58.0661],[-103.5786,58.0178]]]}}
