{"type":"Feature","properties":{"id":1046,"name":"Baker Lake","featurecla":"Lake","scalerank":3,"wikidataid":"Q1391737","source":"Natural Earth 5.2.0-pre ne_10m_lakes (public domain)"},"geometry":{"type":"Polygon","coordinates":[[[-96.3022,64.2427],[-96.3212,64.2542],[-96.2903,64.2625],[-96.2597,64.2542],[-96.23,64.2407],[-96.2022,64.2339],[-96.1383,64.2271],[-96.1059,64.2301],[-96.0816,64.2469],[-96.0799,64.2672],[-96.1069,64.2698],[-96.1711,64.2604],[-96.2007,64.2636],[-96.2282,64.2725],[-96.2528,64.2854],[-96.2734,64.3013],[-96.2064,64.2922],[-96.0141,64.3151],[-95.7923,64.2878],[-95.6529,64.3098],[-95.6133,64.3098],[-95.556,64.2854],[-95.5226,64.2904],[-95.4891,64.3022],[-95.4585,64.309],[-95.3058,64.2987],[-95.2296,64.2816],[-95.1233,64.2342],[-95.0846,64.2233],[-95.0443,64.2207],[-94.9711,64.231],[-94.8893,64.2268],[-94.8413,64.2304],[-94.8219,64.2292],[-94.821,64.2195],[-94.8039,64.213],[-94.7919,64.2156],[-94.781,64.2221],[-94.7664,64.2268],[-94.7498,64.2268],[-94.6921,64.2162],[-94.6682,64.2021],[-94.6563,64.1989],[-94.621,64.1998],[-94.6036,64.1977],[-94.5877,64.1915],[-94.6537,64.1847],[-94.6754,64.1771],[-94.6665,64.1547],[-94.6372,64.14],[-94.5948,64.1353],[-94.2754,64.1391],[-94.1967,64.1238],[-94.1996,64.1159],[-94.2043,64.1085],[-94.2108,64.102],[-94.2184,64.0964],[-94.2285,64.0655],[-94.2549,64.0467],[-94.2869,64.0323],[-94.314,64.014],[-94.3259,63.9852],[-94.3076,63.9666],[-94.2451,63.9384],[-94.3085,63.9472],[-94.3282,63.9525],[-94.3692,63.976],[-94.4221,63.9846],[-94.4935,64.0084],[-94.5262,64.014],[-94.6036,64.0143],[-94.6423,64.0193],[-94.694,64.0367],[-94.7337,64.0426],[-94.749,64.0517],[-94.7511,64.0564],[-94.7526,64.0667],[-94.7557,64.0688],[-94.7661,64.0699],[-94.8961,64.1138],[-95.0026,64.1238],[-95.0153,64.1212],[-95.0606,64.1035],[-95.1221,64.0897],[-95.1483,64.0905],[-95.1569,64.0897],[-95.1659,64.0867],[-95.1825,64.0779],[-95.1913,64.0761],[-95.2927,64.0797],[-95.5145,64.0482],[-95.6162,64.0549],[-95.6492,64.0514],[-95.7115,64.0364],[-95.7459,64.0352],[-95.8121,64.0405],[-95.8423,64.0496],[-95.87,64.0688],[-95.8579,64.0741],[-95.821,64.0823],[-95.8324,64.097],[-95.8439,64.1032],[-95.8954,64.1056],[-95.9324,64.115],[-95.9483,64.117],[-95.9533,64.1188],[-95.9718,64.13],[-95.9941,64.1356],[-96.0172,64.1368],[-96.0342,64.1406],[-96.0528,64.1488],[-96.0612,64.1582],[-96.0475,64.1647],[-96.0829,64.1812],[-96.1944,64.1709],[-96.2394,64.1718],[-96.2597,64.1806],[-96.2691,64.1912],[-96.2637,64.2006],[-96.2394,64.2059],[-96.2148,64.2006],[-96.1886,64.19],[-96.1638,64.1856],[-96.1431,64.1989],[-96.3022,64.2427]],[[-94.602,64.1035],[-94.607,64.0961],[-94.6116,64.0914],[-94.6183,64.0891],[-94.6298,64.0897],[-94.6033,64.0676],[-94.5696,64.0576],[-94.4504,64.0549],[-94.4027,64.0482],[-94.4001,64.0573],[-94.413,64.0658],[-94.4438,64.0761],[-94.4645,64.0829],[-94.5177,64.0897],[-94.5399,64.0897],[-94.5399,64.0964],[-94.5367,64.0988],[-94.5358,64.0997],[-94.5331,64.1035],[-94.5829,64.1162],[-94.6095,64.1173],[-94.6298,64.1097],[-94.6226,64.1088],[-94.6092,64.1047],[-94.602,64.1035]],[[-95.7193,64.13],[-95.7022,64.1132],[-95.6698,64.1111],[-95.6363,64.1185],[-95.6155,64.13],[-95.6386,64.1412],[-95.6754,64.1503],[-95.7082,64.1491],[-95.7193,64.13]]]}}
