{"type":"Feature","properties":{"id":1047,"name":"Buhayrat ath Tharthar","featurecla":"Reservoir","scalerank":3,"wikidataid":"Q1640519","source":"Natural Earth 5.2.0-pre ne_10m_lakes (public domain)"},"geometry":{"type":"Polygon","coordinates":[[[43.2914,33.7198],[43.2849,33.7234],[43.2808,33.7325],[43.2746,33.7325],[43.2714,33.7278],[43.2649,33.7225],[43.2611,33.7183],[43.249,33.7272],[43.2352,33.7478],[43.2228,33.7516],[43.2225,33.7554],[43.2099,33.771],[43.2069,33.7734],[43.2034,33.7787],[43.2007,33.7816],[43.2028,33.7837],[43.2131,33.7863],[43.2078,33.7949],[43.1722,33.8205],[43.1369,33.8614],[43.1248,33.8873],[43.0962,33.915],[43.0898,33.9273],[43.0877,33.9359],[43.0783,33.9468],[43.0762,33.9544],[43.0803,33.9627],[43.0871,33.9683],[43.0886,33.973],[43.0762,33.9789],[43.083,33.9933],[43.0724,33.9927],[43.0692,33.9933],[43.0692,33.9995],[43.083,34.0118],[43.0792,34.0545],[43.0898,34.0675],[43.0898,34.0751],[43.0677,34.0854],[43.0642,34.1046],[43.0762,34.1496],[43.0753,34.1767],[43.0594,34.2182],[43.0512,34.2535],[43.0515,34.2644],[43.0589,34.2768],[43.0745,34.2885],[43.0803,34.295],[43.083,34.3041],[43.0762,34.3294],[43.0765,34.343],[43.0865,34.3489],[43.0962,34.3445],[43.103,34.3339],[43.1101,34.308],[43.1177,34.308],[43.1127,34.3209],[43.1112,34.3365],[43.1148,34.3459],[43.1239,34.3412],[43.1292,34.3333],[43.1339,34.3241],[43.1407,34.3165],[43.1519,34.3141],[43.1504,34.3103],[43.1501,34.3091],[43.1451,34.308],[43.1563,34.2971],[43.1569,34.2829],[43.1451,34.2526],[43.1613,34.2476],[43.1689,34.2391],[43.191,34.1829],[43.1928,34.1808],[43.1963,34.1799],[43.2166,34.1602],[43.2184,34.1558],[43.2184,34.1472],[43.2196,34.1434],[43.2231,34.1416],[43.2352,34.1399],[43.2405,34.1366],[43.2575,34.1122],[43.2664,34.1081],[43.2864,34.1075],[43.2952,34.1019],[43.297,34.0943],[43.2935,34.0872],[43.2908,34.0789],[43.2952,34.0675],[43.3035,34.0745],[43.3147,34.0878],[43.3226,34.0948],[43.3255,34.0804],[43.3306,34.0686],[43.3329,34.058],[43.3294,34.0472],[43.3464,34.048],[43.3573,34.0416],[43.3629,34.0292],[43.3635,34.0124],[43.3709,34.0124],[43.3759,34.0195],[43.3844,34.0289],[43.3947,34.0368],[43.405,34.0398],[43.4124,34.036],[43.4336,34.0189],[43.4392,34.0124],[43.4409,34.0036],[43.4433,33.9765],[43.4465,33.9653],[43.4562,33.9574],[43.468,33.9556],[43.4774,33.9518],[43.4807,33.9379],[43.4954,33.9394],[43.5033,33.9244],[43.5069,33.9059],[43.5083,33.8791],[43.5075,33.8758],[43.5022,33.8747],[43.4954,33.8749],[43.4895,33.8767],[43.4869,33.8797],[43.4821,33.8835],[43.4716,33.882],[43.453,33.8758],[43.4683,33.8744],[43.488,33.8673],[43.506,33.8579],[43.5148,33.8479],[43.5045,33.8505],[43.5004,33.852],[43.4945,33.8555],[43.4892,33.8502],[43.4845,33.8488],[43.4792,33.8488],[43.4727,33.8479],[43.4795,33.8426],[43.4786,33.8367],[43.4751,33.8287],[43.4716,33.8096],[43.4698,33.8058],[43.4695,33.8017],[43.4727,33.7934],[43.4769,33.7908],[43.4845,33.7881],[43.4913,33.7837],[43.4945,33.7766],[43.4933,33.7625],[43.4889,33.7425],[43.4804,33.7213],[43.4665,33.7045],[43.4418,33.693],[43.4245,33.6969],[43.408,33.7063],[43.3874,33.7113],[43.345,33.7142],[43.3229,33.7204],[43.3088,33.7325],[43.2999,33.7228],[43.2914,33.7198]]]}}
