{"type":"Feature","properties":{"id":1048,"name":"Churchill Lake","featurecla":"Lake","scalerank":3,"wikidataid":"Q1089891","source":"Natural Earth 5.2.0-pre ne_10m_lakes (public domain)"},"geometry":{"type":"Polygon","coordinates":[[[-108.2384,55.9034],[-108.2589,55.8928],[-108.2777,55.8857],[-108.2864,55.8816],[-108.2932,55.8737],[-108.2942,55.8637],[-108.2935,55.8495],[-108.2951,55.8369],[-108.3033,55.8316],[-108.3297,55.8263],[-108.3756,55.8083],[-108.4024,55.811],[-108.4301,55.828],[-108.4445,55.8304],[-108.4508,55.8148],[-108.4524,55.7971],[-108.4571,55.783],[-108.4648,55.7712],[-108.4749,55.76],[-108.482,55.7486],[-108.4863,55.7362],[-108.4933,55.7268],[-108.5618,55.7109],[-108.5958,55.7068],[-108.6148,55.7012],[-108.6321,55.6929],[-108.6426,55.6817],[-108.643,55.6641],[-108.6332,55.6479],[-108.6084,55.6193],[-108.6045,55.6096],[-108.6008,55.5952],[-108.5992,55.5793],[-108.6015,55.5646],[-108.6123,55.5516],[-108.6405,55.5325],[-108.6426,55.5237],[-108.6614,55.5328],[-108.6694,55.5502],[-108.6705,55.5952],[-108.6736,55.6017],[-108.6878,55.6202],[-108.691,55.6296],[-108.666,55.7206],[-108.6644,55.7597],[-108.6757,55.7954],[-108.704,55.8316],[-108.7132,55.8375],[-108.7237,55.8413],[-108.7327,55.8475],[-108.7381,55.8595],[-108.7368,55.8669],[-108.7274,55.886],[-108.7252,55.8966],[-108.7356,55.9116],[-108.7597,55.919],[-108.807,55.9284],[-108.8249,55.9402],[-108.8326,55.942],[-108.848,55.9414],[-108.8611,55.9387],[-108.8873,55.9302],[-108.9829,55.9178],[-109.013,55.9208],[-109.0637,55.942],[-109.0908,55.9581],[-109.1024,55.9726],[-109.1083,55.9876],[-109.1377,56.0306],[-109.1496,56.0438],[-109.1917,56.0676],[-109.2061,56.0865],[-109.1944,56.1094],[-109.1716,56.1265],[-109.1505,56.1371],[-109.1284,56.1412],[-109.1024,56.1401],[-109.0094,56.115],[-108.9855,56.1159],[-108.9626,56.123],[-108.9331,56.1268],[-108.9043,56.1259],[-108.8828,56.1195],[-108.8669,56.1047],[-108.8528,56.0865],[-108.8355,56.0712],[-108.7877,56.0594],[-108.7652,56.0467],[-108.6814,55.987],[-108.6573,55.9799],[-108.6483,55.9737],[-108.6323,55.9587],[-108.6301,55.9543],[-108.6302,55.9446],[-108.6289,55.9414],[-108.6236,55.9396],[-108.6108,55.9405],[-108.6049,55.9378],[-108.5933,55.9199],[-108.5993,55.9096],[-108.6143,55.9022],[-108.6289,55.8928],[-108.6391,55.8778],[-108.6439,55.8598],[-108.6413,55.843],[-108.6289,55.8316],[-108.5902,55.856],[-108.5712,55.8634],[-108.5507,55.8663],[-108.5084,55.8631],[-108.4963,55.8701],[-108.485,55.8928],[-108.4786,55.9208],[-108.4757,55.9252],[-108.4614,55.9378],[-108.4571,55.9437],[-108.4589,55.9464],[-108.4627,55.9484],[-108.4651,55.952],[-108.4639,55.9617],[-108.4588,55.9773],[-108.4576,55.9861],[-108.4621,55.9902],[-108.4923,56.0102],[-108.4714,56.0206],[-108.4588,56.0229],[-108.4526,56.0291],[-108.4508,56.0512],[-108.4518,56.0794],[-108.456,56.0947],[-108.4651,56.1065],[-108.3896,56.1477],[-108.3651,56.1536],[-108.3584,56.1563],[-108.3535,56.1698],[-108.3484,56.1748],[-108.3414,56.176],[-108.3173,56.1748],[-108.2596,56.1633],[-108.2459,56.168],[-108.2386,56.2163],[-108.2405,56.226],[-108.2509,56.2519],[-108.2555,56.2572],[-108.2814,56.2684],[-108.3032,56.2899],[-108.3261,56.3055],[-108.3553,56.2981],[-108.3381,56.2772],[-108.3317,56.2669],[-108.3395,56.2637],[-108.3651,56.2634],[-108.4167,56.3152],[-108.4245,56.3355],[-108.4434,56.3461],[-108.4671,56.3464],[-108.4886,56.3358],[-108.5084,56.3214],[-108.5228,56.3193],[-108.539,56.3229],[-108.564,56.3255],[-108.5834,56.3735],[-108.5822,56.3806],[-108.5743,56.3938],[-108.5658,56.4035],[-108.5487,56.4135],[-108.5259,56.4347],[-108.525,56.4391],[-108.5268,56.4509],[-108.5259,56.4553],[-108.5178,56.4618],[-108.4989,56.4736],[-108.4923,56.4833],[-108.4926,56.4912],[-108.4992,56.513],[-108.4992,56.5242],[-108.4926,56.5354],[-108.4827,56.5422],[-108.4724,56.5466],[-108.4651,56.5522],[-108.4588,56.5622],[-108.4439,56.5931],[-108.4826,56.609],[-108.5109,56.5666],[-108.5332,56.508],[-108.5538,56.4756],[-108.5718,56.4753],[-108.5775,56.4833],[-108.5791,56.4954],[-108.5844,56.5071],[-108.5971,56.5118],[-108.6073,56.5039],[-108.6221,56.4833],[-108.6482,56.4736],[-108.6788,56.4742],[-108.7101,56.4806],[-108.7381,56.4901],[-108.7305,56.5221],[-108.7341,56.5507],[-108.7416,56.576],[-108.7456,56.5987],[-108.7353,56.6317],[-108.7132,56.6496],[-108.69,56.6646],[-108.6767,56.6888],[-108.697,56.6961],[-108.714,56.7002],[-108.7795,56.702],[-108.7979,56.6996],[-108.8135,56.6926],[-108.8316,56.6782],[-108.9107,56.6676],[-108.9159,56.6811],[-108.9044,56.697],[-108.8753,56.722],[-108.8828,56.7297],[-108.8753,56.7364],[-108.8828,56.7438],[-108.8349,56.798],[-108.8155,56.8089],[-108.7934,56.8127],[-108.7456,56.8121],[-108.72,56.8047],[-108.6652,56.8156],[-108.6426,56.8121],[-108.6443,56.8015],[-108.691,56.7438],[-108.6835,56.7359],[-108.6782,56.7279],[-108.6707,56.7211],[-108.6569,56.7158],[-108.602,56.7197],[-108.5942,56.7123],[-108.5984,56.684],[-108.5934,56.6773],[-108.5743,56.6749],[-108.5591,56.6776],[-108.5466,56.6846],[-108.5413,56.6952],[-108.5477,56.7085],[-108.5326,56.7155],[-108.5129,56.7176],[-108.4933,56.7153],[-108.4786,56.7085],[-108.49,56.7041],[-108.5029,56.6949],[-108.5111,56.6832],[-108.5091,56.6714],[-108.4988,56.6673],[-108.4714,56.6758],[-108.4576,56.6749],[-108.4535,56.6667],[-108.4521,56.6528],[-108.4457,56.6396],[-108.4268,56.634],[-108.4195,56.6278],[-108.4024,56.5857],[-108.4293,56.5472],[-108.4412,56.5219],[-108.434,56.5104],[-108.4277,56.506],[-108.4246,56.4954],[-108.4234,56.4727],[-108.4199,56.4606],[-108.4114,56.4539],[-108.4003,56.4489],[-108.3893,56.4421],[-108.3649,56.4147],[-108.3504,56.4109],[-108.331,56.4244],[-108.3005,56.4621],[-108.2826,56.4689],[-108.2589,56.4553],[-108.253,56.4459],[-108.2526,56.4383],[-108.2502,56.4306],[-108.2386,56.4212],[-108.2286,56.4182],[-108.1904,56.4144],[-108.1791,56.4156],[-108.1663,56.4194],[-108.1545,56.425],[-108.1457,56.4315],[-108.1336,56.4362],[-108.1202,56.4327],[-108.0951,56.4212],[-108.0505,56.4215],[-108.0399,56.4144],[-108.043,56.4112],[-108.0516,56.3864],[-108.0567,56.365],[-108.0703,56.3455],[-108.0734,56.3358],[-108.0672,56.3096],[-108.0671,56.2981],[-108.084,56.2643],[-108.113,56.2655],[-108.1481,56.2808],[-108.1832,56.2908],[-108.1941,56.2887],[-108.2059,56.2846],[-108.2174,56.2828],[-108.228,56.2872],[-108.2346,56.2884],[-108.2367,56.2796],[-108.2343,56.2687],[-108.224,56.2605],[-108.2119,56.2472],[-108.2043,56.2431],[-108.1938,56.2422],[-108.1832,56.244],[-108.1634,56.2499],[-108.1681,56.2284],[-108.1659,56.1925],[-108.1734,56.178],[-108.1873,56.1657],[-108.1949,56.1574],[-108.1941,56.1536],[-108.2,56.1518],[-108.2057,56.1471],[-108.209,56.1415],[-108.2078,56.1365],[-108.2013,56.1312],[-108.1972,56.1303],[-108.1922,56.1303],[-108.1464,56.113],[-108.1361,56.1065],[-108.1314,56.0989],[-108.1244,56.0771],[-108.1136,56.0585],[-108.1143,56.047],[-108.1192,56.0362],[-108.1255,56.0276],[-108.1342,56.0276],[-108.1635,56.0385],[-108.177,56.0376],[-108.1893,56.02],[-108.1951,55.9946],[-108.2049,55.9717],[-108.228,55.962],[-108.2333,55.957],[-108.234,55.9458],[-108.2317,55.9246],[-108.2333,55.9105],[-108.2384,55.9034]],[[-108.5397,56.6308],[-108.5401,56.6402],[-108.549,56.6417],[-108.5942,56.6402],[-108.6064,56.6443],[-108.6177,56.6499],[-108.6293,56.654],[-108.6426,56.654],[-108.6602,56.652],[-108.6733,56.6408],[-108.6847,56.6261],[-108.6972,56.6128],[-108.6276,56.5557],[-108.5889,56.5375],[-108.5606,56.5584],[-108.5591,56.5678],[-108.5613,56.589],[-108.5606,56.5987],[-108.5552,56.6075],[-108.5465,56.619],[-108.5397,56.6308]]]}}
