{"type":"Feature","properties":{"id":1049,"name":"Dead Sea","featurecla":"Alkaline Lake","scalerank":3,"wikidataid":"Q23883","source":"Natural Earth 5.2.0-pre ne_10m_lakes (public domain)"},"geometry":{"type":"Polygon","coordinates":[[[35.5864,31.7529],[35.5882,31.7305],[35.5785,31.7014],[35.5546,31.5383],[35.5685,31.4968],[35.572,31.4682],[35.5446,31.354],[35.5452,31.3458],[35.5476,31.3387],[35.5476,31.3319],[35.5402,31.3234],[35.5237,31.3102],[35.5128,31.3049],[35.5037,31.3063],[35.5013,31.3181],[35.5125,31.3543],[35.5105,31.3676],[35.4913,31.367],[35.4422,31.3222],[35.4148,31.3266],[35.406,31.3449],[35.4019,31.3952],[35.3936,31.4358],[35.4007,31.4723],[35.3927,31.5141],[35.3983,31.5324],[35.408,31.5486],[35.4148,31.5663],[35.4142,31.5777],[35.4077,31.6022],[35.408,31.6148],[35.4127,31.6242],[35.4354,31.6557],[35.4545,31.6952],[35.4766,31.7305],[35.5069,31.7558],[35.5514,31.7655],[35.559,31.7655],[35.5864,31.7529]]]}}
