{"type":"Feature","properties":{"id":1050,"name":"Dubawnt Lake","featurecla":"Lake","scalerank":3,"wikidataid":"Q1262967","source":"Natural Earth 5.2.0-pre ne_10m_lakes (public domain)"},"geometry":{"type":"Polygon","coordinates":[[[-102.1826,63.176],[-102.1619,63.1824],[-102.1467,63.1848],[-102.027,63.1901],[-101.8716,63.2254],[-101.8088,63.259],[-101.797,63.2672],[-101.7893,63.2816],[-101.7865,63.2943],[-101.7804,63.3037],[-101.7629,63.3084],[-101.768,63.3114],[-101.778,63.3187],[-101.7833,63.3214],[-101.749,63.3314],[-101.7386,63.3387],[-101.7193,63.3576],[-101.7078,63.3661],[-101.6977,63.3696],[-101.6897,63.3738],[-101.6762,63.3926],[-101.6666,63.3976],[-101.6522,63.3956],[-101.6475,63.3879],[-101.6507,63.3779],[-101.6604,63.3696],[-101.6491,63.3643],[-101.637,63.3635],[-101.6252,63.3667],[-101.6155,63.3729],[-101.6105,63.3749],[-101.6048,63.3752],[-101.6002,63.3761],[-101.5984,63.3797],[-101.6008,63.3908],[-101.603,63.3967],[-101.6052,63.3976],[-101.6082,63.4003],[-101.6105,63.4076],[-101.6067,63.4126],[-101.5915,63.4076],[-101.5715,63.3976],[-101.5506,63.3903],[-101.5305,63.387],[-101.5203,63.3879],[-101.5157,63.3941],[-101.5184,63.4026],[-101.5252,63.4061],[-101.5341,63.4079],[-101.6012,63.4335],[-101.6189,63.445],[-101.5889,63.4647],[-101.5331,63.4624],[-101.4264,63.445],[-101.4311,63.435],[-101.4339,63.4312],[-101.422,63.4259],[-101.3974,63.4229],[-101.3855,63.4182],[-101.3856,63.3923],[-101.3487,63.3788],[-101.3044,63.3841],[-101.283,63.4147],[-101.3007,63.4462],[-101.3849,63.4497],[-101.4133,63.4727],[-101.3587,63.4859],[-101.3173,63.5056],[-101.3035,63.5074],[-101.2903,63.503],[-101.2629,63.4856],[-101.2489,63.4794],[-101.219,63.4756],[-101.2083,63.4721],[-101.1872,63.4547],[-101.1651,63.4421],[-101.1562,63.435],[-101.1487,63.4235],[-101.1404,63.4014],[-101.1322,63.3903],[-101.1211,63.3838],[-101.1052,63.3794],[-101.0891,63.3785],[-101.0776,63.3835],[-101.0757,63.392],[-101.0776,63.4276],[-101.0752,63.4412],[-101.072,63.4491],[-101.0732,63.455],[-101.0983,63.4744],[-101.092,63.4791],[-101.0602,63.4794],[-101.0414,63.4688],[-101.0284,63.4471],[-101.0131,63.4294],[-100.9882,63.4312],[-100.9841,63.4368],[-100.9831,63.4565],[-100.9815,63.4665],[-100.9773,63.4712],[-100.9653,63.4747],[-100.9609,63.4794],[-100.9616,63.4844],[-100.9719,63.4903],[-100.9745,63.4965],[-100.9635,63.5106],[-100.9383,63.5262],[-100.892,63.5486],[-100.8884,63.5333],[-100.8776,63.5218],[-100.8622,63.5139],[-100.8222,63.5021],[-100.8076,63.5036],[-100.7978,63.5139],[-100.7895,63.5342],[-100.7828,63.5813],[-100.776,63.5895],[-100.765,63.5887],[-100.7586,63.5834],[-100.7561,63.5748],[-100.7555,63.5648],[-100.7508,63.5545],[-100.7402,63.5545],[-100.7214,63.5622],[-100.698,63.561],[-100.6847,63.5563],[-100.6593,63.5342],[-100.629,63.5159],[-100.617,63.5048],[-100.6114,63.4859],[-100.6212,63.4597],[-100.6415,63.4315],[-100.6553,63.4029],[-100.6456,63.3758],[-100.6532,63.3685],[-100.6641,63.3526],[-100.6697,63.3458],[-100.6778,63.3417],[-100.6983,63.3381],[-100.7077,63.3349],[-100.7002,63.3287],[-100.7399,63.3143],[-100.8278,63.3343],[-100.8647,63.3214],[-100.8218,63.3064],[-100.8066,63.2949],[-100.8135,63.2778],[-100.833,63.2746],[-100.8636,63.2799],[-100.893,63.289],[-100.9251,63.3055],[-100.9957,63.3214],[-101.0208,63.3234],[-101.0399,63.3172],[-101.0776,63.2878],[-101.0699,63.2858],[-101.0496,63.2749],[-101.0605,63.2678],[-101.068,63.2563],[-101.0698,63.244],[-101.0633,63.2325],[-101.0511,63.2295],[-100.9957,63.2325],[-101.0291,63.2116],[-101.0395,63.2022],[-101.0512,63.1939],[-101.0633,63.1924],[-101.0762,63.193],[-101.0907,63.1916],[-101.1145,63.1807],[-101.1356,63.168],[-101.1434,63.1592],[-101.1431,63.1539],[-101.1381,63.148],[-101.1127,63.0974],[-101.0845,63.0697],[-101.0458,63.0529],[-100.995,63.0476],[-100.9834,63.045],[-100.9473,63.027],[-100.9152,63.0214],[-100.8347,63.0202],[-100.8237,63.0141],[-100.8224,63.0058],[-100.8274,62.9985],[-100.8341,62.9911],[-100.8459,62.964],[-100.8662,62.9514],[-100.8901,62.9408],[-100.9096,62.9281],[-100.9389,62.9016],[-100.9473,62.8969],[-100.9626,62.8954],[-100.9741,62.8984],[-100.9772,62.9057],[-100.9678,62.9178],[-100.9915,62.9193],[-101.0038,62.9184],[-101.0127,62.9146],[-101.0395,62.8934],[-101.0462,62.8898],[-101.0581,62.8872],[-101.067,62.881],[-101.0749,62.8742],[-101.0839,62.8695],[-101.0967,62.8678],[-101.1204,62.8675],[-101.1322,62.8633],[-101.1186,62.8586],[-101.0907,62.8536],[-101.0776,62.8489],[-101.0634,62.8392],[-101.062,62.8333],[-101.0639,62.8274],[-101.0602,62.8186],[-101.0383,62.8027],[-100.9912,62.7968],[-100.9678,62.7868],[-100.9809,62.783],[-101.0097,62.7792],[-101.023,62.7739],[-101.03,62.7662],[-101.0387,62.7459],[-101.0462,62.7362],[-101.0668,62.7229],[-101.098,62.7097],[-101.13,62.702],[-101.1526,62.7056],[-101.1479,62.7106],[-101.1391,62.7256],[-101.1615,62.7226],[-101.1784,62.7167],[-101.2607,62.6711],[-101.2694,62.6605],[-101.2783,62.6452],[-101.2992,62.6482],[-101.3409,62.6641],[-101.3624,62.6602],[-101.3844,62.6538],[-101.4061,62.6505],[-101.4264,62.6573],[-101.4159,62.6711],[-101.4199,62.6808],[-101.4264,62.69],[-101.4233,62.7017],[-101.4162,62.7138],[-101.4183,62.7212],[-101.4255,62.7285],[-101.4339,62.7391],[-101.4249,62.7397],[-101.4099,62.7447],[-101.4028,62.7459],[-101.375,62.7453],[-101.3482,62.7482],[-101.3353,62.7524],[-101.327,62.7609],[-101.324,62.7771],[-101.3103,62.8207],[-101.3104,62.8442],[-101.3309,62.8557],[-101.324,62.8622],[-101.3187,62.8692],[-101.3103,62.8837],[-101.3268,62.8948],[-101.3684,62.9416],[-101.392,62.9549],[-101.419,62.9558],[-101.4748,62.9452],[-101.4614,62.9343],[-101.4416,62.9249],[-101.428,62.9137],[-101.4339,62.8969],[-101.4252,62.8904],[-101.4162,62.8804],[-101.4092,62.8701],[-101.4059,62.8633],[-101.4052,62.8424],[-101.4131,62.8392],[-101.4271,62.8404],[-101.4439,62.8321],[-101.4476,62.8262],[-101.4524,62.8118],[-101.4544,62.808],[-101.4591,62.8056],[-101.4726,62.8012],[-101.4782,62.7977],[-101.4982,62.7803],[-101.4994,62.7715],[-101.4885,62.7597],[-101.5118,62.7397],[-101.5157,62.7329],[-101.5118,62.722],[-101.5022,62.717],[-101.4928,62.7141],[-101.4885,62.7091],[-101.4932,62.6861],[-101.5063,62.6717],[-101.526,62.6643],[-101.5506,62.6641],[-101.5506,62.6708],[-101.5321,62.6838],[-101.54,62.6988],[-101.5711,62.7256],[-101.5558,62.7306],[-101.5512,62.7409],[-101.5528,62.7541],[-101.5568,62.7671],[-101.555,62.7718],[-101.5516,62.7783],[-101.5518,62.7845],[-101.6838,62.8098],[-101.7077,62.808],[-101.7183,62.8045],[-101.7246,62.8009],[-101.7274,62.7948],[-101.7281,62.7836],[-101.7368,62.7797],[-101.7552,62.7792],[-101.7714,62.7824],[-101.7734,62.7906],[-101.7701,62.8056],[-101.7921,62.8274],[-101.7795,62.8633],[-101.7891,62.8751],[-101.8077,62.8819],[-101.8281,62.8837],[-101.874,62.8934],[-101.8975,62.8954],[-101.9168,62.8869],[-101.9368,62.8686],[-101.9545,62.8598],[-101.9749,62.8601],[-102.0031,62.8695],[-101.9942,62.8728],[-101.9848,62.8792],[-101.9774,62.8872],[-101.9751,62.8969],[-101.9807,62.9063],[-101.9916,62.9087],[-102.0047,62.9087],[-102.0162,62.911],[-102.0356,62.9255],[-102.0279,62.9325],[-102.0075,62.939],[-101.9888,62.9514],[-101.9929,62.9596],[-101.9923,62.9637],[-101.9888,62.9731],[-102.0073,62.9793],[-102.0328,62.9964],[-102.0621,63.0043],[-102.084,63.0155],[-102.1039,63.0291],[-102.1129,63.0408],[-102.1014,63.0564],[-102.0812,63.0703],[-102.056,63.0773],[-101.9994,63.0638],[-101.9705,63.0659],[-101.961,63.075],[-101.9888,63.0885],[-102.035,63.1009],[-102.0507,63.1024],[-102.0619,63.1003],[-102.0931,63.09],[-102.1021,63.0853],[-102.1251,63.0768],[-102.1499,63.0865],[-102.1739,63.1018],[-102.1948,63.1097],[-102.1948,63.1165],[-102.1828,63.1241],[-102.1819,63.1333],[-102.1882,63.1433],[-102.1979,63.1542],[-102.1982,63.1659],[-102.1826,63.176]]]}}
