{"type":"Feature","properties":{"id":1051,"name":"Hongze Hu","featurecla":"Lake","scalerank":3,"wikidataid":"Q31845950","source":"Natural Earth 5.2.0-pre ne_10m_lakes (public domain)"},"geometry":{"type":"Polygon","coordinates":[[[118.6521,33.1906],[118.6142,33.1726],[118.6036,33.1779],[118.5933,33.1855],[118.5786,33.1838],[118.5738,33.1776],[118.5582,33.1529],[118.5591,33.1426],[118.5644,33.1276],[118.5653,33.1187],[118.5627,33.1081],[118.5568,33.1019],[118.5494,33.0966],[118.5444,33.0875],[118.545,33.0784],[118.5488,33.0693],[118.5503,33.059],[118.5444,33.0466],[118.5247,33.0566],[118.5138,33.0448],[118.5,33.0092],[118.4811,32.9854],[118.4696,32.9795],[118.4261,32.9757],[118.4096,32.971],[118.3336,32.938],[118.3192,32.9368],[118.3233,32.953],[118.3154,32.9559],[118.2948,32.9504],[118.2913,32.9471],[118.2904,32.94],[118.2883,32.933],[118.281,32.93],[118.2745,32.9318],[118.2701,32.9348],[118.2662,32.9365],[118.2606,32.9333],[118.2559,32.9224],[118.2533,32.8909],[118.25,32.8821],[118.238,32.8794],[118.2294,32.8871],[118.2247,32.8991],[118.223,32.9094],[118.2062,32.9009],[118.1909,32.8712],[118.1747,32.8617],[118.1735,32.8776],[118.1688,32.8877],[118.1632,32.8959],[118.1609,32.9062],[118.1676,32.918],[118.1809,32.9253],[118.1912,32.9342],[118.1888,32.9504],[118.2,32.9495],[118.2106,32.9501],[118.2206,32.9527],[118.2291,32.9577],[118.2047,32.9715],[118.1508,33.0228],[118.135,33.0295],[118.1291,33.0172],[118.1267,32.9851],[118.1161,32.9718],[118.1049,32.9686],[118.0934,32.9674],[118.082,32.9609],[118.0546,32.9265],[118.0416,32.9174],[118.0149,32.9047],[118.0031,32.8959],[117.9928,32.8718],[117.9857,32.8603],[117.9828,32.865],[117.9804,32.8771],[117.9766,32.8868],[117.9757,32.8953],[117.9828,32.9033],[117.9754,32.8959],[117.9904,32.9186],[118.0511,32.971],[118.0696,32.9936],[118.0837,33.0172],[118.1002,33.0366],[118.1267,33.0466],[118.1726,33.0342],[118.2427,32.9724],[118.2913,32.971],[118.2913,32.9777],[118.2551,32.9886],[118.2309,33.0263],[118.2165,33.074],[118.2053,33.1399],[118.1985,33.1546],[118.1841,33.1614],[118.1576,33.1632],[118.1352,33.1614],[118.1173,33.1561],[118.0852,33.1423],[118.0622,33.1358],[118.0425,33.1343],[117.9236,33.1408],[117.9074,33.1361],[117.903,33.1211],[117.9074,33.0504],[117.8968,33.0381],[117.8715,33.0281],[117.8441,33.0213],[117.8262,33.0192],[117.8073,33.0236],[117.7861,33.0337],[117.7676,33.0466],[117.7573,33.0601],[117.8376,33.0454],[117.8771,33.0504],[117.8939,33.0875],[117.89,33.1046],[117.8821,33.1258],[117.878,33.1476],[117.8842,33.1667],[117.9021,33.1841],[117.9204,33.1932],[117.9407,33.1967],[117.9657,33.1973],[117.9884,33.1953],[118.031,33.1853],[118.0511,33.1838],[118.0714,33.1908],[118.1002,33.2182],[118.1164,33.2241],[118.1544,33.2279],[118.1732,33.2268],[118.195,33.2179],[118.2106,33.2062],[118.2191,33.1944],[118.2365,33.1632],[118.2286,33.1176],[118.2377,33.0649],[118.2601,33.0183],[118.2913,32.9913],[118.3157,32.9839],[118.3431,32.9795],[118.3699,32.9792],[118.3943,32.9851],[118.4152,33.0001],[118.439,33.0398],[118.4564,33.0601],[118.4343,33.0445],[118.4031,33.0313],[118.369,33.0257],[118.3389,33.0325],[118.3569,33.0454],[118.3828,33.059],[118.4102,33.0696],[118.457,33.0813],[118.4723,33.0958],[118.4696,33.1061],[118.4426,33.1014],[118.4852,33.1376],[118.4905,33.1496],[118.4829,33.1661],[118.4676,33.1717],[118.4317,33.1702],[118.4273,33.1679],[118.4211,33.1629],[118.4137,33.1582],[118.4049,33.1558],[118.3937,33.1567],[118.3139,33.1788],[118.2871,33.1953],[118.2486,33.2011],[118.2327,33.2079],[118.2224,33.2244],[118.2236,33.2427],[118.2283,33.2612],[118.2291,33.28],[118.2253,33.2883],[118.2133,33.3048],[118.2091,33.3136],[118.208,33.3227],[118.2091,33.3522],[118.2056,33.3725],[118.1991,33.3892],[118.1979,33.4051],[118.2091,33.4234],[118.21,33.3945],[118.2312,33.3483],[118.2415,33.2912],[118.2551,33.2691],[118.2765,33.2533],[118.3048,33.2385],[118.3204,33.2656],[118.3307,33.2759],[118.3601,33.2853],[118.3805,33.3083],[118.3978,33.3136],[118.409,33.3274],[118.3966,33.3895],[118.4117,33.4034],[118.4261,33.4013],[118.4361,33.3969],[118.4455,33.3943],[118.4564,33.3966],[118.4667,33.4078],[118.4705,33.4222],[118.4723,33.4358],[118.4767,33.4446],[118.4888,33.4458],[118.4947,33.434],[118.4967,33.4034],[118.4926,33.3904],[118.4873,33.3801],[118.49,33.3731],[118.5103,33.3689],[118.5182,33.3851],[118.5373,33.3916],[118.5568,33.3878],[118.575,33.3578],[118.5959,33.351],[118.6189,33.3539],[118.6339,33.3689],[118.6154,33.3704],[118.6039,33.3804],[118.5953,33.3934],[118.5859,33.4034],[118.5797,33.406],[118.5421,33.4125],[118.54,33.4193],[118.5424,33.4275],[118.5409,33.434],[118.5182,33.4581],[118.4967,33.4879],[118.4797,33.5208],[118.4699,33.5538],[118.4617,33.6189],[118.462,33.6303],[118.4691,33.6395],[118.5482,33.6501],[118.5585,33.6527],[118.5621,33.6574],[118.5647,33.6583],[118.5724,33.6501],[118.575,33.643],[118.575,33.6289],[118.5786,33.6227],[118.5638,33.6068],[118.5582,33.6021],[118.5768,33.6035],[118.5833,33.5962],[118.5824,33.5832],[118.5786,33.5673],[118.6068,33.5779],[118.6156,33.5632],[118.613,33.537],[118.6065,33.5129],[118.6221,33.5079],[118.6195,33.4946],[118.6101,33.4749],[118.6065,33.4514],[118.6133,33.4514],[118.618,33.474],[118.633,33.4776],[118.668,33.4649],[118.7817,33.4461],[118.7937,33.4393],[118.812,33.4099],[118.8199,33.3996],[118.8276,33.3934],[118.8458,33.3825],[118.867,33.3734],[118.8767,33.3675],[118.8809,33.3589],[118.875,33.346],[118.8614,33.3286],[118.8461,33.3133],[118.8361,33.3068],[118.8308,33.2965],[118.8211,33.2491],[118.8158,33.235],[118.7884,33.215],[118.7846,33.2079],[118.7837,33.1994],[118.7781,33.1744],[118.7746,33.1667],[118.7581,33.1485],[118.7443,33.1296],[118.7381,33.1096],[118.7437,33.0875],[118.7237,33.084],[118.701,33.0846],[118.6857,33.0799],[118.6884,33.0601],[118.668,33.0766],[118.6607,33.1058],[118.6692,33.1326],[118.6957,33.1423],[118.6957,33.1496],[118.6686,33.1808],[118.6521,33.1906]]]}}
