{"type":"Feature","properties":{"id":1052,"name":"Iliamna Lake","featurecla":"Lake","scalerank":3,"wikidataid":"Q965436","source":"Natural Earth 5.2.0-pre ne_10m_lakes (public domain)"},"geometry":{"type":"Polygon","coordinates":[[[-153.9327,59.7996],[-153.8846,59.7996],[-153.8846,59.7925],[-153.8912,59.7911],[-153.8956,59.7875],[-153.8997,59.7834],[-153.905,59.779],[-153.9932,59.731],[-154.09,59.6972],[-154.1578,59.6857],[-154.3706,59.6766],[-154.6399,59.6171],[-154.6542,59.6112],[-154.6586,59.6009],[-154.6505,59.5953],[-154.6039,59.5838],[-154.5799,59.5744],[-154.5709,59.5665],[-154.5728,59.5562],[-154.5809,59.5435],[-154.5806,59.5353],[-154.5725,59.5314],[-154.5568,59.532],[-154.5359,59.5544],[-154.5197,59.5659],[-154.505,59.5635],[-154.5067,59.55],[-154.5273,59.5358],[-154.5699,59.5185],[-154.6074,59.5188],[-154.6488,59.5288],[-154.6917,59.5335],[-154.7343,59.5185],[-154.7132,59.4849],[-154.7069,59.4849],[-154.6897,59.4982],[-154.6446,59.4667],[-154.617,59.4631],[-154.6155,59.4673],[-154.6159,59.4746],[-154.6145,59.4817],[-154.6071,59.4849],[-154.5759,59.4911],[-154.5596,59.4923],[-154.5459,59.4917],[-154.5145,59.4849],[-154.5413,59.4726],[-154.551,59.4637],[-154.5568,59.4502],[-154.5568,59.457],[-154.5685,59.4355],[-154.5977,59.4331],[-154.6586,59.4437],[-154.8026,59.4502],[-155.0095,59.4175],[-155.0769,59.416],[-155.1917,59.4266],[-155.2491,59.4246],[-155.3034,59.4084],[-155.3122,59.4019],[-155.327,59.3863],[-155.337,59.3813],[-155.3536,59.3804],[-155.3707,59.3837],[-155.3873,59.3848],[-155.4025,59.3781],[-155.4225,59.366],[-155.5015,59.3401],[-155.5661,59.3289],[-155.7826,59.3198],[-155.844,59.3266],[-155.8568,59.3313],[-155.8839,59.3448],[-155.8958,59.3477],[-155.9067,59.3583],[-155.9292,59.4708],[-155.9251,59.4873],[-155.9098,59.5082],[-155.8893,59.5258],[-155.6748,59.6277],[-154.9833,59.6663],[-154.9489,59.6724],[-154.9224,59.6863],[-154.8778,59.726],[-154.8123,59.7652],[-154.7895,59.7752],[-154.7612,59.779],[-154.7026,59.7778],[-154.6861,59.7828],[-154.6741,59.784],[-154.6243,59.7722],[-154.4851,59.7884],[-154.4468,59.7996],[-154.4296,59.7996],[-154.381,59.7925],[-154.1514,59.8058],[-154.1514,59.7996],[-154.1915,59.7984],[-154.2084,59.7925],[-154.2203,59.779],[-154.2062,59.7699],[-154.1866,59.7613],[-154.1658,59.759],[-154.1483,59.7684],[-154.1308,59.7811],[-154.1102,59.784],[-154.0689,59.779],[-154.0262,59.7811],[-153.9327,59.7996]]]}}
