{"type":"Feature","properties":{"id":1053,"name":"Kaliningradskiy Zaliv","featurecla":"Alkaline Lake","scalerank":3,"source":"Natural Earth 5.2.0-pre ne_10m_lakes (public domain)"},"geometry":{"type":"Polygon","coordinates":[[[19.8939,54.6176],[19.8995,54.6229],[19.9071,54.6282],[19.9207,54.6329],[19.9339,54.6338],[19.9457,54.6329],[19.9554,54.6356],[19.9616,54.6465],[19.9477,54.6532],[19.9445,54.6691],[19.9483,54.6874],[19.9548,54.7012],[19.9663,54.7118],[19.9819,54.718],[20.0001,54.7209],[20.0202,54.7218],[20.0399,54.7165],[20.0446,54.7033],[20.0458,54.6865],[20.054,54.6706],[20.0728,54.6574],[20.0858,54.6565],[20.1126,54.6738],[20.1768,54.6956],[20.4067,54.6877],[20.4067,54.68],[20.3336,54.6603],[20.318,54.6523],[20.2936,54.6359],[20.2804,54.6291],[20.253,54.6235],[20.1217,54.5814],[20.1023,54.5776],[20.0923,54.5746],[20.079,54.5605],[20.0681,54.5573],[20.0555,54.5582],[20.0487,54.5605],[20.0422,54.5649],[20.0305,54.5708],[19.991,54.5726],[19.9666,54.547],[19.943,54.5125],[19.9065,54.4884],[19.84,54.4707],[19.7932,54.5434],[19.8939,54.6176]]]}}
