{"type":"Feature","properties":{"id":1054,"name":"Khövsgöl Nuur","featurecla":"Lake","scalerank":3,"wikidataid":"Q192215","source":"Natural Earth 5.2.0-pre ne_10m_lakes (public domain)"},"geometry":{"type":"Polygon","coordinates":[[[100.7848,51.4323],[100.796,51.4123],[100.7951,51.3896],[100.7807,51.3431],[100.789,51.3163],[100.7692,51.3025],[100.7722,51.2928],[100.7778,51.2833],[100.7789,51.2725],[100.776,51.2545],[100.7675,51.238],[100.7401,51.2053],[100.7345,51.1894],[100.7283,51.1632],[100.716,51.1456],[100.7083,51.1282],[100.7139,51.1038],[100.7239,51.0829],[100.7307,51.0746],[100.7419,51.0691],[100.7221,51.0564],[100.7006,51.0487],[100.6824,51.0393],[100.6724,51.0211],[100.6927,51.0161],[100.7021,51.0111],[100.7104,51.0043],[100.7115,50.9958],[100.6918,50.979],[100.6865,50.9696],[100.6824,50.9563],[100.6715,50.9372],[100.6571,50.9195],[100.6421,50.9119],[100.6244,50.9072],[100.5705,50.8704],[100.5599,50.8659],[100.5376,50.8603],[100.5287,50.8565],[100.5193,50.8503],[100.512,50.8445],[100.5064,50.8374],[100.5022,50.8294],[100.4955,50.8109],[100.494,50.8],[100.4984,50.7953],[100.5046,50.7962],[100.514,50.8009],[100.519,50.8021],[100.524,50.8],[100.5282,50.7953],[100.529,50.7906],[100.5173,50.7841],[100.5102,50.7653],[100.4984,50.7611],[100.4864,50.7597],[100.4725,50.7558],[100.4596,50.7503],[100.4504,50.7438],[100.4398,50.7335],[100.441,50.7314],[100.4401,50.7202],[100.4416,50.6958],[100.4401,50.6852],[100.4225,50.649],[100.4231,50.6322],[100.4469,50.6302],[100.4457,50.6461],[100.4604,50.6505],[100.4805,50.6466],[100.4949,50.6375],[100.4969,50.626],[100.4828,50.6116],[100.4884,50.6034],[100.4811,50.5931],[100.471,50.5887],[100.4593,50.5898],[100.4469,50.5966],[100.4331,50.5892],[100.4331,50.5831],[100.4637,50.5719],[100.4743,50.5692],[100.4743,50.5625],[100.4622,50.5577],[100.4498,50.5557],[100.4228,50.5551],[100.4169,50.5507],[100.4095,50.5413],[100.4001,50.5318],[100.3886,50.5277],[100.3221,50.5427],[100.2962,50.5418],[100.2862,50.5371],[100.2747,50.5295],[100.2629,50.5257],[100.2409,50.5368],[100.2285,50.5354],[100.2185,50.5286],[100.2114,50.5098],[100.1976,50.4883],[100.1932,50.4794],[100.1961,50.4691],[100.1967,50.4609],[100.1932,50.4527],[100.1779,50.4656],[100.167,50.4892],[100.1608,50.5151],[100.159,50.5345],[100.1652,50.5619],[100.1782,50.5754],[100.1938,50.5857],[100.2067,50.6034],[100.1964,50.6131],[100.1961,50.6237],[100.2029,50.6346],[100.2144,50.6443],[100.2308,50.6528],[100.2447,50.6581],[100.2459,50.6608],[100.257,50.674],[100.262,50.6784],[100.2547,50.6834],[100.2409,50.699],[100.25,50.7129],[100.2491,50.7305],[100.2409,50.7641],[100.2409,50.8498],[100.247,50.8945],[100.2962,51.0149],[100.3053,51.0499],[100.3097,51.0864],[100.3156,51.1061],[100.3274,51.1206],[100.3353,51.1356],[100.3303,51.1582],[100.285,51.2307],[100.2668,51.2689],[100.262,51.3093],[100.2668,51.3284],[100.2768,51.3425],[100.2915,51.3502],[100.3097,51.3502],[100.31,51.3475],[100.3124,51.3413],[100.3168,51.3343],[100.3236,51.3296],[100.4051,51.3466],[100.4319,51.3667],[100.451,51.3937],[100.4675,51.4252],[100.4584,51.4426],[100.4493,51.4497],[100.4372,51.45],[100.4189,51.4455],[100.3851,51.4338],[100.3665,51.432],[100.3583,51.4426],[100.3604,51.4561],[100.3665,51.4682],[100.3763,51.477],[100.3886,51.4803],[100.401,51.4853],[100.4128,51.4968],[100.4316,51.5203],[100.4911,51.5365],[100.5055,51.5459],[100.5114,51.5565],[100.5108,51.5654],[100.5081,51.5739],[100.5084,51.5827],[100.5146,51.591],[100.5229,51.5963],[100.5273,51.6019],[100.5229,51.6107],[100.5496,51.6198],[100.5705,51.6116],[100.5906,51.5977],[100.6153,51.5904],[100.6215,51.5795],[100.6456,51.5147],[100.6594,51.4982],[100.6786,51.4803],[100.6998,51.4659],[100.7207,51.46],[100.7448,51.4567],[100.7669,51.4473],[100.7848,51.4323]]]}}
