{"type":"Feature","properties":{"id":1055,"name":"Lac la Martre","featurecla":"Lake","scalerank":3,"wikidataid":"Q1516443","source":"Natural Earth 5.2.0-pre ne_10m_lakes (public domain)"},"geometry":{"type":"Polygon","coordinates":[[[-117.7499,63.1506],[-117.7499,63.1574],[-117.9075,63.1506],[-117.9298,63.1442],[-117.9386,63.1433],[-117.9432,63.1465],[-117.9414,63.1539],[-117.9355,63.1648],[-117.9438,63.1777],[-117.9516,63.1871],[-117.9632,63.1921],[-117.9828,63.1916],[-117.9754,63.2045],[-117.9707,63.2086],[-117.9622,63.2122],[-118.0044,63.2198],[-118.0827,63.1954],[-118.1199,63.206],[-118.107,63.2154],[-118.1008,63.218],[-118.0926,63.2195],[-118.0926,63.2257],[-118.1043,63.2239],[-118.1145,63.2254],[-118.1223,63.2304],[-118.1273,63.2392],[-118.119,63.2404],[-118.1065,63.2451],[-118.0993,63.2469],[-118.0993,63.2531],[-118.205,63.2442],[-118.223,63.2531],[-118.1996,63.2566],[-118.1767,63.2628],[-118.1335,63.281],[-118.1215,63.284],[-118.1112,63.2852],[-118.1071,63.289],[-118.113,63.3014],[-118.1257,63.3114],[-118.1408,63.3128],[-118.1907,63.304],[-118.2324,63.2852],[-118.3276,63.2657],[-118.3395,63.2749],[-118.3283,63.2766],[-118.298,63.2878],[-118.298,63.294],[-118.3354,63.309],[-118.5649,63.3064],[-118.5828,63.3117],[-118.599,63.3205],[-118.6227,63.3255],[-118.6679,63.3287],[-118.6482,63.3464],[-118.6224,63.3646],[-118.6092,63.3838],[-118.627,63.4038],[-118.5809,63.4003],[-118.56,63.4041],[-118.545,63.4182],[-118.5668,63.4297],[-118.5766,63.4365],[-118.5797,63.445],[-118.5727,63.4532],[-118.5587,63.4574],[-118.5032,63.4603],[-118.4471,63.4706],[-118.4215,63.4794],[-118.4133,63.4844],[-118.3941,63.5],[-118.3576,63.5124],[-118.3492,63.5174],[-118.3414,63.5277],[-118.3385,63.5327],[-118.3333,63.5363],[-118.3191,63.541],[-118.2779,63.5471],[-118.2496,63.5548],[-118.2361,63.5533],[-118.2228,63.5504],[-118.2088,63.5486],[-118.1965,63.551],[-118.1787,63.5627],[-118.1682,63.5678],[-118.113,63.5751],[-118.0745,63.5878],[-118.0615,63.5895],[-118.0382,63.5869],[-118.0194,63.5789],[-118.0054,63.5663],[-117.9963,63.5486],[-117.9963,63.538],[-118.0003,63.5304],[-118.0014,63.5227],[-117.9882,63.503],[-117.9828,63.4862],[-117.953,63.4574],[-117.7636,63.4038],[-117.773,63.3988],[-117.7773,63.3976],[-117.7773,63.3903],[-117.7484,63.3844],[-117.6201,63.3932],[-117.606,63.3903],[-117.5712,63.3735],[-117.5581,63.3696],[-117.5648,63.3661],[-117.5734,63.359],[-117.5786,63.3567],[-117.5636,63.3493],[-117.5284,63.3535],[-117.5097,63.3493],[-117.4991,63.3411],[-117.5003,63.3349],[-117.524,63.3152],[-117.4714,63.3125],[-117.4551,63.3084],[-117.4532,63.3046],[-117.4491,63.2908],[-117.4454,63.2878],[-117.4389,63.2899],[-117.427,63.2987],[-117.4216,63.3014],[-117.3951,63.3067],[-117.3881,63.3019],[-117.3806,63.2878],[-117.3761,63.2746],[-117.3756,63.2631],[-117.3793,63.2519],[-117.3868,63.2392],[-117.3614,63.2345],[-117.3291,63.2242],[-117.3101,63.2095],[-117.3253,63.1916],[-117.2957,63.1813],[-117.2873,63.1721],[-117.2907,63.1574],[-117.2811,63.1559],[-117.272,63.153],[-117.2638,63.1486],[-117.2564,63.1433],[-117.2641,63.1392],[-117.2742,63.1365],[-117.2858,63.1356],[-117.2981,63.1371],[-117.3368,63.1333],[-117.4352,63.1097],[-117.5854,63.0959],[-117.782,63.1133],[-117.8016,63.1186],[-117.8045,63.13],[-117.795,63.1374],[-117.7499,63.1506]],[[-117.7846,63.3214],[-117.8129,63.3408],[-117.8554,63.3449],[-117.9005,63.337],[-117.9355,63.3214],[-117.9295,63.3187],[-117.9145,63.3084],[-117.9282,63.3087],[-117.9424,63.3049],[-117.9529,63.2975],[-117.9554,63.2878],[-117.9455,63.2746],[-117.9305,63.2754],[-117.9008,63.2878],[-117.8373,63.2975],[-117.8108,63.3058],[-117.7846,63.3214]]]}}
