{"type":"Feature","properties":{"id":1056,"name":"Lac Moeru","featurecla":"Lake","scalerank":3,"wikidataid":"Q504433","source":"Natural Earth 5.2.0-pre ne_10m_lakes (public domain)"},"geometry":{"type":"Polygon","coordinates":[[[29.1434,-8.6412],[29.1493,-8.6577],[29.1469,-8.6757],[29.0863,-8.8267],[29.0462,-8.8944],[29.0236,-8.9606],[29.0077,-8.9883],[28.9965,-8.9974],[28.9535,-9.0236],[28.9353,-9.0292],[28.9197,-9.0369],[28.9105,-9.0554],[28.9026,-9.0778],[28.8908,-9.0975],[28.849,-9.1319],[28.8302,-9.1525],[28.816,-9.1946],[28.8022,-9.2082],[28.7742,-9.2279],[28.7654,-9.2409],[28.7545,-9.2653],[28.7469,-9.2756],[28.7274,-9.2927],[28.7183,-9.3036],[28.7127,-9.3165],[28.7124,-9.3327],[28.7239,-9.3474],[28.7271,-9.3645],[28.7142,-9.3978],[28.7142,-9.4137],[28.7327,-9.4195],[28.7204,-9.4454],[28.7024,-9.4378],[28.665,-9.3992],[28.6547,-9.4054],[28.6474,-9.406],[28.6409,-9.4022],[28.6344,-9.3957],[28.625,-9.391],[28.6162,-9.3928],[28.6076,-9.3969],[28.5803,-9.4036],[28.5414,-9.4222],[28.5211,-9.4263],[28.5267,-9.4104],[28.5243,-9.3919],[28.5155,-9.3783],[28.5005,-9.378],[28.5005,-9.3645],[28.4831,-9.3866],[28.4825,-9.4446],[28.459,-9.4675],[28.4808,-9.4734],[28.507,-9.4737],[28.5261,-9.4814],[28.5279,-9.509],[28.5037,-9.5034],[28.4546,-9.5237],[28.4248,-9.5293],[28.3972,-9.5279],[28.3842,-9.5249],[28.3733,-9.519],[28.3574,-9.5146],[28.33,-9.5285],[28.315,-9.522],[28.3292,-9.509],[28.3224,-9.4958],[28.3259,-9.4875],[28.3462,-9.4708],[28.3521,-9.4578],[28.3524,-9.4434],[28.3489,-9.4231],[28.3401,-9.398],[28.3239,-9.3792],[28.315,-9.3613],[28.3292,-9.3377],[28.3189,-9.3168],[28.3262,-9.285],[28.315,-9.2756],[28.328,-9.2585],[28.3395,-9.2329],[28.3451,-9.2073],[28.3395,-9.1896],[28.3256,-9.1708],[28.3209,-9.1487],[28.323,-9.1255],[28.3292,-9.1037],[28.3418,-9.0825],[28.4013,-9.0395],[28.4231,-9.0124],[28.4284,-9.0086],[28.4663,-8.9883],[28.4869,-8.9645],[28.5208,-8.9062],[28.5414,-8.8785],[28.6138,-8.8131],[28.6659,-8.7478],[28.7572,-8.6554],[28.869,-8.4949],[28.8908,-8.4811],[28.9091,-8.4832],[28.9385,-8.5082],[28.9562,-8.5147],[28.9797,-8.5197],[29.0012,-8.5317],[29.0418,-8.5623],[29.1066,-8.6021],[29.1272,-8.6212],[29.1434,-8.6412]]]}}
