{"type":"Feature","properties":{"id":1057,"name":"Lago Buenos Aires","featurecla":"Lake","scalerank":3,"wikidataid":"Q503842","source":"Natural Earth 5.2.0-pre ne_10m_lakes (public domain)"},"geometry":{"type":"Polygon","coordinates":[[[-71.1556,-46.5085],[-71.1449,-46.52],[-71.1497,-46.535],[-71.163,-46.5394],[-71.1859,-46.54],[-71.1924,-46.55],[-71.2036,-46.5762],[-71.2101,-46.5815],[-71.2817,-46.5942],[-71.3087,-46.5951],[-71.3468,-46.5836],[-71.3578,-46.5815],[-71.4192,-46.5883],[-71.4458,-46.586],[-71.5147,-46.5677],[-71.5695,-46.5609],[-71.6052,-46.5427],[-71.6141,-46.54],[-71.6251,-46.5377],[-71.6469,-46.5283],[-71.6588,-46.5262],[-71.6735,-46.5277],[-71.7003,-46.533],[-71.7134,-46.5336],[-71.7305,-46.5318],[-71.7364,-46.528],[-71.7396,-46.5221],[-71.7482,-46.5132],[-71.7692,-46.4962],[-71.7814,-46.4915],[-71.7926,-46.4959],[-71.8048,-46.5026],[-71.8159,-46.4994],[-71.8335,-46.4817],[-71.8449,-46.475],[-71.858,-46.4735],[-71.8718,-46.475],[-71.8853,-46.4785],[-72.0087,-46.535],[-72.1236,-46.5653],[-72.1722,-46.5689],[-72.1869,-46.5662],[-72.1932,-46.5577],[-72.1993,-46.5509],[-72.2136,-46.5474],[-72.2297,-46.5462],[-72.2417,-46.5474],[-72.2518,-46.5521],[-72.2715,-46.568],[-72.2826,-46.5754],[-72.2895,-46.5677],[-72.3236,-46.5883],[-72.3301,-46.5954],[-72.3409,-46.6116],[-72.3887,-46.6584],[-72.4251,-46.6825],[-72.4455,-46.691],[-72.4676,-46.6963],[-72.4916,-46.6981],[-72.5016,-46.7013],[-72.5167,-46.7161],[-72.526,-46.7193],[-72.5413,-46.7211],[-72.5505,-46.7255],[-72.6252,-46.8053],[-72.6627,-46.8356],[-72.6998,-46.8491],[-72.7419,-46.8373],[-72.7608,-46.8385],[-72.7686,-46.8594],[-72.7709,-46.8688],[-72.7806,-46.8886],[-72.7829,-46.9006],[-72.7877,-46.9086],[-72.7973,-46.9003],[-72.8048,-46.8883],[-72.8033,-46.8838],[-72.8282,-46.8853],[-72.8382,-46.9071],[-72.8341,-46.9357],[-72.817,-46.9583],[-72.8276,-46.9725],[-72.8326,-46.9883],[-72.8408,-47.0013],[-72.8785,-47.0104],[-72.9163,-47.026],[-72.9399,-47.0272],[-72.9339,-47.0254],[-72.9283,-47.0228],[-72.9234,-47.0184],[-72.9194,-47.0128],[-72.8952,-46.9901],[-72.8875,-46.9192],[-72.8685,-46.8868],[-72.8598,-46.8809],[-72.8413,-46.8715],[-72.8264,-46.8594],[-72.823,-46.8574],[-72.821,-46.8538],[-72.8124,-46.8232],[-72.8111,-46.8035],[-72.8148,-46.7861],[-72.8238,-46.7741],[-72.774,-46.7493],[-72.7587,-46.7461],[-72.7196,-46.7505],[-72.704,-46.7493],[-72.6867,-46.7396],[-72.6661,-46.7119],[-72.6617,-46.7028],[-72.6601,-46.6963],[-72.6572,-46.6902],[-72.6366,-46.6678],[-72.6289,-46.6534],[-72.6327,-46.641],[-72.6728,-46.6325],[-72.6864,-46.6227],[-72.6976,-46.6095],[-72.7072,-46.5951],[-72.7098,-46.5886],[-72.714,-46.5677],[-72.7166,-46.5665],[-72.7213,-46.5656],[-72.7257,-46.5633],[-72.7277,-46.5577],[-72.7266,-46.5518],[-72.7237,-46.5403],[-72.7246,-46.5368],[-72.7503,-46.5121],[-72.7555,-46.4973],[-72.7481,-46.4785],[-72.7353,-46.4691],[-72.7003,-46.4561],[-72.6867,-46.4444],[-72.6739,-46.4717],[-72.6654,-46.5736],[-72.6389,-46.6095],[-72.6165,-46.5942],[-72.6011,-46.596],[-72.5865,-46.6042],[-72.5569,-46.6116],[-72.5376,-46.621],[-72.526,-46.623],[-72.4813,-46.6245],[-72.467,-46.623],[-72.4461,-46.6154],[-72.4302,-46.603],[-72.4018,-46.5715],[-72.3799,-46.5521],[-72.3625,-46.5433],[-72.292,-46.5362],[-72.2674,-46.528],[-72.2442,-46.5165],[-72.2243,-46.5026],[-72.2125,-46.4985],[-72.2019,-46.5026],[-72.1922,-46.5097],[-72.1834,-46.5132],[-72.1691,-46.5132],[-72.1623,-46.5124],[-72.1454,-46.4994],[-72.1301,-46.4903],[-72.1095,-46.4812],[-72.0871,-46.4744],[-72.0664,-46.4717],[-72.0444,-46.4664],[-72.0218,-46.4532],[-71.981,-46.4238],[-71.9552,-46.4135],[-71.8974,-46.4011],[-71.8744,-46.3867],[-71.8568,-46.3887],[-71.8176,-46.3887],[-71.7838,-46.3817],[-71.7817,-46.3622],[-71.7941,-46.3561],[-71.8098,-46.3566],[-71.8677,-46.3661],[-71.8768,-46.3637],[-71.8886,-46.3525],[-71.9006,-46.3431],[-71.9271,-46.3357],[-71.9401,-46.3284],[-71.9508,-46.3169],[-71.9735,-46.2804],[-71.9519,-46.2816],[-71.9274,-46.2884],[-71.9046,-46.2989],[-71.8886,-46.3113],[-71.8696,-46.3193],[-71.8219,-46.309],[-71.796,-46.3145],[-71.766,-46.3425],[-71.7485,-46.3478],[-71.7408,-46.3251],[-71.728,-46.3093],[-71.6983,-46.3063],[-71.6378,-46.3078],[-71.6278,-46.3028],[-71.6075,-46.2886],[-71.5969,-46.2866],[-71.5845,-46.2913],[-71.5796,-46.2984],[-71.5824,-46.3048],[-71.6135,-46.3119],[-71.6369,-46.3225],[-71.655,-46.3381],[-71.6588,-46.3561],[-71.6437,-46.3664],[-71.5805,-46.3808],[-71.5277,-46.3849],[-71.505,-46.3902],[-71.4379,-46.4185],[-71.4123,-46.4249],[-71.3572,-46.4305],[-71.3436,-46.4296],[-71.3194,-46.4249],[-71.2863,-46.4243],[-71.2785,-46.427],[-71.2766,-46.4329],[-71.2745,-46.4444],[-71.2748,-46.4529],[-71.2776,-46.457],[-71.2772,-46.4617],[-71.2678,-46.4717],[-71.2583,-46.4779],[-71.2474,-46.482],[-71.2355,-46.4847],[-71.2238,-46.4853],[-71.2048,-46.4888],[-71.1787,-46.4973],[-71.1556,-46.5085]]]}}
