{"type":"Feature","properties":{"id":1058,"name":"Lago Llanquihue","featurecla":"Lake","scalerank":3,"wikidataid":"Q826464","source":"Natural Earth 5.2.0-pre ne_10m_lakes (public domain)"},"geometry":{"type":"Polygon","coordinates":[[[-72.929,-41.318],[-72.9558,-41.3124],[-72.9767,-41.2992],[-72.9913,-41.2586],[-73.0041,-41.2424],[-73.0141,-41.2244],[-73.0122,-41.2026],[-72.9991,-41.1964],[-72.9715,-41.18],[-72.9515,-41.1629],[-72.9606,-41.1549],[-73.0048,-41.1405],[-73.0289,-41.1379],[-73.0384,-41.1346],[-73.0463,-41.127],[-73.0256,-41.109],[-72.9633,-41.0863],[-72.95,-41.0684],[-72.9452,-41.0643],[-72.9339,-41.0584],[-72.9224,-41.0498],[-72.9166,-41.0375],[-72.9188,-41.0222],[-72.9239,-41.0148],[-72.9253,-41.0086],[-72.9166,-40.9966],[-72.9118,-40.9948],[-72.8953,-40.9924],[-72.8887,-40.9898],[-72.8862,-40.9854],[-72.8821,-40.9715],[-72.8788,-40.966],[-72.8656,-40.9568],[-72.846,-40.9495],[-72.8282,-40.9504],[-72.8104,-40.9922],[-72.7861,-41.0022],[-72.7277,-41.0107],[-72.7197,-41.0063],[-72.7087,-41.0027],[-72.6969,-41.0013],[-72.6867,-41.0033],[-72.676,-41.0113],[-72.6766,-41.0178],[-72.6806,-41.0254],[-72.6798,-41.0375],[-72.6533,-41.094],[-72.642,-41.1099],[-72.6121,-41.1334],[-72.602,-41.1473],[-72.598,-41.172],[-72.5939,-41.177],[-72.5669,-41.1988],[-72.5644,-41.207],[-72.5706,-41.2138],[-72.5803,-41.2188],[-72.6027,-41.2262],[-72.6142,-41.2265],[-72.6251,-41.2235],[-72.6703,-41.2014],[-72.6987,-41.1935],[-72.725,-41.1979],[-72.7518,-41.2191],[-72.7748,-41.2506],[-72.7864,-41.2586],[-72.7987,-41.2615],[-72.8266,-41.2633],[-72.8372,-41.2677],[-72.8896,-41.3071],[-72.9024,-41.3195],[-72.929,-41.318]]]}}
