{"type":"Feature","properties":{"id":1059,"name":"Lake Champlain","featurecla":"Lake","scalerank":3,"wikidataid":"Q68467","source":"Natural Earth 5.2.0-pre ne_10m_lakes (public domain)"},"geometry":{"type":"Polygon","coordinates":[[[-73.3692,44.2065],[-73.3719,44.203],[-73.3703,44.1995],[-73.3604,44.1921],[-73.3583,44.1892],[-73.3583,44.1618],[-73.3626,44.1512],[-73.4069,44.0847],[-73.4113,44.0588],[-73.4053,44.034],[-73.3925,44.0111],[-73.4034,43.9943],[-73.4048,43.9775],[-73.3998,43.9457],[-73.3944,43.9257],[-73.3704,43.9007],[-73.3651,43.8807],[-73.3692,43.8595],[-73.3754,43.843],[-73.3756,43.8274],[-73.3535,43.795],[-73.3517,43.7777],[-73.3574,43.7615],[-73.3719,43.7512],[-73.3703,43.7824],[-73.3719,43.7912],[-73.3794,43.8003],[-73.4015,43.818],[-73.406,43.8289],[-73.404,43.8404],[-73.3945,43.8586],[-73.3925,43.8707],[-73.3948,43.8824],[-73.4006,43.8927],[-73.4129,43.9081],[-73.4219,43.9263],[-73.426,43.9449],[-73.4262,43.9972],[-73.4213,44.017],[-73.4203,44.0285],[-73.425,44.0373],[-73.4356,44.0358],[-73.4471,44.0282],[-73.4544,44.0179],[-73.4584,44.0602],[-73.424,44.1612],[-73.4334,44.1954],[-73.4069,44.2074],[-73.3377,44.2642],[-73.3474,44.2778],[-73.3538,44.2896],[-73.3573,44.3034],[-73.3594,44.3322],[-73.3673,44.3667],[-73.3719,44.3746],[-73.3766,44.3805],[-73.3788,44.384],[-73.3769,44.4385],[-73.3788,44.45],[-73.3903,44.4497],[-73.3995,44.4335],[-73.4051,44.4114],[-73.406,44.3946],[-73.4119,44.407],[-73.4131,44.4208],[-73.4098,44.4344],[-73.4029,44.4462],[-73.3987,44.4597],[-73.4037,44.4732],[-73.4203,44.4971],[-73.4028,44.5083],[-73.3957,44.5245],[-73.4018,44.5392],[-73.4237,44.5454],[-73.4307,44.5539],[-73.4381,44.573],[-73.4425,44.5936],[-73.4408,44.6069],[-73.4469,44.6069],[-73.4449,44.6151],[-73.4455,44.6239],[-73.4487,44.6331],[-73.4544,44.6416],[-73.4387,44.6516],[-73.4356,44.6657],[-73.4408,44.6925],[-73.4355,44.7128],[-73.4234,44.7214],[-73.4115,44.7193],[-73.4037,44.7023],[-73.3981,44.6975],[-73.3914,44.6967],[-73.3863,44.7031],[-73.3859,44.7134],[-73.39,44.7205],[-73.3959,44.7258],[-73.4075,44.739],[-73.414,44.742],[-73.4166,44.7458],[-73.4129,44.7579],[-73.4066,44.7667],[-73.3998,44.7682],[-73.3929,44.7676],[-73.3863,44.7714],[-73.3735,44.7903],[-73.3732,44.8023],[-73.3819,44.8123],[-73.3962,44.8235],[-73.4004,44.835],[-73.4001,44.853],[-73.396,44.8715],[-73.3841,44.898],[-73.3825,44.9345],[-73.3788,44.9495],[-73.3754,44.951],[-73.37,44.951],[-73.3639,44.9536],[-73.3583,44.9639],[-73.3573,44.9731],[-73.3592,44.9828],[-73.3651,44.9981],[-73.3589,45.0096],[-73.3348,45.0799],[-73.328,45.079],[-73.3211,45.0711],[-73.3173,45.0593],[-73.3201,45.0496],[-73.3345,45.0255],[-73.3377,45.0149],[-73.3383,45.0057],[-73.3377,44.9954],[-73.3327,44.9872],[-73.3058,44.9804],[-73.3043,44.9719],[-73.3084,44.9607],[-73.3105,44.9495],[-73.2973,44.8836],[-73.2899,44.8677],[-73.2825,44.8677],[-73.2784,44.8989],[-73.2693,44.9351],[-73.254,44.9651],[-73.2318,44.9775],[-73.2259,44.9851],[-73.2006,45.0322],[-73.1586,45.0782],[-73.1454,45.0873],[-73.1337,45.0758],[-73.1147,45.082],[-73.0959,45.0852],[-73.0787,45.054],[-73.0843,45.0467],[-73.0934,45.0396],[-73.0983,45.0284],[-73.0963,45.0178],[-73.0934,45.0104],[-73.0928,45.0028],[-73.0983,44.991],[-73.1124,44.981],[-73.1289,44.9813],[-73.1384,44.9913],[-73.1317,45.011],[-73.1683,45.001],[-73.2038,44.9751],[-73.2162,44.9486],[-73.1835,44.9366],[-73.1702,44.9277],[-73.1676,44.908],[-73.1702,44.8874],[-73.1835,44.8371],[-73.1823,44.8197],[-73.1733,44.7988],[-73.1666,44.8059],[-73.1454,44.8206],[-73.1465,44.8035],[-73.158,44.7882],[-73.1735,44.7735],[-73.187,44.7579],[-73.1947,44.7405],[-73.2006,44.689],[-73.2294,44.6201],[-73.2297,44.5892],[-73.1944,44.5798],[-73.2013,44.5568],[-73.2135,44.5565],[-73.2279,44.5663],[-73.2416,44.5733],[-73.2465,44.5721],[-73.2606,44.563],[-73.2688,44.5598],[-73.2806,44.5595],[-73.2897,44.5618],[-73.2989,44.5633],[-73.3105,44.5598],[-73.2968,44.5492],[-73.2833,44.5436],[-73.273,44.5368],[-73.2638,44.5077],[-73.2521,44.5021],[-73.2384,44.4986],[-73.2279,44.4909],[-73.2242,44.4791],[-73.2212,44.4323],[-73.2276,44.4244],[-73.2403,44.4244],[-73.2485,44.4329],[-73.2416,44.45],[-73.2568,44.4414],[-73.2697,44.4223],[-73.2755,44.3999],[-73.2688,44.3811],[-73.2937,44.3246],[-73.3011,44.2922],[-73.2931,44.2781],[-73.2794,44.2731],[-73.2887,44.2622],[-73.3139,44.2472],[-73.3501,44.2189],[-73.3583,44.2098],[-73.3607,44.2086],[-73.365,44.2083],[-73.3692,44.2065]],[[-73.3289,44.6134],[-73.3105,44.6069],[-73.2983,44.6116],[-73.2815,44.6245],[-73.2708,44.6422],[-73.2764,44.6622],[-73.2856,44.6634],[-73.3118,44.6563],[-73.3173,44.6587],[-73.3145,44.6693],[-73.3073,44.6755],[-73.2984,44.6805],[-73.2899,44.689],[-73.2869,44.6975],[-73.2834,44.719],[-73.2794,44.7267],[-73.2652,44.7382],[-73.2615,44.7452],[-73.2621,44.7579],[-73.2724,44.7702],[-73.2843,44.7667],[-73.2981,44.757],[-73.3139,44.7517],[-73.3299,44.7485],[-73.3392,44.7396],[-73.3514,44.7105],[-73.3446,44.7105],[-73.3516,44.6955],[-73.3483,44.6678],[-73.3514,44.6554],[-73.3438,44.6419],[-73.338,44.6263],[-73.3289,44.6134]]]}}
