{"type":"Feature","properties":{"id":1060,"name":"Lake Disappointment","featurecla":"Alkaline Lake","scalerank":3,"wikidataid":"Q1638191","source":"Natural Earth 5.2.0-pre ne_10m_lakes (public domain)"},"geometry":{"type":"Polygon","coordinates":[[[122.8003,-23.6933],[122.7956,-23.6941],[122.7841,-23.6691],[122.7359,-23.6338],[122.7164,-23.6138],[122.7097,-23.5967],[122.705,-23.5787],[122.6982,-23.5623],[122.6852,-23.5487],[122.6584,-23.5355],[122.6446,-23.5314],[122.632,-23.5314],[122.6169,-23.534],[122.6055,-23.5337],[122.5978,-23.5269],[122.5943,-23.5105],[122.5952,-23.4975],[122.6066,-23.4607],[122.6113,-23.4263],[122.6172,-23.4113],[122.6311,-23.401],[122.6384,-23.3995],[122.6437,-23.3995],[122.6487,-23.398],[122.6555,-23.3927],[122.6596,-23.3859],[122.6658,-23.3703],[122.6696,-23.3639],[122.6808,-23.3556],[122.6932,-23.3491],[122.7026,-23.3409],[122.7047,-23.3268],[122.702,-23.3203],[122.6929,-23.3091],[122.6911,-23.3032],[122.6938,-23.2965],[122.7,-23.2912],[122.7135,-23.2823],[122.7058,-23.2647],[122.7044,-23.2549],[122.7073,-23.2473],[122.715,-23.2446],[122.7235,-23.2479],[122.7865,-23.2794],[122.8015,-23.2826],[122.8124,-23.2809],[122.8218,-23.2756],[122.8309,-23.2688],[122.841,-23.2635],[122.8536,-23.2594],[122.8789,-23.2561],[122.8922,-23.2561],[122.9172,-23.2611],[122.9354,-23.2741],[122.9466,-23.2938],[122.9496,-23.348],[122.9487,-23.3606],[122.9455,-23.3742],[122.9404,-23.3853],[122.9413,-23.3895],[122.946,-23.3971],[122.9507,-23.4033],[122.9549,-23.4071],[122.9578,-23.4118],[122.9581,-23.4198],[122.9558,-23.4257],[122.944,-23.4457],[122.9416,-23.4536],[122.941,-23.4598],[122.9487,-23.5072],[122.9493,-23.5596],[122.9469,-23.5737],[122.9396,-23.5849],[122.9113,-23.6032],[122.906,-23.6082],[122.9025,-23.6147],[122.9025,-23.6223],[122.9075,-23.6359],[122.9075,-23.642],[122.9007,-23.6497],[122.8878,-23.6579],[122.8507,-23.6753],[122.8003,-23.6933]]]}}
