{"type":"Feature","properties":{"id":1061,"name":"Lake Frome","featurecla":"Alkaline Lake","scalerank":3,"wikidataid":"Q626907","source":"Natural Earth 5.2.0-pre ne_10m_lakes (public domain)"},"geometry":{"type":"Polygon","coordinates":[[[139.9126,-31.0132],[139.9111,-31.0206],[139.9111,-31.027],[139.9099,-31.0329],[139.9044,-31.0379],[139.889,-31.04],[139.8802,-31.0294],[139.8729,-31.0164],[139.8614,-31.0111],[139.8523,-31.0188],[139.8443,-31.0347],[139.8387,-31.0524],[139.8364,-31.0647],[139.8399,-31.078],[139.8534,-31.1095],[139.8528,-31.1218],[139.839,-31.1298],[139.8172,-31.131],[139.796,-31.1262],[139.784,-31.1168],[139.7834,-31.1012],[139.7966,-31.0444],[139.7916,-31.0279],[139.7793,-31.0176],[139.7616,-31.0126],[139.7422,-31.0114],[139.7283,-31.0123],[139.7245,-31.0153],[139.7233,-31.0206],[139.7177,-31.0279],[139.6909,-31.0388],[139.6589,-31.0373],[139.6279,-31.0265],[139.6053,-31.0079],[139.5985,-30.9958],[139.6009,-30.9902],[139.6076,-30.9852],[139.6144,-30.9761],[139.6168,-30.9593],[139.6103,-30.9508],[139.5829,-30.9431],[139.5682,-30.9364],[139.5426,-30.9181],[139.5287,-30.9119],[139.5179,-30.9119],[139.5055,-30.9137],[139.4943,-30.9128],[139.4858,-30.9037],[139.4861,-30.8896],[139.542,-30.7721],[139.5535,-30.7571],[139.5823,-30.7309],[139.592,-30.7162],[139.6135,-30.6435],[139.6309,-30.6214],[139.7248,-30.5549],[139.7377,-30.5405],[139.7472,-30.5331],[139.7819,-30.5154],[139.824,-30.4881],[139.829,-30.4816],[139.8496,-30.4363],[139.8755,-30.4042],[139.8864,-30.3856],[139.8955,-30.3485],[139.9553,-30.2658],[139.9679,-30.2593],[139.9782,-30.3035],[139.9894,-30.3188],[140.0139,-30.3406],[140.0412,-30.3809],[140.0542,-30.4218],[140.0539,-30.4633],[140.0268,-30.5743],[140.0177,-30.5911],[140.0033,-30.609],[139.998,-30.627],[139.9977,-30.8113],[139.9662,-30.8961],[139.9126,-31.0132]]]}}
