{"type":"Feature","properties":{"id":1062,"name":"Lake Gairdner","featurecla":"Alkaline Lake","scalerank":3,"wikidataid":"Q965973","source":"Natural Earth 5.2.0-pre ne_10m_lakes (public domain)"},"geometry":{"type":"Polygon","coordinates":[[[135.9243,-32.3543],[135.8957,-32.3426],[135.8677,-32.3222],[135.8551,-32.2972],[135.8601,-32.2804],[135.9257,-32.1854],[135.9301,-32.1653],[135.911,-32.1489],[135.9119,-32.1277],[135.9154,-32.115],[135.9237,-32.1044],[135.9769,-32.0535],[135.9926,-32.0429],[136.0199,-32.0329],[136.0267,-32.027],[136.0308,-32.0173],[136.0296,-32.0111],[136.027,-32.0055],[136.0261,-31.987],[136.024,-31.982],[136.0238,-31.9767],[136.0296,-31.9681],[136.0364,-31.964],[136.0664,-31.9552],[136.0511,-31.8833],[136.0367,-31.848],[136.0132,-31.8251],[135.9964,-31.8218],[135.964,-31.8262],[135.9463,-31.8221],[135.9343,-31.8124],[135.9092,-31.7733],[135.9037,-31.7662],[135.8989,-31.7618],[135.8377,-31.732],[135.8056,-31.7241],[135.8003,-31.7032],[135.8192,-31.6476],[135.8189,-31.6128],[135.8033,-31.5787],[135.7774,-31.5501],[135.7459,-31.5333],[135.7173,-31.5331],[135.7126,-31.5513],[135.7141,-31.5778],[135.7038,-31.6016],[135.6776,-31.6108],[135.6446,-31.6049],[135.6146,-31.5896],[135.5969,-31.5698],[135.5937,-31.5434],[135.5999,-31.5127],[135.6116,-31.4827],[135.6243,-31.4589],[135.6449,-31.4374],[135.6682,-31.4297],[135.6938,-31.4271],[135.7223,-31.42],[135.7438,-31.4027],[135.7435,-31.3832],[135.7273,-31.3644],[135.7026,-31.3491],[135.682,-31.3414],[135.6629,-31.3385],[135.6437,-31.3397],[135.6228,-31.3452],[135.5987,-31.3585],[135.5857,-31.3635],[135.5728,-31.3626],[135.5516,-31.3458],[135.5598,-31.3291],[135.5775,-31.3135],[135.5834,-31.2996],[135.5751,-31.294],[135.5325,-31.2834],[135.5257,-31.2799],[135.5136,-31.2708],[135.5057,-31.2678],[135.4986,-31.2684],[135.4848,-31.2731],[135.4792,-31.2734],[135.4659,-31.2696],[135.4592,-31.2646],[135.4297,-31.2204],[135.4194,-31.1995],[135.4165,-31.1778],[135.4221,-31.1519],[135.4283,-31.1413],[135.4341,-31.1363],[135.4368,-31.1292],[135.4333,-31.1142],[135.4194,-31.0933],[135.4032,-31.0759],[135.3994,-31.063],[135.4221,-31.0559],[135.4389,-31.0577],[135.4583,-31.0635],[135.4768,-31.0721],[135.5278,-31.1045],[135.5357,-31.1142],[135.5372,-31.1227],[135.5333,-31.1415],[135.5345,-31.151],[135.556,-31.1842],[135.5837,-31.2004],[135.6493,-31.2251],[135.6655,-31.2084],[135.6846,-31.2151],[135.7041,-31.2302],[135.7211,-31.2387],[135.8318,-31.2369],[135.8548,-31.2319],[135.8889,-31.2137],[135.8992,-31.2107],[135.9402,-31.2107],[135.9484,-31.2148],[135.9708,-31.2387],[136.0076,-31.2449],[136.0517,-31.239],[136.0879,-31.2416],[136.1012,-31.2728],[136.0965,-31.2899],[136.0785,-31.3285],[136.0744,-31.345],[136.0585,-31.3826],[136.0567,-31.4027],[136.0744,-31.4094],[136.0838,-31.4041],[136.095,-31.3853],[136.1012,-31.382],[136.1076,-31.387],[136.1097,-31.3968],[136.1085,-31.42],[136.1121,-31.4436],[136.1206,-31.4651],[136.1783,-31.5654],[136.1874,-31.574],[136.213,-31.5778],[136.2286,-31.5893],[136.2366,-31.6069],[136.2451,-31.8003],[136.2504,-31.8168],[136.269,-31.8483],[136.2731,-31.8592],[136.276,-31.8642],[136.2969,-31.8795],[136.304,-31.8895],[136.3205,-31.9631],[136.3108,-31.9858],[136.2663,-32.0264],[136.2563,-32.0529],[136.2681,-32.1138],[136.2663,-32.1497],[136.2619,-32.158],[136.2484,-32.1762],[136.2451,-32.1848],[136.2466,-32.1954],[136.251,-32.2007],[136.2563,-32.2033],[136.2587,-32.2051],[136.2607,-32.221],[136.2587,-32.2336],[136.2498,-32.2439],[136.2322,-32.2528],[136.2077,-32.2593],[136.1444,-32.2651],[136.1194,-32.2631],[136.1227,-32.2557],[136.1486,-32.2145],[136.1383,-32.201],[136.1362,-32.1862],[136.1391,-32.1706],[136.1444,-32.1548],[136.1515,-32.1415],[136.1568,-32.1341],[136.155,-32.1294],[136.1415,-32.1244],[136.1291,-32.1233],[136.0591,-32.1235],[136.0414,-32.1286],[136.0258,-32.1415],[135.9531,-32.231],[135.906,-32.269],[135.8957,-32.281],[135.8925,-32.296],[135.9013,-32.3105],[135.9172,-32.3211],[135.9322,-32.334],[135.9372,-32.3549],[135.9243,-32.3543]]]}}
