{"type":"Feature","properties":{"id":1063,"name":"Lake Khanka","featurecla":"Lake","scalerank":3,"wikidataid":"Q201843","source":"Natural Earth 5.2.0-pre ne_10m_lakes (public domain)"},"geometry":{"type":"Polygon","coordinates":[[[132.8361,45.1076],[132.8381,45.067],[132.819,45.0246],[132.7425,44.9245],[132.7092,44.8951],[132.6674,44.8697],[132.6486,44.8547],[132.6409,44.8368],[132.6386,44.8271],[132.6294,44.8065],[132.6271,44.7956],[132.6291,44.7853],[132.6386,44.7623],[132.6409,44.7517],[132.6312,44.7105],[132.6044,44.6834],[132.4914,44.6263],[132.4758,44.6204],[132.4299,44.6107],[132.4184,44.6039],[132.4104,44.5916],[132.4016,44.5663],[132.3942,44.5524],[132.3854,44.5424],[132.3707,44.5321],[132.3536,44.528],[132.3207,44.5424],[132.2824,44.5483],[132.26,44.5607],[132.2426,44.5671],[132.2362,44.5733],[132.2323,44.5851],[132.2353,44.5904],[132.2409,44.5922],[132.2435,44.5933],[132.2447,44.6028],[132.2474,44.6066],[132.2474,44.6095],[132.24,44.6172],[132.2318,44.6222],[132.2241,44.6251],[132.2185,44.6292],[132.2164,44.6381],[132.225,44.6437],[132.2844,44.6343],[132.232,44.6637],[132.1075,44.6937],[132.0654,44.7299],[132.0442,44.7758],[132.0392,44.7959],[132.0375,44.8168],[132.104,44.8597],[132.1202,44.8677],[132.1093,44.9057],[132.1146,44.9492],[132.1143,44.9913],[132.086,45.0246],[132.0616,45.0316],[132.0345,45.0358],[132.0125,45.0455],[132.0033,45.0693],[132.0125,45.0905],[132.0301,45.1017],[132.0413,45.1129],[132.0307,45.1344],[132.0228,45.142],[132.0154,45.147],[132.0089,45.1526],[132.0033,45.1618],[132.0016,45.1718],[132.0001,45.203],[131.983,45.2115],[131.9927,45.2309],[132.0139,45.2518],[132.0307,45.2648],[132.109,45.3089],[132.1511,45.3248],[132.1958,45.334],[132.4201,45.3372],[132.5093,45.3151],[132.572,45.3078],[132.7222,45.2504],[132.7543,45.2321],[132.781,45.208],[132.7987,45.1897],[132.8205,45.1482],[132.8361,45.1076]]]}}
