{"type":"Feature","properties":{"id":1064,"name":"Lake Mackay","featurecla":"Alkaline Lake","scalerank":3,"wikidataid":"Q1074063","source":"Natural Earth 5.2.0-pre ne_10m_lakes (public domain)"},"geometry":{"type":"Polygon","coordinates":[[[128.6726,-22.6589],[128.6249,-22.6418],[128.4539,-22.6227],[128.3765,-22.6041],[128.3155,-22.5735],[128.3276,-22.5505],[128.3317,-22.5296],[128.3294,-22.5081],[128.3132,-22.4578],[128.3099,-22.4316],[128.3185,-22.4092],[128.3461,-22.3951],[128.3632,-22.3998],[128.3694,-22.4434],[128.3903,-22.4616],[128.4168,-22.4628],[128.4392,-22.4502],[128.4551,-22.4295],[128.4621,-22.4069],[128.4618,-22.396],[128.458,-22.3766],[128.4592,-22.3642],[128.4718,-22.3451],[128.4963,-22.3256],[128.5237,-22.3142],[128.5643,-22.3262],[128.5893,-22.3236],[128.702,-22.2933],[128.8866,-22.1475],[128.9302,-22.0925],[128.9369,-22.0351],[129.037,-22.0012],[129.0638,-21.9827],[129.093,-22.0004],[129.1059,-22.0063],[129.125,-22.0095],[129.1674,-22.011],[129.1883,-22.0139],[129.2072,-22.0221],[129.2239,-22.0483],[129.198,-22.0663],[129.1206,-22.0846],[129.1186,-22.1213],[129.1124,-22.1352],[129.098,-22.1517],[129.0482,-22.1849],[129.0364,-22.1967],[129.0308,-22.212],[129.0355,-22.2223],[129.0453,-22.2329],[129.0556,-22.2485],[129.0623,-22.2727],[129.065,-22.2941],[129.0718,-22.3133],[129.09,-22.3298],[129.115,-22.3368],[129.1692,-22.3359],[129.1945,-22.3404],[129.2186,-22.3533],[129.2316,-22.3621],[129.2392,-22.3701],[129.2466,-22.3869],[129.2431,-22.3925],[129.2337,-22.3942],[129.2222,-22.3995],[129.1972,-22.4192],[129.1948,-22.4248],[129.1954,-22.4313],[129.1945,-22.4375],[129.1874,-22.4419],[129.176,-22.439],[129.1501,-22.4181],[129.1377,-22.4119],[129.1147,-22.4154],[129.1006,-22.4325],[129.0944,-22.4566],[129.0953,-22.4814],[129.1074,-22.5211],[129.103,-22.5388],[129.0785,-22.5541],[129.052,-22.56],[128.9979,-22.5644],[128.9711,-22.5732],[128.949,-22.587],[128.9305,-22.6032],[128.916,-22.6224],[128.906,-22.6447],[128.8984,-22.6695],[128.891,-22.6827],[128.8784,-22.6871],[128.7485,-22.6727],[128.6726,-22.6589]]]}}
