{"type":"Feature","properties":{"id":1065,"name":"Lake Pskov","featurecla":"Lake","scalerank":3,"wikidataid":"Q1144905","source":"Natural Earth 5.2.0-pre ne_10m_lakes (public domain)"},"geometry":{"type":"Polygon","coordinates":[[[27.5288,58.228],[27.5744,58.2348],[27.5924,58.2268],[27.6003,58.2109],[27.6021,58.1921],[27.5968,58.1759],[27.5827,58.1685],[27.6036,58.1659],[27.6062,58.1553],[27.6036,58.1429],[27.6097,58.135],[27.623,58.1376],[27.6583,58.1573],[27.6942,58.1659],[27.7128,58.1732],[27.7322,58.1774],[27.7531,58.1721],[27.7658,58.1721],[27.7987,58.1874],[27.8152,58.1894],[27.8149,58.1868],[27.8182,58.18],[27.8232,58.1726],[27.8285,58.1685],[27.8388,58.1656],[27.8499,58.1644],[27.8608,58.1647],[27.9088,58.1777],[27.9285,58.1797],[27.9456,58.1759],[27.9533,58.1691],[27.9697,58.1491],[27.9798,58.1412],[28.0316,58.1167],[28.0448,58.1132],[28.0463,58.107],[28.0589,58.0785],[28.0654,58.069],[28.1396,58.0243],[28.1511,58.0146],[28.1573,58.004],[28.1543,57.9913],[28.1455,57.9822],[28.1402,57.9731],[28.1478,57.9601],[28.1655,57.938],[28.1696,57.9171],[28.1623,57.8959],[28.1443,57.8742],[28.1325,57.863],[28.1266,57.8591],[27.9606,57.855],[27.9403,57.8618],[27.9321,57.8874],[27.9203,57.9033],[27.8935,57.9115],[27.842,57.9213],[27.8879,57.9316],[27.897,57.9357],[27.8988,57.9469],[27.8903,57.9557],[27.8761,57.9613],[27.8499,57.9648],[27.8149,57.9742],[27.8046,57.9804],[27.8008,57.9837],[27.7878,57.9901],[27.7778,58.011],[27.7737,58.0175],[27.7499,58.0293],[27.7107,58.039],[27.6739,58.0405],[27.6574,58.0281],[27.658,58.0178],[27.6574,58.0146],[27.6398,58.0007],[27.6336,57.9934],[27.6159,57.9636],[27.6021,57.9848],[27.5941,58.009],[27.5903,58.0337],[27.5894,58.0555],[27.593,58.0793],[27.5897,58.0893],[27.5582,58.0973],[27.5485,58.1073],[27.5341,58.135],[27.4823,58.1909],[27.469,58.21],[27.467,58.2209],[27.5067,58.2371],[27.5288,58.228]]]}}
