{"type":"Feature","properties":{"id":1066,"name":"Lake Razazah","featurecla":"Alkaline Lake","scalerank":3,"wikidataid":"Q2007652","source":"Natural Earth 5.2.0-pre ne_10m_lakes (public domain)"},"geometry":{"type":"Polygon","coordinates":[[[43.8981,32.704],[43.8996,32.6945],[43.8919,32.6625],[43.8919,32.6183],[43.8863,32.6018],[43.8734,32.588],[43.8342,32.5615],[43.8124,32.5527],[43.8021,32.5462],[43.7927,32.5362],[43.7789,32.5153],[43.7689,32.5053],[43.7639,32.5144],[43.7574,32.5173],[43.7497,32.5159],[43.7409,32.5117],[43.7488,32.5262],[43.745,32.5359],[43.7377,32.5459],[43.7347,32.5606],[43.7274,32.5606],[43.7256,32.5556],[43.7209,32.5462],[43.7135,32.5462],[43.712,32.5518],[43.7082,32.5615],[43.7067,32.5668],[43.7026,32.5641],[43.7,32.5606],[43.6938,32.5606],[43.6823,32.5665],[43.6791,32.5562],[43.677,32.5409],[43.6691,32.5332],[43.6564,32.5382],[43.6517,32.5503],[43.652,32.5806],[43.6608,32.578],[43.6664,32.5777],[43.6794,32.5806],[43.6638,32.588],[43.6476,32.5848],[43.6299,32.5777],[43.6111,32.5742],[43.619,32.5856],[43.6237,32.5903],[43.6311,32.5948],[43.6184,32.5971],[43.5967,32.6059],[43.5837,32.6077],[43.5737,32.5909],[43.5378,32.5956],[43.4989,32.6124],[43.4807,32.6318],[43.4451,32.6792],[43.4292,32.7104],[43.4392,32.7313],[43.43,32.7369],[43.4256,32.7381],[43.4256,32.7449],[43.4348,32.7528],[43.4309,32.769],[43.4115,32.807],[43.415,32.8052],[43.4183,32.8043],[43.4215,32.8029],[43.4256,32.7996],[43.4339,32.8135],[43.4436,32.8255],[43.4495,32.8367],[43.4465,32.8479],[43.4321,32.8423],[43.4256,32.8509],[43.4194,32.8629],[43.405,32.8685],[43.405,32.8759],[43.4144,32.8785],[43.4292,32.8871],[43.4392,32.8888],[43.4512,32.8818],[43.4615,32.8773],[43.4727,32.8759],[43.4727,32.8821],[43.4557,32.8838],[43.4554,32.8891],[43.4621,32.8971],[43.4665,32.9062],[43.4698,32.9097],[43.4836,32.9091],[43.4869,32.913],[43.4872,32.9224],[43.4883,32.9295],[43.4907,32.9362],[43.4945,32.9442],[43.483,32.9518],[43.4577,32.9768],[43.453,32.9851],[43.4577,32.9974],[43.4795,33.0166],[43.4869,33.026],[43.5045,33.0181],[43.5178,33.0219],[43.526,33.0331],[43.5292,33.0466],[43.5213,33.0866],[43.5216,33.1046],[43.5348,33.1149],[43.5334,33.0925],[43.5351,33.0737],[43.5419,33.0566],[43.5554,33.0398],[43.571,33.0301],[43.6099,33.0198],[43.6246,33.0125],[43.6161,32.9901],[43.624,32.9727],[43.6376,32.9589],[43.6446,32.9474],[43.6482,32.9336],[43.6661,32.89],[43.7321,32.7755],[43.7544,32.7522],[43.7633,32.7493],[43.7956,32.7449],[43.8195,32.7275],[43.8263,32.7246],[43.8981,32.704]]]}}
