{"type":"Feature","properties":{"id":1067,"name":"Lake Srednye Kuyto","featurecla":"Lake","scalerank":3,"source":"Natural Earth 5.2.0-pre ne_10m_lakes (public domain)"},"geometry":{"type":"Polygon","coordinates":[[[30.3467,65.147],[30.3303,65.1723],[30.3303,65.1806],[30.3323,65.1868],[30.3367,65.1918],[30.3438,65.1965],[30.3544,65.1991],[30.3567,65.1932],[30.3562,65.1844],[30.3582,65.1785],[30.4186,65.1373],[30.4654,65.1214],[30.4739,65.1093],[30.4804,65.104],[30.5016,65.0952],[30.5528,65.0843],[30.6028,65.0796],[30.6552,65.0655],[30.6829,65.0622],[30.7085,65.0664],[30.7165,65.0755],[30.7088,65.0867],[30.6864,65.0964],[30.7023,65.1037],[30.7221,65.1061],[30.9693,65.0961],[31.0082,65.104],[30.9882,65.1146],[30.9808,65.117],[30.9808,65.1238],[31.0641,65.1049],[31.0838,65.1102],[31.0847,65.1273],[31.0673,65.1426],[31.0444,65.1541],[31.0291,65.1591],[30.9961,65.1609],[30.9319,65.1511],[30.8996,65.1517],[30.8539,65.1638],[30.8374,65.1653],[30.7759,65.1591],[30.7759,65.1653],[30.7912,65.172],[30.8168,65.195],[30.8304,65.2],[30.924,65.2056],[30.9896,65.1882],[31.1018,65.1829],[31.2484,65.1926],[31.2693,65.1894],[31.3429,65.1638],[31.3673,65.1611],[31.4471,65.1723],[31.4603,65.1717],[31.4718,65.1694],[31.4821,65.1641],[31.503,65.1473],[31.5151,65.1447],[31.5427,65.145],[31.5907,65.1364],[31.6178,65.1276],[31.6319,65.117],[31.6293,65.0976],[31.6125,65.0828],[31.5919,65.0734],[31.5766,65.0693],[31.6075,65.0508],[31.6749,65.0357],[31.707,65.0213],[31.6522,65.0213],[31.6522,65.0146],[31.7211,64.9966],[31.767,64.9913],[31.7838,64.9839],[31.8174,64.9633],[31.8386,64.9569],[31.8839,64.9477],[31.9236,64.923],[32.0025,64.9048],[31.9911,64.9003],[31.9793,64.898],[31.9546,64.8986],[31.9654,64.8721],[31.9401,64.88],[31.9013,64.9003],[31.8721,64.9121],[31.6593,64.9395],[31.6631,64.9489],[31.6581,64.951],[31.6484,64.9507],[31.6387,64.953],[31.5739,64.9939],[31.5569,65.001],[31.5263,65.0081],[31.5118,65.0148],[31.5015,65.0275],[31.4992,65.0408],[31.5033,65.0513],[31.5133,65.0587],[31.5289,65.0622],[31.5148,65.0778],[31.4842,65.1008],[31.4515,65.1193],[31.4303,65.1205],[31.4109,65.0973],[31.3994,65.0958],[31.3697,65.1152],[31.3308,65.1338],[31.3173,65.1373],[31.2981,65.1335],[31.2872,65.1241],[31.2772,65.1129],[31.2619,65.104],[31.2395,65.1029],[31.1898,65.1152],[31.1565,65.1185],[31.148,65.1217],[31.1415,65.1208],[31.1389,65.1105],[31.1409,65.1055],[31.1459,65.1008],[31.221,65.0622],[31.2001,65.0572],[31.1739,65.0658],[31.1247,65.0902],[31.09,65.097],[31.0482,65.0987],[31.0067,65.0946],[30.974,65.0828],[30.9793,65.079],[30.9876,65.0693],[30.9425,65.0717],[30.8969,65.0802],[30.8525,65.0814],[30.8101,65.0622],[30.8213,65.0508],[30.8463,65.0378],[30.858,65.0275],[30.8374,65.0275],[30.858,65.001],[30.8401,65.0019],[30.8268,64.9972],[30.8027,64.9804],[30.8051,64.9775],[30.8068,64.9736],[30.8104,64.9701],[30.8162,64.9669],[30.8009,64.9601],[30.7627,64.9507],[30.755,64.9424],[30.7435,64.9339],[30.7179,64.931],[30.5766,64.9395],[30.5596,64.9357],[30.526,64.9198],[30.5078,64.9183],[30.5151,64.9262],[30.5266,64.9354],[30.5401,64.9424],[30.569,64.9498],[30.5716,64.9595],[30.5707,64.971],[30.5766,64.9804],[30.5949,64.9851],[30.652,64.973],[30.7006,64.9742],[30.748,64.9804],[30.7229,64.9836],[30.7112,64.9872],[30.7062,64.9937],[30.7073,65.0034],[30.7106,65.0098],[30.717,65.0134],[30.7276,65.0146],[30.7132,65.024],[30.6929,65.0304],[30.639,65.0372],[30.569,65.0622],[30.5484,65.0664],[30.486,65.072],[30.4539,65.0823],[30.4327,65.0828],[30.4327,65.0902],[30.4395,65.0902],[30.4177,65.1099],[30.3467,65.147]]]}}
