{"type":"Feature","properties":{"id":1068,"name":"Lake Tahoe","featurecla":"Lake","scalerank":3,"wikidataid":"Q169962","source":"Natural Earth 5.2.0-pre ne_10m_lakes (public domain)"},"geometry":{"type":"Polygon","coordinates":[[[-119.9298,39.228],[-119.9223,39.2212],[-119.9223,39.1694],[-119.9254,39.1564],[-119.9395,39.1364],[-119.9434,39.1243],[-119.9429,39.1111],[-119.9373,39.0926],[-119.9353,39.0419],[-119.9395,38.9987],[-119.947,38.9751],[-119.9625,38.958],[-119.9906,38.9468],[-120.0173,38.9407],[-120.0315,38.9398],[-120.0418,38.9433],[-120.0514,38.951],[-120.0645,38.9571],[-120.0791,38.961],[-120.0936,38.9604],[-120.0895,38.9742],[-120.0908,38.9878],[-120.0998,39.0151],[-120.1044,39.0587],[-120.1073,39.0699],[-120.1201,39.079],[-120.1356,39.0817],[-120.149,39.087],[-120.155,39.1046],[-120.1513,39.119],[-120.1418,39.1349],[-120.0775,39.2097],[-120.0517,39.23],[-120.018,39.2418],[-120.0117,39.2397],[-120.0042,39.2353],[-119.9959,39.233],[-119.9875,39.238],[-119.9737,39.2589],[-119.9707,39.2621],[-119.9515,39.2639],[-119.9345,39.2568],[-119.9256,39.2439],[-119.9298,39.228]]]}}
