{"type":"Feature","properties":{"id":1069,"name":"Lake Torrens","featurecla":"Alkaline Lake","scalerank":3,"wikidataid":"Q163855","source":"Natural Earth 5.2.0-pre ne_10m_lakes (public domain)"},"geometry":{"type":"Polygon","coordinates":[[[137.8659,-31.6546],[137.842,-31.6764],[137.8294,-31.692],[137.7832,-31.7983],[137.7808,-31.8095],[137.7826,-31.8339],[137.7846,-31.8398],[137.7879,-31.8439],[137.7905,-31.8486],[137.7905,-31.8569],[137.7876,-31.8636],[137.7767,-31.8725],[137.7732,-31.8769],[137.7705,-31.8889],[137.7673,-31.9304],[137.7275,-31.9119],[137.7007,-31.886],[137.6528,-31.8245],[137.6307,-31.8118],[137.5786,-31.7962],[137.565,-31.7836],[137.5859,-31.7765],[137.608,-31.7747],[137.6304,-31.7783],[137.6807,-31.7968],[137.6934,-31.7889],[137.6981,-31.7388],[137.7037,-31.7212],[137.7122,-31.7079],[137.7187,-31.6947],[137.7178,-31.6764],[137.711,-31.6652],[137.7005,-31.6564],[137.691,-31.6467],[137.6881,-31.6328],[137.6922,-31.619],[137.7078,-31.5972],[137.7125,-31.5813],[137.7116,-31.5731],[137.7069,-31.5551],[137.7081,-31.546],[137.7122,-31.5395],[137.724,-31.5319],[137.7296,-31.5254],[137.7364,-31.5124],[137.742,-31.4971],[137.7452,-31.4815],[137.7446,-31.4668],[137.7393,-31.4556],[137.7234,-31.4359],[137.7196,-31.4247],[137.7228,-31.4127],[137.7314,-31.4027],[137.7417,-31.3932],[137.7508,-31.3829],[137.7758,-31.3317],[137.7838,-31.3017],[137.7802,-31.2796],[137.762,-31.2669],[137.7358,-31.2602],[137.7093,-31.259],[137.6899,-31.2625],[137.6816,-31.2708],[137.6763,-31.2817],[137.6701,-31.2861],[137.661,-31.2755],[137.6584,-31.264],[137.661,-31.2355],[137.6607,-31.2234],[137.6333,-31.1957],[137.5156,-31.1248],[137.48,-31.1159],[137.5079,-31.0947],[137.5468,-31.0886],[137.5862,-31.0942],[137.6163,-31.1083],[137.6216,-31.1148],[137.6245,-31.1206],[137.6301,-31.1254],[137.6428,-31.1289],[137.6857,-31.1227],[137.6975,-31.095],[137.6907,-31.0571],[137.6775,-31.0203],[137.633,-30.9411],[137.6342,-30.9161],[137.6445,-30.9066],[137.6566,-30.9043],[137.6651,-30.8984],[137.6651,-30.8787],[137.6516,-30.8454],[137.6325,-30.8157],[137.6195,-30.7842],[137.6233,-30.7459],[137.6451,-30.7156],[137.6751,-30.6871],[137.6981,-30.6561],[137.6984,-30.6188],[137.6713,-30.5905],[137.6336,-30.5917],[137.5556,-30.6199],[137.4679,-30.6367],[137.4199,-30.637],[137.3852,-30.622],[137.3764,-30.6043],[137.3799,-30.5873],[137.3981,-30.5534],[137.404,-30.5357],[137.404,-30.524],[137.3628,-30.4186],[137.3566,-30.4095],[137.3316,-30.3844],[137.324,-30.3712],[137.3131,-30.3359],[137.2936,-30.3117],[137.243,-30.2847],[137.2186,-30.2649],[137.2298,-30.2432],[137.1977,-30.2037],[137.2047,-30.181],[137.2265,-30.1716],[137.2489,-30.1766],[137.2907,-30.2016],[137.3349,-30.2158],[137.3419,-30.2211],[137.3507,-30.224],[137.3973,-30.2582],[137.4258,-30.2911],[137.4341,-30.3085],[137.4367,-30.3303],[137.4455,-30.3559],[137.4667,-30.3786],[137.4938,-30.3971],[137.5188,-30.4109],[137.5491,-30.4195],[137.6116,-30.4186],[137.6431,-30.4233],[137.6843,-30.4424],[137.7799,-30.5254],[137.8029,-30.5402],[137.8082,-30.5455],[137.8114,-30.5575],[137.8111,-30.5793],[137.8176,-30.5902],[137.8273,-30.5949],[137.8512,-30.5979],[137.8615,-30.6032],[137.8682,-30.6132],[137.8724,-30.6376],[137.8765,-30.6494],[137.8821,-30.6561],[137.9065,-30.6779],[137.9948,-30.8304],[138.0004,-30.8528],[138.0084,-30.9181],[138.0172,-30.9376],[138.0281,-30.9484],[138.0407,-30.957],[138.0499,-30.9679],[138.0513,-30.9847],[138.0413,-30.9994],[138.0237,-31.0073],[138.0042,-31.0129],[137.9889,-31.0209],[137.9666,-31.0797],[138.0172,-31.1209],[138.0849,-31.1616],[138.1158,-31.2184],[138.1143,-31.2413],[138.1149,-31.2611],[138.1205,-31.2796],[138.1326,-31.2973],[138.1379,-31.3138],[138.1376,-31.3376],[138.1341,-31.3611],[138.1296,-31.3753],[138.1229,-31.3835],[138.1093,-31.395],[138.1023,-31.4027],[138.0973,-31.413],[138.0911,-31.4371],[138.0849,-31.4474],[138.0266,-31.5057],[137.9256,-31.5728],[137.8968,-31.6016],[137.885,-31.6175],[137.8762,-31.6361],[137.8659,-31.6546]]]}}
