{"type":"Feature","properties":{"id":1070,"name":"Lake Turkana","featurecla":"Alkaline Lake","scalerank":3,"wikidataid":"Q182719","source":"Natural Earth 5.2.0-pre ne_10m_lakes (public domain)"},"geometry":{"type":"Polygon","coordinates":[[[36.7097,2.7303],[36.6879,2.7153],[36.6912,2.6835],[36.7,2.6462],[36.6962,2.6144],[36.6962,2.6205],[36.6938,2.5452],[36.7082,2.5084],[36.7024,2.4863],[36.6909,2.4672],[36.6358,2.4089],[36.6279,2.4045],[36.6217,2.4033],[36.5973,2.4068],[36.5937,2.4083],[36.5817,2.4074],[36.572,2.4051],[36.5646,2.4009],[36.5581,2.3945],[36.5319,2.4227],[36.5257,2.4642],[36.526,2.5105],[36.5178,2.5517],[36.4945,2.5914],[36.4769,2.6117],[36.4433,2.6306],[36.4365,2.6544],[36.4368,2.7236],[36.436,2.7303],[36.4312,2.7412],[36.4177,2.7639],[36.4103,2.7913],[36.4003,2.8134],[36.3806,2.8463],[36.3577,2.8663],[36.3026,2.9025],[36.2614,2.9385],[36.2579,2.9426],[36.2514,2.9726],[36.2473,2.9806],[36.2396,2.982],[36.2231,2.9673],[36.2131,2.9632],[36.2028,2.9658],[36.1896,2.9794],[36.1822,2.9835],[36.1419,2.9823],[36.1266,2.9876],[36.1207,3.0079],[36.1481,3.1165],[36.1481,3.128],[36.1448,3.1398],[36.136,3.1607],[36.1345,3.1722],[36.1366,3.1822],[36.1457,3.2025],[36.1481,3.2131],[36.1428,3.2199],[36.1304,3.2199],[36.1063,3.2163],[36.0724,3.2305],[36.0648,3.2352],[36.0595,3.2396],[36.053,3.2428],[36.0415,3.2443],[36.0283,3.2525],[35.9965,3.3058],[35.9767,3.3194],[35.9594,3.3276],[35.9479,3.3394],[35.9432,3.3641],[35.9432,3.529],[35.94,3.5407],[35.9329,3.5501],[35.9258,3.5522],[35.9226,3.5425],[35.9255,3.5322],[35.9367,3.5081],[35.9358,3.4975],[35.9182,3.4813],[35.9079,3.4957],[35.9029,3.5225],[35.9017,3.5425],[35.8961,3.5613],[35.8828,3.5752],[35.8669,3.5869],[35.8531,3.6005],[35.8413,3.6302],[35.8343,3.6735],[35.8334,3.7197],[35.8402,3.7583],[35.8449,3.7671],[35.8566,3.7824],[35.8605,3.7924],[35.8608,3.8051],[35.8531,3.8372],[35.854,3.959],[35.8646,3.9914],[35.9196,4.1059],[35.9226,4.118],[35.9152,4.4229],[35.9182,4.4371],[35.927,4.465],[35.932,4.5042],[35.9461,4.5516],[35.9494,4.5769],[35.9556,4.594],[35.9703,4.6172],[35.9882,4.6352],[36.0041,4.6352],[36.0079,4.6234],[36.0071,4.591],[36.0138,4.5769],[36.0233,4.566],[36.0294,4.5539],[36.0327,4.5404],[36.0321,4.5254],[36.038,4.5254],[36.0542,4.5475],[36.0583,4.5604],[36.0386,4.5728],[36.0303,4.5872],[36.025,4.6034],[36.0247,4.6149],[36.0433,4.6366],[36.0745,4.6434],[36.1066,4.6378],[36.1269,4.6216],[36.1275,4.6305],[36.1225,4.6575],[36.1236,4.6631],[36.1548,4.664],[36.1675,4.6602],[36.1754,4.649],[36.1866,4.6246],[36.1855,4.616],[36.1684,4.6149],[36.1981,4.5472],[36.2031,4.5157],[36.1958,4.4783],[36.2072,4.4624],[36.2084,4.4427],[36.2005,4.387],[36.191,4.367],[36.189,4.3582],[36.1884,4.3393],[36.2111,4.3014],[36.2149,4.2858],[36.2161,4.2619],[36.2143,4.2419],[36.2149,4.2298],[36.2231,4.2148],[36.2214,4.2101],[36.2181,4.2054],[36.2161,4.1998],[36.2193,4.193],[36.2261,4.1886],[36.2331,4.1854],[36.237,4.1827],[36.2417,4.1657],[36.2446,4.1451],[36.2429,4.1236],[36.2249,4.0879],[36.2161,4.032],[36.1984,3.9793],[36.1925,3.9705],[36.1816,3.962],[36.1855,3.9428],[36.219,3.8798],[36.2231,3.8681],[36.2299,3.8319],[36.2337,3.8233],[36.2393,3.8157],[36.2426,3.8089],[36.244,3.8006],[36.2443,3.7889],[36.247,3.7795],[36.2534,3.7742],[36.2605,3.7703],[36.2646,3.765],[36.2658,3.7536],[36.264,3.7432],[36.2464,3.6944],[36.2405,3.6861],[36.2358,3.6838],[36.2308,3.6829],[36.2196,3.6832],[36.2167,3.6811],[36.2155,3.6705],[36.2131,3.6658],[36.2114,3.6588],[36.2064,3.5401],[36.2161,3.4565],[36.2228,3.4348],[36.2405,3.3938],[36.2443,3.3709],[36.2381,3.3462],[36.2267,3.3341],[36.2225,3.322],[36.237,3.2988],[36.2746,3.2634],[36.2917,3.2431],[36.2988,3.2202],[36.2994,3.209],[36.3014,3.199],[36.3067,3.1919],[36.3262,3.1866],[36.3315,3.1804],[36.3406,3.1616],[36.3759,3.123],[36.3806,3.1101],[36.3818,3.0998],[36.3883,3.0762],[36.3868,3.0415],[36.3883,3.0321],[36.4006,3.0106],[36.5322,2.9017],[36.5746,2.8946],[36.6579,2.8987],[36.6891,2.8811],[36.6994,2.8504],[36.6976,2.7695],[36.7097,2.7303]]]}}
