{"type":"Feature","properties":{"id":1071,"name":"Lake Winnebago","featurecla":"Lake","scalerank":3,"wikidataid":"Q1801110","source":"Natural Earth 5.2.0-pre ne_10m_lakes (public domain)"},"geometry":{"type":"Polygon","coordinates":[[[-88.327,44.133],[-88.3344,44.0914],[-88.3247,43.9334],[-88.3281,43.9187],[-88.3808,43.8807],[-88.3931,43.8671],[-88.4076,43.8253],[-88.4189,43.8112],[-88.4445,43.8056],[-88.465,43.8112],[-88.472,43.8253],[-88.4683,43.8671],[-88.4701,43.8898],[-88.4851,43.926],[-88.4888,43.9457],[-88.4931,43.954],[-88.5119,43.9622],[-88.516,43.9731],[-88.516,44.0823],[-88.5103,44.0847],[-88.4757,44.1209],[-88.4698,44.1377],[-88.4652,44.1444],[-88.4577,44.1512],[-88.4498,44.1565],[-88.4436,44.1627],[-88.441,44.1721],[-88.4448,44.1803],[-88.453,44.1906],[-88.4604,44.2045],[-88.4622,44.2233],[-88.4563,44.2148],[-88.4485,44.2086],[-88.439,44.2045],[-88.4274,44.203],[-88.3575,44.2004],[-88.3281,44.1904],[-88.3038,44.1686],[-88.327,44.133]]]}}
