{"type":"Feature","properties":{"id":1072,"name":"Lake Zaysan","featurecla":"Reservoir","scalerank":3,"wikidataid":"Q216621","source":"Natural Earth 5.2.0-pre ne_10m_lakes (public domain)"},"geometry":{"type":"Polygon","coordinates":[[[84.5439,47.9461],[84.5621,47.9308],[84.5065,47.9126],[84.4759,47.9096],[84.4647,47.9067],[84.4565,47.9014],[84.4532,47.8932],[84.452,47.8843],[84.4473,47.874],[84.4464,47.8658],[84.4379,47.8534],[84.4191,47.8461],[84.3982,47.8408],[84.384,47.8346],[84.3743,47.819],[84.3752,47.8048],[84.3908,47.7731],[84.3796,47.7728],[84.372,47.7683],[84.3652,47.7628],[84.3567,47.7595],[84.3446,47.7592],[84.2937,47.7678],[84.2854,47.7713],[84.2781,47.7766],[84.2698,47.7787],[84.2454,47.7736],[84.2339,47.7731],[84.2377,47.7636],[84.2439,47.7625],[84.2519,47.7633],[84.2607,47.7595],[84.2636,47.7536],[84.2675,47.7445],[84.2722,47.736],[84.2781,47.7321],[84.3461,47.7383],[84.3637,47.7321],[84.3284,47.7198],[84.2925,47.7148],[84.2566,47.718],[84.2207,47.7292],[84.206,47.7466],[84.1986,47.7525],[84.1912,47.756],[84.1733,47.7616],[84.1644,47.7657],[84.1459,47.7789],[84.1129,47.8093],[84.0962,47.8207],[84.0756,47.8284],[84.007,47.8419],[83.9254,47.8693],[83.8557,47.8749],[83.8362,47.8829],[83.8177,47.8999],[83.8,47.9353],[83.7883,47.9511],[83.7679,47.9629],[83.7208,47.9715],[83.6988,47.9791],[83.6664,48.0097],[83.6496,48.0194],[83.6305,48.0127],[83.6096,48.0218],[83.5834,48.0256],[83.531,48.0262],[83.5224,48.0286],[83.5083,48.0383],[83.4962,48.0406],[83.4703,48.0421],[83.445,48.0468],[83.4179,48.0592],[83.4109,48.0612],[83.3947,48.0592],[83.3679,48.0492],[83.3526,48.0468],[83.3258,48.0486],[83.3067,48.0539],[83.2119,48.0995],[83.1957,48.1119],[83.168,48.1398],[83.1571,48.1478],[83.148,48.1478],[83.1377,48.1445],[83.1236,48.1437],[83.085,48.1554],[83.0441,48.1796],[83.012,48.2096],[82.9999,48.2399],[83.0076,48.2591],[83.0235,48.2667],[83.042,48.2649],[83.0582,48.2561],[83.0871,48.2352],[83.0927,48.2323],[83.098,48.2305],[83.1027,48.227],[83.1074,48.2252],[83.1168,48.2317],[83.1295,48.2384],[83.1424,48.2429],[83.1557,48.2561],[83.1613,48.2591],[83.2092,48.2591],[83.2213,48.2614],[83.2454,48.2711],[83.2569,48.2735],[83.2987,48.2735],[83.3187,48.2711],[83.36,48.2614],[83.4362,48.2585],[83.4603,48.2626],[83.4792,48.2735],[83.4824,48.2794],[83.493,48.3076],[83.5071,48.3353],[83.5248,48.348],[83.5472,48.3565],[83.5957,48.3689],[83.5663,48.3865],[83.5478,48.3939],[83.511,48.3989],[83.4762,48.408],[83.4621,48.4098],[83.4315,48.4274],[83.4018,48.466],[83.3841,48.5057],[83.3906,48.5266],[83.3694,48.5608],[83.3976,48.569],[83.425,48.5887],[83.4418,48.6138],[83.4383,48.6364],[83.4494,48.6514],[83.4462,48.6741],[83.4344,48.6979],[83.4212,48.7156],[83.415,48.733],[83.4165,48.7574],[83.4344,48.8345],[83.4488,48.8654],[83.4718,48.8916],[83.5722,48.9688],[83.5843,48.9735],[83.6146,48.9711],[83.6269,48.9755],[83.6381,48.9844],[83.7058,49.0206],[83.7353,49.0312],[83.7435,49.0374],[83.765,49.0465],[83.9684,49.0739],[84.1565,49.1348],[84.1815,49.1616],[84.1718,49.2057],[84.1568,49.2322],[84.1506,49.239],[84.1159,49.2581],[84.11,49.2569],[84.1017,49.2711],[84.0202,49.3429],[83.9867,49.3582],[83.9678,49.3726],[83.9584,49.3756],[83.9351,49.3762],[83.9216,49.38],[83.9125,49.3894],[83.8975,49.4112],[83.8704,49.4271],[83.8356,49.4368],[83.7023,49.4521],[83.6835,49.4495],[83.6752,49.4418],[83.6693,49.4309],[83.6576,49.4174],[83.6452,49.4303],[83.6369,49.443],[83.6322,49.4574],[83.6305,49.4762],[83.6243,49.4851],[83.5822,49.521],[83.5669,49.526],[83.5513,49.5286],[83.5392,49.5351],[83.5345,49.5516],[83.5263,49.5578],[83.508,49.5487],[83.4792,49.5272],[83.47,49.5395],[83.4577,49.5392],[83.4444,49.536],[83.4315,49.5407],[83.4312,49.5463],[83.4332,49.571],[83.4315,49.5816],[83.4174,49.5981],[83.377,49.6234],[83.3638,49.6437],[83.3817,49.6417],[83.4285,49.6302],[83.445,49.6234],[83.4506,49.6161],[83.453,49.6069],[83.4574,49.5993],[83.4692,49.5961],[83.4948,49.5969],[83.5065,49.6002],[83.5171,49.6067],[83.5354,49.6128],[83.6134,49.6167],[83.6216,49.6149],[83.6511,49.6034],[83.6711,49.5987],[83.7367,49.5961],[83.7438,49.6005],[83.7473,49.6105],[83.7494,49.622],[83.7535,49.6308],[83.775,49.6411],[83.805,49.649],[83.8315,49.6605],[83.8518,49.7014],[83.8724,49.7153],[83.8975,49.7238],[83.9655,49.7306],[83.9852,49.7371],[84.007,49.7468],[84.0143,49.7326],[83.9852,49.7079],[83.9681,49.6964],[83.9484,49.6917],[83.9042,49.687],[83.8824,49.6808],[83.8636,49.6717],[83.8012,49.627],[83.7994,49.6228],[83.7947,49.617],[83.7903,49.6093],[83.7883,49.5999],[83.7906,49.5893],[83.8089,49.5619],[83.7859,49.5566],[83.7323,49.5669],[83.7058,49.5681],[83.7241,49.5445],[83.727,49.5378],[83.7235,49.5278],[83.7147,49.5269],[83.7032,49.5286],[83.6914,49.5272],[83.6746,49.5172],[83.6723,49.5104],[83.6817,49.5051],[83.6988,49.4998],[83.7317,49.4942],[83.7983,49.4898],[83.8295,49.4801],[83.8248,49.4765],[83.8156,49.4656],[83.8613,49.4692],[83.8854,49.4671],[83.9051,49.4589],[83.916,49.443],[83.9204,49.425],[83.9281,49.4103],[83.9867,49.3941],[83.9931,49.3932],[83.9975,49.3862],[84.0179,49.3667],[84.0243,49.3626],[84.0267,49.3603],[84.0585,49.3458],[84.0888,49.3149],[84.2142,49.2514],[84.2339,49.2293],[84.2439,49.2216],[84.2904,49.2022],[84.329,49.1919],[84.3417,49.1901],[84.3534,49.1951],[84.3646,49.2013],[84.379,49.2045],[84.3935,49.2037],[84.4046,49.1981],[84.4226,49.2051],[84.4438,49.2034],[84.4647,49.1957],[84.4803,49.1845],[84.4338,49.1739],[84.3876,49.1707],[84.3343,49.133],[84.316,49.123],[84.11,49.0747],[84.0547,49.0691],[84.0102,49.0568],[83.9967,49.0547],[83.9855,49.0474],[83.9513,49.0114],[83.9316,49.0003],[83.8192,48.9926],[83.7965,48.9885],[83.727,48.9593],[83.6278,48.9393],[83.5822,48.9243],[83.5475,48.8966],[83.5463,48.8922],[83.5483,48.881],[83.5475,48.8766],[83.543,48.8719],[83.5327,48.8669],[83.5154,48.8522],[83.5095,48.846],[83.5071,48.8389],[83.503,48.8298],[83.4762,48.8045],[83.4695,48.7942],[83.4518,48.7345],[83.453,48.7177],[83.4609,48.7038],[83.4762,48.6879],[83.5133,48.6573],[83.5283,48.6394],[83.5345,48.6158],[83.5324,48.6055],[83.523,48.5864],[83.5207,48.5749],[83.531,48.5593],[83.5351,48.5478],[83.531,48.5372],[83.528,48.5204],[83.538,48.4981],[83.5619,48.4651],[83.6013,48.4304],[83.6546,48.4033],[83.7129,48.3903],[83.7674,48.3968],[83.7818,48.4051],[83.7906,48.4136],[83.7997,48.4207],[83.8156,48.4242],[83.8321,48.423],[83.871,48.4098],[83.9228,48.4112],[83.9496,48.4092],[83.9658,48.3968],[83.9487,48.3797],[83.9307,48.3709],[83.8845,48.3627],[83.8174,48.3618],[83.8012,48.3553],[83.7765,48.3677],[83.717,48.3668],[83.6914,48.3765],[83.5433,48.3056],[83.5039,48.2764],[83.5107,48.2652],[83.5304,48.2532],[83.5539,48.2437],[83.5722,48.2399],[83.5957,48.2384],[83.717,48.2143],[83.8824,48.151],[83.9693,48.1304],[84.052,48.096],[84.0735,48.0821],[84.0826,48.0642],[84.0897,48.0398],[84.1065,48.0424],[84.1438,48.0674],[84.1568,48.0689],[84.1718,48.0677],[84.1856,48.0639],[84.1957,48.0577],[84.2074,48.0471],[84.218,48.0433],[84.3487,48.0333],[84.3743,48.0233],[84.4359,47.9853],[84.4565,47.9682],[84.4812,47.9567],[84.5439,47.9461]]]}}
