{"type":"Feature","properties":{"id":1073,"name":"Nettilling Lake","featurecla":"Lake","scalerank":3,"wikidataid":"Q1132211","source":"Natural Earth 5.2.0-pre ne_10m_lakes (public domain)"},"geometry":{"type":"Polygon","coordinates":[[[-71.4762,66.5947],[-71.4426,66.6153],[-71.4398,66.6383],[-71.3942,66.6318],[-71.3777,66.6321],[-71.3777,66.6383],[-71.3818,66.6397],[-71.3914,66.6456],[-71.3505,66.6798],[-71.3505,66.6865],[-71.3714,66.6933],[-71.3411,66.7142],[-71.3262,66.7222],[-71.3088,66.7275],[-71.3063,66.7316],[-71.2972,66.7584],[-71.2951,66.7722],[-71.2985,66.7943],[-71.2932,66.8013],[-71.2747,66.8028],[-71.2747,66.8096],[-71.2238,66.8234],[-71.1928,66.8364],[-71.1927,66.8579],[-71.1827,66.8685],[-71.1828,66.8829],[-71.1811,66.8967],[-71.1653,66.9058],[-71.179,66.9217],[-71.1859,66.9267],[-71.1687,66.9338],[-71.1575,66.9473],[-71.1535,66.9624],[-71.158,66.9738],[-71.18,66.9821],[-71.2392,66.988],[-71.2678,66.9944],[-71.2413,67.0103],[-71.2132,67.0224],[-71.2277,67.0324],[-71.2162,67.0404],[-71.1964,67.0418],[-71.1859,67.033],[-71.1034,67.0292],[-71.0354,67.0374],[-71.0039,67.0362],[-70.9953,67.0371],[-70.9894,67.0348],[-70.9872,67.0259],[-70.9831,67.0183],[-70.9734,67.0133],[-70.9525,67.0089],[-70.96,67.0012],[-70.937,66.9947],[-70.9042,66.9942],[-70.8735,66.9992],[-70.857,67.0089],[-70.8262,66.9956],[-70.7956,66.9883],[-70.7126,66.9868],[-70.6857,66.9815],[-70.721,66.9733],[-70.7697,66.9744],[-70.8141,66.9703],[-70.8371,66.9462],[-70.7266,66.9223],[-70.6924,66.9091],[-70.6759,66.9064],[-70.6556,66.9073],[-70.6383,66.9055],[-70.631,66.8958],[-70.6353,66.8905],[-70.6542,66.8767],[-70.6583,66.8717],[-70.6436,66.8567],[-70.6178,66.8596],[-70.6028,66.8593],[-70.6205,66.834],[-70.5987,66.8022],[-70.5934,66.7963],[-70.5592,66.7943],[-70.543,66.7899],[-70.5354,66.7822],[-70.5482,66.7784],[-70.5476,66.7722],[-70.5317,66.7581],[-70.5137,66.7513],[-70.4372,66.7498],[-70.3605,66.7298],[-70.2809,66.7207],[-70.2818,66.7266],[-70.2809,66.7275],[-70.31,66.7369],[-70.3237,66.7442],[-70.3361,66.7542],[-70.315,66.7522],[-70.2668,66.7398],[-70.2475,66.7313],[-70.234,66.7272],[-70.2226,66.7289],[-70.2116,66.7328],[-70.1989,66.7351],[-70.1864,66.7333],[-70.1776,66.7289],[-70.1711,66.7242],[-70.1649,66.7207],[-70.1607,66.7174],[-70.1583,66.7089],[-70.1549,66.7071],[-70.1499,66.7083],[-70.1399,66.713],[-70.137,66.7139],[-69.9935,66.7139],[-69.9868,66.708],[-69.9247,66.6865],[-69.9247,66.6798],[-69.9299,66.6765],[-69.9331,66.673],[-69.9356,66.6698],[-69.939,66.6659],[-69.7839,66.6609],[-69.7335,66.6518],[-69.7335,66.6456],[-69.7431,66.6447],[-69.7518,66.6418],[-69.76,66.6377],[-69.7677,66.6321],[-69.7455,66.6268],[-69.7181,66.6247],[-69.695,66.6185],[-69.6851,66.6012],[-69.6763,66.595],[-69.6168,66.6109],[-69.4629,66.5868],[-69.4434,66.5809],[-69.4245,66.57],[-69.4356,66.5588],[-69.4705,66.5503],[-69.4871,66.5426],[-69.4924,66.537],[-69.4992,66.5243],[-69.5035,66.5188],[-69.5123,66.514],[-69.5479,66.5085],[-69.5479,66.5011],[-69.503,66.5008],[-69.4548,66.5093],[-69.4086,66.5243],[-69.3697,66.5426],[-69.3161,66.5764],[-69.2946,66.5841],[-69.2777,66.5859],[-69.2618,66.5832],[-69.2263,66.57],[-69.2584,66.5561],[-69.2762,66.5517],[-69.2943,66.55],[-69.3094,66.5467],[-69.3407,66.5317],[-69.3875,66.5241],[-69.4871,66.4949],[-69.4796,66.4852],[-69.4754,66.4825],[-69.466,66.4811],[-69.4977,66.4634],[-69.5338,66.459],[-69.5528,66.4672],[-69.5342,66.4873],[-69.5775,66.4858],[-69.6661,66.4725],[-69.7062,66.4602],[-69.697,66.4596],[-69.6714,66.4537],[-69.6714,66.4463],[-69.6805,66.4443],[-69.6895,66.4413],[-69.7062,66.4328],[-69.636,66.4463],[-69.6168,66.4463],[-69.5977,66.4402],[-69.5833,66.4334],[-69.5677,66.4281],[-69.4281,66.4193],[-69.4062,66.4225],[-69.4131,66.4307],[-69.4517,66.4463],[-69.4517,66.4537],[-69.4395,66.4584],[-69.4178,66.4717],[-69.4077,66.4743],[-69.386,66.4722],[-69.3726,66.4672],[-69.3604,66.4605],[-69.3425,66.4537],[-69.3241,66.4519],[-69.3008,66.4537],[-69.2777,66.4578],[-69.2605,66.4634],[-69.2458,66.4643],[-69.2258,66.4593],[-69.1916,66.4463],[-69.1595,66.4278],[-69.1539,66.4101],[-69.1707,66.3951],[-69.2798,66.3689],[-69.3492,66.3439],[-69.3351,66.3383],[-69.3288,66.3371],[-69.3538,66.3224],[-69.4178,66.3277],[-69.4421,66.3201],[-69.4477,66.3127],[-69.4506,66.3074],[-69.4554,66.3042],[-69.4662,66.303],[-69.4948,66.3042],[-69.5085,66.3012],[-69.5144,66.2924],[-69.511,66.2724],[-69.5054,66.2565],[-69.5044,66.2438],[-69.5144,66.2341],[-69.539,66.2297],[-69.5931,66.2347],[-69.6168,66.2273],[-69.5912,66.222],[-69.5345,66.2214],[-69.5144,66.2135],[-69.5331,66.2038],[-69.5563,66.1955],[-69.5806,66.192],[-69.6505,66.2017],[-69.6577,66.2103],[-69.6591,66.2135],[-69.662,66.2141],[-69.6647,66.2156],[-69.6652,66.2212],[-69.6626,66.2253],[-69.653,66.2276],[-69.6468,66.2376],[-69.6392,66.2447],[-69.6357,66.2524],[-69.6435,66.2621],[-69.6548,66.2647],[-69.6651,66.2603],[-69.6842,66.2435],[-69.6928,66.2315],[-69.6987,66.2273],[-69.7117,66.2256],[-69.735,66.2297],[-69.7471,66.2273],[-69.7381,66.2061],[-69.7335,66.1994],[-69.7531,66.1923],[-69.7693,66.2011],[-69.7848,66.2141],[-69.8018,66.2212],[-69.8214,66.2226],[-69.8388,66.2282],[-69.853,66.2385],[-69.8632,66.2547],[-69.861,66.2644],[-69.8736,66.27],[-69.8923,66.2706],[-69.9078,66.265],[-69.9219,66.2565],[-69.9381,66.2515],[-69.9555,66.2491],[-69.973,66.2485],[-70.0821,66.2665],[-70.1165,66.2621],[-70.1439,66.2488],[-70.1586,66.2391],[-70.1649,66.2306],[-70.172,66.2303],[-70.2132,66.2212],[-70.2434,66.1902],[-70.2576,66.1858],[-70.2755,66.1838],[-70.3177,66.172],[-70.3293,66.1658],[-70.3514,66.1758],[-70.3567,66.1796],[-70.3514,66.1811],[-70.3482,66.1829],[-70.344,66.1847],[-70.3361,66.1858],[-70.3549,66.1997],[-70.3926,66.2082],[-70.4665,66.2135],[-70.458,66.2482],[-70.4586,66.2668],[-70.4696,66.275],[-70.5186,66.283],[-70.5354,66.2827],[-70.5442,66.2786],[-70.5629,66.265],[-70.5726,66.2621],[-70.5792,66.2668],[-70.5685,66.2944],[-70.5689,66.3092],[-70.5813,66.3215],[-70.6022,66.3318],[-70.6256,66.3362],[-70.6452,66.3304],[-70.6104,66.3165],[-70.6439,66.3159],[-70.6583,66.3118],[-70.672,66.303],[-70.6627,66.298],[-70.6235,66.2894],[-70.6328,66.2756],[-70.6452,66.265],[-70.672,66.2485],[-70.6618,66.2353],[-70.6565,66.2306],[-70.6515,66.2273],[-70.6584,66.2217],[-70.6667,66.2212],[-70.6793,66.222],[-70.6924,66.2212],[-70.7057,66.2167],[-70.7185,66.2103],[-70.7301,66.2023],[-70.7403,66.1932],[-70.731,66.1791],[-70.7461,66.1732],[-70.7887,66.1726],[-70.8412,66.1796],[-70.8652,66.1764],[-70.8637,66.1585],[-70.8721,66.1564],[-70.8917,66.1446],[-70.8843,66.1384],[-70.8972,66.1355],[-70.9083,66.1296],[-70.9161,66.1205],[-70.9191,66.1075],[-70.9263,66.0972],[-70.9437,66.0931],[-70.9805,66.0902],[-70.9968,66.0857],[-71.0074,66.0799],[-71.013,66.0698],[-71.0146,66.0525],[-71.0205,66.0401],[-71.0342,66.0322],[-71.0623,66.0219],[-71.1207,65.991],[-71.1884,65.9659],[-71.2616,65.955],[-71.3361,65.9665],[-71.3328,65.9751],[-71.3269,65.9812],[-71.3188,65.9854],[-71.3088,65.9877],[-71.3135,65.9951],[-71.3184,66.0007],[-71.3235,66.0045],[-71.3299,66.0074],[-71.2953,66.0192],[-71.1859,66.0219],[-71.1697,66.026],[-71.1244,66.0492],[-71.0961,66.0569],[-71.0844,66.0631],[-71.076,66.0757],[-71.0972,66.0922],[-71.1284,66.0931],[-71.1999,66.0834],[-71.2707,66.0816],[-71.286,66.089],[-71.2541,66.1111],[-71.202,66.1272],[-71.1856,66.1399],[-71.1797,66.1693],[-71.1734,66.1835],[-71.1581,66.1979],[-71.1244,66.2212],[-71.1203,66.2288],[-71.117,66.2341],[-71.1403,66.2415],[-71.1588,66.2512],[-71.1686,66.2662],[-71.1653,66.2894],[-71.1531,66.3048],[-71.1153,66.3192],[-71.0972,66.3304],[-71.1229,66.3451],[-71.1337,66.3545],[-71.1381,66.3677],[-71.1466,66.3725],[-71.187,66.3695],[-71.2002,66.3713],[-71.2043,66.3804],[-71.2079,66.4066],[-71.2101,66.4122],[-71.2224,66.4148],[-71.2616,66.4328],[-71.2539,66.4428],[-71.2514,66.454],[-71.2564,66.4631],[-71.2713,66.4669],[-71.2831,66.4728],[-71.2863,66.487],[-71.2865,66.5032],[-71.289,66.5152],[-71.309,66.5361],[-71.3338,66.5497],[-71.362,66.5579],[-71.4762,66.5947]]]}}
