{"type":"Feature","properties":{"id":1074,"name":"North Channel","featurecla":"Lake","scalerank":3,"wikidataid":"Q2000567","source":"Natural Earth 5.2.0-pre ne_10m_lakes (public domain)"},"geometry":{"type":"Polygon","coordinates":[[[-81.9118,46.0028],[-81.8946,45.953],[-81.9102,45.9707],[-81.9536,45.988],[-82.0013,45.9848],[-82.048,45.9677],[-82.0883,45.9439],[-82.1011,45.9321],[-82.1143,45.9153],[-82.1249,45.8962],[-82.1292,45.8785],[-82.1398,45.8553],[-82.1607,45.8447],[-82.1763,45.8482],[-82.1709,45.8682],[-82.1872,45.8827],[-82.2074,45.905],[-82.2213,45.9297],[-82.2193,45.9506],[-82.2372,45.9456],[-82.2624,45.9348],[-82.2846,45.9309],[-82.2943,45.9474],[-82.2943,45.9745],[-82.2977,45.9874],[-82.3097,45.9901],[-82.3946,45.9721],[-82.4142,45.9707],[-82.4349,45.9654],[-82.4459,45.9524],[-82.4555,45.9368],[-82.4718,45.9233],[-82.4707,45.9371],[-82.4774,45.9474],[-82.4899,45.9527],[-82.5066,45.9506],[-82.5157,45.9445],[-82.5304,45.9242],[-82.5407,45.9159],[-82.554,45.9124],[-82.5808,45.9088],[-82.5891,45.9024],[-82.5919,45.8888],[-82.5841,45.8812],[-82.5702,45.8771],[-82.5544,45.875],[-82.5563,45.8703],[-82.5596,45.8591],[-82.5619,45.8544],[-82.532,45.8609],[-82.5178,45.8582],[-82.5066,45.847],[-82.5083,45.827],[-82.5229,45.8055],[-82.5397,45.792],[-82.5476,45.7961],[-82.5497,45.8079],[-82.555,45.8185],[-82.568,45.8341],[-82.5749,45.8394],[-82.5858,45.8461],[-82.5981,45.852],[-82.609,45.8544],[-82.6164,45.85],[-82.6262,45.8406],[-82.6371,45.8341],[-82.6474,45.8373],[-82.6532,45.8473],[-82.6561,45.8573],[-82.6599,45.865],[-82.6679,45.8682],[-82.6903,45.8635],[-82.7399,45.8459],[-82.7599,45.847],[-82.7636,45.8526],[-82.7718,45.8759],[-82.7734,45.8853],[-82.7787,45.8915],[-82.8151,45.8988],[-82.8376,45.9159],[-82.8372,45.9312],[-82.8257,45.9483],[-82.8151,45.9707],[-82.8111,45.9842],[-82.8098,45.9927],[-82.8155,45.9969],[-82.8321,45.998],[-82.8445,45.9948],[-82.8588,45.9813],[-82.8666,45.978],[-82.9097,45.9757],[-82.9344,45.9713],[-82.9517,45.9645],[-82.9559,45.9574],[-82.959,45.948],[-82.9645,45.9398],[-82.9758,45.9365],[-82.9961,45.9377],[-83.0039,45.9409],[-83.0069,45.9474],[-83.0127,45.9551],[-83.0266,45.9612],[-83.0428,45.9648],[-83.0553,45.9645],[-83.0653,45.9592],[-83.0703,45.9521],[-83.0746,45.9442],[-83.0819,45.9365],[-83.089,45.9312],[-83.1005,45.925],[-83.1114,45.9253],[-83.1161,45.9401],[-83.1183,45.953],[-83.124,45.9589],[-83.132,45.9621],[-83.1403,45.9674],[-83.1639,45.9757],[-83.1901,45.9663],[-83.2669,45.9607],[-83.2719,45.9686],[-83.2833,45.9689],[-83.3017,45.9645],[-83.3112,45.9692],[-83.3358,45.9916],[-83.3527,46.0019],[-83.3698,46.0007],[-83.3879,45.9951],[-83.4082,45.9916],[-83.4172,45.9889],[-83.4235,45.9827],[-83.4321,45.9707],[-83.46,45.9506],[-83.4974,45.971],[-83.4823,45.9942],[-83.4792,46.0054],[-83.4986,46.0172],[-83.5238,46.0207],[-83.5455,46.0295],[-83.555,46.0566],[-83.562,46.076],[-83.5795,46.0902],[-83.6238,46.1078],[-83.6874,46.1105],[-83.7154,46.1061],[-83.7163,46.0911],[-83.7039,46.0846],[-83.6893,46.0825],[-83.6787,46.0769],[-83.6786,46.069],[-83.8152,46.1429],[-83.8021,46.1858],[-83.7903,46.2053],[-83.7824,46.2232],[-83.7877,46.2382],[-83.7955,46.24],[-83.8041,46.2371],[-83.8141,46.2356],[-83.8325,46.2998],[-83.7473,46.2933],[-83.7132,46.2792],[-83.7007,46.2771],[-83.614,46.2868],[-83.6034,46.2865],[-83.5891,46.2797],[-83.5688,46.258],[-83.5611,46.2518],[-83.5482,46.2509],[-83.5179,46.2586],[-83.5004,46.2591],[-83.3878,46.2347],[-83.3139,46.2271],[-83.244,46.2088],[-83.1785,46.2012],[-83.153,46.1953],[-83.1289,46.1941],[-83.1024,46.2047],[-83.0762,46.1914],[-83.0457,46.1829],[-82.983,46.1767],[-82.9706,46.1788],[-82.9462,46.1876],[-82.9318,46.1903],[-82.7076,46.2003],[-82.6301,46.2238],[-82.6376,46.2103],[-82.6763,46.1917],[-82.691,46.1767],[-82.6686,46.1694],[-82.5365,46.1826],[-82.4742,46.2017],[-82.4445,46.2047],[-82.4445,46.197],[-82.4507,46.1861],[-82.4348,46.1876],[-82.4002,46.197],[-82.337,46.1944],[-82.321,46.197],[-82.317,46.1906],[-82.3148,46.1835],[-82.352,46.1853],[-82.3632,46.1835],[-82.3763,46.1794],[-82.3785,46.1773],[-82.3547,46.1658],[-82.321,46.1561],[-82.3091,46.1558],[-82.2996,46.1579],[-82.2917,46.1608],[-82.2837,46.1623],[-82.2595,46.1605],[-82.2324,46.1549],[-82.2069,46.1455],[-82.1879,46.132],[-82.1776,46.1264],[-82.1554,46.1279],[-82.1351,46.1193],[-82.1249,46.1237],[-82.1163,46.1314],[-82.1093,46.1358],[-82.0871,46.134],[-82.0132,46.1152],[-81.9507,46.1137],[-81.9302,46.0549],[-81.9411,46.0531],[-81.962,46.0466],[-81.9635,46.0325],[-81.9505,46.0181],[-81.9274,46.0116],[-81.9211,46.0095],[-81.9118,46.0028]],[[-82.7462,45.9365],[-82.712,45.9112],[-82.6576,45.9024],[-82.6048,45.9141],[-82.5755,45.9506],[-82.5783,45.9674],[-82.5931,45.9715],[-82.6127,45.9721],[-82.6301,45.978],[-82.6493,45.9724],[-82.6847,45.9683],[-82.7132,45.9586],[-82.7126,45.9365],[-82.7257,45.9297],[-82.7302,45.9336],[-82.7334,45.9348],[-82.7462,45.9365]],[[-82.2664,46.0328],[-82.2556,46.0213],[-82.2324,46.0083],[-82.2075,45.9986],[-82.1913,45.998],[-82.2031,46.0154],[-82.2105,46.0525],[-82.2255,46.0599],[-82.2387,46.0569],[-82.2468,46.049],[-82.2546,46.0398],[-82.2664,46.0328]]]}}
