{"type":"Feature","properties":{"id":1075,"name":"Oneida Lake","featurecla":"Lake","scalerank":3,"wikidataid":"Q1247231","source":"Natural Earth 5.2.0-pre ne_10m_lakes (public domain)"},"geometry":{"type":"Polygon","coordinates":[[[-75.7517,43.2304],[-75.7319,43.2213],[-75.7324,43.206],[-75.7484,43.1916],[-75.7645,43.1851],[-75.8801,43.1751],[-75.9325,43.1777],[-75.9602,43.1827],[-75.9948,43.1992],[-76.0685,43.216],[-76.1112,43.2525],[-76.1204,43.2637],[-75.9757,43.2637],[-75.8875,43.2457],[-75.7945,43.2366],[-75.7774,43.2351],[-75.7517,43.2304]]]}}
