{"type":"Feature","properties":{"id":1076,"name":"Ozero Yarroto Vtoroye","featurecla":"Lake","scalerank":3,"wikidataid":"Q4539001","source":"Natural Earth 5.2.0-pre ne_10m_lakes (public domain)"},"geometry":{"type":"Polygon","coordinates":[[[71.3087,67.9814],[71.2386,67.9812],[71.2048,67.9862],[71.1247,68.0144],[71.11,68.0162],[71.0956,68.0159],[71.0835,68.0141],[71.08,68.01],[71.0903,68.0026],[71.0714,67.987],[71.0402,67.9856],[71.0067,67.9926],[70.9805,68.0026],[70.9625,68.0156],[70.9345,68.0456],[70.9184,68.0571],[70.9257,68.0571],[70.9116,68.0774],[70.9175,68.0901],[70.9354,68.0963],[71.0661,68.1071],[71.1003,68.1015],[71.143,68.0833],[71.1589,68.0806],[71.1965,68.0795],[71.236,68.0609],[71.2916,68.0659],[71.3228,68.0603],[71.3864,68.0238],[71.3982,68.0094],[71.3923,67.987],[71.3667,67.9797],[71.3087,67.9814]]]}}
