{"type":"Feature","properties":{"id":1077,"name":"Päijänne","featurecla":"Lake","scalerank":3,"wikidataid":"Q213769","source":"Natural Earth 5.2.0-pre ne_10m_lakes (public domain)"},"geometry":{"type":"Polygon","coordinates":[[[26.3278,61.428],[26.356,61.4307],[26.3478,61.4212],[26.311,61.3924],[26.3031,61.3824],[26.2913,61.3618],[26.2833,61.3515],[26.2713,61.3441],[26.2256,61.3344],[26.2156,61.3282],[26.1909,61.3073],[26.2024,61.2964],[26.213,61.2973],[26.2248,61.3029],[26.2389,61.3073],[26.2454,61.3056],[26.2465,61.2959],[26.253,61.2935],[26.2607,61.2947],[26.2772,61.2997],[26.2866,61.3009],[26.2692,61.2797],[26.266,61.28],[26.2677,61.2732],[26.2719,61.2641],[26.2769,61.2579],[26.2804,61.2593],[26.2757,61.2505],[26.2669,61.239],[26.256,61.229],[26.2457,61.2246],[26.2292,61.2302],[26.2239,61.2432],[26.2256,61.2694],[26.2206,61.2788],[26.208,61.2755],[26.1921,61.2682],[26.1774,61.2655],[26.1791,61.2705],[26.1821,61.2826],[26.1841,61.2873],[26.1691,61.2891],[26.1603,61.2855],[26.1462,61.2694],[26.1382,61.2629],[26.1297,61.2588],[26.1082,61.2526],[26.1206,61.2417],[26.1441,61.2349],[26.1703,61.2317],[26.1909,61.232],[26.1909,61.2246],[26.1847,61.2081],[26.2106,61.1743],[26.2112,61.1557],[26.2065,61.1604],[26.1962,61.166],[26.1909,61.1699],[26.1741,61.1566],[26.1674,61.1493],[26.1688,61.1401],[26.1774,61.1222],[26.1856,61.1331],[26.1956,61.1401],[26.2065,61.1419],[26.218,61.1366],[26.2106,61.1201],[26.2262,61.1063],[26.2733,61.088],[26.2304,61.0913],[26.2112,61.0886],[26.1694,61.0577],[26.1609,61.0459],[26.1635,61.0327],[26.1729,61.04],[26.1833,61.0442],[26.1938,61.0445],[26.2044,61.0403],[26.1441,61.0086],[26.1297,60.9918],[26.1017,60.9461],[26.0879,60.9305],[26.0808,60.9435],[26.0708,60.9779],[26.0605,60.9856],[26.0473,60.9768],[26.0408,60.9573],[26.0328,60.9426],[26.0158,60.9479],[26.009,60.9644],[26.0231,60.9779],[26.0817,60.9985],[26.0946,61.0056],[26.1479,61.0612],[26.1591,61.0792],[26.1635,61.0977],[26.1532,61.0969],[26.1306,61.1048],[26.0946,61.1222],[26.0926,61.1278],[26.0905,61.1437],[26.0879,61.1496],[26.0802,61.1543],[26.0584,61.1616],[26.0502,61.1666],[26.0358,61.1784],[25.9854,61.2043],[25.9704,61.1728],[25.9539,61.1813],[25.936,61.2028],[25.9171,61.2111],[25.9104,61.2034],[25.883,61.1631],[25.8703,61.1513],[25.8574,61.1419],[25.8453,61.1395],[25.8347,61.1496],[25.8465,61.1566],[25.8762,61.1837],[25.8671,61.1872],[25.8595,61.1863],[25.8533,61.184],[25.8489,61.1837],[25.8406,61.1884],[25.8135,61.2096],[25.81,61.2137],[25.8056,61.2167],[25.7944,61.2184],[25.7706,61.2123],[25.7626,61.2111],[25.7603,61.2158],[25.7944,61.2423],[25.785,61.2499],[25.6646,61.2861],[25.6434,61.2873],[25.6237,61.2829],[25.6134,61.2755],[25.6095,61.2661],[25.6087,61.2561],[25.6237,61.2314],[25.6581,61.2228],[25.697,61.2196],[25.7249,61.2111],[25.6849,61.1866],[25.5533,61.1699],[25.5521,61.166],[25.5521,61.1516],[25.5501,61.146],[25.538,61.136],[25.4989,61.1148],[25.5442,61.0904],[25.5657,61.0745],[25.5745,61.0601],[25.5807,61.0601],[25.5822,61.073],[25.5863,61.0824],[25.5925,61.0877],[25.6013,61.088],[25.6075,61.083],[25.614,61.0633],[25.6222,61.0539],[25.6175,61.0474],[25.6087,61.0265],[25.6193,61.0244],[25.6269,61.0189],[25.6307,61.0103],[25.6293,60.9994],[25.6237,60.993],[25.6148,60.9909],[25.5919,60.9918],[25.5839,60.995],[25.5689,61.0091],[25.5571,61.0124],[25.5448,61.0133],[25.5333,61.0156],[25.5224,61.02],[25.5124,61.0265],[25.5321,61.0418],[25.5398,61.0501],[25.5465,61.0601],[25.5224,61.071],[25.495,61.0886],[25.4671,61.0998],[25.4403,61.0913],[25.4376,61.0824],[25.4468,61.0751],[25.4588,61.068],[25.4647,61.0601],[25.4582,61.0456],[25.4441,61.04],[25.4297,61.04],[25.4232,61.0433],[25.4055,61.0662],[25.367,61.0648],[25.3272,61.0586],[25.3069,61.0677],[25.3178,61.083],[25.3805,61.0916],[25.4026,61.1013],[25.3961,61.1004],[25.3826,61.1013],[25.3761,61.1013],[25.3949,61.1398],[25.4353,61.1604],[25.4853,61.1687],[25.5324,61.1699],[25.5324,61.1775],[25.5062,61.1831],[25.4921,61.1934],[25.49,61.2096],[25.4989,61.232],[25.513,61.2446],[25.5189,61.2535],[25.5159,61.2626],[25.5039,61.2673],[25.4912,61.2691],[25.483,61.2738],[25.4853,61.2873],[25.4706,61.2917],[25.4576,61.2897],[25.4306,61.28],[25.4367,61.2697],[25.4535,61.2585],[25.4574,61.249],[25.4485,61.2408],[25.4291,61.2367],[25.4082,61.2364],[25.3952,61.239],[25.3817,61.2593],[25.3846,61.2841],[25.397,61.3088],[25.4094,61.3282],[25.3855,61.3377],[25.3608,61.3279],[25.3349,61.3132],[25.3069,61.3073],[25.3211,61.3385],[25.2972,61.3468],[25.2613,61.3506],[25.2386,61.3691],[25.2595,61.3712],[25.2798,61.3756],[25.2684,61.3806],[25.2319,61.3892],[25.2616,61.3959],[25.2952,61.3959],[25.3075,61.3992],[25.2731,61.4162],[25.1494,61.458],[25.1494,61.4648],[25.2048,61.4616],[25.2177,61.4648],[25.2245,61.4772],[25.2121,61.4837],[25.193,61.4857],[25.1774,61.4854],[25.1939,61.4934],[25.2116,61.499],[25.2116,61.5057],[25.1933,61.5084],[25.1751,61.5157],[25.1577,61.5269],[25.1433,61.5399],[25.1609,61.5458],[25.1795,61.5458],[25.2401,61.5384],[25.2537,61.5414],[25.2798,61.5611],[25.274,61.5673],[25.2716,61.5711],[25.2684,61.5731],[25.2592,61.5746],[25.2592,61.5823],[25.2866,61.5884],[25.3105,61.5829],[25.3555,61.5611],[25.374,61.5581],[25.3914,61.562],[25.4061,61.5723],[25.4161,61.589],[25.4035,61.5882],[25.3914,61.589],[25.3793,61.5914],[25.3685,61.5952],[25.3808,61.6002],[25.3979,61.6046],[25.4267,61.6088],[25.4341,61.6132],[25.4647,61.6423],[25.4553,61.6509],[25.4459,61.6626],[25.4353,61.6729],[25.4235,61.6771],[25.3481,61.6771],[25.3679,61.6824],[25.3761,61.6832],[25.3761,61.6909],[25.3576,61.6956],[25.3449,61.7027],[25.3443,61.7106],[25.3617,61.718],[25.3617,61.7256],[25.3234,61.7347],[25.2834,61.7386],[25.2684,61.7336],[25.2589,61.7244],[25.2507,61.7191],[25.2386,61.7256],[25.2433,61.7318],[25.2519,61.7521],[25.2336,61.7621],[25.1951,61.7901],[25.1701,61.8007],[25.1701,61.8075],[25.2283,61.8039],[25.2386,61.8007],[25.2457,61.8075],[25.2663,61.7974],[25.2731,61.793],[25.274,61.788],[25.2716,61.7715],[25.2731,61.7665],[25.2884,61.7624],[25.3381,61.7604],[25.3517,61.763],[25.3676,61.7698],[25.3867,61.7721],[25.4026,61.7765],[25.4367,61.8354],[25.4609,61.8584],[25.465,61.8707],[25.45,61.8831],[25.4353,61.8837],[25.3687,61.8763],[25.2801,61.8763],[25.2631,61.8716],[25.2475,61.8625],[25.2307,61.8569],[25.2116,61.8622],[25.2375,61.8784],[25.2772,61.8893],[25.3746,61.899],[25.3826,61.904],[25.3761,61.9105],[25.3555,61.9167],[25.3216,61.9208],[25.3075,61.9258],[25.2934,61.9379],[25.4061,61.9305],[25.4253,61.927],[25.4853,61.9031],[25.4891,61.919],[25.5021,61.9255],[25.518,61.9293],[25.5324,61.9379],[25.5262,61.944],[25.5177,61.939],[25.5086,61.9373],[25.4997,61.939],[25.4915,61.944],[25.498,61.9538],[25.5033,61.9644],[25.5095,61.9735],[25.5192,61.9788],[25.5359,61.9767],[25.548,61.9702],[25.5598,61.9697],[25.5745,61.985],[25.5595,61.9926],[25.5274,62.0044],[25.5124,62.0129],[25.6555,61.9994],[25.6805,62.0003],[25.7093,62.0135],[25.7211,62.017],[25.7305,62.0229],[25.7323,62.0341],[25.7243,62.0415],[25.7102,62.0453],[25.6605,62.0497],[25.6431,62.0559],[25.6307,62.0662],[25.6222,62.0812],[25.6322,62.0868],[25.6431,62.0889],[25.6669,62.0886],[25.6769,62.0906],[25.6699,62.0953],[25.6496,62.1024],[25.6296,62.113],[25.6198,62.1157],[25.6051,62.1165],[25.5978,62.113],[25.5854,62.0983],[25.5777,62.0948],[25.49,62.0983],[25.4559,62.1124],[25.4574,62.1433],[25.4362,62.1533],[25.4468,62.1681],[25.4677,62.1722],[25.4782,62.1501],[25.4909,62.153],[25.5136,62.1616],[25.5262,62.1636],[25.5215,62.1525],[25.5224,62.1421],[25.5324,62.1227],[25.5751,62.1277],[25.6419,62.1257],[25.7034,62.131],[25.7323,62.1575],[25.7293,62.1619],[25.722,62.1686],[25.7129,62.1751],[25.6928,62.1822],[25.6855,62.1913],[25.6837,62.2004],[25.6875,62.2046],[25.7544,62.2034],[25.7605,62.2066],[25.7664,62.2184],[25.7485,62.2263],[25.7249,62.2319],[25.7249,62.2396],[25.8268,62.2411],[25.8742,62.2546],[25.9171,62.2867],[25.853,62.3096],[25.8421,62.3179],[25.8542,62.332],[25.8824,62.3326],[25.9383,62.3214],[25.9242,62.332],[25.9124,62.3456],[25.9098,62.3591],[25.9242,62.3697],[25.9177,62.3826],[25.9222,62.3929],[25.9439,62.4106],[25.9054,62.4421],[25.9027,62.4468],[25.8977,62.4503],[25.8865,62.4518],[25.8489,62.4518],[25.8577,62.44],[25.8703,62.4312],[25.8756,62.4236],[25.8633,62.4177],[25.8509,62.4174],[25.7867,62.4448],[25.8038,62.4554],[25.8633,62.4721],[25.8624,62.4765],[25.8615,62.4777],[25.8595,62.4777],[25.855,62.4783],[25.8633,62.486],[25.7879,62.5331],[25.7461,62.5484],[25.6976,62.5543],[25.7067,62.5451],[25.7111,62.5348],[25.7105,62.5239],[25.7043,62.513],[25.6828,62.5263],[25.6781,62.5416],[25.6849,62.5584],[25.6976,62.5746],[25.6749,62.5787],[25.634,62.5928],[25.6119,62.5958],[25.6025,62.5928],[25.5925,62.5878],[25.5842,62.5878],[25.5807,62.5993],[25.5842,62.6031],[25.5925,62.6081],[25.6087,62.6155],[25.6087,62.6231],[25.5889,62.6293],[25.6184,62.6408],[25.6505,62.6393],[25.7114,62.6293],[25.7352,62.632],[25.7685,62.6399],[25.7994,62.6529],[25.8141,62.6708],[25.7826,62.7156],[25.7726,62.7418],[25.7938,62.7532],[25.8041,62.7432],[25.815,62.722],[25.8338,62.7026],[25.8689,62.6982],[25.8689,62.7056],[25.855,62.7123],[25.8674,62.7103],[25.8883,62.7003],[25.9001,62.6982],[25.9083,62.7023],[25.9101,62.7117],[25.9104,62.7212],[25.9139,62.7256],[25.9224,62.7291],[25.9286,62.7382],[25.9313,62.7497],[25.9301,62.7597],[25.9242,62.7709],[25.9177,62.7715],[25.9092,62.7683],[25.8965,62.7671],[25.8497,62.7789],[25.8421,62.7771],[25.8383,62.7683],[25.8285,62.7656],[25.8038,62.7671],[25.7947,62.7709],[25.7941,62.78],[25.7973,62.7892],[25.8006,62.7945],[25.8121,62.8012],[25.8268,62.8021],[25.8424,62.7995],[25.855,62.7945],[25.8512,62.8083],[25.8515,62.8201],[25.8506,62.8307],[25.8421,62.8416],[25.8874,62.8401],[25.9068,62.846],[25.9171,62.8633],[25.8565,62.8795],[25.828,62.8916],[25.8073,62.911],[25.8318,62.9104],[25.8965,62.8837],[25.8974,62.8901],[25.8962,62.8931],[25.8898,62.8969],[25.9628,62.9037],[25.9922,62.8969],[25.9825,62.9078],[25.9442,62.9307],[25.8724,62.9596],[25.855,62.9731],[25.8806,62.9861],[25.865,63.0017],[25.8312,63.0149],[25.8009,63.0202],[25.7885,63.0247],[25.7452,63.055],[25.7187,63.0644],[25.7037,63.067],[25.6843,63.0679],[25.6908,63.0479],[25.674,63.045],[25.6469,63.0517],[25.6222,63.0612],[25.5627,63.0971],[25.5404,63.1024],[25.5404,63.0959],[25.5642,63.0647],[25.5621,63.0573],[25.5324,63.0332],[25.5295,63.0241],[25.5301,63.0152],[25.5292,63.0061],[25.5227,62.9967],[25.5195,62.9879],[25.5239,62.9787],[25.5324,62.9708],[25.5404,62.9658],[25.523,62.9655],[25.5112,62.9581],[25.5009,62.9493],[25.4883,62.9452],[25.4812,62.9484],[25.4712,62.9649],[25.4647,62.9731],[25.4347,62.9843],[25.3576,62.9905],[25.3275,63.0067],[25.3446,63.0188],[25.3473,63.032],[25.3517,63.0408],[25.3761,63.0408],[25.4576,63.0176],[25.4847,63.0141],[25.5044,63.022],[25.5039,63.0397],[25.4921,63.0591],[25.4612,63.0844],[25.4359,63.1133],[25.4161,63.1233],[25.4259,63.1283],[25.4362,63.1294],[25.4468,63.1274],[25.4574,63.1233],[25.4518,63.1306],[25.4459,63.1359],[25.4391,63.1397],[25.4306,63.1433],[25.4435,63.1489],[25.4591,63.1509],[25.4727,63.1468],[25.4847,63.1221],[25.4994,63.1183],[25.5174,63.1194],[25.5324,63.1233],[25.5295,63.1462],[25.5377,63.1824],[25.5262,63.1916],[25.5377,63.1969],[25.5504,63.196],[25.5627,63.1913],[25.5745,63.1848],[25.6098,63.2295],[25.6181,63.254],[25.6254,63.2416],[25.636,63.2122],[25.6142,63.2016],[25.6048,63.1939],[25.6013,63.1848],[25.6048,63.181],[25.6257,63.1648],[25.6354,63.1615],[25.6475,63.1465],[25.6566,63.1433],[25.6666,63.1418],[25.7782,63.0888],[25.8288,63.0717],[25.8633,63.0756],[25.8471,63.0918],[25.8271,63.1056],[25.8044,63.1165],[25.7806,63.1233],[25.7882,63.1309],[25.7982,63.1368],[25.8141,63.1433],[25.8297,63.1462],[25.8356,63.1453],[25.8397,63.1418],[25.8898,63.1165],[25.8995,63.1156],[25.9116,63.1168],[25.9248,63.1159],[25.9383,63.1097],[25.9269,63.0921],[25.9227,63.0803],[25.9286,63.0706],[25.9454,63.0585],[26.15,62.9731],[26.1179,62.9631],[26.0891,62.9693],[26.0331,62.9999],[26.011,63.0091],[25.9881,63.0141],[25.9743,63.0085],[25.9781,62.9861],[25.9957,62.9667],[26.0222,62.9546],[26.0764,62.9402],[26.1423,62.8969],[26.1512,62.8872],[26.1547,62.8784],[26.16,62.8719],[26.1738,62.8695],[26.1994,62.8686],[26.2248,62.8648],[26.2454,62.8563],[26.3975,62.7479],[26.4123,62.7321],[26.4158,62.7185],[26.3964,62.7123],[26.3852,62.7182],[26.3731,62.7294],[26.3599,62.7362],[26.3452,62.7291],[26.3245,62.7017],[26.3095,62.6994],[26.2933,62.7147],[26.2692,62.7503],[26.2295,62.7803],[26.0605,62.8607],[26.0446,62.8628],[26.0399,62.8489],[26.0458,62.8404],[26.0779,62.8177],[26.0946,62.7998],[26.0776,62.8006],[26.0331,62.8148],[26.0155,62.8036],[25.9984,62.7797],[25.989,62.7565],[25.9954,62.7459],[26.0128,62.7374],[26.0272,62.6973],[26.0399,62.6844],[26.0399,62.6782],[26.0172,62.6873],[25.9781,62.7182],[25.9581,62.7256],[25.9601,62.7147],[25.9601,62.7038],[25.9625,62.6953],[25.9713,62.692],[25.9819,62.6894],[25.9949,62.6826],[26.0352,62.6538],[26.1082,62.6231],[26.0528,62.6181],[26.0331,62.6231],[26.0243,62.6296],[26.0143,62.639],[26.0028,62.6473],[25.9887,62.6508],[25.9325,62.6549],[25.9242,62.6605],[25.9177,62.6676],[25.9036,62.6688],[25.8877,62.667],[25.8762,62.6641],[25.8642,62.6588],[25.8453,62.6482],[25.8347,62.6434],[25.8188,62.6414],[25.8035,62.6411],[25.7915,62.6361],[25.7867,62.6193],[25.7906,62.6114],[25.843,62.5749],[25.8447,62.5687],[25.8282,62.561],[25.8094,62.5584],[25.7988,62.5637],[25.7909,62.5728],[25.7806,62.5822],[25.7514,62.5908],[25.742,62.5799],[25.7508,62.5628],[25.8012,62.5478],[25.8224,62.5325],[25.855,62.4995],[25.8777,62.4848],[25.9274,62.4621],[25.9472,62.4483],[25.9648,62.4236],[25.9719,62.4177],[25.9816,62.4147],[26.0069,62.4115],[26.0058,62.4239],[25.9966,62.4462],[26.0066,62.4612],[26.0264,62.4712],[26.047,62.4783],[26.0349,62.4854],[26.0281,62.4954],[26.0272,62.5072],[26.0331,62.5201],[26.0481,62.5307],[26.0608,62.5295],[26.0649,62.5198],[26.0537,62.5057],[26.0696,62.5051],[26.0779,62.5116],[26.0811,62.5228],[26.0817,62.5375],[26.0864,62.549],[26.0976,62.544],[26.1094,62.5313],[26.1158,62.5201],[26.1082,62.5201],[26.1311,62.4801],[26.1423,62.4721],[26.1141,62.4636],[26.0649,62.4695],[26.0399,62.4592],[26.0558,62.4489],[26.0561,62.4403],[26.0517,62.4321],[26.0537,62.4239],[26.0637,62.4188],[26.0773,62.4147],[26.0896,62.4094],[26.0946,62.4003],[26.1111,62.3921],[26.1877,62.3762],[26.2112,62.3768],[26.2042,62.3794],[26.1841,62.3903],[26.2003,62.4124],[26.2071,62.4297],[26.2003,62.4459],[26.1774,62.4648],[26.1868,62.4718],[26.1824,62.4801],[26.1721,62.4895],[26.1635,62.4995],[26.1809,62.5057],[26.1762,62.5169],[26.1618,62.5313],[26.15,62.5472],[26.1909,62.541],[26.1815,62.5572],[26.1788,62.5657],[26.1806,62.5716],[26.1912,62.5787],[26.1962,62.5766],[26.2003,62.5713],[26.2298,62.5607],[26.2404,62.5596],[26.2462,62.5684],[26.2436,62.5766],[26.2362,62.5828],[26.2268,62.5866],[26.218,62.5884],[26.218,62.5958],[26.2415,62.5943],[26.2601,62.5852],[26.2777,62.5805],[26.3166,62.6052],[26.3578,62.614],[26.3758,62.6231],[26.344,62.632],[26.3378,62.6384],[26.3487,62.6508],[26.364,62.6576],[26.3828,62.6588],[26.4017,62.6558],[26.4176,62.6508],[26.4134,62.6408],[26.4108,62.6367],[26.4358,62.6267],[26.4485,62.624],[26.4658,62.6231],[26.4976,62.6249],[26.5085,62.6223],[26.5229,62.6125],[26.5412,62.6069],[26.5544,62.6164],[26.5606,62.6299],[26.5574,62.6367],[26.497,62.6882],[26.4608,62.7273],[26.4502,62.7359],[26.4379,62.7391],[26.424,62.7447],[26.3993,62.7686],[26.3778,62.7774],[26.3793,62.7853],[26.3864,62.7945],[26.3964,62.8012],[26.3834,62.8106],[26.3555,62.8242],[26.3416,62.8354],[26.3378,62.8398],[26.3384,62.8416],[26.3404,62.8445],[26.3416,62.8524],[26.339,62.856],[26.3254,62.8639],[26.321,62.8695],[26.3107,62.8866],[26.3142,62.8913],[26.3354,62.8898],[26.3478,62.8851],[26.3705,62.868],[26.3834,62.8633],[26.374,62.8489],[26.3772,62.8427],[26.3867,62.8398],[26.3964,62.8354],[26.407,62.823],[26.4143,62.8171],[26.4449,62.8095],[26.4673,62.7965],[26.4803,62.7806],[26.472,62.7671],[26.5065,62.7488],[26.5209,62.7365],[26.5268,62.7223],[26.5371,62.7035],[26.5615,62.6894],[26.6092,62.6708],[26.6177,62.6643],[26.6242,62.6582],[26.6316,62.6532],[26.6539,62.6496],[26.6663,62.6458],[26.6781,62.6402],[26.6875,62.6331],[26.7099,62.622],[26.7687,62.6167],[26.7938,62.6093],[26.7805,62.6025],[26.792,62.5981],[26.8052,62.5984],[26.8164,62.6043],[26.8214,62.6155],[26.8173,62.622],[26.7982,62.6379],[26.7938,62.6473],[26.8044,62.6635],[26.8297,62.6744],[26.8576,62.6829],[26.8768,62.692],[26.8512,62.707],[26.8164,62.7203],[26.7799,62.7294],[26.7496,62.7329],[26.7296,62.7418],[26.6925,62.7821],[26.6639,62.7945],[26.6639,62.8012],[26.6899,62.8001],[26.7004,62.8027],[26.7049,62.8115],[26.699,62.8186],[26.6704,62.8224],[26.6501,62.8298],[26.6351,62.8321],[26.6213,62.8363],[26.6154,62.8454],[26.6151,62.8551],[26.613,62.8654],[26.6077,62.8736],[26.5821,62.8822],[26.5268,62.9178],[26.4835,62.9343],[26.4626,62.9449],[26.4514,62.9587],[26.4941,62.954],[26.53,62.9419],[26.6239,62.8975],[26.6375,62.8887],[26.6433,62.8804],[26.6481,62.8622],[26.6595,62.8495],[26.6751,62.8413],[26.7087,62.8292],[26.7208,62.8233],[26.7526,62.7962],[26.7664,62.7883],[26.7779,62.7874],[26.7805,62.8012],[26.7761,62.8065],[26.7584,62.8118],[26.7531,62.8148],[26.7526,62.8218],[26.757,62.8339],[26.7564,62.8383],[26.7478,62.8477],[26.7414,62.858],[26.7399,62.8698],[26.7458,62.8837],[26.7175,62.8919],[26.704,62.9075],[26.7084,62.9252],[26.7328,62.9384],[26.699,62.9608],[26.6707,62.9861],[26.6907,62.9823],[26.7081,62.9728],[26.739,62.9514],[26.7879,62.9269],[26.815,62.919],[26.842,62.9178],[26.8323,62.9246],[26.8147,62.9452],[26.7961,62.9575],[26.7737,62.9693],[26.7255,62.9852],[26.7037,62.9958],[26.691,63.0141],[26.704,63.0123],[26.7284,63.0152],[26.739,63.0141],[26.7511,63.0091],[26.7805,62.9899],[26.8008,62.9799],[26.8214,62.9731],[26.8359,62.9723],[26.8576,62.9778],[26.8729,62.9793],[26.8965,62.9861],[26.9089,63.002],[26.9195,63.0199],[26.9377,63.0332],[26.966,63.0376],[26.9972,63.035],[27.0543,63.0202],[27.0449,63.0035],[27.0284,63.0023],[26.9928,63.0173],[26.9836,63.0199],[26.9707,63.0214],[26.9589,63.0202],[26.9518,63.0141],[26.9551,63.0055],[26.9674,62.9996],[26.9933,62.9934],[26.9851,62.9929],[26.966,62.9861],[26.9916,62.9728],[27.0375,62.9352],[27.0613,62.9249],[27.0263,62.9213],[26.9512,62.9687],[26.9115,62.9793],[26.9115,62.9731],[26.9168,62.9699],[26.9195,62.9664],[26.9215,62.9628],[26.9245,62.9587],[26.9068,62.9522],[26.9203,62.9363],[26.948,62.9196],[26.973,62.911],[26.9627,62.906],[26.9501,62.9028],[26.9365,62.9019],[26.9245,62.9043],[26.9147,62.9107],[26.9024,62.9275],[26.8971,62.9316],[26.8771,62.9281],[26.8606,62.9151],[26.8573,62.9001],[26.8768,62.8898],[26.8691,62.8837],[26.8903,62.8701],[26.943,62.8469],[26.966,62.8416],[26.966,62.8489],[26.9412,62.8586],[26.9306,62.866],[26.9245,62.8769],[27.112,62.8513],[27.1361,62.8416],[27.1326,62.8398],[27.132,62.8398],[27.1317,62.8389],[27.1299,62.8354],[27.1847,62.8221],[27.1703,62.8218],[27.1464,62.8162],[27.1332,62.8148],[27.122,62.8171],[27.0996,62.8268],[27.0643,62.8342],[27.0204,62.8545],[26.9933,62.8557],[27.0075,62.8522],[27.0198,62.8469],[27.0257,62.8392],[27.0207,62.8292],[27.0198,62.8159],[27.0175,62.8092],[27.0134,62.8012],[27.0272,62.7936],[27.0222,62.785],[27.0081,62.7777],[26.9933,62.7739],[26.9786,62.7747],[26.9392,62.7845],[26.8147,62.8354],[26.8217,62.8195],[26.8364,62.8109],[26.8541,62.8045],[26.8691,62.7945],[26.8771,62.7809],[26.8871,62.7512],[26.8971,62.7391],[26.913,62.7297],[26.966,62.7056],[27.0086,62.6794],[27.0301,62.6696],[27.0543,62.6641],[27.0543,62.6573],[27.0222,62.6614],[26.9533,62.6844],[26.9245,62.6782],[26.9465,62.6679],[26.9571,62.6605],[26.966,62.6508],[26.961,62.6455],[26.9518,62.6293],[26.9792,62.6267],[27.006,62.6187],[27.0313,62.6061],[27.0543,62.5884],[27.0228,62.5852],[26.9792,62.5993],[26.8674,62.6535],[26.845,62.6596],[26.8353,62.654],[26.8397,62.6346],[26.8518,62.6208],[26.8691,62.6122],[26.8897,62.6093],[26.8897,62.6025],[26.8615,62.5975],[26.8232,62.5846],[26.7955,62.5631],[26.8011,62.5337],[26.7938,62.5263],[26.7976,62.5222],[26.8088,62.5204],[26.822,62.5201],[26.8485,62.5242],[26.8618,62.5248],[26.8768,62.5201],[26.8403,62.5033],[26.8353,62.4963],[26.8385,62.4874],[26.8467,62.4801],[26.8568,62.4771],[26.8662,62.4821],[26.88,62.4948],[26.9012,62.5098],[26.9159,62.5151],[26.9115,62.4995],[26.9183,62.498],[26.9306,62.4936],[26.9377,62.4927],[26.9301,62.4898],[26.9115,62.4783],[26.925,62.4736],[26.9427,62.4642],[26.9557,62.4527],[26.9554,62.4412],[26.9412,62.4339],[26.9239,62.4342],[26.9068,62.4397],[26.878,62.4583],[26.865,62.4595],[26.85,62.4577],[26.8291,62.4592],[26.8138,62.4645],[26.8044,62.4736],[26.802,62.4851],[26.8079,62.4995],[26.7717,62.4936],[26.711,62.4515],[26.6837,62.4518],[26.7361,62.5098],[26.757,62.544],[26.739,62.561],[26.767,62.5746],[26.7269,62.5858],[26.7093,62.5946],[26.6946,62.6061],[26.6793,62.6128],[26.6639,62.6064],[26.6357,62.5822],[26.6454,62.5772],[26.6554,62.5734],[26.6775,62.5684],[26.6751,62.5596],[26.6781,62.5546],[26.6863,62.5531],[26.6981,62.5543],[26.6907,62.5457],[26.674,62.5387],[26.6663,62.521],[26.6557,62.516],[26.6292,62.513],[26.6292,62.5057],[26.6325,62.4983],[26.6386,62.4901],[26.6469,62.4827],[26.6569,62.4783],[26.6118,62.4701],[26.6018,62.4648],[26.5977,62.4536],[26.6045,62.4477],[26.6151,62.4415],[26.623,62.4312],[26.5945,62.4265],[26.5677,62.4177],[26.5639,62.3818],[26.5306,62.3823],[26.487,62.3971],[26.4514,62.4038],[26.452,62.3912],[26.4414,62.3835],[26.4273,62.3756],[26.4176,62.3623],[26.4176,62.3573],[26.4155,62.3414],[26.4176,62.335],[26.4288,62.3288],[26.4414,62.3282],[26.4523,62.3258],[26.4585,62.3146],[26.4526,62.3011],[26.4335,62.3049],[26.3834,62.3247],[26.3543,62.3461],[26.3587,62.3553],[26.3661,62.3638],[26.3696,62.3662],[26.3758,62.3868],[26.3914,62.3947],[26.4114,62.3982],[26.4311,62.4038],[26.3934,62.4241],[26.3834,62.4312],[26.3834,62.4374],[26.4123,62.4371],[26.4255,62.4392],[26.4379,62.4448],[26.4864,62.4162],[26.5138,62.408],[26.5268,62.4177],[26.5121,62.4292],[26.4829,62.4409],[26.4638,62.4548],[26.4794,62.4721],[26.4897,62.4601],[26.502,62.4527],[26.5165,62.4515],[26.5335,62.4592],[26.5285,62.4683],[26.5421,62.4733],[26.5745,62.4783],[26.5868,62.4842],[26.593,62.4886],[26.6018,62.5057],[26.5954,62.5157],[26.5933,62.5372],[26.588,62.541],[26.5768,62.5442],[26.57,62.551],[26.565,62.5578],[26.5574,62.561],[26.4658,62.5684],[26.3834,62.5981],[26.3555,62.6025],[26.3325,62.5972],[26.3192,62.5834],[26.3087,62.5654],[26.2939,62.5472],[26.2854,62.5413],[26.2733,62.5348],[26.2604,62.5295],[26.2492,62.5275],[26.2395,62.531],[26.2315,62.5381],[26.2239,62.5422],[26.2147,62.5375],[26.2142,62.5219],[26.2277,62.5039],[26.2445,62.488],[26.2524,62.4783],[26.233,62.4474],[26.2327,62.4309],[26.2813,62.4197],[26.2989,62.4094],[26.3125,62.3941],[26.321,62.3768],[26.3051,62.3617],[26.3063,62.345],[26.3116,62.327],[26.3078,62.3076],[26.3007,62.3076],[26.2916,62.3138],[26.1994,62.3517],[26.1715,62.3676],[26.1485,62.3729],[26.1052,62.3768],[26.0893,62.3812],[26.0746,62.39],[26.0587,62.3956],[26.0399,62.3903],[26.0649,62.3729],[26.1194,62.3503],[26.1423,62.335],[26.1515,62.3202],[26.16,62.3017],[26.1721,62.2876],[26.1841,62.2867],[26.1997,62.2905],[26.2047,62.2849],[26.1974,62.2749],[26.1774,62.2667],[26.1562,62.2655],[26.0946,62.2731],[26.1191,62.2884],[26.1052,62.2952],[26.0776,62.2993],[26.0605,62.3076],[26.0832,62.3105],[26.0823,62.3244],[26.0685,62.3414],[26.0375,62.3718],[26.029,62.3753],[25.9834,62.3779],[25.9754,62.3835],[25.9781,62.3965],[25.9575,62.3794],[25.9478,62.3676],[25.9439,62.3556],[25.9489,62.3429],[25.9587,62.3355],[25.9642,62.3279],[25.9581,62.3146],[25.9807,62.3064],[26.0537,62.2599],[25.9957,62.2743],[25.9645,62.2776],[25.9439,62.2731],[25.9475,62.2655],[25.9498,62.2537],[25.9507,62.229],[25.9528,62.2169],[25.9557,62.2084],[25.9536,62.1981],[25.941,62.181],[25.928,62.1507],[25.9469,62.1316],[25.9793,62.1159],[26.0058,62.0948],[25.9899,62.095],[25.9648,62.1171],[25.9472,62.1227],[25.936,62.1239],[25.9065,62.1307],[25.8965,62.1357],[25.8889,62.143],[25.8877,62.1454],[25.8892,62.1486],[25.8898,62.1575],[25.8921,62.1701],[25.9068,62.2149],[25.8904,62.2252],[25.878,62.221],[25.8656,62.2113],[25.8489,62.2046],[25.8539,62.1842],[25.8383,62.1701],[25.8177,62.1569],[25.8073,62.1395],[25.805,62.1198],[25.7991,62.095],[25.7906,62.0712],[25.7806,62.0538],[25.8224,62.0462],[25.8683,62.0321],[25.8933,62.0276],[25.9054,62.0238],[25.9104,62.0162],[25.9133,62.0067],[25.9204,62.0017],[25.9272,61.9988],[25.9301,61.9958],[25.9222,61.9826],[25.9036,61.987],[25.8689,62.0067],[25.8486,62.0132],[25.825,62.0179],[25.8029,62.017],[25.7867,62.0067],[25.7935,62.0],[25.7997,61.9906],[25.8012,61.9823],[25.7938,61.9788],[25.7844,61.9808],[25.7782,61.9855],[25.7732,61.9903],[25.7697,61.9923],[25.7535,61.9876],[25.7614,61.9764],[25.7794,61.9646],[25.7944,61.9585],[25.7759,61.9426],[25.7479,61.9384],[25.7276,61.9458],[25.7323,61.9649],[25.722,61.9764],[25.7081,61.9814],[25.6961,61.9773],[25.6908,61.9617],[25.6858,61.9585],[25.6752,61.967],[25.6566,61.985],[25.6457,61.9864],[25.6322,61.9861],[25.6201,61.9826],[25.6148,61.9749],[25.6172,61.9685],[25.6269,61.9623],[25.6293,61.9549],[25.636,61.9461],[25.6675,61.9276],[25.6769,61.9167],[25.646,61.9255],[25.6275,61.9273],[25.6148,61.924],[25.6107,61.9155],[25.6145,61.9067],[25.6228,61.8996],[25.6325,61.8969],[25.6496,61.894],[25.6613,61.889],[25.6725,61.889],[25.6875,61.8999],[25.6996,61.9046],[25.7158,61.904],[25.7452,61.8969],[25.7452,61.8893],[25.7261,61.8899],[25.7143,61.8822],[25.7043,61.8713],[25.6908,61.8622],[25.6708,61.8584],[25.6013,61.8622],[25.6075,61.8448],[25.6007,61.8201],[25.5857,61.796],[25.5671,61.7801],[25.5792,61.7595],[25.5966,61.7489],[25.6175,61.7495],[25.6761,61.7848],[25.6878,61.7972],[25.6843,61.8148],[25.7008,61.8166],[25.7288,61.8263],[25.7452,61.8281],[25.7452,61.821],[25.7382,61.8181],[25.7255,61.8104],[25.7185,61.8075],[25.7237,61.7986],[25.7243,61.791],[25.7199,61.7851],[25.7111,61.7801],[25.7205,61.7651],[25.7273,61.7503],[25.7293,61.7368],[25.7249,61.7256],[25.717,61.7215],[25.6769,61.705],[25.6569,61.6921],[25.6493,61.6897],[25.6496,61.6977],[25.6354,61.6859],[25.6222,61.6709],[25.6443,61.675],[25.6537,61.6744],[25.6631,61.6709],[25.6555,61.6353],[25.699,61.6141],[25.7555,61.5973],[25.7867,61.5746],[25.7202,61.5976],[25.5933,61.6194],[25.5716,61.6155],[25.5465,61.5952],[25.5686,61.5849],[25.6113,61.594],[25.636,61.589],[25.6251,61.5746],[25.6066,61.5684],[25.5854,61.5658],[25.5671,61.5611],[25.5777,61.5525],[25.5857,61.5431],[25.5878,61.534],[25.5807,61.5269],[25.5845,61.5237],[25.5913,61.5163],[25.5951,61.5134],[25.5792,61.5081],[25.5636,61.5099],[25.548,61.5101],[25.5324,61.499],[25.5607,61.4845],[25.5966,61.4722],[25.6331,61.4666],[25.6631,61.4722],[25.6631,61.4792],[25.6581,61.4804],[25.6434,61.4854],[25.6596,61.4898],[25.6799,61.4928],[25.697,61.4898],[25.7043,61.4757],[25.6973,61.4563],[25.702,61.4492],[25.7249,61.4442],[25.7058,61.4369],[25.6896,61.4401],[25.674,61.4472],[25.6237,61.4554],[25.6131,61.4542],[25.6148,61.4442],[25.4989,61.4513],[25.5068,61.4436],[25.5103,61.4354],[25.51,61.4263],[25.5056,61.4162],[25.5816,61.4015],[25.5951,61.3959],[25.5892,61.3839],[25.5474,61.3703],[25.5324,61.3618],[25.5395,61.36],[25.5527,61.3556],[25.5607,61.355],[25.5412,61.3268],[25.5262,61.2935],[25.5421,61.3023],[25.5548,61.3188],[25.5701,61.3294],[25.5951,61.3209],[25.5878,61.3168],[25.5745,61.3059],[25.5671,61.3009],[25.5713,61.2956],[25.5833,61.2838],[25.5889,61.28],[25.6319,61.3009],[25.7959,61.2564],[25.855,61.2593],[25.8497,61.2602],[25.8347,61.2655],[25.8512,61.2841],[25.8753,61.2805],[25.903,61.2697],[25.9301,61.2655],[25.9242,61.2593],[25.9442,61.2538],[25.986,61.2558],[26.0058,61.2526],[26.0193,61.244],[26.0228,61.2343],[26.0158,61.2252],[25.9984,61.2184],[26.0161,61.2049],[26.0543,61.1908],[26.0708,61.1805],[26.0888,61.1763],[26.112,61.1837],[26.1344,61.1972],[26.15,61.2111],[26.1261,61.2234],[26.1005,61.2323],[26.0838,61.244],[26.0879,61.2655],[26.105,61.2835],[26.2015,61.3421],[26.2145,61.3465],[26.2454,61.3503],[26.2533,61.3568],[26.2583,61.3653],[26.266,61.3756],[26.3048,61.4142],[26.3278,61.428]]]}}
