{"type":"Feature","properties":{"id":1078,"name":"Qinghai Hu","featurecla":"Alkaline Lake","scalerank":3,"wikidataid":"Q201294","source":"Natural Earth 5.2.0-pre ne_10m_lakes (public domain)"},"geometry":{"type":"Polygon","coordinates":[[[100.7519,36.8254],[100.766,36.8045],[100.7616,36.7812],[100.743,36.7733],[100.7204,36.7765],[100.7015,36.7762],[100.6933,36.7574],[100.6989,36.7444],[100.7345,36.7061],[100.7419,36.6841],[100.7386,36.6696],[100.7316,36.6558],[100.7204,36.5902],[100.7127,36.566],[100.7036,36.5554],[100.6945,36.5531],[100.6718,36.5437],[100.6591,36.541],[100.6494,36.5416],[100.6282,36.5454],[100.5599,36.5666],[100.5399,36.569],[100.4984,36.5784],[100.4593,36.5996],[100.4454,36.6228],[100.4811,36.6379],[100.4811,36.644],[100.4501,36.6452],[100.4401,36.644],[100.4354,36.6417],[100.4237,36.6326],[100.4189,36.6305],[100.4104,36.6317],[100.403,36.6367],[100.3954,36.6379],[100.3927,36.6443],[100.3904,36.6567],[100.3854,36.6658],[100.3668,36.6582],[100.3303,36.6508],[100.3,36.6576],[100.2888,36.6579],[100.2768,36.6546],[100.2591,36.6461],[100.2208,36.6417],[100.159,36.6243],[100.134,36.6237],[100.0893,36.6349],[100.0221,36.6437],[99.9809,36.6579],[99.9432,36.6764],[99.9265,36.6891],[99.9079,36.72],[99.8823,36.722],[99.8367,36.7123],[99.8108,36.7132],[99.7978,36.7235],[99.7816,36.7609],[99.7914,36.7744],[99.7905,36.793],[99.7802,36.8112],[99.7616,36.8221],[99.7234,36.8327],[99.7019,36.8416],[99.6827,36.866],[99.6371,36.8892],[99.6239,36.8981],[99.6192,36.9084],[99.6177,36.9184],[99.6192,36.9284],[99.6239,36.939],[99.6621,36.967],[99.6824,36.9658],[99.6975,36.9619],[99.7337,36.9458],[99.7816,36.9375],[99.8208,36.9513],[99.8423,36.9814],[99.8367,37.0214],[99.8326,37.0379],[99.8305,37.042],[99.8273,37.0444],[99.8199,37.0467],[99.817,37.0488],[99.7808,37.082],[99.7702,37.1056],[99.7604,37.1221],[99.7546,37.1421],[99.7616,37.1648],[99.7769,37.178],[99.7969,37.1851],[99.8367,37.1927],[99.8932,37.2116],[99.935,37.2157],[99.9677,37.2254],[99.9842,37.2278],[99.9998,37.2239],[100.043,37.1995],[100.0792,37.1913],[100.1829,37.1927],[100.1926,37.1901],[100.2155,37.1804],[100.2238,37.1818],[100.2305,37.1877],[100.2394,37.1933],[100.2494,37.198],[100.2582,37.1995],[100.2747,37.1963],[100.2862,37.1886],[100.2968,37.1795],[100.2962,37.1786],[100.3474,37.1177],[100.4416,37.0461],[100.4696,37.0173],[100.5599,36.8875],[100.5779,36.8701],[100.5935,36.8636],[100.6388,36.8633],[100.6497,36.8607],[100.6721,36.8516],[100.6797,36.8495],[100.6886,36.8536],[100.6959,36.8604],[100.7045,36.8627],[100.7174,36.8533],[100.7519,36.8254]]]}}
