{"type":"Feature","properties":{"id":1079,"name":"Saginaw Bay","featurecla":"Lake","scalerank":3,"wikidataid":"Q2211837","source":"Natural Earth 5.2.0-pre ne_10m_lakes (public domain)"},"geometry":{"type":"Polygon","coordinates":[[[-83.0335,44.052],[-83.069,44.0223],[-83.0865,44.014],[-83.1199,44.0111],[-83.1324,44.0078],[-83.1557,43.9937],[-83.1683,43.9905],[-83.2403,43.989],[-83.2501,43.9867],[-83.2582,43.9828],[-83.2669,43.9763],[-83.2968,43.9457],[-83.3017,43.9387],[-83.3159,43.9313],[-83.4048,43.9216],[-83.386,43.9169],[-83.3655,43.9163],[-83.3476,43.9136],[-83.3358,43.9013],[-83.3705,43.8733],[-83.3892,43.8545],[-83.3972,43.8359],[-83.4042,43.8136],[-83.4525,43.7647],[-83.4742,43.7211],[-83.4903,43.7032],[-83.5102,43.7064],[-83.5146,43.7147],[-83.5189,43.7258],[-83.526,43.7323],[-83.5379,43.7267],[-83.6046,43.6514],[-83.6397,43.6237],[-83.6789,43.6081],[-83.7194,43.6137],[-83.761,43.6337],[-83.8119,43.6446],[-83.8322,43.6567],[-83.8817,43.6708],[-83.9044,43.682],[-83.9254,43.7017],[-83.9434,43.7279],[-83.9496,43.7562],[-83.9354,43.7815],[-83.9323,43.7915],[-83.935,43.8248],[-83.9317,43.8398],[-83.9209,43.8509],[-83.9098,43.8598],[-83.9082,43.8686],[-83.9254,43.8807],[-83.8897,43.9584],[-83.8633,43.9899],[-83.8219,44.0043],[-83.81,44.0034],[-83.7879,43.9981],[-83.7747,43.9972],[-83.765,44.0002],[-83.7479,44.009],[-83.7367,44.0111],[-83.7267,44.0099],[-83.7071,44.0052],[-83.6958,44.0043],[-83.6901,44.0096],[-83.6827,44.0358],[-83.6784,44.0452],[-83.6599,44.0532],[-83.6104,44.0549],[-83.5925,44.0626],[-83.5898,44.0729],[-83.5916,44.0853],[-83.5904,44.0956],[-83.5791,44.1],[-83.5725,44.1047],[-83.5697,44.1165],[-83.5641,44.1865],[-83.5541,44.2307],[-83.5324,44.266],[-83.4936,44.2854],[-83.4836,44.2863],[-83.4525,44.2854],[-83.4559,44.2795],[-83.4627,44.2642],[-83.4662,44.2581],[-83.4524,44.2678],[-83.407,44.3102],[-83.3972,44.3228],[-83.3914,44.3263],[-83.3627,44.3269],[-83.3533,44.3296],[-83.3377,44.3455],[-83.3329,44.354],[-83.3284,44.3673],[-83.0183,44.0582],[-83.0335,44.052]]]}}
