{"type":"Feature","properties":{"id":1080,"name":"Salton Sea","featurecla":"Alkaline Lake","scalerank":3,"wikidataid":"Q503301","source":"Natural Earth 5.2.0-pre ne_10m_lakes (public domain)"},"geometry":{"type":"Polygon","coordinates":[[[-115.6047,33.2809],[-115.598,33.2385],[-115.6069,33.2176],[-115.6393,33.1891],[-115.6535,33.1591],[-115.6696,33.1435],[-115.6879,33.1317],[-115.701,33.129],[-115.7091,33.1105],[-115.7291,33.1125],[-115.7662,33.129],[-115.7869,33.1596],[-115.7956,33.1667],[-115.814,33.1767],[-115.8239,33.1838],[-115.8333,33.1964],[-115.8547,33.2391],[-115.8635,33.278],[-115.8754,33.2924],[-116.0311,33.4116],[-116.0436,33.4308],[-116.0598,33.4667],[-116.065,33.4873],[-116.061,33.5023],[-116.0423,33.5158],[-116.0217,33.5232],[-115.9993,33.5258],[-115.968,33.5264],[-115.9466,33.5208],[-115.9294,33.5114],[-115.8466,33.4313],[-115.8239,33.4175],[-115.7903,33.3757],[-115.7755,33.3654],[-115.7577,33.3592],[-115.7368,33.3563],[-115.7116,33.3557],[-115.6674,33.3454],[-115.6298,33.3186],[-115.6047,33.2809]]]}}
