{"type":"Feature","properties":{"id":1081,"name":"St. Marys River","featurecla":"Lake","scalerank":3,"wikidataid":"Q940488","source":"Natural Earth 5.2.0-pre ne_10m_lakes (public domain)"},"geometry":{"type":"Polygon","coordinates":[[[-84.2245,46.3554],[-84.2299,46.3741],[-84.2367,46.3822],[-84.2683,46.433],[-84.2801,46.4595],[-84.3187,46.4954],[-84.3361,46.5068],[-84.3587,46.5137],[-84.383,46.5158],[-84.4053,46.5125],[-84.423,46.5031],[-84.4599,46.4641],[-84.4901,46.4465],[-84.4938,46.4805],[-84.4773,46.4796],[-84.4676,46.4847],[-84.4736,46.4989],[-84.4546,46.5127],[-84.4336,46.5208],[-84.413,46.5245],[-84.3832,46.5267],[-84.3644,46.5318],[-84.3531,46.533],[-84.3417,46.5308],[-84.3166,46.5214],[-84.3022,46.5193],[-84.2577,46.5269],[-84.2195,46.542],[-84.1797,46.5528],[-84.1304,46.5472],[-84.1155,46.5422],[-84.1089,46.5382],[-84.0962,46.5193],[-84.078,46.5037],[-84.0727,46.4935],[-84.0791,46.4814],[-84.0848,46.4731],[-84.0877,46.4561],[-84.0955,46.4427],[-84.0964,46.4376],[-84.0962,46.4265],[-84.0994,46.4193],[-84.1064,46.4148],[-84.1136,46.4118],[-84.1173,46.4094],[-84.1139,46.3709],[-84.0833,46.3448],[-84.1172,46.3472],[-84.1172,46.3488],[-84.1204,46.3542],[-84.1292,46.3599],[-84.1719,46.4135],[-84.1777,46.4232],[-84.1789,46.4339],[-84.1787,46.4541],[-84.1735,46.465],[-84.1475,46.502],[-84.1331,46.5172],[-84.1309,46.521],[-84.1286,46.5236],[-84.1235,46.5255],[-84.142,46.5328],[-84.1815,46.5366],[-84.1992,46.5472],[-84.2498,46.5147],[-84.2644,46.5025],[-84.2774,46.4825],[-84.2672,46.4754],[-84.2496,46.4714],[-84.2402,46.4606],[-84.238,46.447],[-84.226,46.4085],[-84.2197,46.3964],[-84.2035,46.3853],[-84.1847,46.3764],[-84.1732,46.3654],[-84.1775,46.3519],[-84.2245,46.3554]]]}}
