{"type":"Feature","properties":{"id":1082,"name":"Tonlé Sap","featurecla":"Lake","scalerank":3,"wikidataid":"Q199938","source":"Natural Earth 5.2.0-pre ne_10m_lakes (public domain)"},"geometry":{"type":"Polygon","coordinates":[[[104.613,12.4161],[104.6204,12.379],[104.6098,12.384],[104.6083,12.3902],[104.6095,12.3976],[104.6063,12.4064],[104.596,12.4185],[104.5913,12.4229],[104.5851,12.4273],[104.5456,12.4488],[104.5342,12.4576],[104.5156,12.477],[104.5074,12.4885],[104.5038,12.4988],[104.4962,12.5109],[104.4785,12.5153],[104.4579,12.5177],[104.4417,12.523],[104.4358,12.5179],[104.4076,12.5094],[104.3996,12.5135],[104.3534,12.5256],[104.319,12.5436],[104.2981,12.558],[104.2881,12.5627],[104.2622,12.5662],[104.223,12.5759],[104.2124,12.5806],[104.1959,12.5974],[104.1582,12.6542],[104.1506,12.6601],[104.1485,12.6631],[104.1497,12.6695],[104.1524,12.6775],[104.1538,12.684],[104.1512,12.6928],[104.145,12.6931],[104.1382,12.691],[104.1332,12.6937],[104.13,12.7058],[104.1315,12.7158],[104.14,12.742],[104.1197,12.7481],[104.117,12.7605],[104.127,12.7973],[104.1112,12.7894],[104.1029,12.7967],[104.0923,12.8247],[104.0788,12.8041],[104.0646,12.7973],[104.0473,12.7938],[104.0234,12.7832],[104.0134,12.7961],[104.0111,12.8023],[104.0099,12.8108],[103.9863,12.8017],[103.9719,12.8117],[103.9557,12.845],[103.9407,12.8341],[103.9239,12.8441],[103.9095,12.8629],[103.9004,12.8785],[103.9004,12.8724],[103.8892,12.8732],[103.8777,12.8812],[103.8674,12.8933],[103.8595,12.9065],[103.8586,12.9033],[103.8586,12.9009],[103.8571,12.8997],[103.8527,12.9003],[103.8595,12.893],[103.8565,12.8877],[103.8542,12.8821],[103.853,12.875],[103.8527,12.865],[103.8412,12.8771],[103.8448,12.8886],[103.8506,12.9003],[103.8459,12.9133],[103.8327,12.9198],[103.8209,12.9183],[103.81,12.9192],[103.7985,12.9339],[103.7882,12.9813],[103.7773,12.9995],[103.7497,13.0095],[103.7538,13.0178],[103.76,13.024],[103.7679,13.0278],[103.7776,13.0296],[103.7776,13.0369],[103.7479,13.0552],[103.727,13.0784],[103.7143,13.1099],[103.7052,13.1744],[103.6914,13.2144],[103.6887,13.2285],[103.6937,13.2456],[103.7046,13.2609],[103.7196,13.2683],[103.7823,13.2456],[103.8053,13.2427],[103.8259,13.2491],[103.8291,13.2424],[103.8397,13.2285],[103.8515,13.2341],[103.8639,13.2333],[103.876,13.2282],[103.8874,13.2212],[103.9024,13.2247],[103.9855,13.1979],[103.999,13.1897],[104.0114,13.1797],[104.0738,13.1087],[104.127,12.9618],[104.1332,12.9618],[104.1694,12.9024],[104.1733,12.8783],[104.2089,12.8247],[104.2192,12.7817],[104.226,12.7637],[104.2395,12.7455],[104.2563,12.737],[104.2778,12.7358],[104.3914,12.7567],[104.4244,12.752],[104.4559,12.729],[104.4662,12.7164],[104.4723,12.7034],[104.4756,12.6869],[104.4765,12.6634],[104.472,12.6451],[104.4529,12.6163],[104.4491,12.6054],[104.4564,12.5948],[104.4703,12.5874],[104.4841,12.5777],[104.4903,12.5606],[104.4835,12.5518],[104.4688,12.55],[104.4523,12.5527],[104.4417,12.5571],[104.4441,12.548],[104.447,12.5415],[104.4559,12.5297],[104.4626,12.5297],[104.4694,12.5362],[104.4812,12.5427],[104.4921,12.5436],[104.4971,12.5336],[104.5003,12.5291],[104.5077,12.5409],[104.5174,12.5645],[104.525,12.5645],[104.5194,12.5368],[104.5212,12.5268],[104.5486,12.5191],[104.5651,12.51],[104.5792,12.4997],[104.5851,12.492],[104.5889,12.4806],[104.5945,12.4711],[104.5939,12.4661],[104.5789,12.4682],[104.5656,12.4738],[104.5406,12.4897],[104.525,12.4956],[104.5336,12.4809],[104.5489,12.4626],[104.5668,12.447],[104.5821,12.4405],[104.6042,12.4332],[104.613,12.4161]]]}}
