{"type":"Feature","properties":{"id":1083,"name":"Uvs Nuur","featurecla":"Alkaline Lake","scalerank":3,"wikidataid":"Q81150","source":"Natural Earth 5.2.0-pre ne_10m_lakes (public domain)"},"geometry":{"type":"Polygon","coordinates":[[[92.3298,50.2366],[92.3534,50.2675],[92.3487,50.3019],[92.3172,50.3302],[92.2439,50.377],[92.2268,50.4147],[92.2447,50.4456],[92.283,50.4677],[92.326,50.4794],[92.3816,50.4853],[92.4099,50.4918],[92.4323,50.5042],[92.4408,50.5074],[92.4652,50.5136],[92.4705,50.5171],[92.4752,50.5289],[92.4867,50.5377],[92.5114,50.548],[92.5438,50.5539],[92.6095,50.5474],[92.6418,50.548],[92.6863,50.5607],[92.7134,50.5639],[92.7508,50.5733],[92.7619,50.5792],[92.7734,50.5889],[92.7958,50.6019],[92.8064,50.6101],[92.8123,50.6181],[92.8226,50.6378],[92.8302,50.6481],[92.8488,50.6664],[92.8729,50.684],[92.9006,50.6929],[92.9291,50.6852],[92.9621,50.672],[92.9948,50.6534],[93.0066,50.6254],[92.9907,50.5831],[92.955,50.536],[92.953,50.5277],[92.9618,50.5242],[92.9745,50.5154],[92.986,50.5053],[92.9907,50.4974],[92.9924,50.4844],[92.9983,50.4774],[93.0746,50.44],[93.0905,50.4288],[93.1378,50.3711],[93.1558,50.3564],[93.1773,50.3479],[93.1964,50.3493],[93.2147,50.3585],[93.2344,50.3738],[93.2553,50.3835],[93.2788,50.387],[93.2915,50.3811],[93.2786,50.3638],[93.2691,50.3611],[93.2309,50.3564],[93.2312,50.3452],[93.2385,50.334],[93.2482,50.3255],[93.255,50.3222],[93.265,50.319],[93.2797,50.3049],[93.2894,50.3016],[93.3018,50.3046],[93.3224,50.3181],[93.3339,50.3222],[93.3474,50.3225],[93.3601,50.3202],[93.3716,50.3155],[93.3825,50.3093],[93.3969,50.2955],[93.4037,50.2857],[93.3992,50.2813],[93.3936,50.2781],[93.3881,50.271],[93.381,50.264],[93.2803,50.2348],[93.26,50.2384],[93.2521,50.2575],[93.2385,50.2663],[93.1058,50.2369],[93.0828,50.2266],[93.0734,50.2089],[93.0675,50.1889],[93.054,50.1704],[92.9907,50.1174],[92.973,50.0876],[92.9671,50.0826],[92.9659,50.0791],[92.9309,50.0532],[92.7434,49.9973],[92.6898,49.9932],[92.5765,50.0002],[92.5733,50.0043],[92.5718,50.0138],[92.5691,50.0232],[92.563,50.0273],[92.5182,50.0308],[92.5047,50.0344],[92.4926,50.0402],[92.4855,50.047],[92.4799,50.0541],[92.4705,50.0623],[92.4605,50.0653],[92.4467,50.0676],[92.4343,50.0715],[92.429,50.0788],[92.427,50.1003],[92.4196,50.1135],[92.4052,50.1241],[92.3484,50.1562],[92.3378,50.1712],[92.3339,50.196],[92.3313,50.2048],[92.3266,50.2151],[92.3245,50.2263],[92.3298,50.2366]]]}}
