{"type":"Feature","properties":{"id":1084,"name":"Whitefish Bay","featurecla":"Lake","scalerank":3,"wikidataid":"Q12341531","source":"Natural Earth 5.2.0-pre ne_10m_lakes (public domain)"},"geometry":{"type":"MultiPolygon","coordinates":[[[[-84.7842,47.0004],[-84.7875,47.0059],[-84.7677,47.0189],[-84.7842,47.0004]]],[[[-84.4901,46.4465],[-84.5292,46.4299],[-84.5698,46.4234],[-84.6033,46.4375],[-84.5941,46.4578],[-84.6184,46.4843],[-84.6565,46.502],[-84.6893,46.4955],[-84.715,46.4784],[-84.7495,46.4667],[-84.7864,46.4596],[-84.8195,46.4572],[-84.8354,46.4596],[-84.8775,46.4784],[-84.9148,46.4846],[-84.9218,46.4876],[-84.936,46.5017],[-84.946,46.5064],[-84.9591,46.5049],[-84.992,46.4938],[-85.0079,46.492],[-85.0271,46.4967],[-85.0396,46.5052],[-85.0483,46.5176],[-85.0558,46.5329],[-85.028,46.5562],[-85.0179,46.5732],[-85.0312,46.6068],[-85.0134,46.7242],[-85.0079,46.739],[-84.9941,46.7513],[-84.9767,46.7596],[-84.9611,46.769],[-84.9527,46.7863],[-84.9761,46.784],[-84.7842,47.0004],[-84.7769,46.9877],[-84.7523,46.9715],[-84.7302,46.9644],[-84.6893,46.9644],[-84.671,46.9621],[-84.6634,46.9565],[-84.6593,46.948],[-84.6518,46.9371],[-84.6322,46.9188],[-84.6211,46.912],[-84.6095,46.9091],[-84.5941,46.91],[-84.5935,46.9156],[-84.5969,46.9238],[-84.5933,46.9338],[-84.5729,46.9465],[-84.5533,46.9462],[-84.5324,46.9406],[-84.5083,46.9371],[-84.4597,46.9432],[-84.4366,46.9412],[-84.3948,46.9123],[-84.3748,46.9032],[-84.3602,46.8932],[-84.3562,46.8755],[-84.3596,46.8726],[-84.3774,46.8482],[-84.3893,46.8399],[-84.3982,46.8382],[-84.4217,46.8408],[-84.4501,46.8523],[-84.4629,46.8543],[-84.4776,46.8532],[-84.4871,46.8499],[-84.4957,46.8455],[-84.5395,46.832],[-84.5493,46.8273],[-84.5437,46.8114],[-84.5428,46.7861],[-84.5477,46.7625],[-84.5592,46.7519],[-84.566,46.7407],[-84.5612,46.7169],[-84.5461,46.6975],[-84.5214,46.6975],[-84.5112,46.711],[-84.5041,46.7316],[-84.4944,46.7507],[-84.4769,46.759],[-84.4587,46.7537],[-84.4416,46.7407],[-84.4292,46.7251],[-84.4251,46.711],[-84.4341,46.6936],[-84.4903,46.6592],[-84.563,46.6012],[-84.5758,46.5859],[-84.5885,46.5629],[-84.5892,46.542],[-84.5465,46.5264],[-84.5328,46.512],[-84.5214,46.4958],[-84.5083,46.4846],[-84.4938,46.4805],[-84.4901,46.4465]],[[-84.5493,46.8823],[-84.5325,46.8823],[-84.4866,46.8956],[-84.4701,46.8964],[-84.4544,46.8959],[-84.4394,46.8967],[-84.4251,46.9029],[-84.4416,46.907],[-84.459,46.9056],[-84.4766,46.9064],[-84.494,46.9165],[-84.5124,46.9226],[-84.5289,46.9159],[-84.5418,46.9009],[-84.5493,46.8823]]]]}}
