{"type":"Feature","properties":{"id":1085,"name":"Zalew Wislany","featurecla":"Alkaline Lake","scalerank":3,"wikidataid":"Q5605","source":"Natural Earth 5.2.0-pre ne_10m_lakes (public domain)"},"geometry":{"type":"Polygon","coordinates":[[[19.8212,54.4684],[19.8153,54.4642],[19.81,54.4548],[19.8035,54.4454],[19.7935,54.441],[19.7643,54.4363],[19.754,54.433],[19.7432,54.4336],[19.7449,54.4292],[19.7476,54.4183],[19.7493,54.4139],[19.7337,54.4119],[19.7258,54.4021],[19.7205,54.391],[19.7117,54.3859],[19.6975,54.3848],[19.684,54.3815],[19.6192,54.3536],[19.5798,54.3503],[19.5633,54.3465],[19.4856,54.3177],[19.4729,54.3156],[19.46,54.3109],[19.4347,54.297],[19.4093,54.2729],[19.4032,54.2691],[19.3961,54.2632],[19.3784,54.2358],[19.3652,54.2282],[19.3658,54.2429],[19.3699,54.255],[19.377,54.2641],[19.3864,54.2691],[19.3864,54.2767],[19.3628,54.275],[19.2739,54.2817],[19.2489,54.2903],[19.2495,54.2985],[19.2519,54.3044],[19.2563,54.3082],[19.2628,54.3103],[19.2524,54.3138],[19.2292,54.3318],[19.2292,54.338],[19.2704,54.3471],[19.3572,54.3515],[19.3993,54.3586],[19.4423,54.3718],[19.7411,54.5049],[19.7932,54.5434],[19.84,54.4707],[19.8212,54.4684]]]}}
