{"type":"Feature","properties":{"id":0,"name":"Arctic Ocean","featurecla":"ocean","scalerank":0,"wikidataid":"Q788","source":"Natural Earth 5.2.0-pre ne_10m_geography_marine_polys (public domain)"},"geometry":{"type":"Polygon","coordinates":[[[156.0424,77.4701],[138.8445,76.253],[96.1968,81.2673],[96.1868,81.1838],[96.0751,81.1927],[95.9841,81.2113],[95.9021,81.2605],[95.8005,81.2806],[95.1596,81.2711],[95.1596,81.2806],[91.5544,81.1917],[91.3899,81.1874],[91.1089,81.1991],[90.0701,81.2139],[89.9013,81.1705],[89.9193,81.1488],[89.8701,81.1478],[65.3607,81.0684],[65.3099,81.0964],[65.1718,81.1441],[65.1358,81.1504],[64.9199,81.2801],[63.8086,81.5976],[63.6764,81.6171],[63.7822,81.65],[63.7674,81.6642],[63.7097,81.6875],[63.0493,81.7103],[62.3799,81.8092],[59.3636,81.8621],[59.3584,81.8357],[59.262,81.8542],[58.1344,81.8277],[58.0005,81.8002],[57.9878,81.8621],[55.8182,81.8621],[50.3832,81.4277],[49.8264,80.8953],[49.5079,80.8652],[49.2444,80.8213],[49.1476,80.7123],[49.1925,80.6562],[49.1851,80.5588],[49.0877,80.5159],[48.6253,80.5085],[48.4649,80.5583],[48.4025,80.5688],[48.4078,80.644],[48.6253,80.6292],[48.6835,80.6334],[48.6867,80.7176],[48.5475,80.7789],[48.4459,80.8059],[48.3453,80.8191],[48.2432,80.8234],[47.8998,80.8128],[47.442,80.8535],[47.3526,80.853],[47.0208,80.8144],[46.7991,80.7551],[46.3276,80.735],[45.1243,80.6524],[44.974,80.6244],[44.9703,80.6451],[27.0358,80.1159],[27.0173,80.1254],[26.8606,80.1598],[26.4368,80.1757],[25.8362,80.1752],[25.751,80.1878],[25.6668,80.2095],[25.4716,80.2328],[24.9069,80.2768],[24.7858,80.3006],[24.736,80.3011],[24.6138,80.2857],[24.5466,80.2953],[24.4027,80.3551],[24.2974,80.3604],[24.2804,80.3291],[24.2338,80.3032],[24.1428,80.2953],[23.9529,80.3048],[23.7729,80.2445],[23.6877,80.2064],[23.3533,80.1789],[23.1147,80.1868],[23.2247,80.3175],[23.2501,80.381],[23.3152,80.4254],[23.2512,80.4466],[23.0078,80.4741],[22.8967,80.4688],[22.7924,80.4329],[22.6723,80.4127],[22.549,80.4165],[22.4505,80.4022],[22.4177,80.3657],[22.4463,80.3085],[22.4426,80.1905],[22.3765,80.0894],[22.2897,80.0492],[22.1902,80.0598],[21.8976,80.1323],[21.7806,80.1386],[21.6965,80.1593],[21.6547,80.2185],[21.5494,80.2429],[20.9985,80.2386],[20.898,80.2498],[20.6932,80.2985],[20.4757,80.3715],[20.3593,80.4011],[20.1042,80.4302],[19.8513,80.471],[19.7333,80.4778],[19.6142,80.4625],[19.6915,80.4022],[19.7772,80.3535],[19.8106,80.327],[19.8021,80.2947],[19.7513,80.227],[19.5682,80.2498],[19.3274,80.3233],[19.2639,80.336],[19.1782,80.3318],[19.1571,80.3016],[19.1914,80.263],[19.3549,80.1852],[19.537,80.163],[19.3433,80.1164],[19.1427,80.1386],[18.9618,80.1746],[18.7792,80.1937],[18.0897,80.1709],[17.9585,80.1497],[-25.8904,83.2787],[-25.9476,83.2898],[-27.0345,83.3771],[-27.6885,83.4105],[-28.3769,83.4375],[-28.4839,83.4348],[-28.9918,83.5047],[-29.9528,83.565],[-30.7032,83.5936],[-32.9844,83.5994],[-33.3982,83.5772],[-33.8374,83.5301],[-34.1322,83.5285],[-34.4285,83.5576],[-34.6677,83.5713],[-34.9418,83.5687],[-35.1656,83.5459],[-35.4519,83.5385],[-36.6065,83.5369],[-36.6447,83.529],[-36.6722,83.5099],[-36.6896,83.4798],[-36.8045,83.466],[-37.123,83.4681],[-37.4871,83.4994],[-37.7231,83.4978],[-37.8279,83.4856],[-37.9607,83.4375],[-38.0713,83.4121],[-38.1877,83.4025],[-38.5412,83.4147],[-38.6481,83.401],[-38.7497,83.3708],[-38.7613,83.4851],[-40.3583,83.4671],[-69.8589,83.1321],[-69.8636,83.1083],[-69.8678,83.1094],[-69.97,83.1163],[-70.8706,83.0983],[-71.0849,83.0829],[-71.4236,83.021],[-71.4024,83.0014],[-71.1982,82.9697],[-70.9331,82.9115],[-70.9405,82.9025],[-71.132,82.9231],[-71.4062,82.975],[-71.9835,83.1014],[-72.0692,83.1062],[-72.8116,83.0813],[-73.3313,82.9988],[-73.4038,82.9771],[-73.4408,82.9459],[-73.4418,82.9046],[-73.2344,82.8442],[-72.7761,82.7559],[-72.6587,82.7215],[-73.272,82.7718],[-73.7032,82.8517],[-73.9165,82.9041],[-74.0557,82.9554],[-74.1975,82.9887],[-74.4139,83.0131],[-75.7448,83.0469],[-77.1248,83.0083],[-77.0412,82.9675],[-76.9084,82.9194],[-76.4099,82.8157],[-76.1877,82.758],[-76.0872,82.7236],[-75.6426,82.6437],[-75.5654,82.6088],[-75.7443,82.5723],[-76.0094,82.5352],[-76.1464,82.5501],[-76.2438,82.604],[-76.3353,82.6442],[-76.421,82.6707],[-77.2259,82.8374],[-77.4794,82.8829],[-77.618,82.8961],[-77.9689,82.9062],[-78.525,82.8914],[-79.1807,82.9332],[-79.8866,82.9385],[-80.1548,82.9109],[-80.1411,82.894],[-79.9744,82.8591],[-79.8336,82.8168],[-79.6421,82.785],[-79.2071,82.7326],[-78.7917,82.694],[-78.7489,82.6792],[-79.0351,82.6744],[-80.076,82.7062],[-80.657,82.7691],[-81.01,82.7792],[-81.128,82.7617],[-81.1783,82.7448],[-81.1465,82.7157],[-80.8094,82.5866],[-80.8623,82.5718],[-81.1888,82.5945],[-81.5799,82.6432],[-81.7852,82.649],[-82.117,82.6289],[-82.1223,82.6019],[-81.9588,82.5633],[-81.681,82.5188],[-81.718,82.5061],[-82.0233,82.4945],[-82.2689,82.4648],[-82.4514,82.4273],[-82.4477,82.395],[-82.2535,82.3363],[-81.9974,82.2781],[-81.4683,82.1923],[-80.13,82.0283],[-79.6294,81.9325],[-79.4246,81.8542],[-79.4659,81.851],[-79.6855,81.886],[-79.9088,81.9362],[-80.1533,81.9775],[-80.5501,82.0045],[-81.5847,82.1204],[-82.2768,82.2183],[-82.5366,82.2474],[-82.6382,82.2458],[-82.7086,82.2289],[-82.7472,82.1966],[-82.6573,82.1584],[-82.3276,82.0923],[-82.3562,82.0658],[-82.6335,82.0775],[-82.7742,82.095],[-83.0102,82.1415],[-83.1759,82.187],[-83.5907,82.3262],[-83.8236,82.3506],[-84.3681,82.3738],[-84.5533,82.3982],[-84.7448,82.4373],[-84.8967,82.4495],[-85.2761,82.405],[-85.4809,82.3664],[-85.7947,82.2918],[-85.9201,82.2828],[-86.1873,82.2479],[-86.6155,82.2188],[-86.5805,82.187],[-85.3105,82.0442],[-85.1692,82.0235],[-85.0523,81.9944],[-85.0449,81.9828],[-85.4031,81.9823],[-85.5381,81.9547],[-85.6455,81.9532],[-85.8746,81.9759],[-86.1582,82.0256],[-86.3773,82.0452],[-86.6266,82.051],[-86.834,82.0336],[-86.9991,81.9923],[-87.0181,81.959],[-87.2182,82.0002],[-87.4044,82.0542],[-87.6389,82.0849],[-88.0632,82.0966],[-88.567,82.0611],[-88.875,82.0183],[-89.1565,81.9553],[-89.3809,81.9166],[-89.6333,81.8944],[-90.163,81.8939],[-90.49,81.8775],[-90.9419,81.8272],[-91.2197,81.7875],[-91.424,81.7441],[-91.6478,81.6838],[-91.6838,81.6357],[-91.4028,81.578],[-91.2922,81.5711],[-91.1028,81.5917],[-90.834,81.6404],[-90.6265,81.6557],[-90.4805,81.6383],[-90.3307,81.6314],[-89.8217,81.6351],[-89.8449,81.6118],[-90.5535,81.4642],[-90.6091,81.4298],[-90.4165,81.4055],[-90.3037,81.4012],[-88.9782,81.5415],[-88.4792,81.5647],[-88.1014,81.5584],[-87.5971,81.5256],[-87.6166,81.5092],[-88.1268,81.5187],[-88.6221,81.5013],[-88.8924,81.4743],[-89.4269,81.3875],[-89.6735,81.3287],[-89.6359,81.3023],[-89.2089,81.2499],[-89.2623,81.2393],[-89.5634,81.2266],[-89.9471,81.1726],[-89.9809,81.1245],[-89.792,81.0647],[-89.6232,81.0324],[-89.3983,81.0255],[-88.8866,81.0583],[-87.2753,81.0806],[-86.6228,81.1229],[-85.8751,81.2414],[-85.4026,81.2853],[-85.2063,81.2949],[-84.9412,81.2864],[-85.0835,81.2467],[-85.8095,81.1234],[-86.4768,81.0356],[-86.9287,81.0007],[-87.3886,80.9885],[-88.413,80.9996],[-89.1671,80.9414],[-89.2634,80.9144],[-89.2116,80.8821],[-89.1443,80.8535],[-89.0618,80.8297],[-88.9216,80.8054],[-88.6252,80.7699],[-88.2321,80.7038],[-88.0035,80.6752],[-87.7119,80.6562],[-87.3298,80.6699],[-87.0801,80.7265],[-86.2334,80.9498],[-85.9667,81.0118],[-85.781,81.0351],[-84.6353,81.098],[-83.2886,81.1478],[-83.3494,81.1033],[-84.6798,81.0424],[-85.2465,80.988],[-85.6391,80.9244],[-86.2519,80.7895],[-86.4403,80.7281],[-86.6033,80.6641],[-86.6155,80.6302],[-86.5318,80.6048],[-86.2503,80.5657],[-86.0974,80.562],[-85.7264,80.581],[-85.3073,80.526],[-85.146,80.5212],[-84.4178,80.5265],[-84.2199,80.5376],[-84.0765,80.5561],[-83.8855,80.6017],[-83.6473,80.6741],[-83.4013,80.7138],[-82.7801,80.7361],[-82.4985,80.7625],[-82.2223,80.7726],[-82.3366,80.7287],[-82.7684,80.6308],[-82.8843,80.5773],[-82.6128,80.5588],[-82.3684,80.5614],[-81.5529,80.6228],[-81.301,80.6271],[-81.0068,80.6551],[-80.1337,80.7641],[-79.7611,80.8419],[-79.6066,80.8816],[-79.5452,80.9091],[-79.477,80.961],[-79.4024,81.0366],[-79.3092,81.089],[-79.1981,81.1176],[-79.0727,81.1277],[-78.9314,81.1192],[-78.7341,81.1509],[-78.352,81.2589],[-77.9726,81.3309],[-76.8851,81.4303],[-77.0306,81.3859],[-77.536,81.3213],[-78.2869,81.1679],[-78.4642,81.1144],[-78.6293,81.0435],[-78.6817,81.0012],[-78.716,80.9514],[-78.5509,80.9213],[-78.0038,80.9049],[-77.3894,80.9054],[-77.1185,80.8964],[-76.8502,80.8784],[-76.8629,80.8647],[-77.1693,80.843],[-77.5069,80.835],[-78.3864,80.7842],[-79.6294,80.6477],[-79.6744,80.6255],[-80.0511,80.5286],[-80.9798,80.445],[-82.5361,80.3757],[-82.7848,80.354],[-82.9869,80.3228],[-82.961,80.2778],[-82.6811,80.1752],[-82.3324,80.0661],[-81.8603,79.9571],[-81.6445,79.8905],[-81.3587,79.7878],[-81.1793,79.7333],[-81.01,79.6931],[-80.7142,79.6751],[-80.2877,79.6788],[-80.1247,79.6692],[-80.2707,79.6354],[-80.4761,79.6063],[-80.6676,79.601],[-81.038,79.6142],[-81.463,79.6539],[-81.6884,79.6857],[-81.8556,79.7227],[-82.0487,79.783],[-82.3768,79.9085],[-82.6774,79.9926],[-83.0044,80.0545],[-83.3436,80.1471],[-83.7235,80.2291],[-84.0564,80.2619],[-84.6755,80.2789],[-85.1597,80.272],[-86.3069,80.3191],[-86.4985,80.2582],[-86.6144,80.1233],[-86.4943,80.018],[-86.4207,79.8449],[-86.1466,79.7428],[-86.0313,79.7222],[-85.6741,79.7021],[-85.6788,79.6153],[-85.7508,79.5947],[-85.8037,79.573],[-85.9492,79.4862],[-86.0069,79.4793],[-86.0857,79.5513],[-86.1805,79.6052],[-86.2323,79.6222],[-86.3371,79.6349],[-86.6488,79.646],[-86.861,79.5978],[-86.925,79.591],[-87.243,79.5714],[-87.2954,79.5804],[-87.2203,79.6301],[-87.1441,79.6624],[-87.0494,79.8053],[-86.9774,79.8941],[-87.0764,79.9672],[-87.2023,80.0434],[-87.3282,80.0466],[-87.6516,80.0794],[-87.8606,80.0873],[-87.9225,80.0979],[-87.869,80.1339],[-87.6256,80.1873],[-87.6182,80.2074],[-87.6304,80.3016],[-87.6457,80.3482],[-87.6749,80.372],[-87.9601,80.4154],[-88.1252,80.4297],[-88.4241,80.4281],[-88.5247,80.418],[-88.6438,80.3868],[-88.6633,80.3482],[-88.6464,80.29],[-88.6125,80.2556],[-88.3808,80.2254],[-88.2553,80.1667],[-88.1966,80.1254],[-88.1998,80.1116],[-88.3294,80.1339],[-88.5374,80.1312],[-88.8575,80.1662],[-89.0194,80.1984],[-89.1983,80.263],[-89.2179,80.2894],[-89.1475,80.3604],[-89.1549,80.3784],[-89.1967,80.3942],[-89.2041,80.4069],[-89.1343,80.4403],[-89.1385,80.4572],[-89.1671,80.4794],[-89.2353,80.5106],[-89.329,80.5318],[-89.5248,80.5387],[-89.674,80.5307],[-89.7978,80.5011],[-89.8619,80.4985],[-90.2175,80.5482],[-90.5371,80.5757],[-90.6429,80.5937],[-90.6323,80.6419],[-90.6366,80.6551],[-90.6831,80.6879],[-91.0541,80.7779],[-91.2726,80.8504],[-91.7547,81.0493],[-91.8854,81.133],[-91.9976,81.1853],[-92.2119,81.2435],[-92.4125,81.2785],[-93.0348,81.3462],[-93.1152,81.351],[-93.3327,81.3642],[-93.6047,81.3504],[-94.0598,81.3494],[-94.1794,81.3393],[-94.2201,81.3309],[-94.2328,81.315],[-94.2312,81.2896],[-94.2185,81.2647],[-94.1947,81.2409],[-94.1106,81.225],[-93.8947,81.2134],[-93.4068,81.2092],[-93.2861,81.179],[-93.2353,81.1552],[-93.2359,81.1287],[-93.2867,81.1001],[-93.3449,81.0853],[-93.4438,81.0832],[-93.8259,81.106],[-94.2164,81.0573],[-94.5196,81.0313],[-94.9805,81.0499],[-95.27,81.0007],[-95.5092,80.8631],[-95.515,80.8382],[-95.1959,80.808],[-94.7884,80.7514],[-94.5963,80.6408],[-94.2021,80.6096],[-94.0285,80.5863],[-93.928,80.5593],[-94.4852,80.5583],[-94.7344,80.5726],[-94.8927,80.5709],[-95.0255,80.6466],[-95.226,80.6858],[-95.5055,80.6906],[-95.7134,80.7255],[-95.9272,80.7207],[-96.133,80.6916],[-96.1521,80.5535],[-95.9013,80.471],[-95.6145,80.3963],[-95.5488,80.3667],[-95.7473,80.3651],[-96.0119,80.3831],[-96.1124,80.3805],[-96.3347,80.353],[-96.3855,80.3328],[-96.3939,80.3148],[-96.3685,80.2931],[-96.3082,80.2672],[-96.2151,80.2461],[-96.0256,80.2217],[-95.9039,80.2143],[-95.6462,80.2307],[-95.4049,80.1349],[-95.1922,80.1344],[-94.59,80.2016],[-94.2624,80.1947],[-94.3042,80.1815],[-94.5826,80.1413],[-94.6069,80.1254],[-94.6127,80.1032],[-94.6,80.0736],[-94.6106,80.0556],[-94.6461,80.0487],[-95.3938,80.0534],[-95.7822,80.0667],[-96.7733,80.136],[-96.8464,80.1159],[-98.963,80.1688],[-98.9789,80.1021],[-99.0165,80.1111],[-99.153,80.1244],[-99.425,80.1265],[-99.7314,80.1439],[-99.8028,80.1402],[-100.0531,80.0931],[-100.0785,80.081],[-100.1203,80.0302],[-100.1261,80.0011],[-100.233,79.9571],[-103.6197,79.3751],[-103.6239,79.3417],[-103.7065,79.3523],[-103.9647,79.3481],[-104.8474,79.311],[-105.3876,79.3237],[-105.4358,79.302],[-105.5146,79.2422],[-105.5713,79.1644],[-105.5802,79.1142],[-105.5707,79.0607],[-105.6305,79.0046],[-110.393,78.793],[-110.4004,78.7549],[-110.4078,78.7564],[-110.6179,78.758],[-110.8777,78.7353],[-111.0714,78.7083],[-111.4006,78.6443],[-111.5196,78.603],[-111.7085,78.5749],[-112.2139,78.548],[-112.6409,78.4998],[-112.8558,78.467],[-113.15,78.4083],[-113.2817,78.3527],[-113.2923,78.3342],[-113.3034,78.3167],[-113.7797,77.9463],[-113.7834,77.905],[-113.8977,77.9156],[-114.0871,77.978],[-114.1808,77.9982],[-114.2798,78.0045],[-114.303,78.0326],[-114.2967,78.0632],[-114.3306,78.0775],[-114.6068,78.0405],[-114.7264,78.0156],[-114.7893,77.9929],[-114.8904,77.977],[-115.0296,77.9675],[-115.0285,77.9664],[-115.0497,77.9463],[-116.3197,77.5759],[-116.3266,77.5367],[-116.3626,77.5431],[-116.5113,77.5479],[-116.8351,77.5288],[-116.9473,77.5039],[-117.0399,77.4653],[-117.0457,77.4489],[-117.0298,77.4319],[-116.7663,77.3981],[-116.7039,77.3801],[-116.7954,77.3468],[-116.8436,77.3393],[-117.0616,77.3484],[-117.1489,77.361],[-117.2108,77.3314],[-117.2791,77.3134],[-117.4188,77.3177],[-118.0051,77.3811],[-118.82,77.3325],[-119.0904,77.3049],[-119.3238,77.2409],[-119.4947,77.1769],[-119.8312,77.0737],[-120.2001,76.9314],[-120.3107,76.9043],[-120.3578,76.8869],[-120.4377,76.8165],[-120.4853,76.7932],[-120.9975,76.6917],[-121.1018,76.661],[-121.2039,76.6223],[-121.5611,76.4535],[-121.614,76.4413],[-122.3654,76.4011],[-122.4231,76.39],[-122.5056,76.3583],[-122.512,76.3752],[-156.4115,71.3994],[-156.4702,71.4079],[-156.4702,71.4085],[-177.5035,71.2084],[-177.4982,71.219],[-177.5321,71.2629],[-177.584,71.2814],[-177.8168,71.3402],[-177.975,71.3904],[-178.0565,71.4376],[-178.1338,71.4656],[-178.2147,71.4815],[-178.3534,71.5291],[-178.4391,71.5413],[-178.8762,71.5772],[-178.9942,71.5931],[-179.1117,71.5963],[-179.2566,71.572],[-179.4022,71.5667],[-179.5466,71.5826],[-179.6911,71.5778],[-179.8451,71.5508],[-180.0,71.5376],[-180.0,90.0],[179.9999,90.0],[179.9999,71.5375],[179.8866,71.5233],[179.7157,71.4661],[179.5475,71.4476],[179.5279,71.4402],[156.0424,77.4701]],[[18.5252,80.2455],[18.7416,80.3011],[18.5194,80.3482],[18.2918,80.3582],[18.2056,80.3318],[18.1622,80.2884],[18.5252,80.2455]]]}}
