{"type":"Feature","properties":{"id":1,"name":"Southern Ocean","featurecla":"ocean","scalerank":0,"wikidataid":"Q7354","source":"Natural Earth 5.2.0-pre ne_10m_geography_marine_polys (public domain)"},"geometry":{"type":"Polygon","coordinates":[[[-57.6764,-61.9421],[-57.7378,-61.9214],[-57.8494,-61.9399],[-57.9785,-61.9119],[-58.2654,-61.9532],[-58.3992,-61.9384],[-58.6834,-62.0082],[-58.7093,-62.0447],[-58.9554,-62.1643],[-59.0035,-62.2098],[-58.8189,-62.1712],[-58.7575,-62.2051],[-58.9771,-62.2559],[-58.9623,-62.2638],[-58.8786,-62.268],[-58.8379,-62.3024],[-59.0596,-62.348],[-59.1744,-62.3019],[-59.3824,-62.3813],[-59.3533,-62.413],[-59.3893,-62.4442],[-59.5253,-62.4517],[-59.5412,-62.4421],[-60.0026,-62.6183],[-60.1397,-62.5485],[-60.5762,-62.5729],[-60.6249,-62.5602],[-60.7318,-62.4908],[-60.7995,-62.4749],[-60.8376,-62.5337],[-60.9747,-62.5919],[-61.1525,-62.5893],[-61.1498,-62.6342],[-61.0636,-62.6787],[-62.3442,-62.9179],[-62.4114,-62.9718],[-62.6151,-63.0692],[-63.4856,-64.2604],[-63.5343,-64.2731],[-63.6057,-64.3143],[-63.683,-64.3429],[-63.6681,-64.3842],[-63.6745,-64.4212],[-63.9163,-64.4572],[-63.8967,-64.4869],[-63.8671,-64.5096],[-64.1708,-64.5821],[-64.2264,-64.6355],[-64.2719,-64.6974],[-64.1835,-64.7096],[-64.0994,-64.7329],[-64.0073,-64.7683],[-63.8041,-64.7917],[-63.7602,-65.0335],[-63.9126,-65.0933],[-64.038,-65.179],[-64.0714,-65.2785],[-64.0513,-65.4171],[-63.9079,-65.4674],[-63.7978,-65.4806],[-63.8179,-65.5314],[-63.8623,-65.5557],[-64.0661,-65.5536],[-64.1322,-65.5706],[-64.1798,-65.6171],[-64.2137,-65.633],[-64.4391,-65.6404],[-64.4169,-65.6801],[-64.3899,-65.7087],[-64.4354,-65.7685],[-64.4746,-65.7812],[-64.6466,-65.7479],[-64.673,-65.814],[-64.6534,-65.8669],[-64.5476,-65.9003],[-64.5143,-65.9595],[-64.6138,-66.0193],[-64.7217,-65.9929],[-64.999,-65.9463],[-65.1048,-65.9579],[-65.2673,-65.9944],[-65.2223,-66.0685],[-65.172,-66.1167],[-65.3165,-66.1399],[-65.4652,-66.1294],[-65.617,-66.1352],[-65.7176,-66.2542],[-65.7747,-66.2881],[-65.7758,-66.3426],[-65.6784,-66.403],[-65.7181,-66.5734],[-65.7663,-66.6247],[-65.8472,-66.6501],[-65.9536,-66.6459],[-66.1817,-66.5924],[-66.3066,-66.5919],[-66.3711,-66.6088],[-66.5034,-66.6898],[-66.5267,-66.7406],[-66.4648,-66.8755],[-66.5018,-66.94],[-66.533,-66.9792],[-66.5151,-67.0623],[-66.4907,-67.1141],[-66.4722,-67.2428],[-66.4986,-67.2893],[-66.5516,-67.2629],[-66.6098,-67.2084],[-66.7574,-67.2327],[-66.8363,-67.2825],[-66.9024,-67.256],[-66.886,-67.1798],[-66.9289,-67.1438],[-66.9553,-66.9851],[-67.0347,-66.9454],[-67.1601,-66.9517],[-67.2993,-67.0708],[-67.4406,-67.0909],[-67.4935,-67.1125],[-67.5025,-67.1375],[-67.7083,-67.157],[-67.6877,-67.1475],[-67.7612,-67.1231],[-67.8279,-67.0819],[-67.8761,-67.0623],[-67.9491,-67.0448],[-67.9681,-67.0321],[-67.9692,-66.9819],[-67.9322,-66.8443],[-67.7406,-66.7464],[-67.6813,-66.7088],[-67.711,-66.6331],[-67.8306,-66.6241],[-67.9374,-66.657],[-68.3359,-66.802],[-68.4169,-66.8533],[-68.5746,-66.9924],[-68.6566,-67.0702],[-68.7333,-67.157],[-68.8201,-67.2337],[-69.0826,-67.4031],[-69.1328,-67.4528],[-69.1381,-67.5153],[-69.1371,-67.519],[-70.4007,-68.7959],[-70.4171,-68.789],[-71.3913,-68.8736],[-71.8692,-68.9409],[-95.6097,-72.1751],[-95.6092,-72.0682],[-95.6854,-72.0566],[-95.9066,-72.1222],[-96.4823,-72.2074],[-96.7178,-72.2555],[-96.7987,-72.2593],[-96.8903,-72.2471],[-96.9786,-72.2217],[-96.7151,-72.1317],[-96.2981,-72.045],[-96.1251,-71.8957],[-96.3833,-71.8364],[-96.8696,-71.8513],[-97.0887,-71.9439],[-97.1549,-72.0455],[-97.1956,-72.0909],[-97.2422,-72.1317],[-97.3454,-72.1889],[-97.4602,-72.1884],[-97.5258,-72.1492],[-97.5819,-72.0952],[-97.4734,-72.0005],[-97.5846,-71.8825],[-97.8158,-71.919],[-97.9232,-72.1164],[-98.1682,-72.1232],[-98.1761,-72.0185],[-98.091,-71.9127],[-98.1894,-71.8201],[-98.3942,-71.7814],[-98.6154,-71.7639],[-98.9646,-71.8544],[-99.0821,-71.9328],[-99.2541,-71.9725],[-99.5631,-71.9449],[-99.7351,-72.0328],[-99.7837,-72.0444],[-99.833,-72.046],[-99.9854,-71.9396],[-100.0849,-71.837],[-100.2187,-71.8327],[-100.4008,-71.8655],[-102.128,-71.9857],[-102.128,-71.9391],[-180.0,-71.9391],[-180.0,-60.5335],[-45.9384,-60.5335],[-45.9564,-60.5683],[-45.9548,-60.5975],[-45.9373,-60.6197],[-45.7802,-60.5858],[-45.7093,-60.6456],[-45.3981,-60.6498],[-45.1737,-60.7329],[-45.1727,-60.6985],[-45.1865,-60.6721],[-45.2108,-60.6483],[-45.2283,-60.6398],[-45.3574,-60.6239],[-45.3865,-60.5827],[-45.4997,-60.5467],[-45.6109,-60.5335],[179.9999,-60.5335],[179.9999,-71.9391],[170.7299,-71.9391],[170.8591,-71.8687],[170.7797,-71.7449],[170.6035,-71.6042],[170.4357,-71.4189],[170.277,-71.4438],[170.2505,-71.5687],[170.1622,-71.6306],[169.9769,-71.5808],[169.6637,-71.5116],[168.7979,-71.275],[168.3831,-71.1972],[168.1725,-71.1835],[167.9661,-71.0925],[167.8783,-71.0131],[167.7989,-70.9247],[167.6401,-70.8543],[167.5692,-70.8104],[167.229,-70.7712],[166.6268,-70.6643],[166.132,-70.6326],[165.8537,-70.6453],[165.2092,-70.5707],[164.716,-70.5564],[164.4032,-70.5104],[163.9984,-70.6363],[163.5666,-70.6421],[163.3486,-70.621],[163.0264,-70.5013],[162.675,-70.3045],[162.2162,-70.3342],[162.022,-70.44],[162.0394,-70.6252],[162.2866,-70.9692],[162.2776,-71.0221],[162.1897,-71.0395],[161.9161,-70.9072],[161.6251,-70.9162],[161.4245,-70.8268],[161.0372,-70.3172],[160.8266,-70.1823],[160.652,-70.0807],[160.2096,-69.9748],[160.126,-69.8399],[160.126,-69.734],[159.9307,-69.6303],[159.7841,-69.5219],[159.3862,-69.4684],[158.6469,-69.3203],[158.4326,-69.2996],[158.158,-69.2091],[157.9325,-69.1805],[157.7759,-69.2049],[157.4812,-69.3086],[157.0462,-69.1763],[156.4885,-69.1832],[156.0112,-69.0779],[155.5201,-69.0245],[155.164,-68.8948],[154.9872,-68.8414],[154.866,-68.7741],[154.5761,-68.6345],[154.1998,-68.418],[154.0316,-68.3498],[153.9083,-68.3233],[153.7844,-68.3498],[153.7924,-68.4932],[153.767,-68.6408],[153.7051,-68.7286],[153.4955,-68.7641],[153.3399,-68.8181],[153.0816,-68.8567],[152.814,-68.7678],[152.5457,-68.7297],[152.2652,-68.7255],[151.5619,-68.6937],[151.4476,-68.7641],[151.2889,-68.817],[151.1386,-68.7641],[151.1211,-68.6228],[151.0682,-68.3847],[150.9359,-68.3582],[150.6719,-68.4027],[150.3422,-68.436],[150.0654,-68.4202],[149.7167,-68.418],[149.2627,-68.4313],[148.8807,-68.4313],[148.4562,-68.4672],[147.5688,-68.3752],[147.354,-68.3841],[147.0936,-68.3688],[146.7978,-68.2736],[146.8783,-68.191],[146.8968,-68.1201],[146.8524,-68.0407],[146.828,-67.9645],[146.2766,-67.7507],[145.975,-67.6243],[145.5564,-67.5909],[145.1278,-67.6258],[144.8791,-67.7211],[144.4044,-67.7942],[144.1891,-67.9],[143.9774,-67.8645],[143.9419,-67.7942],[144.1536,-67.6438],[144.2594,-67.4788],[144.5156,-67.2825],[144.6214,-67.1411],[144.5505,-67.0353],[144.3478,-67.0179],[144.1176,-67.0877],[143.9112,-67.0909],[143.8626,-66.9385],[143.7303,-66.8765],[143.4482,-66.8765],[143.1688,-66.9485],[142.8884,-66.9998],[142.6872,-67.0125],[142.3264,-66.9485],[142.1592,-66.8734],[141.9729,-66.8067],[141.5173,-66.794],[141.286,-66.8316],[140.9019,-66.7522],[139.9002,-66.7152],[139.6134,-66.6374],[139.2419,-66.5739],[138.3767,-66.5405],[138.2709,-66.5644],[138.1402,-66.5437],[137.9258,-66.4569],[137.7538,-66.4066],[137.3364,-66.3463],[136.8891,-66.3395],[136.7394,-66.4077],[136.5531,-66.4389],[136.1939,-66.2923],[136.0092,-66.267],[135.5547,-66.1802],[135.352,-66.1273],[134.9715,-66.33],[134.7699,-66.3532],[134.3978,-66.4797],[134.2894,-66.4765],[134.2317,-66.3474],[134.1788,-66.277],[133.9576,-66.2045],[133.8428,-66.1537],[133.4443,-66.0818],[133.1485,-66.095],[132.8744,-66.1781],[132.3204,-66.1654],[131.8309,-66.2357],[131.2319,-66.2156],[130.9519,-66.1913],[130.5784,-66.2088],[126.4239,-66.4622],[126.0773,-66.3955],[125.8656,-66.3643],[125.6031,-66.3934],[125.3978,-66.4246],[125.2862,-66.5157],[125.0951,-66.6411],[124.8216,-66.6945],[124.5977,-66.7083],[124.3707,-66.6522],[124.1961,-66.6008],[123.9691,-66.6083],[123.6664,-66.6771],[123.2219,-66.7453],[122.6329,-66.8051],[122.1826,-66.8596],[122.0328,-66.902],[121.6132,-67.057],[121.4878,-67.0909],[120.9787,-67.1358],[120.4004,-67.2358],[119.133,-67.3708],[118.9219,-67.3195],[119.2807,-67.1994],[119.9537,-67.0761],[120.3749,-66.984],[120.2892,-66.9665],[120.1871,-66.966],[119.768,-66.9914],[119.3182,-67.0708],[118.9648,-67.1448],[118.7139,-67.1718],[118.5192,-67.1607],[118.326,-67.1152],[118.1387,-67.0824],[117.9519,-67.0856],[117.745,-67.1285],[117.2979,-67.1094],[117.1317,-67.1141],[116.9237,-67.0554],[116.7137,-67.047],[116.5089,-67.1078],[116.2146,-67.1427],[115.885,-67.202],[115.3844,-67.238],[115.1717,-67.3078],[114.9256,-67.3565],[114.6578,-67.3877],[114.3192,-67.4057],[114.0266,-67.4412],[113.9123,-67.3676],[113.9911,-67.2121],[114.2599,-67.1724],[114.5706,-67.1084],[115.2738,-67.0279],[115.4421,-66.958],[115.6352,-66.7713],[115.3103,-66.5606],[115.0823,-66.4929],[114.8695,-66.477],[114.6187,-66.468],[114.3372,-66.3601],[113.9546,-66.0606],[113.7096,-65.9294],[113.5021,-65.8865],[113.3677,-65.8489],[113.0995,-65.7997],[112.9645,-65.8113],[108.8762,-64.0466],[99.5015,-63.155],[92.6355,-63.32],[85.4193,-65.0726],[83.7386,-67.3518],[83.4936,-67.4412],[83.3042,-67.6031],[83.1576,-67.6105],[82.6068,-67.6132],[82.2734,-67.6915],[82.0172,-67.6899],[81.1875,-67.8312],[80.3631,-67.9471],[79.2878,-68.119],[79.1386,-68.1524],[69.5797,-67.7852],[69.5591,-67.7635],[69.4162,-67.7428],[69.167,-67.8249],[68.8998,-67.8619],[68.3277,-67.8894],[68.0986,-67.8539],[67.5022,-67.81],[67.1747,-67.7682],[66.4883,-67.7656],[65.7073,-67.7163],[64.5738,-67.6206],[63.9314,-67.5259],[63.6991,-67.5084],[63.2377,-67.5269],[63.0175,-67.5618],[62.6879,-67.6475],[62.1741,-67.5756],[61.3088,-67.5401],[61.012,-67.4994],[60.4818,-67.3851],[59.8674,-67.4031],[59.6504,-67.4586],[59.2509,-67.4851],[58.7376,-67.2295],[58.3175,-67.1628],[58.027,-67.1036],[57.828,-67.0411],[57.6275,-67.0142],[57.3613,-67.0528],[56.8919,-67.0565],[56.7601,-67.0734],[56.5622,-67.1157],[56.3659,-67.2126],[56.1548,-67.2644],[55.8029,-67.1994],[56.3913,-66.9739],[56.4797,-66.8591],[56.4532,-66.7797],[56.2918,-66.721],[56.1458,-66.6263],[56.2945,-66.6035],[56.5099,-66.6591],[56.8236,-66.7125],[56.9866,-66.7046],[57.1856,-66.613],[57.0004,-66.4749],[56.8596,-66.4236],[56.3617,-66.3728],[55.9743,-66.2093],[55.7103,-66.0802],[55.5044,-66.0024],[55.2907,-65.9542],[54.9477,-65.9161],[53.6719,-65.8585],[52.9555,-65.9452],[52.3781,-65.969],[51.8844,-66.0198],[51.6876,-66.0722],[50.9367,-66.3156],[50.5885,-66.3564],[50.3324,-66.4448],[50.2445,-66.6035],[50.3059,-66.7533],[50.5207,-66.82],[50.5091,-66.9385],[50.6059,-67.1502],[50.553,-67.194],[50.2932,-67.1724],[50.0064,-67.175],[49.4888,-67.0311],[49.2471,-66.9416],[48.8301,-66.9385],[48.4654,-67.0432],[48.5983,-67.1713],[48.7136,-67.2168],[48.9232,-67.1999],[49.2195,-67.2269],[49.0529,-67.3523],[48.6306,-67.5206],[48.62,-67.6253],[48.648,-67.7942],[48.5512,-67.9264],[48.3744,-67.9878],[48.3215,-67.9175],[48.3215,-67.7852],[48.2099,-67.6994],[47.9585,-67.6603],[47.7035,-67.7163],[47.4897,-67.728],[47.314,-67.665],[47.1172,-67.5724],[47.2315,-67.4682],[47.4029,-67.4094],[47.3516,-67.3618],[47.1542,-67.357],[46.8838,-67.275],[46.5599,-67.2681],[46.4541,-67.3036],[46.3176,-67.402],[46.3197,-67.4767],[46.4366,-67.5332],[46.3991,-67.6174],[46.1541,-67.6571],[45.8879,-67.6597],[45.5693,-67.7364],[45.1968,-67.7312],[44.9894,-67.7692],[44.6999,-67.9042],[44.3729,-67.9613],[44.1776,-67.9724],[43.5543,-68.0455],[43.1711,-68.0598],[42.9611,-68.0952],[42.8198,-68.1233],[42.4086,-68.3519],[41.8244,-68.4328],[41.3566,-68.5148],[41.1328,-68.5752],[40.8169,-68.7233],[40.6523,-68.7307],[40.6523,-68.7286],[34.2007,-68.7286],[34.1928,-68.7022],[33.8536,-68.6831],[33.4657,-68.6704],[33.1217,-68.6889],[32.7762,-68.7831],[32.6418,-68.8689],[32.5677,-69.0742],[32.7381,-69.2546],[32.9032,-69.3785],[32.9762,-69.5171],[32.9894,-69.624],[32.9117,-69.7335],[32.8101,-69.9092],[32.6211,-70.0007],[32.4566,-70.0262],[32.1597,-70.0997],[31.3787,-70.2256],[31.0627,-70.2246],[30.8342,-70.2463],[30.0034,-70.3003],[29.4636,-70.4061],[28.9117,-70.5834],[28.3862,-70.6818],[27.6978,-70.7723],[27.5088,-70.8136],[27.2067,-70.9109],[26.9178,-70.9538],[26.7543,-70.9676],[26.4987,-71.0194],[25.9743,-71.0374],[25.6499,-70.9908],[25.1874,-70.9713],[24.7567,-70.8919],[24.5884,-70.8204],[24.3857,-70.7046],[24.3857,-70.5368],[24.236,-70.4484],[24.0243,-70.4135],[23.8036,-70.4045],[23.665,-70.5749],[23.4068,-70.7231],[23.1501,-70.7961],[22.9792,-70.8104],[22.4453,-70.7395],[22.2781,-70.6956],[22.2336,-70.6427],[22.3966,-70.5612],[22.3659,-70.4749],[22.2156,-70.4172],[21.9622,-70.3003],[21.8489,-70.277],[21.705,-70.2584],[21.3372,-70.495],[21.1859,-70.6807],[21.071,-70.8432],[20.1281,-70.9178],[19.9444,-70.9104],[19.6518,-70.9205],[19.4094,-70.9168],[19.265,-70.9024],[19.1528,-70.8209],[19.0263,-70.6739],[19.1321,-70.4918],[19.1962,-70.2934],[19.0094,-70.2119],[18.8771,-70.2013],[18.6273,-70.2696],[18.4326,-70.2897],[18.3511,-70.4156],[18.232,-70.5183],[18.1246,-70.5405],[17.1668,-70.4511],[16.7091,-70.3971],[16.5848,-70.204],[16.381,-70.1452],[16.0254,-70.1934],[15.8069,-70.3241],[15.5629,-70.331],[15.0639,-70.295],[14.4919,-70.2997],[13.8225,-70.3431],[13.5325,-70.2875],[13.2981,-70.2294],[13.0658,-70.0537],[12.626,-70.0659],[12.5954,-70.1172],[12.7234,-70.1436],[12.8647,-70.1622],[12.9293,-70.2135],[12.6822,-70.3087],[12.4615,-70.3701],[12.3091,-70.4431],[12.0678,-70.6167],[11.8334,-70.7363],[11.7011,-70.7665],[11.2036,-70.7289],[10.9687,-70.6876],[10.2178,-70.5077],[9.8855,-70.4029],[9.6135,-70.269],[9.1415,-70.1838],[8.8176,-70.3907],[8.5229,-70.4738],[8.3064,-70.4616],[7.6768,-70.3564],[7.4011,-70.4945],[6.9507,-70.5352],[6.5079,-70.5865],[5.6437,-70.6363],[5.1129,-70.6559],[3.5069,-70.8443],[2.6095,-70.9003],[1.9089,-71.0035],[1.5522,-71.0803],[0.8352,-71.2025],[0.5383,-71.2745],[0.1541,-71.3978],[-0.1845,-71.5586],[-0.3269,-71.6417],[-0.5433,-71.7126],[-0.7597,-71.63],[-0.8402,-71.5396],[-0.8957,-71.3491],[-1.0677,-71.2655],[-1.2164,-71.284],[-1.354,-71.3866],[-1.5006,-71.4126],[-2.0144,-71.4332],[-2.2615,-71.357],[-2.6102,-71.3205],[-2.8119,-71.321],[-3.2394,-71.3602],[-3.713,-71.3745],[-3.9951,-71.339],[-4.2533,-71.3385],[-4.4502,-71.3279],[-5.9498,-71.3417],[-6.1176,-71.3258],[-6.1266,-71.2655],[-6.0805,-71.1544],[-5.9038,-71.0517],[-5.7085,-70.9681],[-5.5879,-70.857],[-5.6948,-70.7453],[-5.936,-70.7125],[-6.2451,-70.7559],[-6.5472,-70.8167],[-6.8383,-70.8443],[-7.0314,-70.8353],[-7.3881,-70.7871],[-7.6199,-70.8289],[-7.7527,-70.8427],[-7.8548,-70.8845],[-7.8733,-70.9406],[-7.7569,-71.0173],[-7.6177,-71.1215],[-7.5902,-71.2237],[-7.6691,-71.3242],[-7.7135,-71.5464],[-7.9157,-71.6354],[-8.2162,-71.647],[-8.4977,-71.6751],[-8.6464,-71.6729],[-8.9661,-71.3612],[-9.2306,-71.1739],[-9.4021,-71.1178],[-9.5995,-71.0956],[-9.8879,-71.0273],[-10.0985,-70.9263],[-10.2705,-70.9358],[-10.3599,-70.9824],[-10.3308,-71.0242],[-10.1223,-71.0607],[-10.0334,-71.1305],[-10.0392,-71.1327],[-61.0662,-71.1327],[-61.2514,-71.0025],[-61.3128,-70.8676],[-61.5134,-70.8511],[-61.7023,-70.857],[-61.961,-70.9009],[-62.0404,-70.8014],[-61.9944,-70.7289],[-61.8092,-70.7088],[-61.6965,-70.676],[-61.6054,-70.6167],[-61.4917,-70.5702],[-61.5049,-70.4908],[-62.0007,-70.4971],[-62.2325,-70.4246],[-62.378,-70.3649],[-62.3315,-70.2791],[-62.2177,-70.2331],[-62.014,-70.2791],[-61.9346,-70.1997],[-61.961,-70.1204],[-62.2023,-70.0278],[-62.4071,-69.8272],[-62.4505,-69.5843],[-62.5871,-69.4774],[-62.84,-69.3716],[-62.994,-69.3287],[-63.0945,-69.253],[-63.3014,-69.1408],[-63.4559,-69.0419],[-63.4782,-68.9514],[-63.3438,-68.8107],[-63.4427,-68.7641],[-63.747,-68.7048],[-63.7734,-68.6318],[-63.7073,-68.5921],[-63.3475,-68.4995],[-63.1146,-68.4704],[-62.9797,-68.4863],[-62.9331,-68.4424],[-63.0564,-68.4207],[-63.2168,-68.4191],[-63.7967,-68.4699],[-63.9243,-68.4974],[-64.1693,-68.5826],[-64.1571,-68.6868],[-64.0782,-68.771],[-64.4291,-68.7461],[-64.8984,-68.6731],[-65.1583,-68.618],[-65.2419,-68.5831],[-65.1403,-68.4895],[-65.0546,-68.4493],[-64.9963,-68.408],[-65.0895,-68.3704],[-65.3313,-68.364],[-65.452,-68.3366],[-65.3652,-68.2873],[-64.8958,-68.1682],[-64.8297,-68.1275],[-64.8535,-68.0831],[-64.8847,-68.0566],[-64.9588,-68.0677],[-65.2181,-68.1402],[-65.3874,-68.1503],[-65.5461,-68.1465],[-65.6393,-68.1307],[-65.5509,-68.0481],[-65.4694,-68.0095],[-65.5276,-67.9301],[-65.6001,-67.8756],[-65.589,-67.8164],[-65.5742,-67.7883],[-65.4181,-67.6597],[-65.4467,-67.61],[-65.471,-67.5878],[-65.5038,-67.528],[-65.5234,-67.4444],[-65.5033,-67.3771],[-65.443,-67.3263],[-65.3503,-67.311],[-65.2488,-67.3422],[-65.0794,-67.3354],[-64.8191,-67.3073],[-64.8265,-67.2692],[-64.8582,-67.2428],[-65.027,-67.2142],[-64.9508,-67.1835],[-64.8386,-67.156],[-64.7857,-67.1237],[-64.854,-67.1046],[-64.8783,-67.0247],[-64.7931,-66.9718],[-64.7355,-66.894],[-64.6863,-66.8062],[-64.6069,-66.7999],[-64.554,-66.8517],[-64.401,-66.8533],[-64.0428,-66.9273],[-63.8396,-66.912],[-63.7549,-66.8729],[-63.7692,-66.803],[-63.8089,-66.7607],[-64.0777,-66.6543],[-64.0153,-66.6067],[-63.9645,-66.5887],[-63.8803,-66.5061],[-63.7555,-66.4088],[-63.6544,-66.3829],[-63.6877,-66.3199],[-63.7523,-66.2776],[-63.5867,-66.2415],[-63.4485,-66.2437],[-63.2575,-66.2638],[-63.1797,-66.3527],[-62.9966,-66.4527],[-62.7045,-66.6802],[-62.6289,-66.7062],[-62.5368,-66.7072],[-62.5431,-66.621],[-62.6553,-66.5559],[-62.6373,-66.5114],[-62.6177,-66.4897],[-62.6156,-66.4358],[-62.6505,-66.3638],[-62.7548,-66.3104],[-62.6823,-66.2374],[-62.5828,-66.2178],[-62.4939,-66.2193],[-62.2415,-66.1971],[-62.1166,-66.2088],[-61.8753,-66.2961],[-61.842,-66.403],[-61.7563,-66.4294],[-61.6965,-66.3432],[-61.6758,-66.2495],[-61.5261,-66.2257],[-61.4319,-66.1447],[-61.2932,-66.1648],[-61.1498,-66.2119],[-61.1345,-66.2903],[-61.0286,-66.3368],[-60.9424,-66.2638],[-60.9027,-66.1913],[-61.0091,-66.1103],[-60.9556,-66.0722],[-60.8567,-66.0654],[-60.744,-66.1051],[-60.6249,-66.0326],[-60.5656,-65.9796],[-60.6185,-65.9331],[-60.8127,-65.9341],[-60.9128,-65.9209],[-60.9879,-65.9405],[-61.0392,-65.9918],[-61.1377,-65.9886],[-61.198,-65.9743],[-61.2663,-65.9802],[-61.3594,-66.059],[-61.5748,-66.0717],[-61.625,-66.095],[-61.8388,-66.1193],[-62.005,-66.113],[-62.169,-66.0315],[-62.2933,-65.9166],[-62.305,-65.8405],[-62.2224,-65.7748],[-62.1505,-65.6986],[-61.9912,-65.5891],[-61.7563,-65.5695],[-61.7959,-65.523],[-61.9034,-65.5134],[-62.0536,-65.4568],[-62.1452,-65.3319],[-62.0849,-65.2732],[-62.0246,-65.2325],[-61.9478,-65.1922],[-61.8557,-65.2356],[-61.6636,-65.2388],[-61.5774,-65.1859],[-61.7361,-65.0335],[-61.7033,-64.9875],[-61.6033,-64.988],[-61.5028,-64.9996],[-61.4393,-65.0176],[-61.3319,-65.0239],[-61.0599,-64.9811],[-60.9154,-64.907],[-60.6598,-64.7292],[-60.5561,-64.6763],[-60.3936,-64.6096],[-60.3407,-64.5509],[-60.2423,-64.5467],[-59.9629,-64.4313],[-59.8502,-64.4334],[-59.765,-64.4514],[-59.7343,-64.5588],[-59.6459,-64.5837],[-59.5734,-64.5308],[-59.6121,-64.4403],[-59.547,-64.3588],[-59.4607,-64.3456],[-59.3697,-64.4038],[-59.2295,-64.4435],[-59.0506,-64.4514],[-58.8919,-64.5377],[-58.786,-64.5244],[-58.8061,-64.4451],[-58.8956,-64.3889],[-58.9051,-64.3525],[-58.8194,-64.3392],[-58.7993,-64.2927],[-58.9231,-64.2794],[-58.9771,-64.2656],[-59.0474,-64.2344],[-59.0051,-64.1947],[-58.839,-64.1868],[-58.7231,-64.0773],[-58.5321,-63.9153],[-58.2632,-63.7635],[-57.8568,-63.6566],[-57.7367,-63.6169],[-57.5817,-63.5465],[-57.4605,-63.5137],[-57.2837,-63.4904],[-57.1525,-63.4793],[-57.0975,-63.5238],[-57.1525,-63.5719],[-57.1192,-63.6381],[-56.9736,-63.6248],[-56.835,-63.6312],[-56.7821,-63.5719],[-56.9276,-63.5058],[-57.0208,-63.3729],[-57.0768,-63.2623],[-57.1684,-63.2348],[-56.4646,-63.4153],[-56.463,-63.4179],[-56.3783,-63.4375],[-56.0831,-63.3825],[-56.009,-63.3417],[-55.8306,-63.2984],[-55.7502,-63.2968],[-55.5936,-63.3359],[-55.3279,-63.346],[-55.157,-63.3528],[-55.075,-63.3242],[-54.1839,-61.2695],[-54.7099,-61.1399],[-54.6707,-61.1171],[-55.3872,-61.0727],[-55.3999,-61.0806],[-55.3692,-61.1462],[-55.0749,-61.1768],[-55.1655,-61.2203],[-55.2972,-61.2484],[-55.2999,-61.2462],[-57.4234,-61.9299],[-57.6547,-61.9728],[-57.6764,-61.9421]],[[164.7462,-67.5687],[164.8334,-67.5407],[164.8604,-67.5041],[164.9186,-67.4475],[164.907,-67.4184],[164.8504,-67.3639],[164.8249,-67.3258],[164.6842,-67.2591],[164.6752,-67.2888],[164.6964,-67.4078],[164.6392,-67.4999],[164.6921,-67.5603],[164.7462,-67.5687]],[[162.3262,-66.3474],[162.3029,-66.3998],[162.5115,-66.5199],[162.557,-66.5252],[162.6114,-66.4775],[162.5633,-66.4326],[162.3104,-66.2511],[162.3019,-66.2648],[162.2971,-66.3035],[162.3262,-66.3474]],[[48.3009,-66.7241],[48.294,-66.7501],[48.2961,-66.7739],[48.3046,-66.7977],[48.3782,-66.8072],[48.5459,-66.7839],[48.7745,-66.7781],[48.7856,-66.7676],[48.7824,-66.731],[48.7512,-66.7194],[48.6379,-66.7009],[48.3575,-66.7035],[48.3009,-66.7241]],[[26.3013,-70.0727],[25.9827,-70.1997],[25.9542,-70.2617],[25.9642,-70.2945],[26.0055,-70.3728],[26.3574,-70.4341],[26.4701,-70.4479],[26.6087,-70.4124],[26.7929,-70.4193],[26.8575,-70.3812],[26.8749,-70.3299],[26.7374,-70.1859],[26.686,-70.1145],[26.6051,-70.078],[26.4257,-70.0606],[26.3013,-70.0727]],[[15.6989,-69.7732],[15.5968,-69.8282],[15.5624,-69.8627],[15.5709,-69.8849],[15.6138,-69.9388],[15.6635,-69.9553],[15.845,-69.9822],[16.1593,-70.0722],[16.2228,-70.0077],[16.3154,-69.8447],[16.6255,-69.7505],[16.5736,-69.7235],[16.2472,-69.7049],[15.9096,-69.7282],[15.6989,-69.7732]],[[4.1298,-70.4167],[4.1795,-70.4511],[4.3652,-70.5024],[4.5261,-70.4786],[4.5901,-70.4325],[4.6176,-70.3685],[4.5864,-70.2945],[4.4949,-70.2516],[4.2562,-70.241],[4.1118,-70.2669],[4.07,-70.2902],[4.0763,-70.3252],[4.1298,-70.4167]],[[3.0719,-70.3817],[2.6317,-70.5003],[2.5846,-70.5347],[2.6227,-70.5934],[2.6979,-70.6236],[3.037,-70.5971],[3.1709,-70.5537],[3.2212,-70.5194],[3.2598,-70.449],[3.2307,-70.4029],[3.1926,-70.3929],[3.0719,-70.3817]],[[1.3151,-70.023],[1.0267,-70.05],[0.9495,-70.0939],[0.9526,-70.169],[0.9902,-70.2241],[1.1045,-70.304],[1.1563,-70.3781],[1.2114,-70.3812],[1.2992,-70.2553],[1.4612,-70.1357],[1.4125,-70.041],[1.3151,-70.023]],[[-3.4892,-70.7358],[-3.0071,-70.8516],[-2.9748,-70.8834],[-2.9632,-70.9406],[-2.8007,-70.9824],[-2.805,-71.0146],[-2.8219,-71.0564],[-2.8251,-71.1126],[-2.7833,-71.1676],[-2.6065,-71.1411],[-2.3689,-71.0443],[-2.2933,-70.9982],[-2.2129,-70.9014],[-2.1192,-70.8554],[-2.0922,-70.8209],[-2.2557,-70.7961],[-2.4234,-70.8003],[-2.533,-70.7675],[-2.7499,-70.694],[-3.0399,-70.6744],[-3.5368,-70.6834],[-3.5749,-70.703],[-3.4892,-70.7358]],[[-3.4421,-70.5357],[-3.2802,-70.5336],[-2.7383,-70.5072],[-2.6827,-70.4622],[-2.6843,-70.376],[-2.7134,-70.3204],[-2.805,-70.2886],[-2.95,-70.2796],[-3.1733,-70.3071],[-3.2876,-70.3442],[-3.4966,-70.4881],[-3.4902,-70.5083],[-3.4421,-70.5357]],[[-3.2632,-71.0517],[-3.3987,-71.0623],[-3.3918,-71.0813],[-3.404,-71.1199],[-3.3855,-71.1433],[-3.3093,-71.2009],[-3.2013,-71.23],[-3.0606,-71.2369],[-2.9547,-71.2136],[-3.1913,-71.0951],[-3.213,-71.076],[-3.2632,-71.0517]],[[-6.1562,-70.6114],[-5.8943,-70.5521],[-5.9493,-70.432],[-5.9715,-70.4214],[-6.0683,-70.4045],[-6.2435,-70.4458],[-6.4382,-70.4526],[-6.2663,-70.5501],[-6.1811,-70.5855],[-6.1562,-70.6114]],[[-56.2355,-63.4687],[-56.1783,-63.5132],[-55.9566,-63.5798],[-55.8724,-63.5354],[-55.719,-63.492],[-55.7619,-63.4222],[-55.8582,-63.4073],[-56.2101,-63.437],[-56.2355,-63.4687]],[[-57.3144,-64.4355],[-57.3658,-64.4387],[-57.4457,-64.4598],[-57.4478,-64.4884],[-57.4335,-64.5403],[-57.3261,-64.5705],[-57.2404,-64.5668],[-56.9911,-64.4678],[-56.9451,-64.427],[-56.9519,-64.3815],[-56.8948,-64.3329],[-57.0223,-64.3525],[-57.3144,-64.4355]],[[-57.8314,-63.8037],[-57.9256,-63.8063],[-57.9706,-63.8349],[-58.0706,-63.8476],[-58.1457,-63.8778],[-58.2749,-63.9164],[-58.3421,-63.9942],[-58.4252,-64.0678],[-58.4378,-64.1132],[-58.3976,-64.1349],[-58.3521,-64.1307],[-58.2505,-64.1069],[-58.1473,-64.0974],[-58.1622,-64.1609],[-58.1378,-64.2064],[-58.0198,-64.2418],[-58.3045,-64.3143],[-58.214,-64.3699],[-58.1696,-64.3683],[-58.0214,-64.3218],[-57.9711,-64.3202],[-57.9209,-64.3313],[-57.9521,-64.3943],[-57.9097,-64.4101],[-57.8717,-64.4011],[-57.823,-64.3022],[-57.7034,-64.2932],[-57.6706,-64.3112],[-57.6833,-64.3572],[-57.5806,-64.3503],[-57.388,-64.3789],[-57.2948,-64.3667],[-57.3383,-64.318],[-57.4139,-64.2958],[-57.3277,-64.2376],[-57.2224,-64.2212],[-57.2726,-64.1662],[-57.2493,-64.0969],[-57.5171,-64.0106],[-57.4795,-63.9614],[-57.5928,-63.9672],[-57.7102,-64.0154],[-57.7409,-64.0476],[-57.7738,-64.0614],[-57.8087,-64.0678],[-57.8463,-64.054],[-57.8267,-63.9492],[-57.7806,-63.9069],[-57.7796,-63.8682],[-57.8314,-63.8037]],[[-60.4492,-70.6035],[-60.4524,-70.5442],[-60.5535,-70.5088],[-60.8837,-70.5178],[-60.9419,-70.5326],[-60.9757,-70.5993],[-60.9583,-70.6289],[-60.8964,-70.6897],[-60.826,-70.7104],[-60.7408,-70.7104],[-60.4879,-70.6468],[-60.4492,-70.6035]],[[-60.6524,-71.0586],[-60.5524,-71.0528],[-60.536,-71.0411],[-60.5164,-70.9993],[-60.5334,-70.9628],[-60.6132,-70.9199],[-60.7826,-70.9141],[-60.889,-70.9342],[-60.9466,-70.9676],[-60.9064,-71.0072],[-60.79,-71.0411],[-60.6524,-71.0586]],[[-62.0854,-69.7293],[-61.9976,-69.7219],[-61.97,-69.6912],[-61.9076,-69.5875],[-61.9113,-69.5335],[-61.807,-69.5145],[-61.7838,-69.442],[-61.816,-69.3763],[-61.9785,-69.3007],[-62.1177,-69.2149],[-62.2389,-69.1758],[-62.442,-69.1462],[-62.5156,-69.1546],[-62.5675,-69.1805],[-62.496,-69.288],[-62.2161,-69.4949],[-62.1717,-69.6367],[-62.0854,-69.7293]],[[-65.6366,-65.5478],[-65.8335,-65.5272],[-65.9684,-65.5711],[-65.9996,-65.633],[-66.0668,-65.6664],[-66.0494,-65.7447],[-66.1536,-65.7738],[-66.1817,-65.8262],[-66.1753,-65.8664],[-66.0637,-65.8807],[-65.8451,-65.8425],[-65.8356,-65.814],[-65.8409,-65.7383],[-65.8139,-65.6865],[-65.7838,-65.6743],[-65.6694,-65.6531],[-65.6678,-65.6261],[-65.6366,-65.5478]],[[-66.7913,-66.2336],[-66.8669,-66.2749],[-66.8675,-66.2939],[-66.85,-66.3056],[-66.8188,-66.3125],[-66.5955,-66.2008],[-66.5928,-66.1786],[-66.623,-66.1342],[-66.5754,-66.0823],[-66.6315,-66.0669],[-66.7791,-66.1108],[-66.7913,-66.2336]],[[-67.4093,-66.902],[-67.3622,-66.8946],[-67.2569,-66.8411],[-67.2686,-66.8152],[-67.3316,-66.7533],[-67.4257,-66.7369],[-67.5109,-66.7564],[-67.4993,-66.8035],[-67.5935,-66.8755],[-67.521,-66.8972],[-67.4093,-66.902]]]}}
