{"type":"Feature","properties":{"id":2,"name":"North Atlantic Ocean","featurecla":"ocean","scalerank":0,"wikidataid":"Q97","source":"Natural Earth 5.2.0-pre ne_10m_geography_marine_polys (public domain)"},"geometry":{"type":"Polygon","coordinates":[[[-24.0262,64.8632],[-23.9822,64.8161],[-23.933,64.7785],[-23.8785,64.7505],[-23.8192,64.7394],[-23.6901,64.7568],[-23.4763,64.8092],[-23.3472,64.8245],[-22.7202,64.7886],[-22.4672,64.7949],[-22.3069,64.7335],[-22.2476,64.7267],[-22.2339,64.714],[-22.3201,64.6473],[-22.3249,64.6245],[-22.2841,64.5864],[-22.254,64.5716],[-22.1598,64.5388],[-22.1058,64.533],[-21.9243,64.5626],[-21.6751,64.6478],[-21.6232,64.6399],[-21.5904,64.6267],[-21.6168,64.6102],[-21.7026,64.5981],[-21.9502,64.515],[-22.0037,64.452],[-22.0005,64.4134],[-21.973,64.3949],[-21.901,64.3917],[-22.0058,64.351],[-22.0492,64.3271],[-22.0534,64.3139],[-21.9513,64.3139],[-21.6465,64.3981],[-21.5571,64.3981],[-21.4634,64.379],[-21.6057,64.3668],[-21.6687,64.3488],[-21.7227,64.3218],[-21.7677,64.2848],[-21.8327,64.2054],[-21.8661,64.1806],[-21.9354,64.1536],[-22.001,64.1017],[-22.0566,64.0715],[-22.1878,64.0393],[-22.5101,63.9917],[-22.5598,64.0102],[-22.6032,64.0498],[-22.6508,64.0774],[-22.7011,64.0832],[-22.7334,64.0483],[-22.7429,64.0192],[-22.7292,63.9594],[-22.6932,63.8684],[-22.6524,63.8276],[-22.6069,63.8371],[-22.3725,63.844],[-21.4486,63.8583],[-21.3877,63.8726],[-21.2464,63.9356],[-21.1522,63.9445],[-21.1062,63.9398],[-21.094,63.9345],[-21.1559,63.907],[-21.1364,63.8879],[-21.0083,63.8382],[-20.8787,63.8038],[-20.73,63.7932],[-20.7268,63.7657],[-20.6511,63.7377],[-20.5929,63.7355],[-20.4627,63.7922],[-20.4141,63.8054],[-20.3633,63.7652],[-20.3717,63.7578],[-20.4384,63.7572],[-20.4701,63.7482],[-20.4908,63.7318],[-20.5014,63.708],[-20.494,63.6874],[-20.4003,63.6371],[-20.1981,63.5556],[-19.9521,63.5519],[-19.7785,63.5366],[-19.4864,63.4783],[-19.2504,63.4418],[-18.6535,63.4069],[-18.3027,63.454],[-18.2222,63.4731],[-18.2662,63.5138],[-18.2651,63.5244],[-18.2524,63.5297],[-18.2191,63.5307],[-18.1429,63.4969],[-18.0799,63.4964],[-17.9471,63.5355],[-17.8804,63.59],[-17.8862,63.6069],[-17.9196,63.6196],[-17.9148,63.6366],[-17.8391,63.6826],[-17.8158,63.7128],[-17.6333,63.7467],[-17.0951,63.808],[-16.9332,63.8408],[-16.7395,63.8519],[-16.6406,63.8657],[-16.4681,63.9165],[-16.2363,64.0372],[-16.0606,64.1112],[-15.8331,64.1769],[-15.4949,64.2584],[-15.2557,64.297],[-15.0218,64.2959],[-14.9271,64.3197],[-14.7895,64.3801],[-14.6281,64.416],[-14.5472,64.4462],[-14.4752,64.4938],[-14.4323,64.5383],[-14.417,64.5833],[-14.4482,64.6007],[-14.4652,64.6356],[-14.3752,64.6774],[-14.3853,64.7452],[-14.2969,64.7245],[-14.135,64.715],[-14.0445,64.742],[-13.9519,64.7838],[-13.8534,64.8616],[-7.4008,62.1078],[-7.4225,62.1401],[-7.3368,62.1385],[-7.2352,62.1512],[-7.187,62.1396],[-7.0971,62.1004],[-7.0653,62.0734],[-7.1166,62.047],[-7.1796,62.0401],[-7.2547,62.0459],[-7.2981,62.056],[-6.6446,61.6929],[-1.5635,60.505],[-1.572,60.4944],[-1.5487,60.4812],[-1.4498,60.4685],[-1.3746,60.333],[-1.4942,60.2922],[-1.5768,60.2986],[-1.6636,60.2827],[-1.6599,60.2621],[-1.6413,60.2367],[-1.6128,60.2293],[-1.5165,60.2309],[-1.499,60.2219],[-1.4969,60.1938],[-1.4815,60.1732],[-1.409,60.1896],[-1.3228,60.1885],[-1.291,60.1536],[-1.2762,60.1144],[-1.2995,60.0398],[-1.3561,59.9113],[-1.3069,59.8827],[-1.4,59.7472],[-1.6498,59.4974],[-2.4515,59.2582],[-2.6912,58.946],[-2.8886,58.79],[-2.9261,58.7534],[-2.9293,58.7418],[-2.9389,58.7386],[-2.9405,58.7397],[-3.0516,58.6307],[-3.0531,58.6349],[-3.259,58.6502],[-3.4537,58.6169],[-3.6617,58.6063],[-3.8596,58.5772],[-4.1888,58.5571],[-4.4332,58.5127],[-4.492,58.5682],[-4.5348,58.5613],[-4.6782,58.5137],[-4.7153,58.51],[-4.7655,58.5545],[-4.8095,58.573],[-4.9248,58.5883],[-4.9756,58.5804],[-5.0169,58.5666],[-5.0195,58.5645],[-6.2345,58.5005],[-6.2377,58.5026],[-6.2488,58.4994],[-6.2969,58.4867],[-6.5441,58.383],[-6.7425,58.3216],[-6.7764,58.3015],[-6.7875,58.2841],[-6.7245,58.1973],[-6.7266,58.1893],[-6.8123,58.1962],[-6.8864,58.1824],[-6.9494,58.2179],[-7.0118,58.2285],[-7.0283,58.2221],[-7.0447,58.2015],[-7.0854,58.1819],[-7.0955,58.138],[-7.0886,58.0951],[-7.0769,58.0787],[-7.0383,58.0724],[-7.0171,58.0549],[-6.9854,58.0507],[-7.0521,58.0179],[-7.0568,58.0031],[-7.0023,57.975],[-6.8642,57.9327],[-6.8568,57.9237],[-6.9441,57.8935],[-6.9557,57.8649],[-7.0833,57.8136],[-7.0325,57.7761],[-7.1664,57.6634],[-7.2055,57.6829],[-7.2712,57.6575],[-7.3251,57.6634],[-7.3918,57.6453],[-7.44,57.6565],[-7.4701,57.6528],[-7.4992,57.6364],[-7.5156,57.6157],[-7.5145,57.602],[-7.3203,57.5337],[-7.3119,57.5337],[-7.3357,57.3829],[-7.4108,57.3813],[-7.4071,57.2982],[-7.4225,57.2294],[-7.4161,57.1924],[-7.3817,57.1305],[-7.3526,57.1178],[-7.4526,57.0178],[-7.4066,57.0003],[-7.3987,56.9833],[-7.4167,56.9654],[-7.505,56.9516],[-7.5347,56.959],[-8.2464,55.1657],[-8.2448,55.1493],[-8.2745,55.1461],[-8.3046,55.108],[-8.3258,55.0567],[-8.3935,55.0202],[-8.4115,54.9651],[-8.3771,54.8894],[-8.4708,54.8318],[-8.5279,54.8095],[-8.5385,54.7831],[-8.6501,54.7608],[-8.7152,54.7318],[-8.7639,54.681],[-8.4565,54.6095],[-8.1337,54.6407],[-8.193,54.5799],[-8.2305,54.5074],[-8.2866,54.4846],[-8.4152,54.4608],[-8.4708,54.4418],[-8.5544,54.4037],[-8.6232,54.347],[-8.5686,54.3037],[-8.5454,54.2412],[-8.5882,54.2312],[-8.747,54.2635],[-9.0026,54.2878],[-9.0343,54.282],[-9.102,54.2253],[-9.146,54.2095],[-9.3153,54.2984],[-9.5624,54.3084],[-9.7169,54.3005],[-9.8244,54.2687],[-9.936,54.2682],[-9.9958,54.2761],[-10.0562,54.2576],[-10.0895,54.2158],[-10.0927,54.156],[-9.9773,54.1872],[-9.9434,54.1417],[-9.9344,54.075],[-9.8567,54.0952],[-9.8487,54.0481],[-9.8561,54.0041],[-9.8963,53.9375],[-9.9143,53.8639],[-9.7476,53.8909],[-9.5788,53.8798],[-9.5905,53.8412],[-9.5783,53.8052],[-9.745,53.7814],[-9.9016,53.7274],[-9.9122,53.6951],[-9.9096,53.6576],[-9.8561,53.6332],[-9.7206,53.6046],[-9.8783,53.5903],[-10.0011,53.5613],[-10.062,53.5676],[-10.117,53.5485],[-10.1064,53.5094],[-10.0545,53.4782],[-10.0942,53.4454],[-10.0911,53.4131],[-10.0038,53.3972],[-9.899,53.4073],[-9.7953,53.3951],[-9.8757,53.3427],[-9.8254,53.3205],[-9.7741,53.3189],[-9.7006,53.3348],[-9.6259,53.3348],[-9.6016,53.3231],[-9.5815,53.2718],[-9.555,53.2522],[-9.5143,53.2385],[-9.4709,53.2347],[-9.1402,53.2506],[-9.0338,53.2358],[-8.9301,53.2072],[-8.9973,53.1622],[-9.0275,53.1533],[-9.0613,53.1533],[-9.1375,53.1294],[-9.2418,53.1247],[-9.2994,53.0977],[-9.4619,52.9474],[-9.4159,52.9289],[-9.3936,52.8961],[-9.4651,52.8231],[-9.5148,52.7812],[-9.7397,52.6484],[-9.9164,52.5696],[-9.7646,52.5802],[-9.6196,52.6225],[-9.5915,52.6437],[-9.5608,52.6537],[-9.4635,52.6267],[-9.3942,52.6172],[-9.1756,52.6347],[-9.0978,52.668],[-8.9904,52.7553],[-8.9232,52.7124],[-8.7835,52.6797],[-9.056,52.6209],[-9.3312,52.5786],[-9.5863,52.559],[-9.6323,52.5468],[-9.7609,52.4664],[-9.8386,52.4426],[-9.9058,52.404],[-9.8535,52.3754],[-9.8413,52.2913],[-9.772,52.25],[-9.9371,52.2378],[-9.9932,52.2595],[-10.062,52.2759],[-10.1323,52.2822],[-10.2112,52.2717],[-10.3567,52.2071],[-10.3826,52.169],[-10.3901,52.1351],[-10.2493,52.1256],[-9.9556,52.1367],[-9.9096,52.123],[-9.9461,52.0796],[-10.044,52.0447],[-10.1456,52.0198],[-10.2318,51.9743],[-10.3789,51.869],[-10.3408,51.7991],[-10.2419,51.8123],[-10.2117,51.7838],[-10.0842,51.7711],[-9.5989,51.8743],[-9.7498,51.8245],[-9.8027,51.7801],[-9.8498,51.7663],[-9.9265,51.7308],[-10.0694,51.6557],[-10.1207,51.6007],[-10.0101,51.6113],[-9.899,51.6472],[-9.5799,51.689],[-9.5249,51.6811],[-9.5423,51.6642],[-9.7106,51.6039],[-9.8355,51.4832],[-9.737,51.4737],[-9.5349,51.5224],[-9.463,51.5292],[-9.3905,51.5192],[-9.3238,51.497],[-9.2962,51.498],[-8.8137,51.5848],[-8.7343,51.6361],[-8.5882,51.6515],[-8.4776,51.707],[-8.4078,51.7118],[-8.3491,51.7393],[-8.3358,51.7928],[-8.3475,51.8478],[-8.3718,51.8764],[-8.4094,51.8885],[-8.2903,51.8907],[-8.2543,51.8785],[-8.2226,51.8541],[-8.1448,51.8134],[-8.058,51.8256],[-7.9527,51.8658],[-7.8723,51.9351],[-7.8379,51.9478],[-7.6643,51.9796],[-7.6252,51.9933],[-7.5897,52.0187],[-7.5632,52.0616],[-7.5273,52.0986],[-7.441,52.123],[-7.2161,52.1452],[-7.0817,52.1394],[-7.0034,52.1658],[-6.9658,52.2494],[-6.9145,52.1685],[-6.8901,52.1595],[-6.86,52.1785],[-6.7822,52.2103],[-6.6975,52.2135],[-6.6192,52.1992],[-6.6234,52.1759],[-6.4033,51.6801],[-5.7064,50.1121],[-6.5705,49.7417],[-5.8826,48.4717],[-7.9993,43.7092],[-7.9982,43.6949],[-8.0046,43.6944],[-8.1374,43.6293],[-8.257,43.5801],[-8.2887,43.5394],[-8.2522,43.497],[-8.2491,43.4393],[-8.3554,43.397],[-8.4215,43.3859],[-8.5369,43.3372],[-8.6655,43.3166],[-8.8735,43.3346],[-9.0243,43.2388],[-9.0957,43.2144],[-9.1782,43.1742],[-9.2354,43.0356],[-9.2354,42.9769],[-9.1793,42.9112],[-9.1269,42.8652],[-9.0417,42.8139],[-8.9274,42.7985],[-8.937,42.7668],[-9.0348,42.6625],[-9.0333,42.5937],[-8.9878,42.5858],[-8.8115,42.6403],[-8.7999,42.6001],[-8.8099,42.5625],[-8.8121,42.4699],[-8.7761,42.435],[-8.7301,42.4117],[-8.7692,42.3583],[-8.8099,42.3344],[-8.8158,42.2852],[-8.729,42.2868],[-8.6909,42.2741],[-8.7724,42.2106],[-8.8872,42.1053],[-8.8782,41.9471],[-8.8523,41.927],[-8.7772,41.9413],[-8.8782,41.8323],[-8.8877,41.7645],[-8.8465,41.7053],[-8.7555,41.6984],[-8.811,41.6518],[-8.8057,41.5597],[-8.7385,41.2846],[-8.6745,41.1544],[-8.6597,41.0861],[-8.6555,41.0295],[-8.674,40.9163],[-8.6846,40.7528],[-8.7316,40.6512],[-8.7724,40.6057],[-8.8724,40.259],[-8.8867,40.1797],[-8.8512,40.1516],[-8.838,40.1156],[-9.0042,39.8204],[-9.1481,39.5425],[-9.2513,39.4261],[-9.3196,39.3912],[-9.3746,39.3383],[-9.3571,39.2843],[-9.3529,39.2484],[-9.4143,39.1123],[-9.4312,38.9605],[-9.4746,38.8531],[-9.4799,38.7986],[-9.4741,38.7308],[-9.41,38.7075],[-9.3566,38.698],[-9.2523,38.7128],[-9.1359,38.743],[-9.0909,38.8345],[-8.9544,39.016],[-8.8676,39.0658],[-8.7914,39.078],[-8.938,38.9981],[-9.0005,38.9028],[-8.9772,38.8028],[-9.0216,38.7467],[-9.0931,38.6964],[-9.1777,38.6879],[-9.2502,38.6567],[-9.2031,38.5387],[-9.2132,38.4482],[-9.1867,38.4382],[-9.0962,38.4551],[-8.9147,38.5123],[-8.8618,38.5102],[-8.7989,38.5181],[-8.7338,38.4826],[-8.6681,38.4244],[-8.8809,38.4466],[-8.811,38.2995],[-8.802,38.1837],[-8.8788,37.9588],[-8.8227,37.872],[-8.792,37.7328],[-8.8184,37.5926],[-8.8142,37.4307],[-8.9264,37.1661],[-8.9978,37.0322],[-8.9354,37.0158],[-8.8486,37.0756],[-8.739,37.0745],[-8.5978,37.1211],[-8.4845,37.0999],[-8.1369,37.0772],[-7.9395,37.0052],[-7.8342,37.0057],[-7.4934,37.1682],[-7.1748,37.2089],[-6.9748,37.1984],[-6.9293,37.2148],[-6.8637,37.2788],[-6.8594,37.2491],[-6.8848,37.1941],[-6.4922,36.9544],[-6.3964,36.8316],[-6.3207,36.9084],[-6.2165,36.9137],[-6.2594,36.8988],[-6.3282,36.848],[-6.4123,36.729],[-6.3843,36.6369],[-6.2689,36.5967],[-6.2578,36.565],[-6.2657,36.5263],[-6.226,36.4263],[-6.1705,36.3337],[-6.0408,36.1887],[-5.9609,36.1818],[-5.8085,36.0882],[-5.6254,36.0257],[-5.6175,36.0273],[-5.6175,36.0257],[-5.5842,35.8416],[-5.6228,35.8289],[-5.7482,35.8162],[-5.9249,35.786],[-5.9577,35.6812],[-6.353,34.7764],[-6.7557,34.1329],[-6.9007,33.9689],[-7.1447,33.8302],[-7.5622,33.6402],[-8.3014,33.3746],[-8.5131,33.2523],[-8.5962,33.1873],[-8.8364,32.9206],[-9.246,32.5724],[-9.2492,32.4856],[-9.2867,32.2406],[-9.3476,32.0866],[-9.6751,31.7109],[-9.8085,31.4246],[-9.8334,31.0696],[-9.8323,30.8473],[-9.8757,30.7182],[-9.854,30.6446],[-9.773,30.6034],[-9.6529,30.4478],[-9.6238,30.3525],[-9.6672,30.1091],[-9.7434,29.9583],[-9.8524,29.8091],[-10.0106,29.6413],[-10.2006,29.3805],[-10.4864,29.065],[-10.6737,28.9391],[-11.0812,28.7137],[-11.2992,28.5258],[-11.4304,28.3819],[-11.5526,28.31],[-11.986,28.1295],[-12.4692,28.0094],[-12.7935,27.9787],[-12.9491,27.9141],[-13.0406,27.7696],[-13.1761,27.6559],[-13.256,27.4347],[-13.41,27.1468],[-13.4957,26.8727],[-13.5756,26.7351],[-13.6958,26.6431],[-13.9519,26.4885],[-14.1683,26.4155],[-14.3122,26.297],[-14.4138,26.2536],[-14.4705,26.1631],[-14.5228,25.925],[-14.6022,25.8086],[-14.707,25.5477],[-14.7948,25.4043],[-14.843,25.2201],[-14.8562,24.8714],[-14.9044,24.7196],[-15.0388,24.5486],[-15.1886,24.4788],[-15.5865,24.0729],[-15.778,23.9528],[-15.8992,23.8443],[-15.9526,23.7406],[-15.9807,23.6702],[-15.9124,23.7274],[-15.8553,23.8004],[-15.8018,23.8422],[-15.7891,23.793],[-15.8061,23.7496],[-15.9426,23.5527],[-15.9966,23.4257],[-16.1135,23.2273],[-16.2103,23.0982],[-16.1696,23.032],[-16.2019,22.9452],[-16.3046,22.8347],[-16.3585,22.5944],[-16.5146,22.3335],[-16.684,22.2743],[-16.7935,22.16],[-16.9311,21.9001],[-17.0094,21.3773],[-17.0988,20.8566],[-17.048,20.8064],[-16.9983,21.0397],[-16.9713,21.0762],[-16.9279,21.1149],[-16.876,21.0863],[-16.7284,20.8064],[-16.6226,20.6344],[-16.5628,20.6042],[-16.5347,20.654],[-16.5305,20.7095],[-16.4792,20.69],[-16.4299,20.6524],[-16.3336,20.4158],[-16.2103,20.228],[-16.241,20.1412],[-16.2331,20.001],[-16.2834,19.7872],[-16.4448,19.4734],[-16.3051,19.5126],[-16.3712,19.4104],[-16.4749,19.3908],[-16.5146,19.3617],[-16.476,19.285],[-16.3061,19.1538],[-16.213,19.0035],[-16.15,18.7183],[-16.0849,18.5214],[-16.0468,18.223],[-16.0304,17.888],[-16.0791,17.5456],[-16.2077,17.1927],[-16.3469,16.9265],[-16.4638,16.6016],[-16.4813,16.4545],[-16.5358,16.2867],[-16.5353,15.8385],[-16.5707,15.7343],[-16.8432,15.294],[-17.147,14.922],[-17.4116,14.7924],[-17.5354,14.7553],[-17.4449,14.6516],[-17.4184,14.7236],[-17.3459,14.7294],[-17.2608,14.7008],[-17.1681,14.6405],[-17.0792,14.4828],[-16.9739,14.4034],[-16.8803,14.2082],[-16.7977,14.0934],[-16.7919,14.0039],[-16.7422,14.006],[-16.6676,14.0357],[-16.6183,14.0404],[-16.6395,14.0076],[-16.7337,13.9611],[-16.767,13.905],[-16.7453,13.8404],[-16.648,13.7711],[-16.5876,13.6896],[-16.53,13.4578],[-16.4405,13.353],[-16.3516,13.3435],[-16.1352,13.4483],[-15.85,13.4599],[-15.5695,13.4996],[-15.4383,13.4832],[-15.4277,13.4684],[-15.4711,13.4589],[-15.6177,13.4599],[-15.8045,13.4255],[-15.9865,13.4086],[-16.1585,13.3843],[-16.1881,13.3261],[-16.1849,13.2827],[-16.2717,13.2938],[-16.4135,13.27],[-16.5564,13.3033],[-16.5982,13.3568],[-16.6146,13.4351],[-16.6691,13.4748],[-16.7506,13.4255],[-16.8247,13.3409],[-16.7692,13.1483],[-16.7575,12.98],[-16.7692,12.8831],[-16.7591,12.7022],[-16.7782,12.6704],[-16.7681,12.6286],[-16.7438,12.5852],[-16.7014,12.6032],[-16.6723,12.6223],[-16.6379,12.6852],[-16.5977,12.7154],[-16.549,12.6635],[-16.4548,12.6249],[-16.4427,12.6096],[-16.4501,12.5805],[-16.4882,12.582],[-16.5533,12.6048],[-16.6776,12.5598],[-16.7602,12.526],[-16.785,12.4725],[-16.7459,12.3995],[-16.712,12.355],[-16.4368,12.2042],[-16.3125,12.2428],[-16.2447,12.237],[-16.2548,12.2063],[-16.3188,12.1439],[-16.3278,12.0518],[-16.2744,11.9783],[-16.1384,11.9174],[-15.959,11.9597],[-15.9204,11.9375],[-15.9029,11.9195],[-15.9415,11.7867],[-15.8193,11.7634],[-15.6505,11.8185],[-15.5134,11.9174],[-15.4346,11.9434],[-15.188,11.9275],[-15.1113,11.9703],[-15.0785,11.9688],[-15.0721,11.947],[-15.1018,11.9137],[-15.133,11.9074],[-15.2107,11.8709],[-15.4156,11.8719],[-15.4674,11.8428],[-15.5002,11.7782],[-15.5018,11.7237],[-15.4129,11.6153],[-15.3594,11.6227],[-15.3166,11.6692],[-15.2304,11.6867],[-15.1224,11.6618],[-15.0726,11.5978],[-15.1637,11.5809],[-15.2526,11.5735],[-15.4293,11.4988],[-15.4796,11.4105],[-15.4489,11.3898],[-15.3991,11.4015],[-15.3547,11.3962],[-15.3483,11.3782],[-15.3944,11.3343],[-15.4007,11.266],[-15.3933,11.2173],[-15.3176,11.1522],[-15.2631,11.1607],[-15.2166,11.1565],[-15.2219,11.0311],[-15.1811,11.0342],[-15.097,11.1401],[-15.0547,11.1422],[-15.0938,11.011],[-15.043,10.9401],[-15.0515,10.8347],[-15.0123,10.8046],[-14.9753,10.8035],[-14.925,10.9448],[-14.8869,10.9681],[-14.8377,10.9628],[-14.7758,10.9316],[-14.7573,10.8623],[-14.6932,10.7411],[-14.6774,10.6892],[-14.5938,10.7665],[-14.5874,10.7347],[-14.6139,10.6178],[-14.6096,10.5501],[-14.4271,10.2484],[-14.1704,10.1288],[-14.0863,10.1272],[-14.045,10.141],[-14.0302,10.1151],[-14.0217,10.0479],[-13.9545,9.9685],[-13.8201,9.887],[-13.754,9.8701],[-13.7127,9.923],[-13.6899,9.9277],[-13.7005,9.8515],[-13.6587,9.7764],[-13.6571,9.6394],[-13.6915,9.5356],[-13.5682,9.5436],[-13.4365,9.4203],[-13.4058,9.3605],[-13.3963,9.3144],[-13.2957,9.2187],[-13.2692,9.1705],[-13.3026,9.0784],[-13.2714,8.9874],[-13.1539,8.8975],[-13.0597,8.8811],[-13.0708,8.8562],[-13.2068,8.8429],[-13.2264,8.7662],[-13.2285,8.6959],[-13.1819,8.5768],[-13.1216,8.589],[-13.0883,8.6255],[-12.9533,8.6149],[-12.9041,8.6562],[-12.8941,8.6297],[-12.9131,8.5815],[-12.9941,8.5265],[-13.0851,8.4249],[-13.1581,8.4424],[-13.2031,8.4842],[-13.2613,8.4874],[-13.273,8.4297],[-13.2015,8.336],[-13.1491,8.2148],[-13.0205,8.2011],[-12.957,8.1455],[-12.9253,8.055],[-12.8808,7.8566],[-12.8507,7.8185],[-12.7819,7.791],[-12.6977,7.7158],[-12.5702,7.7005],[-12.5104,7.7534],[-12.4803,7.7534],[-12.5104,7.6656],[-12.4326,7.5449],[-12.4808,7.4423],[-12.4855,7.3862],[-12.3464,7.3417],[-11.9294,7.1835],[-11.7336,7.0888],[-11.5473,6.9469],[-11.2918,6.6882],[-11.0044,6.5575],[-10.8488,6.4649],[-10.7854,6.3104],[-10.7076,6.2585],[-10.5969,6.2109],[-10.4181,6.1675],[-10.2763,6.0775],[-9.6545,5.5187],[-9.3746,5.2409],[-9.1322,5.0547],[-8.2591,4.5901],[-7.9982,4.5086],[-7.6601,4.3667],[-7.5447,4.3514],[-7.5278,4.3551],[-7.5178,4.308],[6.4682,0.2271],[6.4973,0.1175],[6.52,0.0662],[6.557,0.0471],[6.557,0.0329],[-49.3827,0.0223],[-49.4008,0.0572],[-49.5034,0.0837],[-49.5074,0.0828],[-49.6988,0.2135],[-49.6971,0.216],[-49.7384,0.2684],[-49.8346,0.293],[-50.0383,0.561],[-50.0368,0.5948],[-50.059,0.6382],[-50.0843,0.6298],[-50.2431,0.8769],[-50.0712,1.015],[-50.0474,1.052],[-49.9379,1.1214],[-49.8987,1.1632],[-49.9061,1.269],[-49.8818,1.4198],[-49.9569,1.6601],[-50.0548,1.731],[-50.1876,1.786],[-50.304,1.7976],[-50.4591,1.8294],[-50.5342,1.9273],[-50.576,1.9987],[-50.6088,2.104],[-50.6591,2.131],[-50.7147,2.1342],[-50.6766,2.1797],[-50.6787,2.2104],[-50.7369,2.3765],[-50.7898,2.4776],[-50.8168,2.5729],[-50.8274,2.6517],[-50.9941,3.0777],[-51.0523,3.2819],[-51.0761,3.6714],[-51.22,4.0937],[-51.3269,4.2249],[-51.4613,4.3138],[-51.5471,4.3106],[-51.5576,4.2339],[-51.6523,4.0614],[-51.6582,4.0985],[-51.6534,4.1387],[-51.6656,4.2286],[-51.6984,4.2868],[-51.7857,4.5705],[-51.8275,4.6356],[-51.8804,4.634],[-51.9196,4.5244],[-51.9275,4.4361],[-51.9545,4.399],[-52.0027,4.3524],[-52.0016,4.3863],[-51.9794,4.4297],[-51.9619,4.5144],[-52.0122,4.6461],[-52.0582,4.7176],[-52.2201,4.8626],[-52.3244,4.771],[-52.2889,4.8763],[-52.2905,4.9419],[-52.454,5.0213],[-52.7652,5.2737],[-52.8991,5.4251],[-53.2705,5.5431],[-53.4547,5.5637],[-53.8473,5.7823],[-53.9198,5.769],[-53.9897,5.6759],[-54.0855,5.4118],[-54.1558,5.3589],[-54.0807,5.5023],[-54.0458,5.6087],[-54.0373,5.7203],[-54.0542,5.8077],[-54.1421,5.8563],[-54.3564,5.9098],[-54.8337,5.9881],[-55.148,5.9934],[-55.3793,5.9527],[-55.6481,5.986],[-55.828,5.9617],[-55.91,5.8928],[-55.8957,5.7955],[-55.8978,5.6992],[-55.9397,5.7955],[-56.2355,5.8855],[-56.4662,5.9378],[-56.97,5.9929],[-57.0567,5.9389],[-57.1044,5.8294],[-57.1361,5.7373],[-57.1409,5.6436],[-57.1821,5.5288],[-57.2054,5.5648],[-57.1673,5.8849],[-57.1901,6.0971],[-57.2276,6.1786],[-57.3435,6.2723],[-57.5404,6.3315],[-57.6076,6.4506],[-57.7928,6.5988],[-57.9828,6.7861],[-58.0717,6.8205],[-58.1727,6.8295],[-58.2987,6.8792],[-58.4151,6.8512],[-58.5024,6.7342],[-58.5696,6.6273],[-58.594,6.4516],[-58.6728,6.3908],[-58.6135,6.5024],[-58.6077,6.6972],[-58.5829,6.8438],[-58.4807,7.038],[-58.4775,7.3258],[-58.5109,7.3978],[-58.6268,7.546],[-58.7009,7.6068],[-58.8114,7.7354],[-59.2004,8.0746],[-59.4771,8.254],[-59.666,8.3625],[-59.7391,8.3799],[-59.7401,8.3387],[-59.7565,8.3397],[-59.8364,8.3736],[-59.9804,8.5329],[-60.0174,8.5493],[-60.1677,8.617],[-60.3307,8.6281],[-60.7937,9.3578],[-60.7926,9.3605],[-60.8741,9.4531],[-61.0133,9.5563],[-60.9868,9.6129],[-60.8456,10.2484],[-60.2455,11.3771],[-59.2089,12.8228],[-59.7449,14.967],[-61.6568,18.0801],[-63.5263,18.7151],[-65.6081,18.3976],[-65.6287,18.3812],[-65.7557,18.4018],[-65.879,18.4436],[-66.0706,18.469],[-66.0928,18.469],[-66.0684,18.4283],[-66.0986,18.4251],[-66.1293,18.4447],[-66.1531,18.4706],[-66.1886,18.4759],[-66.813,18.4923],[-67.0596,18.5219],[-67.113,18.5151],[-67.1585,18.4992],[-67.1718,18.4357],[-67.185,18.4219],[-67.1956,18.4325],[-68.3497,18.5727],[-68.3391,18.6114],[-68.3814,18.6712],[-68.4455,18.7146],[-68.6846,18.9045],[-68.9016,18.9887],[-69.0312,19.013],[-69.163,19.0283],[-69.28,19.0516],[-69.3953,19.086],[-69.5085,19.1077],[-69.6239,19.1178],[-69.6234,19.1606],[-69.6059,19.2067],[-69.5197,19.212],[-69.3228,19.2009],[-69.2641,19.2257],[-69.2323,19.2718],[-69.3249,19.3279],[-69.7393,19.2993],[-69.8234,19.367],[-69.8784,19.4734],[-69.8911,19.5898],[-69.9568,19.6718],[-70.0139,19.6729],[-70.1293,19.6364],[-70.1938,19.6379],[-70.305,19.6761],[-70.4362,19.7713],[-70.4796,19.7771],[-70.6362,19.7755],[-70.6859,19.793],[-70.7854,19.8507],[-70.8341,19.8872],[-70.9542,19.9142],[-71.0818,19.8904],[-71.2357,19.848],[-71.2813,19.8475],[-71.4416,19.8941],[-71.5575,19.8951],[-71.6162,19.8777],[-71.6676,19.8486],[-71.7062,19.7951],[-71.7353,19.7353],[-71.8348,19.6967],[-71.9544,19.7216],[-72.22,19.7448],[-72.4301,19.8131],[-72.637,19.901],[-72.8767,19.9279],[-73.118,19.9036],[-73.218,19.8835],[-73.3154,19.8544],[-73.3693,19.8248],[-74.1499,20.1825],[-74.1366,20.2317],[-74.1673,20.292],[-74.1985,20.3116],[-74.234,20.3264],[-74.2726,20.3174],[-74.3843,20.3306],[-74.5134,20.3846],[-74.6626,20.5222],[-74.7319,20.573],[-74.8828,20.6508],[-74.9595,20.6725],[-75.2135,20.7137],[-75.3384,20.7016],[-75.5246,20.7169],[-75.6426,20.7333],[-75.7247,20.7148],[-75.7533,20.736],[-75.7601,20.7757],[-75.74,20.8122],[-75.5971,20.8376],[-75.6628,20.8979],[-75.6384,20.9476],[-75.5956,20.9947],[-75.6336,21.0614],[-75.7231,21.1112],[-75.8993,21.1143],[-76.0734,21.1334],[-76.2591,21.2276],[-76.4549,21.2736],[-76.5518,21.272],[-76.6475,21.2847],[-76.6883,21.3403],[-76.7259,21.3588],[-76.765,21.3625],[-76.8677,21.3302],[-76.8597,21.3646],[-76.8364,21.3995],[-76.928,21.4588],[-77.0984,21.589],[-77.1407,21.5387],[-77.2079,21.4789],[-77.2529,21.4837],[-77.2693,21.5377],[-77.3662,21.6128],[-77.2444,21.5937],[-77.1815,21.5975],[-77.1439,21.6435],[-77.2222,21.6726],[-77.2995,21.7123],[-77.3423,21.7552],[-77.4974,21.8716],[-77.5831,21.889],[-77.5736,21.8684],[-77.5064,21.8113],[-77.4974,21.7885],[-77.545,21.7747],[-77.6371,21.7975],[-77.8651,21.9007],[-77.9705,21.9721],[-78.143,22.1092],[-78.6864,22.3669],[-78.7192,22.3579],[-78.7758,22.3674],[-78.8356,22.3907],[-78.9018,22.396],[-79.1828,22.388],[-79.2759,22.4076],[-79.3585,22.4489],[-79.4564,22.5097],[-79.549,22.578],[-79.6765,22.7431],[-79.8506,22.8272],[-79.8204,22.887],[-79.9236,22.869],[-79.9601,22.877],[-80.0755,22.9421],[-80.1676,22.9495],[-80.266,22.9352],[-80.3649,22.9437],[-80.4591,22.9749],[-80.5507,23.0167],[-80.6137,23.0839],[-80.6411,23.0982],[-78.4351,24.6275],[-78.3663,24.5444],[-78.2578,24.483],[-78.1917,24.4661],[-78.1456,24.4936],[-78.1356,24.4121],[-78.0757,24.3645],[-78.0451,24.2872],[-77.9831,24.3348],[-77.881,24.3692],[-77.8535,24.4031],[-77.745,24.4634],[-77.735,24.4957],[-77.7461,24.5862],[-77.744,24.7074],[-77.8403,24.7941],[-77.9191,24.9428],[-77.9736,25.0048],[-77.9752,25.0847],[-78.0334,25.1429],[-78.1625,25.2021],[-78.7991,26.5282],[-78.7436,26.5007],[-78.6711,26.5065],[-78.516,26.5595],[-78.234,26.6372],[-77.926,26.6632],[-77.9223,26.6912],[-77.944,26.7441],[-78.0885,26.7145],[-78.2679,26.7225],[-78.307,26.7023],[-78.3716,26.6981],[-78.4927,26.7293],[-78.597,26.7981],[-78.633,26.7261],[-78.6213,26.7044],[-78.633,26.6589],[-78.7123,26.5992],[-78.7981,26.5822],[-78.9166,26.6605],[-78.9251,26.6701],[-78.9304,26.6701],[-78.9356,26.6732],[-78.9859,26.6896],[-78.961,26.6685],[-80.0432,26.6177],[-80.0501,26.8076],[-80.0887,26.9939],[-80.1257,27.0828],[-80.2263,27.2072],[-80.6502,28.1808],[-80.6861,28.2724],[-80.7486,28.3809],[-80.7872,28.5608],[-80.8184,28.6354],[-80.838,28.7576],[-80.8089,28.7592],[-80.7708,28.7322],[-80.7798,28.683],[-80.766,28.6327],[-80.7004,28.601],[-80.6882,28.5787],[-80.729,28.5163],[-80.7317,28.4629],[-80.6935,28.3449],[-80.6655,28.375],[-80.6539,28.4523],[-80.6327,28.5179],[-80.6068,28.5227],[-80.6226,28.3205],[-80.6099,28.1777],[-80.4993,27.9342],[-80.457,27.9009],[-80.5332,28.0702],[-80.5729,28.1808],[-80.5851,28.2718],[-80.5814,28.3644],[-80.5676,28.4264],[-80.5242,28.4861],[-80.5644,28.5565],[-80.8999,29.0497],[-81.1047,29.4572],[-81.2497,29.7937],[-81.337,30.1414],[-81.3857,30.27],[-81.4571,30.6409],[-81.5037,30.7314],[-81.5164,30.8018],[-81.5206,30.8748],[-81.5005,30.914],[-81.4714,31.0092],[-81.4534,31.0881],[-81.4603,31.1272],[-81.4418,31.1997],[-81.4127,31.1796],[-81.3651,31.1717],[-81.2883,31.2638],[-81.3291,31.3135],[-81.3778,31.3325],[-81.3809,31.3532],[-81.2952,31.3712],[-81.2582,31.4362],[-81.219,31.4722],[-81.1756,31.5315],[-81.1957,31.5389],[-81.2232,31.5283],[-81.2592,31.5389],[-81.2423,31.5744],[-81.1698,31.6103],[-81.1656,31.6463],[-81.1867,31.667],[-81.1978,31.704],[-81.1619,31.7437],[-81.0984,31.7532],[-81.0661,31.7882],[-81.065,31.8136],[-81.0957,31.8411],[-81.1132,31.8786],[-81.083,31.894],[-81.0454,31.8919],[-80.9232,31.9448],[-80.8724,32.0294],[-80.8819,32.0686],[-80.8491,32.1141],[-80.7909,32.1258],[-80.7581,32.1422],[-80.6941,32.2157],[-80.702,32.2459],[-80.7337,32.2655],[-80.7655,32.2983],[-80.7978,32.3633],[-80.8026,32.448],[-80.7094,32.3369],[-80.683,32.3485],[-80.6777,32.3814],[-80.647,32.3962],[-80.6258,32.3263],[-80.6084,32.293],[-80.5792,32.2872],[-80.5136,32.3242],[-80.4856,32.3517],[-80.4745,32.4226],[-80.53,32.4755],[-80.6343,32.5115],[-80.5724,32.5338],[-80.4607,32.5216],[-80.3628,32.5009],[-80.2681,32.5374],[-80.2295,32.5766],[-80.1802,32.593],[-80.1226,32.5893],[-80.0215,32.62],[-79.9405,32.6671],[-79.8934,32.7285],[-79.9331,32.81],[-79.8051,32.7872],[-79.7352,32.8248],[-79.6151,32.9095],[-79.587,33.001],[-79.4987,33.0274],[-79.4198,33.0423],[-79.2759,33.1354],[-79.2293,33.1852],[-79.2812,33.3153],[-79.2267,33.4048],[-79.2272,33.363],[-79.2383,33.3122],[-79.1939,33.2439],[-79.1383,33.4058],[-78.9203,33.6587],[-78.8415,33.7238],[-78.5779,33.8731],[-78.406,33.9175],[-78.0133,33.9117],[-77.9705,33.9932],[-77.9535,34.1689],[-77.926,34.0731],[-77.9329,33.9895],[-77.9276,33.9397],[-77.8879,34.0504],[-77.8609,34.1493],[-77.7509,34.2848],[-77.6969,34.3319],[-77.6498,34.3573],[-77.5175,34.4514],[-77.3799,34.5266],[-77.4021,34.5546],[-77.4127,34.5922],[-77.4122,34.7309],[-77.3847,34.6943],[-77.3582,34.6203],[-77.2963,34.6028],[-77.2518,34.6155],[-77.1338,34.7081],[-77.0497,34.6975],[-76.8957,34.7012],[-76.7968,34.7044],[-76.7333,34.707],[-76.6639,34.688],[-76.674,34.7002],[-76.6221,34.6943],[-76.5465,34.6546],[-76.5174,34.6467],[-76.4369,34.7563],[-76.2565,34.9145],[-75.9639,35.1187],[-75.984,35.123],[-75.8649,35.1743],[-75.6855,35.2182],[-75.6903,35.2214],[-75.5363,35.2785],[-75.4881,35.4796],[-75.4813,35.5722],[-75.5045,35.7352],[-75.504,35.7553],[-75.5807,35.8723],[-75.5342,35.8193],[-75.5585,35.8791],[-75.758,36.2294],[-75.8903,36.657],[-75.9416,36.7655],[-75.9665,36.8618],[-75.9993,36.9126],[-76.0014,36.9126],[-75.939,37.1576],[-75.9342,37.1518],[-75.8538,37.2968],[-75.812,37.4254],[-75.767,37.473],[-75.6987,37.5164],[-75.6315,37.5354],[-75.5871,37.5587],[-75.5966,37.6312],[-75.3537,38.0651],[-75.2918,38.1291],[-75.2257,38.2424],[-75.1601,38.2551],[-75.1415,38.298],[-75.1341,38.3842],[-75.1167,38.4064],[-75.0897,38.4255],[-75.0733,38.4101],[-75.0743,38.3657],[-75.051,38.3832],[-75.0389,38.4265],[-75.0357,38.5033],[-75.0727,38.5789],[-75.1108,38.5996],[-75.187,38.5911],[-75.1283,38.6324],[-75.0839,38.7229],[-75.0886,38.7774],[-74.9378,38.9451],[-74.9235,38.9409],[-74.7944,39.0018],[-74.6457,39.2081],[-74.6049,39.2473],[-74.6028,39.2928],[-74.5785,39.3161],[-74.5171,39.3468],[-74.4743,39.3425],[-74.4287,39.387],[-74.4107,39.4547],[-74.3901,39.487],[-74.4071,39.5489],[-74.3308,39.5357],[-74.2568,39.614],[-74.1763,39.7267],[-74.1176,39.9384],[-74.0959,39.976],[-74.0647,39.9929],[-74.0843,39.8288],[-74.08,39.7881],[-74.0488,39.923],[-74.0282,40.0728],[-74.0038,40.1712],[-73.9721,40.2506],[-73.9578,40.3284],[-73.9721,40.4004],[-73.9985,40.4522],[-74.0499,40.43],[-74.2414,40.4564],[-74.2642,40.5284],[-74.2266,40.6078],[-74.1869,40.648],[-74.153,40.6734],[-74.116,40.6871],[-74.0673,40.7194],[-74.0255,40.7565],[-73.9271,40.9142],[-73.9091,40.9962],[-73.9176,41.1359],[-73.9699,41.2497],[-73.9255,41.2179],[-73.8821,41.1708],[-73.872,41.0549],[-73.907,40.9126],[-73.9488,40.8385],[-73.9869,40.7512],[-73.9472,40.7771],[-73.9107,40.8163],[-73.8514,40.8316],[-73.8292,40.8459],[-73.8191,40.8125],[-73.8795,40.7919],[-73.9647,40.7252],[-74.0033,40.6829],[-74.0319,40.6385],[-74.0149,40.5813],[-73.9292,40.5988],[-73.8752,40.6517],[-73.8229,40.6559],[-73.799,40.6411],[-73.8011,40.6215],[-73.8996,40.5707],[-73.7668,40.5929],[-73.6207,40.5998],[-73.2656,40.6633],[-73.2286,40.6517],[-73.1942,40.6543],[-72.7629,40.7776],[-72.6762,40.7909],[-72.5555,40.8258],[-72.428,40.8755],[-72.3391,40.894],[-71.903,41.0608],[-72.0041,41.0443],[-72.102,41.0152],[-72.1512,41.0512],[-72.184,41.047],[-72.2872,41.0242],[-72.4089,40.9724],[-72.4613,40.9337],[-72.5163,40.9147],[-72.5809,40.9216],[-72.51,40.9861],[-72.4274,41.0385],[-72.274,41.1528],[-72.3126,41.1417],[-72.2565,41.293],[-72.0739,41.3259],[-71.93,41.3412],[-71.7692,41.3311],[-71.5231,41.3788],[-71.4437,41.4539],[-71.4268,41.6333],[-71.3638,41.7026],[-71.3903,41.7952],[-71.359,41.7862],[-71.3305,41.7624],[-71.3109,41.7201],[-71.2712,41.6815],[-71.1786,41.7439],[-71.149,41.7455],[-71.2045,41.6412],[-71.1886,41.5164],[-71.1685,41.4894],[-71.0796,41.5381],[-70.9743,41.5486],[-70.7013,41.7148],[-70.6664,41.71],[-70.6552,41.6079],[-70.668,41.5582],[-70.6574,41.5343],[-70.4811,41.5825],[-70.4044,41.6269],[-70.0594,41.6772],[-69.9869,41.6841],[-69.9488,41.6772],[-69.9451,41.6857],[-65.7403,43.5595],[-65.7382,43.5605],[-65.662,43.5341],[-65.5647,43.5531],[-65.4816,43.5182],[-65.4504,43.524],[-65.4287,43.5616],[-65.3863,43.5653],[-65.3445,43.5494],[-65.3297,43.668],[-65.235,43.7267],[-65.172,43.7314],[-65.0868,43.7272],[-64.8625,43.868],[-64.8254,43.9294],[-64.6916,44.0214],[-64.5783,44.1421],[-64.4688,44.185],[-64.3783,44.3035],[-64.3344,44.2918],[-64.2756,44.3342],[-64.3121,44.4146],[-64.3386,44.4448],[-64.2862,44.5506],[-64.1671,44.5866],[-64.101,44.4876],[-64.0444,44.5453],[-64.0449,44.5876],[-63.9999,44.6448],[-63.9237,44.604],[-63.8914,44.5464],[-63.8205,44.5109],[-63.7613,44.4866],[-63.6099,44.4802],[-63.5676,44.5146],[-63.5448,44.5437],[-63.5581,44.6104],[-63.6041,44.6834],[-63.5443,44.6548],[-63.457,44.64],[-63.3808,44.6517],[-63.3062,44.6427],[-63.1559,44.7115],[-63.0892,44.7083],[-63.0315,44.7146],[-62.768,44.785],[-62.514,44.8437],[-62.2648,44.9364],[-62.0267,44.9946],[-61.7938,45.0845],[-61.7192,45.0946],[-61.6472,45.1306],[-61.5689,45.1538],[-61.498,45.157],[-61.3874,45.185],[-61.2837,45.2353],[-61.1652,45.256],[-61.1011,45.2332],[-61.0678,45.2528],[-61.0313,45.292],[-61.071,45.3301],[-61.107,45.3486],[-61.461,45.3666],[-61.3763,45.4105],[-61.2821,45.4412],[-61.2768,45.4761],[-61.3504,45.5735],[-61.4276,45.6481],[-61.4922,45.6872],[-61.5054,45.6835],[-61.507,45.6894],[-61.4552,45.7089],[-61.4483,45.7148],[-61.4086,45.6693],[-61.3234,45.5984],[-61.2837,45.574],[-61.2361,45.5724],[-61.1863,45.5851],[-61.0837,45.5825],[-61.0339,45.5936],[-60.9784,45.6063],[-60.8715,45.6105],[-60.7635,45.5909],[-60.6731,45.5909],[-60.3863,45.6544],[-60.2053,45.7428],[-60.1143,45.819],[-60.0158,45.8804],[-59.8423,45.9418],[-59.828,45.9651],[-59.9338,46.0196],[-59.8809,46.0619],[-59.8486,46.1127],[-59.8502,46.1413],[-59.865,46.1593],[-59.8777,46.1635],[-56.3715,46.7784],[-56.3021,46.8213],[-56.354,46.7953],[-56.3847,46.8196],[-56.3773,46.8477],[-56.3323,46.9159],[-56.3339,46.9356],[-56.3868,47.0679],[-56.3778,47.0895],[-56.3646,47.0991],[-56.2873,47.071],[-56.2783,47.035],[-56.3148,46.9541],[-56.29,46.9001],[-56.2556,46.8609],[-56.264,46.845],[-56.2328,46.8641],[-55.9772,46.9371],[-55.9545,46.944],[-55.9497,46.9276],[-55.8804,46.8874],[-55.8449,46.8736],[-55.7883,46.8673],[-55.6523,46.8816],[-55.5306,46.9139],[-55.4793,46.917],[-55.4015,46.899],[-55.3158,46.9059],[-55.2549,46.9419],[-55.1395,47.0461],[-55.0993,47.1038],[-55.0904,47.1742],[-54.8565,47.3848],[-54.8014,47.3986],[-54.7448,47.3954],[-54.6511,47.4081],[-54.5744,47.4578],[-54.4739,47.5473],[-54.4633,47.5361],[-54.5427,47.425],[-54.5628,47.3753],[-54.4881,47.4039],[-54.4559,47.4277],[-54.4347,47.4621],[-54.4046,47.5557],[-54.2342,47.7716],[-54.2183,47.8468],[-54.1918,47.86],[-54.0474,47.8055],[-53.9892,47.7563],[-53.9399,47.6446],[-53.9008,47.5092],[-53.878,47.4637],[-53.8494,47.4404],[-53.869,47.3869],[-53.9706,47.262],[-54.0929,47.0864],[-54.1553,46.9673],[-54.1733,46.917],[-54.1738,46.8805],[-54.1326,46.8387],[-54.1024,46.8249],[-54.0759,46.8202],[-54.0098,46.8398],[-53.86,46.9393],[-53.7743,47.0118],[-53.6955,47.0927],[-53.6362,47.1377],[-53.5976,47.1462],[-53.5785,47.1335],[-53.5796,47.0996],[-53.6124,47.0102],[-53.5812,46.9572],[-53.5949,46.8885],[-53.6166,46.6805],[-53.5896,46.6387],[-53.5679,46.6281],[-53.5362,46.6323],[-53.3817,46.7112],[-53.3229,46.7186],[-53.2912,46.717],[-53.2547,46.698],[-53.2139,46.6604],[-53.1668,46.6466],[-53.115,46.6556],[-53.07,46.681],[-53.0319,46.7228],[-52.9615,46.8196],[-52.889,46.9742],[-52.8821,47.0112],[-52.888,47.0456],[-52.9123,47.1033],[-52.6837,47.4261],[-52.6684,47.47],[-52.6535,47.5494],[-52.6721,47.6219],[-52.7033,47.6928],[-52.7112,47.7452],[-52.743,47.7674],[-52.7313,47.7838],[-43.9472,59.7784],[-43.944,59.8186],[-43.9064,59.8155],[-43.79,59.8462],[-43.7064,59.8493],[-43.6577,59.8589],[-43.7302,59.9038],[-43.9376,59.9943],[-43.9551,60.0255],[-43.6683,59.9589],[-43.6169,59.9372],[-43.3201,59.9282],[-43.2349,59.9911],[-43.1227,60.061],[-43.1656,60.2637],[-43.165,60.3012],[-43.1566,60.333],[-43.2132,60.3907],[-43.2957,60.4452],[-43.5328,60.4732],[-43.6656,60.5028],[-43.8313,60.5219],[-43.9397,60.5674],[-43.9228,60.5954],[-43.7921,60.5944],[-43.5984,60.5759],[-43.3481,60.5198],[-43.1889,60.5071],[-43.1598,60.5171],[-43.0439,60.5235],[-42.7168,60.7674],[-42.6459,61.0643],[-42.4935,61.3627],[-42.4189,61.5368],[-42.3475,61.6173],[-42.3237,61.6818],[-42.5851,61.7173],[-42.5306,61.7554],[-42.3655,61.7744],[-42.2496,61.7713],[-42.1104,61.857],[-42.1538,61.9533],[-42.1432,62.0136],[-42.2364,62.0591],[-42.3215,62.1528],[-42.248,62.2893],[-42.2332,62.3475],[-42.1977,62.3973],[-42.2432,62.4661],[-42.1644,62.5121],[-42.1527,62.5687],[-42.4671,62.5984],[-42.6734,62.6375],[-42.8555,62.6767],[-42.9417,62.72],[-42.8491,62.7264],[-42.7412,62.7132],[-42.4237,62.7232],[-42.3157,62.7074],[-42.058,62.6941],[-41.975,62.7338],[-41.9088,62.737],[-41.7231,62.8915],[-41.6437,62.9159],[-41.6347,62.9725],[-41.9321,63.0524],[-42.094,63.1169],[-42.1427,63.1513],[-42.1744,63.209],[-42.0924,63.1894],[-42.0199,63.1598],[-41.8442,63.0704],[-41.6278,63.0645],[-41.4479,63.0688],[-41.3881,63.0619],[-41.2749,63.1307],[-41.1955,63.209],[-41.1076,63.2736],[-41.1352,63.309],[-41.1521,63.3487],[-41.0563,63.4122],[-41.0489,63.5138],[-40.9071,63.508],[-40.7753,63.5334],[-40.7716,63.626],[-40.5504,63.7255],[-40.561,63.7625],[-40.6526,63.9276],[-40.6176,64.1319],[-40.8256,64.1626],[-40.9664,64.1546],[-41.0304,64.1213],[-41.1748,64.1774],[-41.5813,64.2986],[-41.1775,64.2816],[-41.0796,64.2663],[-40.9843,64.235],[-40.7817,64.2218],[-40.6864,64.2668],[-40.6986,64.3298],[-40.4774,64.3446],[-40.2784,64.424],[-40.1821,64.4801],[-40.2097,64.5362],[-40.2784,64.596],[-40.433,64.6732],[-40.5213,64.8256],[-40.6557,64.9156],[-40.8293,64.878],[-40.9658,64.869],[-41.0277,64.9875],[-41.0886,65.0352],[-41.0844,65.1008],[-40.8806,65.0817],[-40.6674,65.1087],[-40.253,65.0489],[-40.0281,65.1024],[-39.9371,65.1415],[-39.763,65.2548],[-39.6524,65.2881],[-39.5778,65.341],[-39.6562,65.3691],[-40.1916,65.5225],[-40.1737,65.5564],[-39.9609,65.5564],[-39.4132,65.586],[-39.0889,65.6109],[-38.637,65.6241],[-38.2036,65.712],[-38.202,65.8109],[-38.2163,65.8384],[-38.4428,65.9215],[-38.5205,66.0099],[-38.3983,65.9829],[-38.1401,65.9035],[-38.0734,65.9723],[-37.9697,66.1411],[-37.8692,66.203],[-37.7522,66.2618],[-37.9893,66.3226],[-38.1565,66.3856],[-38.0517,66.3983],[-37.8141,66.3856],[-37.5696,66.348],[-37.2908,66.3237],[-37.2786,66.3046],[-37.4845,66.1946],[-37.7877,65.9781],[-37.8263,65.9099],[-37.7972,65.857],[-37.8422,65.8136],[-38.0014,65.7098],[-37.9549,65.6336],[-37.7543,65.5929],[-37.6638,65.631],[-37.5162,65.6289],[-37.4098,65.6564],[-37.3299,65.7204],[-37.3162,65.7903],[-37.2331,65.7882],[-37.0627,65.8713],[-37.0256,65.8411],[-36.9325,65.7823],[-36.8219,65.7712],[-36.7145,65.7951],[-36.6653,65.7903],[-36.6372,65.8125],[-36.5372,65.9411],[-36.5229,65.9734],[-36.5272,66.0078],[-36.3891,65.9596],[-36.3991,65.93],[-36.379,65.831],[-36.2885,65.8649],[-36.044,65.9866],[-35.8181,66.0591],[-35.7292,66.1025],[-35.6302,66.14],[-35.7556,66.3237],[-35.8123,66.3586],[-35.8345,66.3866],[-35.862,66.4062],[-35.8673,66.4412],[-35.7054,66.374],[-35.662,66.3438],[-35.4117,66.2618],[-35.291,66.2686],[-35.1884,66.2501],[-35.0746,66.2792],[-34.6328,66.4348],[-34.5762,66.4708],[-34.5238,66.5232],[-34.4761,66.592],[-34.4227,66.6301],[-34.3137,66.6359],[-34.2687,66.6248],[-34.1983,66.655],[-34.1015,66.7258],[-33.8814,66.9423],[-33.6083,67.1741],[-33.5279,67.2582],[-33.4977,67.318],[-33.5178,67.354],[-33.5046,67.3773],[-33.4585,67.3868],[-33.349,67.4429],[-33.2934,67.4857],[-33.1569,67.6265],[-33.1082,67.6582],[-33.049,67.6794],[-32.9183,67.7006],[-32.4489,67.8709],[-32.3695,67.8826],[-32.2748,67.9228],[-32.1647,67.9911],[-32.1557,68.0631],[-32.2489,68.1393],[-32.3669,68.2128],[-32.3547,68.225],[-32.2822,68.225],[-32.224,68.2361],[-32.1801,68.2573],[-32.1954,68.2916],[-32.2695,68.3393],[-32.3134,68.3874],[-32.3272,68.4372],[-32.1372,68.3848],[-31.7419,68.2297],[-31.4197,68.1287],[-31.1683,68.08],[-30.9926,68.0631],[-30.9926,68.0609],[-24.0214,64.8716],[-24.0262,64.8632]],[[-3.3045,58.9672],[-3.2421,58.9995],[-3.2325,58.9894],[-3.2325,58.9556],[-3.2235,58.9386],[-3.2008,58.9254],[-3.1664,58.9191],[-2.995,58.9392],[-2.8637,58.8905],[-2.8262,58.8931],[-2.7928,58.9069],[-2.7626,58.9556],[-2.8177,58.982],[-2.8843,58.9847],[-2.9944,59.0053],[-3.0706,59.0048],[-3.0574,59.0297],[-3.0198,59.0577],[-3.0193,59.0762],[-3.051,59.099],[-3.1563,59.1365],[-3.2484,59.144],[-3.3103,59.1307],[-3.3468,59.0651],[-3.3537,59.0185],[-3.3468,58.9868],[-3.3315,58.9714],[-3.3045,58.9672]],[[-12.5406,7.4105],[-12.5263,7.4364],[-12.5004,7.5349],[-12.5125,7.5825],[-12.5443,7.6073],[-12.6152,7.637],[-12.8544,7.6222],[-12.9517,7.5708],[-12.6073,7.4745],[-12.5406,7.4105]],[[-13.7841,28.8454],[-13.7158,28.9111],[-13.5545,28.9603],[-13.4777,29.0069],[-13.4539,29.1513],[-13.4227,29.1973],[-13.4634,29.237],[-13.5015,29.2111],[-13.5349,29.1444],[-13.6502,29.119],[-13.7884,29.0561],[-13.8238,29.0132],[-13.8598,28.8693],[-13.7841,28.8454]],[[-14.1524,28.4068],[-14.2318,28.2157],[-14.3556,28.1295],[-14.4916,28.1009],[-14.4689,28.0824],[-14.3329,28.0559],[-14.1969,28.1692],[-13.9281,28.2533],[-13.863,28.4094],[-13.8275,28.5851],[-13.827,28.6915],[-13.8572,28.738],[-13.8863,28.7449],[-13.954,28.7412],[-14.0032,28.7068],[-14.0286,28.6174],[-14.1524,28.4068]],[[-15.4156,28.1591],[-15.4325,28.1544],[-15.4526,28.1369],[-15.6828,28.1538],[-15.7209,28.0644],[-15.8092,27.9945],[-15.8071,27.8877],[-15.7103,27.7839],[-15.6558,27.7585],[-15.5595,27.7469],[-15.4367,27.8109],[-15.3891,27.8744],[-15.3833,27.993],[-15.4065,28.0708],[-15.4007,28.1475],[-15.4156,28.1591]],[[-16.3347,28.3798],[-16.1193,28.5285],[-16.1236,28.5761],[-16.3188,28.5581],[-16.5173,28.4126],[-16.557,28.4004],[-16.7522,28.3697],[-16.8432,28.3761],[-16.9051,28.3396],[-16.866,28.293],[-16.7946,28.1491],[-16.658,28.0073],[-16.5427,28.0321],[-16.4961,28.0618],[-16.4183,28.1512],[-16.3347,28.3798]],[[-16.8374,32.6481],[-16.7655,32.7099],[-16.6935,32.7581],[-16.7739,32.7735],[-16.929,32.8412],[-17.0544,32.8158],[-17.1909,32.8687],[-17.2412,32.8073],[-17.2258,32.7666],[-17.1713,32.7221],[-17.0184,32.6629],[-16.8374,32.6481]],[[-17.7973,28.8465],[-17.9286,28.8444],[-18.001,28.7581],[-17.882,28.5645],[-17.8592,28.4856],[-17.8344,28.493],[-17.7582,28.5692],[-17.7444,28.6158],[-17.7518,28.6888],[-17.7264,28.7243],[-17.7444,28.7867],[-17.7973,28.8465]],[[-22.8207,15.9862],[-22.7101,16.0433],[-22.6821,16.1132],[-22.6926,16.1693],[-22.7493,16.2216],[-22.8027,16.2254],[-22.8345,16.219],[-22.9175,16.237],[-22.916,16.1486],[-22.9593,16.0449],[-22.8842,15.9925],[-22.8207,15.9862]],[[-23.7055,14.9612],[-23.6372,14.9236],[-23.5049,14.9162],[-23.4441,15.0077],[-23.5351,15.1395],[-23.5801,15.1607],[-23.7007,15.2718],[-23.707,15.3168],[-23.7483,15.3284],[-23.7594,15.311],[-23.7547,15.2437],[-23.7827,15.166],[-23.7848,15.0771],[-23.7055,14.9612]],[[-24.3918,15.0384],[-24.4971,14.9802],[-24.5172,14.931],[-24.4923,14.8744],[-24.4405,14.8347],[-24.386,14.8183],[-24.3082,14.8564],[-24.296,14.9294],[-24.3294,15.0194],[-24.3918,15.0384]],[[-25.267,16.926],[-25.1697,16.9466],[-25.0173,17.0493],[-24.9797,17.0948],[-25.0347,17.1763],[-25.1136,17.1937],[-25.3369,17.0911],[-25.3417,17.0678],[-25.3221,17.0154],[-25.3083,16.936],[-25.267,16.926]],[[-25.8338,37.8259],[-25.7343,37.763],[-25.439,37.7153],[-25.2512,37.7349],[-25.1908,37.7646],[-25.1818,37.8381],[-25.2665,37.8487],[-25.5856,37.8339],[-25.6491,37.8408],[-25.7835,37.9111],[-25.8459,37.8942],[-25.8481,37.8725],[-25.8338,37.8259]],[[-27.362,38.698],[-27.3027,38.661],[-27.0953,38.634],[-27.0752,38.6435],[-27.0419,38.679],[-27.0419,38.7414],[-27.1271,38.7901],[-27.2599,38.8028],[-27.3509,38.789],[-27.3858,38.7657],[-27.362,38.698]],[[-28.4023,38.5535],[-28.5103,38.553],[-28.5489,38.5186],[-28.5309,38.4625],[-28.4547,38.4086],[-28.3325,38.4128],[-28.2309,38.3847],[-28.1896,38.4043],[-28.0647,38.4128],[-28.1473,38.4525],[-28.4023,38.5535]],[[-37.2384,65.6098],[-37.1871,65.5315],[-37.0315,65.532],[-36.987,65.5755],[-36.9532,65.6633],[-37.0473,65.722],[-37.223,65.6956],[-37.2384,65.6098]],[[-68.7847,34.7802],[-69.6084,33.7918],[-70.0575,31.482],[-70.0575,25.1372],[-69.7731,24.1547],[-67.8787,22.5898],[-66.4456,21.8926],[-61.5753,20.4708],[-57.6579,20.0356],[-53.893,20.0356],[-51.817,20.3658],[-50.6638,21.2719],[-50.1696,22.8369],[-50.0262,23.4999],[-50.0262,32.3415],[-50.4167,33.7918],[-51.4875,34.6155],[-53.8644,35.0288],[-67.5931,35.0267],[-68.7847,34.7802]],[[-50.3988,1.8929],[-50.2987,1.9384],[-50.2919,1.9797],[-50.3421,2.1416],[-50.3628,2.1543],[-50.4189,2.1617],[-50.4908,2.1284],[-50.5088,2.0294],[-50.4559,1.9103],[-50.3988,1.8929]],[[-73.0587,21.3133],[-73.1371,21.2048],[-73.2355,21.1545],[-73.3016,21.1561],[-73.4244,21.2017],[-73.5233,21.1911],[-73.5852,21.126],[-73.6805,21.1032],[-73.6694,21.082],[-73.6678,21.0614],[-73.6868,21.009],[-73.681,20.9757],[-73.6609,20.9376],[-73.4006,20.9439],[-73.1646,20.9794],[-73.0587,21.1191],[-73.027,21.1927],[-73.0116,21.2995],[-73.0587,21.3133]],[[-74.2615,22.2356],[-74.2769,22.1838],[-74.2065,22.2139],[-74.0927,22.306],[-73.9747,22.361],[-73.8366,22.5383],[-73.8773,22.6807],[-73.8498,22.7309],[-73.9541,22.7156],[-73.9752,22.6823],[-73.9763,22.6352],[-73.9144,22.568],[-73.9065,22.5272],[-73.9361,22.478],[-73.9948,22.4494],[-74.0102,22.4277],[-74.0525,22.4007],[-74.1266,22.3235],[-74.2615,22.2356]],[[-75.3161,23.6686],[-75.3098,23.5898],[-75.2881,23.5681],[-75.241,23.4744],[-75.1574,23.3363],[-75.1304,23.268],[-75.141,23.2045],[-75.2045,23.1929],[-75.2235,23.1654],[-75.132,23.1172],[-74.9732,23.0685],[-74.8468,22.8685],[-74.8404,22.8944],[-74.8457,22.9998],[-74.9373,23.0881],[-75.0643,23.15],[-75.1087,23.3326],[-75.1754,23.4384],[-75.2167,23.5469],[-75.3161,23.6686]],[[-75.4813,24.174],[-75.5035,24.139],[-75.4675,24.1396],[-75.3685,24.1597],[-75.3019,24.1491],[-75.3082,24.1999],[-75.5183,24.4275],[-75.5262,24.4497],[-75.6537,24.6809],[-75.7098,24.6973],[-75.7268,24.6894],[-75.7443,24.6545],[-75.6612,24.5899],[-75.6389,24.5296],[-75.5929,24.4915],[-75.494,24.3306],[-75.4088,24.2655],[-75.4125,24.2211],[-75.4813,24.174]],[[-76.1745,24.7598],[-76.1406,24.8857],[-76.1152,25.0947],[-76.1268,25.1408],[-76.1919,25.191],[-76.3438,25.3318],[-76.484,25.3747],[-76.6486,25.4874],[-76.711,25.5652],[-76.7269,25.5514],[-76.7491,25.4805],[-76.7809,25.427],[-76.693,25.4429],[-76.6205,25.4318],[-76.4999,25.3413],[-76.3692,25.3127],[-76.2845,25.2223],[-76.1602,25.1196],[-76.1528,25.0259],[-76.2046,24.936],[-76.2136,24.8222],[-76.32,24.8175],[-76.3004,24.7957],[-76.2411,24.7545],[-76.2052,24.682],[-76.1697,24.6492],[-76.1745,24.7598]],[[-77.8625,26.9399],[-77.944,26.9034],[-77.7958,26.9013],[-77.5106,26.8457],[-77.3302,26.6182],[-77.2386,26.561],[-77.2058,26.4891],[-77.2301,26.4245],[-77.2211,26.3615],[-77.2476,26.289],[-77.2465,26.1562],[-77.2942,26.0954],[-77.4032,26.0245],[-77.3333,25.9954],[-77.2465,25.8953],[-77.2254,25.9043],[-77.191,25.9557],[-77.1672,26.2404],[-77.0381,26.3335],[-77.0661,26.5303],[-77.1619,26.597],[-77.2571,26.6388],[-77.2693,26.6632],[-77.2661,26.6886],[-77.2958,26.7119],[-77.3688,26.7479],[-77.4492,26.8362],[-77.5339,26.9034],[-77.672,26.914],[-77.7874,26.9357],[-77.8625,26.9399]],[[-77.5371,23.9618],[-77.5318,23.9877],[-77.5614,24.1369],[-77.6154,24.2163],[-77.6831,24.1184],[-77.7551,24.1634],[-77.6561,24.2264],[-77.6577,24.2496],[-77.7016,24.2877],[-77.7572,24.2698],[-77.8498,24.2576],[-77.8837,24.2422],[-77.9498,24.2528],[-78.0001,24.22],[-77.9138,24.0909],[-77.8525,24.0406],[-77.8064,23.8835],[-77.7757,23.8623],[-77.7715,23.7528],[-77.5736,23.739],[-77.5185,23.8697],[-77.5212,23.911],[-77.5318,23.9395],[-77.5371,23.9618]]]}}
