{"type":"Feature","properties":{"id":3,"name":"North Pacific Ocean","featurecla":"ocean","scalerank":0,"wikidataid":"Q98","source":"Natural Earth 5.2.0-pre ne_10m_geography_marine_polys (public domain)"},"geometry":{"type":"MultiPolygon","coordinates":[[[[179.9999,-0.0529],[174.4574,-0.0529],[173.8224,1.2171],[173.6107,2.9105],[172.9757,3.6513],[172.2349,3.6513],[171.8116,2.6988],[172.0232,1.4288],[172.5524,-0.0576],[131.0662,-0.0576],[131.026,-0.0402],[130.9864,-0.0465],[130.8133,-0.0042],[130.7223,-0.0296],[130.5842,-0.0455],[130.5662,-0.0576],[129.9127,-0.0576],[128.6628,2.376],[128.6887,2.4739],[128.6019,2.5977],[128.5755,2.5967],[128.5744,2.6215],[144.7182,12.9117],[145.2474,13.4409],[145.8824,14.6051],[146.1999,15.6634],[146.3057,16.6159],[146.2528,17.6742],[146.1999,18.8384],[145.8824,19.6321],[145.3532,20.6376],[144.6653,20.9021],[142.3899,21.2726],[141.8078,21.7488],[141.5432,22.5426],[141.5432,23.8655],[142.1253,25.0296],[142.4428,25.9821],[142.5486,26.723],[142.4428,27.6226],[142.0195,28.3105],[140.9082,30.0038],[140.4849,31.1151],[140.4849,31.9088],[140.1145,33.1259],[139.797,33.9196],[139.0382,34.77],[139.0858,34.8393],[139.1218,34.9563],[139.1159,35.097],[139.1339,35.1547],[139.1625,35.2108],[139.2493,35.278],[139.3636,35.2981],[139.4742,35.2986],[139.5641,35.2431],[139.6361,35.142],[139.6752,35.1494],[139.7308,35.2214],[139.7441,35.2526],[139.7001,35.2738],[139.6657,35.3193],[139.6498,35.4092],[139.7679,35.495],[139.7737,35.5204],[139.77,35.5495],[139.7864,35.6119],[139.8345,35.658],[139.9097,35.6685],[139.9875,35.668],[140.0436,35.6331],[140.097,35.5849],[140.0864,35.5405],[140.0271,35.4854],[139.9441,35.423],[139.906,35.3452],[139.8266,35.2965],[139.8515,35.2325],[139.8297,35.0721],[139.8435,35.0097],[139.7991,34.9568],[139.8441,34.915],[139.9203,34.8997],[139.96,34.9473],[140.0594,35.0383],[140.1589,35.0965],[140.315,35.1552],[140.3547,35.1817],[140.3928,35.2214],[140.4166,35.2669],[140.4129,35.3949],[140.4574,35.5103],[140.597,35.632],[140.6394,35.6611],[140.8738,35.7252],[140.8135,35.7823],[140.7596,35.8458],[140.6219,36.0591],[140.5902,36.1427],[140.5738,36.2316],[140.5918,36.3078],[140.6193,36.3856],[140.6188,36.4453],[140.6273,36.503],[140.7299,36.7322],[140.7918,36.847],[140.8394,36.8904],[140.895,36.9258],[140.9685,37.002],[141.0019,37.1147],[141.0363,37.4672],[141.0035,37.6984],[140.9601,37.8228],[140.9278,37.9498],[140.9288,38.0529],[140.9622,38.1487],[141.0775,38.3128],[141.1083,38.3382],[141.2543,38.3816],[141.3681,38.38],[141.4676,38.4043],[141.5088,38.498],[141.5189,38.6319],[141.5464,38.7626],[141.5798,38.8165],[141.6221,38.8652],[141.6448,38.9181],[141.6586,38.9748],[141.6935,38.9954],[141.7427,38.9996],[141.7761,39.0176],[141.8068,39.0404],[141.8422,39.0901],[141.9009,39.1113],[141.9094,39.2187],[141.9771,39.4288],[141.993,39.6103],[141.9793,39.6685],[141.992,39.74],[141.9909,39.7923],[141.9777,39.8442],[141.9348,39.9585],[141.8777,40.067],[141.7972,40.2913],[141.6919,40.4189],[143.2456,42.0069],[143.245,42.0074],[143.2789,42.0376],[143.3138,42.0842],[143.327,42.1508],[143.3323,42.2201],[143.3689,42.3249],[143.4297,42.4191],[143.581,42.5985],[143.762,42.7482],[143.9694,42.8816],[144.197,42.9737],[144.3012,42.9843],[144.5161,42.9435],[144.6309,42.9467],[144.8071,42.9938],[144.9214,43.0012],[145.0288,43.0319],[145.1273,43.089],[145.2299,43.1356],[145.3474,43.1769],[145.4045,43.1801],[145.5051,43.1742],[145.5374,43.1928],[145.6241,43.2912],[145.7258,43.3436],[145.8168,43.3795],[145.8178,43.3769],[146.1676,43.3605],[147.0466,43.8151],[149.4278,45.3496],[151.8091,46.5667],[153.5553,47.8367],[155.037,49.1596],[156.2541,50.218],[157.1362,51.1742],[157.2023,51.2128],[157.4896,51.4091],[157.5309,51.48],[157.6289,51.5345],[157.8231,51.6055],[158.1035,51.8097],[158.3316,52.0907],[158.4633,52.305],[158.4929,52.3833],[158.5004,52.4606],[158.4808,52.6267],[158.5337,52.6886],[158.6089,52.8739],[158.5602,52.922],[158.4321,52.9575],[158.4718,53.0326],[158.5644,53.0501],[158.6395,53.0146],[158.6835,52.9352],[158.7454,52.9088],[158.9523,53.0474],[159.1359,53.1173],[159.5857,53.2379],[159.7714,53.2295],[159.9476,53.1252],[160.0249,53.1294],[160.0481,53.1051],[161.5076,54.4973],[161.5076,54.518],[161.6246,54.5164],[161.7257,54.5328],[161.9669,54.6889],[162.1056,54.7524],[162.0918,54.8249],[162.1463,54.8355],[163.0337,55.9864],[162.9718,56.034],[163.0475,56.0446],[163.1893,56.1372],[163.2613,56.1737],[163.2962,56.2012],[163.3062,56.1886],[164.7736,55.1921],[167.0491,54.1338],[170.3299,52.8638],[173.1874,51.9113],[175.7803,51.4351],[178.2145,51.0646],[179.9597,50.9868],[179.9999,50.9868],[179.9999,-0.0529]]],[[[-134.2403,56.2243],[-134.2452,56.2034],[-134.1897,56.0769],[-134.1225,56.0774],[-134.0674,56.133],[-134.024,56.1192],[-133.9939,56.1013],[-133.9827,56.1046],[-133.754,55.9962],[-133.7425,55.9647],[-133.6843,55.943],[-133.5388,55.9991],[-133.371,56.0362],[-133.289,56.0187],[-133.252,55.9573],[-133.2414,55.9208],[-133.3086,55.8864],[-133.3223,55.8446],[-133.4118,55.7986],[-133.4472,55.797],[-133.5372,55.8319],[-133.5843,55.8367],[-133.6642,55.8039],[-133.6801,55.7853],[-133.6404,55.7488],[-133.5531,55.6911],[-133.5028,55.6959],[-133.3689,55.689],[-133.343,55.6509],[-133.298,55.607],[-133.2826,55.6037],[-133.3063,55.5516],[-133.3123,55.5463],[-133.3456,55.5589],[-133.4546,55.5223],[-133.5668,55.5271],[-133.634,55.5393],[-133.7372,55.4969],[-133.6351,55.4133],[-133.6504,55.2694],[-133.5472,55.317],[-133.527,55.3337],[-133.4448,55.2761],[-133.4536,55.2604],[-133.4181,55.2106],[-133.325,55.1858],[-133.2509,55.1752],[-133.2049,55.0847],[-133.1229,54.9699],[-133.0805,54.9493],[-133.0752,54.9212],[-133.0091,54.8551],[-132.8895,54.7624],[-132.817,54.7154],[-132.8191,54.7122],[-133.0541,54.1603],[-133.0503,54.1566],[-133.0641,54.1439],[-133.098,54.0057],[-133.0975,53.92],[-133.0795,53.8369],[-133.0525,53.7782],[-132.9133,53.629],[-132.8995,53.6052],[-132.898,53.5628],[-132.845,53.5078],[-132.6704,53.4586],[-132.4312,53.3506],[-132.4249,53.3369],[-132.4625,53.3379],[-132.5461,53.3591],[-132.6545,53.3707],[-132.6926,53.3681],[-132.7477,53.3104],[-132.6746,53.2633],[-132.5233,53.195],[-132.5238,53.1935],[-132.5238,53.1448],[-132.5244,53.1448],[-132.5466,53.1374],[-132.5048,53.0866],[-132.4688,53.0718],[-132.1439,52.9993],[-132.145,52.9575],[-132.2296,52.9479],[-132.2582,52.9336],[-132.2598,52.9072],[-132.2386,52.867],[-132.1651,52.7834],[-132.092,52.7527],[-131.8095,52.5415],[-131.6237,52.4442],[-131.5618,52.3997],[-131.511,52.3219],[-131.4221,52.2378],[-131.2215,52.1537],[-131.2221,52.1521],[-131.1189,52.1007],[-131.1173,52.1007],[-131.1073,52.1367],[-131.0982,52.1505],[-131.0104,52.0955],[-131.0295,51.9616],[-131.0474,51.9595],[-131.0263,51.9557],[-128.3492,50.7032],[-128.3498,50.6963],[-128.2672,50.609],[-128.1355,50.5207],[-128.0582,50.4984],[-127.9635,50.4926],[-127.8645,50.499],[-127.7312,50.5355],[-127.7497,50.5778],[-127.7513,50.6074],[-127.5264,50.5969],[-127.4661,50.5831],[-127.529,50.5365],[-127.5243,50.4958],[-127.4893,50.4275],[-127.4867,50.4048],[-127.5782,50.4651],[-127.6412,50.4789],[-127.8317,50.4709],[-127.874,50.464],[-127.9058,50.445],[-127.9629,50.346],[-127.9466,50.3264],[-127.8508,50.3138],[-127.8391,50.2931],[-127.828,50.2116],[-127.873,50.1502],[-127.864,50.1275],[-127.8164,50.1179],[-127.7703,50.1211],[-127.6751,50.1635],[-127.4671,50.1635],[-127.4296,50.1306],[-127.3978,50.0852],[-127.3496,50.0518],[-127.2898,50.0709],[-127.2713,50.0957],[-127.2681,50.1296],[-127.2496,50.1381],[-127.2158,50.1217],[-127.1925,50.1],[-127.1798,50.073],[-127.1793,50.0502],[-127.2073,49.9926],[-127.1956,49.9491],[-127.1655,49.9105],[-127.1142,49.8798],[-127.0485,49.8714],[-126.9771,49.883],[-126.948,49.9026],[-126.9263,49.9349],[-126.9035,49.9444],[-126.8496,49.9227],[-126.7448,49.9047],[-126.6829,49.8766],[-126.5929,49.7639],[-126.558,49.7332],[-126.5252,49.7195],[-126.4628,49.72],[-126.403,49.6777],[-126.3474,49.6608],[-126.1342,49.6724],[-126.158,49.6502],[-126.4426,49.6195],[-126.5421,49.5904],[-126.5575,49.5787],[-126.5638,49.5433],[-126.5485,49.4189],[-126.5194,49.3967],[-126.4998,49.3999],[-126.4448,49.4512],[-126.4188,49.4491],[-126.3045,49.3819],[-126.2797,49.3919],[-126.2696,49.4316],[-126.2437,49.4427],[-126.1691,49.4152],[-126.0997,49.421],[-126.0749,49.4089],[-126.0484,49.3792],[-126.0204,49.3681],[-125.9352,49.4015],[-125.9378,49.3798],[-125.9839,49.2877],[-125.9516,49.248],[-125.9183,49.2496],[-125.8357,49.2766],[-125.7965,49.2602],[-125.7283,49.1998],[-125.6939,49.1903],[-125.6547,49.193],[-125.6441,49.1856],[-125.7023,49.139],[-125.8119,49.1072],[-125.8283,49.0919],[-125.6605,49.0289],[-125.5431,48.9527],[-125.4896,48.9337],[-125.4605,48.9411],[-125.3626,48.9983],[-125.1684,48.9908],[-124.9271,49.0141],[-124.9044,49.031],[-124.8684,49.0787],[-124.8388,49.139],[-124.8207,49.2073],[-124.8128,49.2126],[-124.8001,49.1417],[-124.8171,49.0834],[-124.8499,49.0284],[-124.9345,48.9564],[-125.1356,48.8226],[-125.1404,48.8024],[-125.1208,48.7606],[-125.0171,48.7114],[-124.8684,48.6537],[-124.7652,48.6209],[-124.7684,48.6119],[-124.716,48.3934],[-124.7102,48.3802],[-124.68,48.286],[-124.7017,48.1516],[-124.6631,47.9743],[-124.6213,47.9039],[-124.4599,47.7843],[-124.3763,47.6584],[-124.309,47.4044],[-124.199,47.2086],[-124.1704,47.0869],[-124.1635,47.0155],[-124.1392,46.9546],[-124.117,47.0001],[-124.1117,47.035],[-124.0423,47.0297],[-123.9863,46.9848],[-123.8428,46.9631],[-124.1127,46.8625],[-124.0715,46.7451],[-123.9577,46.7085],[-123.8889,46.6598],[-123.9122,46.5334],[-123.946,46.4323],[-124.0164,46.5212],[-124.0445,46.6048],[-124.0503,46.4905],[-124.045,46.373],[-124.0722,46.2804],[-124.0728,46.2797],[-124.0725,46.2795],[-124.0725,46.2794],[-124.0723,46.2794],[-123.9888,46.2178],[-123.9751,46.1783],[-123.9471,46.1407],[-123.9614,45.8428],[-123.9291,45.5772],[-123.963,45.4761],[-123.9487,45.401],[-124.0593,44.7776],[-124.0445,44.6485],[-124.0656,44.5199],[-124.0476,44.4257],[-124.099,44.3336],[-124.1307,44.0558],[-124.1487,43.6918],[-124.1842,43.6515],[-124.2392,43.5399],[-124.2879,43.4097],[-124.2334,43.4362],[-124.1969,43.4234],[-124.2757,43.3674],[-124.3207,43.3684],[-124.3466,43.3414],[-124.4546,43.0123],[-124.4985,42.9366],[-124.5398,42.8128],[-124.444,42.6705],[-124.4064,42.5837],[-124.4207,42.381],[-124.4101,42.3043],[-124.3551,42.1228],[-124.2117,41.9847],[-124.2085,41.8883],[-124.2445,41.7878],[-124.163,41.719],[-124.1175,41.6216],[-124.072,41.4597],[-124.0683,41.3841],[-124.1402,41.156],[-124.1328,40.9697],[-124.2,40.8221],[-124.2191,40.7909],[-124.2223,40.775],[-124.19,40.7718],[-124.2085,40.7459],[-124.2201,40.6967],[-124.2508,40.7041],[-124.2424,40.7279],[-124.254,40.74],[-124.2836,40.7104],[-124.3244,40.5982],[-124.3715,40.4914],[-124.3567,40.3712],[-124.3239,40.2522],[-124.1085,40.0945],[-123.8847,39.8606],[-123.8328,39.7754],[-123.7836,39.6188],[-123.7778,39.5151],[-123.8201,39.3685],[-123.7195,39.1108],[-123.701,38.907],[-123.4248,38.6758],[-123.2899,38.5361],[-123.1211,38.4493],[-123.0459,38.3048],[-122.9867,38.2773],[-122.9083,38.1964],[-122.8766,38.1233],[-122.9777,38.2276],[-122.9681,38.0969],[-123.0015,38.0191],[-122.9988,37.9884],[-122.9322,38.0556],[-122.8729,38.026],[-122.7602,37.9455],[-122.6808,37.9021],[-122.584,37.8741],[-122.5223,37.827],[-122.5226,37.8264],[-122.5144,37.7722],[-122.5141,37.7719],[-122.5003,37.6529],[-122.4993,37.5429],[-122.4083,37.373],[-122.3951,37.2073],[-122.1647,36.9912],[-122.1652,36.9904],[-121.9193,36.5727],[-121.9187,36.5725],[-121.9188,36.5723],[-121.9103,36.4332],[-121.8775,36.331],[-121.6643,36.1543],[-121.4648,35.9273],[-121.4336,35.8638],[-121.3436,35.7923],[-121.2838,35.6765],[-121.1377,35.6071],[-121.0229,35.4807],[-120.8996,35.4251],[-120.8605,35.3653],[-120.8848,35.2748],[-120.8573,35.2097],[-120.707,35.1579],[-120.6589,35.1224],[-120.6335,35.0764],[-120.6631,34.9494],[-120.625,34.8118],[-120.6377,34.7494],[-120.6266,34.6689],[-120.6446,34.58],[-120.5599,34.544],[-120.4811,34.4716],[-120.3964,34.4594],[-120.1694,34.4763],[-120.053,34.4694],[-119.8535,34.4118],[-119.7132,34.3996],[-119.6058,34.4181],[-119.4137,34.3387],[-119.2677,34.2572],[-119.2359,34.1641],[-119.1439,34.1122],[-118.8322,34.0244],[-118.5988,34.035],[-118.5062,34.0175],[-118.393,33.8582],[-118.4104,33.744],[-118.294,33.7122],[-118.2644,33.7588],[-118.1617,33.7508],[-118.0807,33.7223],[-117.9522,33.6196],[-117.7886,33.5386],[-117.4674,33.2957],[-117.3188,33.0999],[-117.2632,32.9391],[-117.2558,32.8735],[-117.2706,32.8063],[-117.2436,32.6639],[-117.1838,32.6877],[-117.1373,32.6491],[-117.1304,32.5396],[-117.0632,32.3438],[-117.0346,32.3052],[-116.9134,32.1988],[-116.8478,31.9972],[-116.6208,31.8511],[-116.624,31.758],[-116.652,31.7405],[-116.7018,31.7437],[-116.7219,31.7347],[-116.6684,31.6987],[-116.6621,31.5648],[-116.6097,31.4992],[-116.4583,31.3611],[-116.3334,31.2029],[-116.3096,31.1272],[-116.3096,31.051],[-116.2964,30.9706],[-116.062,30.8039],[-116.0355,30.7055],[-116.0286,30.5637],[-115.9958,30.4144],[-115.8582,30.3599],[-115.8154,30.3038],[-115.7895,30.0842],[-115.8085,29.9604],[-115.7487,29.9355],[-115.6736,29.7561],[-115.5651,29.6799],[-115.3111,29.5318],[-115.1661,29.427],[-114.9936,29.3842],[-114.9375,29.3513],[-114.8761,29.282],[-114.6639,29.0947],[-114.3094,28.7301],[-114.1454,28.6052],[-114.0485,28.4264],[-114.093,28.2216],[-114.185,28.0131],[-114.266,27.9342],[-114.2528,27.9078],[-114.1586,27.9194],[-114.1575,27.8681],[-114.1755,27.8305],[-114.1353,27.7268],[-114.0692,27.6755],[-114.1374,27.6712],[-114.2327,27.7183],[-114.3025,27.7755],[-114.2893,27.8385],[-114.3004,27.8728],[-114.3729,27.8411],[-114.4486,27.7967],[-114.5703,27.7839],[-114.8237,27.83],[-115.0365,27.8416],[-115.0333,27.7988],[-114.9936,27.7358],[-114.8587,27.6591],[-114.7158,27.5395],[-114.5401,27.431],[-114.4983,27.376],[-114.4798,27.2833],[-114.4454,27.2183],[-114.3332,27.158],[-114.202,27.1437],[-114.1099,27.1061],[-113.9967,26.9876],[-113.9358,26.9854],[-113.8411,26.9664],[-113.7564,26.8706],[-113.7014,26.7912],[-113.5987,26.7214],[-113.4257,26.796],[-113.2722,26.7912],[-113.2055,26.8568],[-113.1558,26.9463],[-113.1431,26.7923],[-113.1193,26.7166],[-113.0209,26.5833],[-112.6584,26.3166],[-112.5261,26.2737],[-112.3774,26.2139],[-112.1737,25.9128],[-112.1197,25.7657],[-112.1144,25.6302],[-112.0932,25.5842],[-112.0699,25.5731],[-112.0557,25.4884],[-112.0779,25.3239],[-112.1287,25.0429],[-112.1192,24.9339],[-112.0726,24.8402],[-111.8482,24.6703],[-111.825,24.6317],[-111.8223,24.5735],[-111.8027,24.5423],[-111.7503,24.5539],[-111.6831,24.556],[-111.5784,24.4428],[-111.4191,24.329],[-111.036,24.1052],[-110.8957,23.9702],[-110.765,23.8771],[-110.6301,23.7374],[-110.3629,23.6051],[-110.2888,23.5178],[-110.2443,23.4125],[-110.1808,23.3416],[-110.0861,23.0056],[-110.0062,22.8939],[-109.9236,22.886],[-109.8231,22.922],[-109.7284,22.9818],[-109.6305,23.0786],[-109.4956,23.1601],[-109.458,23.2146],[-109.4469,23.2654],[-106.9804,23.82],[-106.9222,23.8644],[-106.7285,23.6109],[-106.5666,23.4496],[-106.4021,23.1955],[-106.2343,23.0611],[-106.0216,22.8288],[-105.9433,22.777],[-105.7919,22.6277],[-105.6453,22.3266],[-105.649,21.988],[-105.5273,21.8186],[-105.4575,21.6726],[-105.4316,21.6181],[-105.2088,21.4906],[-105.2331,21.3805],[-105.2252,21.2498],[-105.2368,21.1191],[-105.3019,21.0265],[-105.394,20.926],[-105.4564,20.8439],[-105.5109,20.809],[-105.4924,20.7767],[-105.4199,20.7751],[-105.3273,20.7529],[-105.2522,20.6682],[-105.2448,20.6344],[-105.2601,20.5788],[-105.3771,20.5116],[-105.5427,20.4978],[-105.6422,20.4359],[-105.6692,20.3857],[-105.6157,20.3164],[-105.5702,20.228],[-105.5326,20.0756],[-105.4818,19.9761],[-105.2866,19.7068],[-105.1077,19.5623],[-105.0453,19.4432],[-104.9384,19.3093],[-104.6029,19.1527],[-104.405,19.0913],[-104.2769,19.0109],[-104.0457,18.9119],[-103.9123,18.8283],[-103.6991,18.6331],[-103.58,18.4844],[-103.4414,18.3256],[-103.0186,18.187],[-102.6995,18.0626],[-102.5471,18.0415],[-102.2163,17.9573],[-101.9957,17.9727],[-101.9189,17.96],[-101.847,17.9224],[-101.7623,17.842],[-101.6004,17.6515],[-101.4872,17.6155],[-101.3855,17.5144],[-101.148,17.3932],[-101.0019,17.2763],[-100.8479,17.2006],[-100.432,17.0641],[-100.2431,16.9842],[-100.0245,16.9207],[-99.6906,16.7196],[-99.3482,16.6646],[-99.0017,16.5815],[-98.908,16.5444],[-98.762,16.5349],[-98.5201,16.3047],[-98.1391,16.2063],[-97.7549,15.9666],[-97.1845,15.9094],[-96.8077,15.7264],[-96.5109,15.6517],[-96.4087,15.683],[-96.2135,15.693],[-93.0242,15.3104],[-92.9184,15.2364],[-92.8088,15.1385],[-92.531,14.8395],[-92.2643,14.568],[-92.2352,14.5453],[-91.8193,14.2283],[-91.6409,14.1151],[-91.3774,13.9902],[-91.1462,13.9256],[-90.6069,13.9288],[-90.4789,13.9007],[-89.9704,13.6832],[-89.8042,13.5599],[-89.5232,13.5092],[-89.2777,13.4779],[-88.8671,13.2832],[-88.512,13.1837],[-88.4839,13.1969],[-88.5813,13.2451],[-88.6559,13.2594],[-88.6855,13.2816],[-88.5914,13.2811],[-88.4173,13.2134],[-88.1807,13.1641],[-88.0236,13.1689],[-87.931,13.1805],[-87.878,13.2245],[-87.8209,13.2853],[-87.8384,13.3859],[-87.814,13.3991],[-87.7696,13.3769],[-87.7082,13.3599],[-87.6023,13.3859],[-87.4891,13.353],[-87.4854,13.3107],[-87.4986,13.2747],[-87.4584,13.2155],[-87.4129,13.1276],[-87.3325,13.0848],[-87.3372,12.9794],[-87.3388,12.9498],[-87.3896,12.9207],[-87.4246,12.9213],[-87.4981,12.9842],[-87.5431,13.0398],[-87.5849,13.0435],[-87.6701,12.9657],[-87.6674,12.9038],[-87.46,12.7577],[-87.1885,12.5085],[-87.125,12.4339],[-86.8509,12.2476],[-86.7557,12.1566],[-86.6557,11.9814],[-86.4689,11.7386],[-85.9614,11.3311],[-85.8286,11.1988],[-85.745,11.0887],[-85.7439,11.0432],[-85.7524,10.985],[-85.8873,10.9215],[-85.908,10.8977],[-85.8328,10.8501],[-85.7148,10.7908],[-85.6672,10.7448],[-85.6714,10.6797],[-85.6635,10.6352],[-85.7032,10.5633],[-85.8307,10.3982],[-85.8497,10.2918],[-85.7963,10.1331],[-85.6809,9.9584],[-85.6248,9.9023],[-85.3148,9.8108],[-85.1539,9.6203],[-85.1147,9.5817],[-85.0772,9.6018],[-85.0597,9.6685],[-85.0015,9.6992],[-84.8867,9.8208],[-84.9084,9.8844],[-84.9629,9.9336],[-85.1608,10.0172],[-85.2364,10.1071],[-85.2634,10.2569],[-85.2354,10.2421],[-85.1983,10.1955],[-85.0253,10.1156],[-84.7147,9.8992],[-84.6433,9.7896],[-84.6702,9.7028],[-84.6591,9.6468],[-84.5813,9.5684],[-84.4829,9.5261],[-84.2226,9.4626],[-84.1178,9.3795],[-83.8955,9.2763],[-83.7368,9.1504],[-83.6373,9.0356],[-83.6161,8.9599],[-83.6135,8.8043],[-83.6421,8.7292],[-83.7341,8.6144],[-83.6045,8.4805],[-83.5436,8.4461],[-83.4521,8.4387],[-83.3769,8.4149],[-83.2918,8.4059],[-83.2896,8.4635],[-83.2976,8.5069],[-83.4219,8.6191],[-83.4696,8.707],[-83.3912,8.7176],[-83.2859,8.6646],[-83.1626,8.5884],[-83.1298,8.5053],[-83.1235,8.353],[-83.0415,8.2879],[-82.9473,8.1815],[-82.8795,8.0709],[-82.8541,8.0995],[-82.8663,8.2461],[-82.7811,8.3037],[-82.6795,8.3217],[-82.5308,8.2873],[-82.3647,8.2746],[-82.2355,8.3111],[-82.2244,8.2302],[-82.1599,8.1947],[-82.0969,8.2228],[-81.9731,8.2154],[-81.8603,8.1656],[-81.7275,8.1376],[-81.6942,8.0714],[-81.6757,8.0159],[-81.5042,7.7211],[-81.3698,7.6751],[-81.2682,7.6253],[-81.219,7.6211],[-81.1952,7.6682],[-81.1793,7.8074],[-81.1576,7.8545],[-81.0941,7.8762],[-81.064,7.9],[-81.0349,7.7111],[-80.9147,7.4375],[-80.901,7.2772],[-80.8454,7.22],[-80.6666,7.2258],[-80.439,7.275],[-80.3729,7.3248],[-80.348,7.3856],[-80.2871,7.4259],[-80.1104,7.4333],[-80.0675,7.4534],[-80.0114,7.4999],[-78.1334,7.4999],[-77.9297,7.2565],[-77.8038,7.1374],[-77.681,6.9602],[-77.6461,6.8697],[-77.6022,6.8374],[-77.526,6.693],[-77.4387,6.6903],[-77.3688,6.5755],[-77.3598,6.5046],[-77.3984,6.2749],[-77.4402,6.2717],[-77.473,6.2855],[-77.4693,6.177],[-77.3444,5.9955],[-77.2492,5.7801],[-77.3249,5.6754],[-77.5344,5.5373],[-77.4016,5.4161],[-77.3735,5.324],[-77.3593,5.215],[-77.3667,5.0764],[-77.3397,4.8387],[-77.3064,4.7848],[-77.2862,4.7218],[-77.3138,4.5938],[-77.3286,4.4752],[-77.3534,4.3985],[-77.4143,4.3477],[-77.446,4.3011],[-77.5154,4.2561],[-77.5207,4.2127],[-77.409,4.2477],[-77.4042,4.2006],[-77.4334,4.1307],[-77.4275,4.0603],[-77.3582,3.9445],[-77.2778,4.0588],[-77.2487,4.0408],[-77.2635,3.8931],[-77.2122,3.8672],[-77.1667,3.8625],[-77.127,3.9058],[-77.0767,3.9133],[-77.2429,3.5852],[-77.3243,3.4746],[-77.3566,3.3486],[-77.4169,3.3417],[-77.472,3.2338],[-77.5201,3.1602],[-77.5593,3.0761],[-77.6323,3.0512],[-77.6937,3.0401],[-77.7011,3.0073],[-77.6709,2.9195],[-77.6699,2.8787],[-77.7768,2.7872],[-77.808,2.7464],[-77.8138,2.7163],[-77.8747,2.7258],[-77.9006,2.6988],[-77.9323,2.6295],[-77.9874,2.5691],[-78.0302,2.5432],[-78.0668,2.5094],[-78.1202,2.4882],[-78.2959,2.5104],[-78.343,2.4607],[-78.4171,2.4834],[-78.4605,2.4702],[-78.5346,2.4236],[-78.5917,2.3564],[-78.6171,2.3067],[-78.6287,2.0564],[-78.5504,1.9236],[-78.5769,1.7738],[-78.7928,1.849],[-78.9579,1.7521],[-79.0256,1.6235],[-78.8886,1.524],[-78.8594,1.4553],[-78.8272,1.296],[-78.8997,1.206],[-79.2288,1.1044],[-79.4654,1.06],[-79.613,0.9711],[-79.741,0.9795],[-79.7961,0.9224],[-79.9035,0.8599],[-80.0358,0.8345],[-80.0882,0.7848],[-80.0612,0.5922],[-80.0252,0.4102],[-80.0464,0.1557],[-80.1014,0.053],[-89.7026,0.053],[-90.4556,1.187],[-91.1335,2.0696],[-92.468,2.3321],[-92.4315,0.2599],[-180.0,0.2599],[-180.0,51.0821],[-178.8847,51.1001],[-176.8426,51.207],[-173.8047,51.5054],[-170.6297,52.0309],[-168.0722,52.7051],[-165.0512,53.6157],[-162.961,54.3005],[-162.517,54.0481],[-136.5947,58.2385],[-136.5085,58.0967],[-136.5122,58.0962],[-136.5249,58.0507],[-136.5688,57.9724],[-136.4598,57.8729],[-136.3783,57.8401],[-136.0766,57.6745],[-135.9968,57.5348],[-135.9153,57.4511],[-135.9163,57.4501],[-135.7983,57.3062],[-135.8227,57.2802],[-135.8211,57.2305],[-135.7676,57.1003],[-135.7819,57.0574],[-135.8121,57.0093],[-135.6618,57.0336],[-135.6089,57.0712],[-135.502,57.2437],[-135.4549,57.2495],[-135.3755,57.1887],[-135.3411,57.0818],[-135.2676,57.049],[-135.2115,57.0447],[-135.1998,57.0273],[-135.3152,56.932],[-135.3385,56.8939],[-135.3406,56.8505],[-135.3305,56.822],[-135.285,56.8003],[-135.1633,56.8241],[-135.1464,56.8024],[-135.1591,56.7251],[-135.0972,56.7029],[-135.0178,56.6601],[-134.9278,56.6669],[-134.8834,56.6791],[-134.8749,56.6706],[-134.9331,56.6161],[-134.9665,56.596],[-134.9823,56.5637],[-134.9807,56.5187],[-134.9501,56.4568],[-134.8479,56.3235],[-134.8066,56.2812],[-134.75,56.2409],[-134.6818,56.2161],[-134.6543,56.2277],[-134.6444,56.258],[-134.2403,56.2243]],[[-81.6582,7.3274],[-81.6032,7.3327],[-81.6132,7.3804],[-81.6947,7.4248],[-81.7106,7.4856],[-81.6714,7.5232],[-81.7286,7.6211],[-81.7524,7.6216],[-81.8122,7.5925],[-81.8567,7.5079],[-81.8588,7.4803],[-81.8519,7.4534],[-81.7699,7.3703],[-81.6582,7.3274]],[[-112.0774,24.5343],[-112.0573,24.5455],[-112.0673,24.5835],[-112.126,24.6539],[-112.1303,24.7296],[-112.1636,24.7994],[-112.1948,24.8412],[-112.1985,24.8857],[-112.1319,25.2244],[-112.1594,25.2857],[-112.2223,24.9513],[-112.297,24.7894],[-112.2107,24.7629],[-112.1753,24.7296],[-112.1631,24.6502],[-112.0774,24.5343]],[[-115.1841,28.0374],[-115.1703,28.0692],[-115.1487,28.1724],[-115.1968,28.3279],[-115.2333,28.3681],[-115.2741,28.3427],[-115.2603,28.2205],[-115.3529,28.1041],[-115.1841,28.0374]],[[-126.6802,49.6015],[-126.6411,49.6057],[-126.6257,49.6269],[-126.6284,49.6751],[-126.6501,49.746],[-126.6982,49.8084],[-126.7379,49.8439],[-126.8263,49.8724],[-126.9258,49.8375],[-126.8967,49.783],[-126.9046,49.7629],[-126.9401,49.7507],[-126.9512,49.7359],[-126.9385,49.7184],[-126.8141,49.6422],[-126.7432,49.6137],[-126.6802,49.6015]],[[-155.6257,18.9638],[-155.5812,19.0119],[-155.5352,19.1093],[-155.3097,19.2601],[-155.0536,19.3194],[-154.8504,19.4543],[-154.8044,19.5242],[-154.8414,19.5681],[-154.9526,19.6448],[-154.9891,19.7322],[-155.0658,19.748],[-155.0859,19.8756],[-155.1986,19.9946],[-155.622,20.1634],[-155.8315,20.2756],[-155.8744,20.2597],[-155.8929,20.1677],[-155.8204,20.0142],[-155.9088,19.8946],[-155.9887,19.8316],[-156.0485,19.7501],[-155.9659,19.5909],[-155.8908,19.3824],[-155.9056,19.1257],[-155.8813,19.0707],[-155.6807,18.9675],[-155.6257,18.9638]],[[-156.6898,20.9016],[-156.6152,20.8217],[-156.5438,20.7899],[-156.4803,20.8011],[-156.449,20.7063],[-156.4385,20.618],[-156.4088,20.6053],[-156.3099,20.5989],[-156.2347,20.6286],[-156.1072,20.645],[-156.0135,20.7148],[-155.9897,20.7571],[-156.0188,20.7921],[-156.1035,20.8402],[-156.1485,20.8857],[-156.2776,20.9514],[-156.3543,20.9413],[-156.4607,20.9148],[-156.4866,20.9328],[-156.5321,20.9926],[-156.5856,21.0344],[-156.657,21.0244],[-156.6977,20.9492],[-156.6898,20.9016]],[[-156.8597,21.0561],[-156.748,21.1038],[-156.712,21.1551],[-156.7422,21.1635],[-156.9174,21.1773],[-156.9523,21.1995],[-157.0026,21.1879],[-157.2137,21.2154],[-157.2497,21.2297],[-157.2539,21.1805],[-157.2793,21.1524],[-157.2904,21.1127],[-157.0211,21.0979],[-156.8597,21.0561]],[[-157.4359,1.8474],[-157.5084,1.8855],[-157.5317,1.9268],[-157.5788,1.9019],[-157.4201,1.7876],[-157.246,1.7315],[-157.1756,1.7399],[-157.3423,1.8553],[-157.3216,1.9686],[-157.4418,2.0252],[-157.492,2.0294],[-157.365,1.9463],[-157.3931,1.9278],[-157.4359,1.8474]],[[-157.9625,21.7012],[-158.0201,21.6916],[-158.1233,21.6001],[-158.2731,21.5853],[-158.2387,21.5329],[-158.2392,21.4895],[-158.1376,21.3773],[-158.1101,21.3186],[-158.0794,21.3122],[-157.981,21.3159],[-158.0175,21.3678],[-157.9783,21.3784],[-157.9683,21.3667],[-157.9582,21.327],[-157.9016,21.3408],[-157.8492,21.2911],[-157.7989,21.2689],[-157.691,21.28],[-157.6354,21.3075],[-157.654,21.3339],[-157.7053,21.3779],[-157.7206,21.4578],[-157.7651,21.4509],[-157.7995,21.4567],[-157.8296,21.4715],[-157.8545,21.5117],[-157.8513,21.5535],[-157.9625,21.7012]],[[-159.7479,21.9896],[-159.6463,21.9515],[-159.6087,21.9097],[-159.5119,21.9001],[-159.4605,21.8763],[-159.3727,21.9324],[-159.3436,21.9737],[-159.3303,22.051],[-159.3007,22.1055],[-159.3049,22.1542],[-159.3521,22.2198],[-159.5791,22.2229],[-159.7267,22.1404],[-159.7892,22.042],[-159.7479,21.9896]]]]}}
