{"type":"Feature","properties":{"id":4,"name":"South Pacific Ocean","featurecla":"ocean","scalerank":0,"wikidataid":"Q98","source":"Natural Earth 5.2.0-pre ne_10m_geography_marine_polys (public domain)"},"geometry":{"type":"MultiPolygon","coordinates":[[[[166.0664,-60.5335],[166.0664,-50.855],[166.0706,-50.82],[166.0733,-50.8227],[166.1881,-50.846],[166.2431,-50.846],[166.2209,-50.7613],[166.2007,-50.7508],[166.1797,-50.7147],[166.2204,-50.6941],[166.2077,-50.6523],[166.2093,-50.6121],[166.2595,-50.5772],[166.2675,-50.5587],[166.2543,-50.5438],[166.2251,-50.5311],[166.1034,-50.5391],[166.3839,-48.1562],[167.5269,-47.2418],[167.5222,-47.2588],[167.5549,-47.2635],[167.6761,-47.2429],[167.7851,-47.1762],[167.8105,-47.1704],[167.9058,-47.1799],[168.0148,-47.1175],[168.1841,-47.1016],[168.2407,-47.0698],[168.2609,-47.027],[168.2413,-46.9788],[168.1561,-46.9883],[168.1254,-46.9561],[168.0434,-46.9328],[168.0412,-46.8878],[168.1454,-46.9021],[168.145,-46.8624],[167.9555,-46.6947],[167.8555,-46.6979],[167.9714,-46.4894],[167.9608,-46.3623],[168.0772,-46.3528],[168.1889,-46.3623],[168.2302,-46.3856],[168.2661,-46.419],[168.3196,-46.447],[168.3429,-46.4888],[168.3254,-46.546],[168.3571,-46.5883],[168.3821,-46.6053],[168.4667,-46.5878],[168.5725,-46.6111],[168.6313,-46.5878],[168.7667,-46.5661],[168.8376,-46.5782],[168.9656,-46.6132],[169.0985,-46.6306],[169.3425,-46.6206],[169.6864,-46.5518],[169.7293,-46.5217],[169.7605,-46.4798],[169.9181,-46.3343],[170.186,-46.1607],[170.2669,-46.0824],[170.3357,-45.9919],[170.4193,-45.9411],[170.6744,-45.8956],[170.722,-45.8782],[170.7765,-45.8707],[170.7913,-45.8438],[170.7887,-45.7924],[170.74,-45.7559],[170.6998,-45.7141],[170.7008,-45.6845],[170.8151,-45.5194],[170.8898,-45.3739],[170.9395,-45.2162],[170.9908,-45.1516],[171.113,-45.0394],[171.1342,-44.9775],[171.0231,-44.9373],[170.9987,-44.9114],[171.1464,-44.9125],[171.1977,-44.768],[171.2131,-44.6124],[171.2311,-44.5214],[171.3131,-44.3018],[171.2855,-44.2785],[171.2406,-44.2642],[171.3644,-44.2552],[171.4173,-44.2087],[171.4427,-44.1356],[171.5179,-44.1182],[171.6591,-44.1171],[171.712,-44.0975],[171.8084,-44.0425],[171.8904,-44.007],[171.9777,-43.9843],[172.0809,-43.9456],[172.1799,-43.8959],[172.137,-43.834],[172.0523,-43.7398],[172.0354,-43.7017],[172.146,-43.7636],[172.2206,-43.825],[172.2968,-43.8679],[172.3502,-43.8594],[172.3852,-43.8298],[172.3958,-43.7779],[172.4296,-43.7467],[172.4804,-43.7266],[172.5275,-43.7393],[172.5836,-43.7737],[172.4762,-43.8334],[172.5026,-43.8435],[172.5545,-43.8313],[172.7492,-43.8128],[172.8175,-43.87],[172.9207,-43.8917],[173.0234,-43.8853],[173.0656,-43.8747],[173.0938,-43.844],[173.117,-43.798],[173.0979,-43.7033],[173.0731,-43.6763],[172.9471,-43.6583],[172.8069,-43.6207],[172.7666,-43.562],[172.7492,-43.5175],[172.7402,-43.4678],[172.6937,-43.4445],[172.5265,-43.4646],[172.5625,-43.4361],[172.6323,-43.4281],[172.6995,-43.3996],[172.735,-43.3546],[172.6873,-43.3144],[172.627,-43.2995],[172.6238,-43.2726],[172.7185,-43.2588],[172.808,-43.1979],[172.889,-43.1244],[173.0726,-43.0604],[173.1487,-43.0228],[173.2212,-42.9768],[173.3477,-42.8407],[173.5451,-42.518],[173.589,-42.474],[173.8399,-42.2709],[173.8891,-42.2116],[173.888,-42.1301],[173.9738,-42.0803],[174.0473,-42.0031],[174.2155,-41.8502],[174.2436,-41.8131],[174.2812,-41.7443],[174.2864,-41.747],[175.24,-41.5914],[175.2432,-41.5835],[175.3099,-41.6104],[175.3803,-41.5803],[175.4469,-41.5385],[175.6872,-41.4115],[175.8395,-41.3199],[175.983,-41.213],[176.0602,-41.1294],[176.1184,-41.0289],[176.2518,-40.877],[176.3137,-40.7691],[176.3851,-40.6674],[176.4767,-40.5701],[176.6116,-40.442],[176.6889,-40.2934],[176.7708,-40.2282],[176.8424,-40.1579],[176.9678,-39.9107],[177.1095,-39.6732],[176.9667,-39.6054],[176.9392,-39.5552],[176.936,-39.4906],[176.954,-39.3678],[177.0312,-39.2667],[177.0768,-39.2218],[177.1287,-39.1863],[177.2964,-39.116],[177.4075,-39.081],[177.5228,-39.0736],[177.6557,-39.0858],[177.7864,-39.1106],[177.8287,-39.1445],[177.8753,-39.2255],[177.9086,-39.2398],[177.9658,-39.1424],[177.9515,-39.0948],[177.9165,-39.0625],[177.9102,-39.0218],[177.9319,-38.8604],[177.9764,-38.7222],[178.0848,-38.6937],[178.1806,-38.6339],[178.2679,-38.5513],[178.3156,-38.4439],[178.3473,-38.201],[178.3938,-37.9603],[178.4473,-37.8544],[178.5161,-37.7576],[178.5362,-37.692],[178.4759,-37.6597],[178.3605,-37.6184],[178.2721,-37.5671],[175.7724,-36.7352],[175.6813,-36.7469],[175.5279,-36.5791],[175.4977,-36.5225],[175.4607,-36.4754],[175.3998,-36.5008],[175.3856,-36.5564],[175.4263,-36.5918],[175.4581,-36.6341],[175.4871,-36.6897],[175.5015,-36.7479],[175.493,-36.8066],[175.493,-36.8659],[175.5517,-37.0464],[175.5681,-37.1591],[175.5427,-37.2014],[175.4607,-37.2167],[175.3856,-37.2067],[175.3464,-37.1559],[175.3263,-37.0411],[175.2993,-36.9935],[175.2453,-36.9712],[175.0469,-36.912],[174.9521,-36.8527],[174.9173,-36.8649],[174.8913,-36.9093],[174.85,-36.8728],[174.8019,-36.8533],[174.7955,-36.8522],[174.7225,-36.8411],[174.7188,-36.7961],[174.749,-36.7739],[174.777,-36.65],[174.8193,-36.6119],[174.7516,-36.4907],[174.777,-36.4447],[174.7723,-36.3907],[174.8024,-36.3093],[174.605,-36.0806],[174.549,-36.0066],[174.4786,-35.8843],[174.396,-35.7976],[174.3912,-35.7737],[174.5336,-35.7938],[174.5807,-35.7854],[174.5087,-35.6674],[174.5315,-35.6271],[174.5436,-35.5822],[174.4648,-35.4541],[174.4193,-35.4107],[174.3849,-35.3673],[174.3934,-35.3684],[174.3733,-35.3245],[174.3203,-35.2467],[174.2827,-35.2536],[174.2034,-35.3086],[174.143,-35.3001],[174.1187,-35.2631],[174.1097,-35.2165],[174.1187,-35.1726],[174.1039,-35.143],[173.924,-35.0572],[173.8441,-35.0265],[173.8129,-35.0414],[173.7864,-35.0683],[173.7393,-35.0546],[173.6938,-35.0054],[173.4726,-34.9472],[173.4387,-34.9287],[173.4477,-34.8445],[173.3811,-34.8964],[173.3398,-34.9477],[173.2848,-34.9805],[173.2694,-34.935],[173.2403,-34.899],[173.181,-34.853],[173.171,-34.8069],[173.0546,-34.6482],[173.0001,-34.5963],[172.9635,-34.5349],[173.044,-34.4291],[172.8736,-34.4328],[172.7291,-34.4518],[172.7286,-34.4487],[172.4466,-34.237],[171.9878,-34.0608],[159.0412,-31.5912],[159.0412,-29.0157],[167.4724,-22.6657],[167.4825,-22.6552],[167.4734,-22.6536],[167.4438,-22.6393],[167.4221,-22.6187],[167.4433,-22.5414],[167.5295,-22.5795],[167.5364,-22.6006],[169.8362,-20.267],[169.8213,-20.2411],[169.807,-20.2411],[169.7372,-20.2019],[169.7504,-20.1532],[169.769,-20.1511],[169.4563,-19.6114],[169.4912,-19.5399],[169.3599,-19.4579],[169.3367,-19.3294],[169.2911,-19.3219],[169.2472,-19.3447],[169.2377,-19.3865],[169.2012,-19.35],[169.2012,-18.9632],[169.2477,-18.9833],[169.2885,-18.9886],[169.3346,-18.9404],[169.2959,-18.8669],[169.2012,-18.796],[169.2556,-18.7631],[169.1779,-18.7251],[169.144,-18.6309],[169.088,-18.6176],[169.0557,-18.6292],[169.0244,-18.5737],[168.4551,-17.8027],[168.5244,-17.7979],[168.5852,-17.6958],[168.5456,-17.6847],[168.4455,-17.5423],[168.3545,-17.5508],[168.3191,-17.445],[168.3191,-16.7883],[168.3228,-16.7878],[168.4603,-16.8348],[168.4768,-16.7936],[168.4466,-16.7788],[168.3661,-16.7587],[168.3063,-16.6946],[168.2063,-16.3448],[168.2968,-16.3364],[168.2979,-16.2988],[168.2757,-16.2649],[168.2354,-16.2311],[168.1983,-16.1199],[168.1942,-16.1152],[168.2122,-15.9702],[168.2127,-15.9702],[168.2561,-15.9554],[168.2677,-15.8924],[168.1836,-15.5083],[168.1598,-15.4617],[168.1587,-15.4696],[168.1444,-15.3426],[168.1307,-15.3188],[168.1169,-15.159],[168.0719,-14.8695],[167.5592,-14.2922],[167.5433,-14.3118],[167.4306,-14.2948],[167.4036,-14.2816],[167.411,-14.1975],[167.439,-14.1684],[167.5062,-14.1424],[167.5078,-14.143],[167.5078,-13.8821],[167.4989,-13.8847],[167.4888,-13.9075],[167.4745,-13.917],[167.4512,-13.9096],[167.392,-13.7885],[167.4068,-13.7482],[167.4809,-13.7096],[167.5041,-13.7329],[167.1549,-9.8954],[162.2876,-10.7357],[162.2871,-10.7097],[162.1569,-10.506],[162.1056,-10.4536],[162.023,-10.4769],[161.9145,-10.4362],[161.841,-10.4462],[161.7156,-10.3875],[161.6981,-10.3711],[161.6537,-10.352],[161.4759,-10.2377],[161.3891,-10.2076],[161.5986,-9.6837],[161.4928,-9.5249],[161.4071,-9.3683],[161.3827,-9.3598],[161.2044,-9.0926],[161.2044,-9.0921],[161.1589,-8.9619],[161.0504,-8.8614],[160.9525,-8.7148],[160.9541,-8.6989],[160.988,-8.6651],[160.9975,-8.6121],[160.7493,-8.3142],[160.7022,-8.3163],[160.6938,-8.3264],[160.6461,-8.2549],[159.7466,-8.202],[158.7893,-7.6549],[158.7342,-7.6046],[158.6808,-7.593],[158.2649,-7.3554],[157.5241,-7.3024],[157.1235,-7.0284],[157.1028,-6.9575],[157.0303,-6.8918],[156.7652,-6.7643],[156.6043,-6.641],[156.5287,-6.6214],[156.5186,-6.6145],[155.8392,-6.4055],[155.8228,-6.3806],[155.7344,-6.296],[155.6386,-6.2208],[155.581,-6.196],[155.5217,-6.1822],[155.4656,-6.142],[155.3725,-5.9743],[155.3233,-5.9319],[155.2275,-5.8652],[155.1978,-5.8282],[155.1867,-5.7769],[155.0936,-5.6202],[154.9973,-5.5398],[154.8703,-5.5213],[154.8576,-5.5144],[154.7142,-5.2926],[154.7269,-5.2181],[154.6893,-5.1429],[154.6819,-5.054],[154.6327,-5.0138],[154.6057,-5.035],[154.5723,-5.0736],[154.5078,-4.9741],[154.1903,-4.4979],[153.132,-4.2862],[153.1272,-4.2872],[153.124,-4.2523],[153.0166,-4.1057],[152.679,-3.8279],[152.3805,-3.5819],[152.3292,-3.521],[152.1795,-3.4104],[152.0652,-3.2797],[152.0329,-3.2512],[151.8069,-3.1728],[151.69,-3.0728],[151.5858,-3.003],[151.4752,-2.9427],[151.3148,-2.8754],[151.2603,-2.8723],[151.2,-2.8289],[151.1746,-2.7892],[151.0344,-2.7103],[150.8243,-2.5595],[150.4507,-2.5246],[150.4502,-2.5135],[150.4295,-2.4706],[150.2274,-2.3843],[150.1025,-2.405],[149.9617,-2.4738],[149.9692,-2.4791],[149.9617,-2.4786],[149.1103,-2.3283],[148.1689,-2.1145],[147.3111,-1.9579],[147.1249,-1.9711],[147.0677,-1.96],[146.8571,-1.9484],[146.7603,-1.978],[146.656,-1.9737],[146.6083,-2.0081],[146.5703,-2.0108],[145.1633,-1.7774],[144.3277,-1.535],[143.2493,-1.3869],[142.5756,-1.8452],[141.9824,-2.9231],[141.9745,-2.9612],[141.938,-2.9532],[141.8877,-2.9527],[141.8364,-2.9321],[141.6866,-2.8453],[141.1855,-2.6278],[141.1045,-2.6114],[140.7474,-2.6071],[140.7204,-2.5082],[140.6727,-2.4722],[140.6225,-2.4457],[140.2944,-2.4204],[140.251,-2.4119],[140.2039,-2.3759],[140.1547,-2.35],[139.8684,-2.3563],[139.7896,-2.3484],[139.4816,-2.2119],[139.2525,-2.0991],[139.1487,-2.0388],[139.0398,-1.9923],[138.9191,-1.9679],[138.8117,-1.9177],[138.736,-1.8457],[138.6498,-1.7912],[138.111,-1.616],[138.0079,-1.5568],[137.911,-1.4837],[137.8062,-1.4832],[137.6163,-1.5657],[137.3808,-1.6859],[137.1766,-1.8023],[137.1237,-1.8409],[137.1257,-1.8811],[137.1755,-1.9732],[137.1712,-2.0256],[137.0723,-2.105],[136.8432,-2.1976],[136.6125,-2.2246],[136.3902,-2.2732],[136.3526,-2.3251],[136.3024,-2.4256],[136.2695,-2.5294],[136.2431,-2.5834],[136.0129,-2.7341],[135.9907,-2.7643],[135.9261,-2.904],[135.8589,-2.995],[135.6277,-3.1861],[135.561,-3.2686],[135.4864,-3.3453],[135.3715,-3.375],[135.2514,-3.3686],[135.0921,-3.3485],[135.0371,-3.3332],[134.917,-3.2501],[134.8868,-3.2099],[134.8524,-3.1078],[134.8556,-2.9786],[134.8434,-2.9093],[134.7699,-2.9442],[134.7021,-2.9337],[134.6492,-2.7061],[134.6445,-2.5897],[134.6275,-2.5368],[134.5667,-2.5103],[134.518,-2.5357],[134.4831,-2.5828],[134.491,-2.714],[134.4598,-2.8326],[134.3619,-2.6209],[134.1947,-2.3092],[134.1555,-2.1955],[134.1429,-2.0828],[134.1454,-1.969],[134.1312,-1.8446],[134.1058,-1.7208],[134.1454,-1.6208],[134.2169,-1.5293],[134.237,-1.4742],[134.2598,-1.3631],[134.247,-1.3107],[134.1883,-1.2033],[134.1164,-1.1022],[134.0719,-1.0016],[134.0867,-0.8974],[134.1116,-0.8466],[134.0248,-0.7699],[133.9745,-0.7445],[133.8502,-0.7313],[133.7238,-0.7413],[133.4724,-0.7259],[133.2686,-0.636],[133.0771,-0.5116],[132.8564,-0.4174],[132.6251,-0.3587],[132.5082,-0.3476],[132.3939,-0.3555],[132.1283,-0.454],[132.0844,-0.491],[132.0463,-0.5371],[131.9627,-0.5825],[131.9396,-0.6065],[131.3298,-0.3016],[131.328,-0.3013],[131.3398,-0.2905],[131.3028,-0.2412],[131.3171,-0.2042],[131.2769,-0.1497],[131.0662,-0.0576],[172.5524,-0.0576],[172.0232,1.4288],[171.8116,2.6988],[172.2349,3.6513],[172.9757,3.6513],[173.6107,2.9105],[173.8224,1.2171],[174.4574,-0.0529],[179.9999,-0.0529],[179.9999,-16.1528],[179.848,-16.2142],[179.7887,-16.2215],[179.7152,-16.2078],[179.6353,-16.2231],[179.5517,-16.2501],[179.475,-16.294],[179.3591,-16.3798],[179.2934,-16.3988],[179.2246,-16.4051],[179.0913,-16.4374],[178.9606,-16.483],[178.8659,-16.5401],[178.805,-16.6316],[178.7447,-16.6343],[178.6865,-16.6655],[178.6341,-16.6486],[178.5832,-16.6221],[178.5679,-16.6639],[178.5421,-16.7004],[178.514,-16.7259],[178.4976,-16.7878],[178.604,-16.8005],[178.6383,-16.8513],[178.6653,-16.9201],[178.7066,-16.9761],[178.8029,-16.9523],[178.8839,-16.8862],[178.9506,-16.9042],[179.0066,-16.9005],[179.0553,-16.8137],[179.2024,-16.7126],[179.3003,-16.7105],[179.3236,-16.7179],[179.3458,-16.7698],[179.3749,-16.792],[179.4194,-16.8063],[179.4654,-16.8063],[179.5887,-16.7872],[179.7146,-16.7438],[179.821,-16.737],[179.9279,-16.7444],[179.8898,-16.6671],[179.9057,-16.5835],[179.9263,-16.5518],[179.9305,-16.5195],[179.8851,-16.5184],[179.8411,-16.5374],[179.6972,-16.6316],[179.5681,-16.7476],[179.5644,-16.637],[179.6189,-16.5279],[179.748,-16.4464],[179.794,-16.3703],[179.8485,-16.3014],[179.9994,-16.1686],[179.9999,-16.1707],[179.9999,-16.4888],[179.9845,-16.5221],[179.9872,-16.5412],[179.9999,-16.5401],[179.9999,-16.7856],[179.9311,-16.8761],[179.8967,-16.964],[179.9258,-17.0005],[179.9999,-16.9629],[179.9999,-60.5335],[166.0664,-60.5335]],[[178.1875,-17.3132],[178.1277,-17.3391],[177.9404,-17.3953],[177.8181,-17.3883],[177.6181,-17.4608],[177.5043,-17.5397],[177.4006,-17.6318],[177.4054,-17.6821],[177.4233,-17.7371],[177.4106,-17.7535],[177.3858,-17.7625],[177.3662,-17.7863],[177.3604,-17.8202],[177.3165,-17.8461],[177.2641,-17.8636],[177.2551,-17.9149],[177.2636,-17.9689],[177.3212,-18.0773],[177.3832,-18.1208],[177.4573,-18.1482],[177.6366,-18.1811],[177.771,-18.2197],[177.8472,-18.2546],[177.9557,-18.2642],[178.0642,-18.2504],[178.1599,-18.2504],[178.2435,-18.1837],[178.3314,-18.135],[178.4235,-18.1239],[178.4611,-18.1393],[178.4864,-18.1123],[178.5976,-18.1091],[178.6674,-18.0811],[178.6177,-17.9329],[178.604,-17.8392],[178.5748,-17.7493],[178.596,-17.699],[178.5918,-17.6514],[178.523,-17.5958],[178.4108,-17.5233],[178.3388,-17.4386],[178.3092,-17.4355],[178.2801,-17.4164],[178.2801,-17.372],[178.2472,-17.3291],[178.1875,-17.3132]],[[178.1568,-19.0277],[178.1039,-19.0663],[178.052,-19.06],[178.0007,-19.1013],[177.9589,-19.1214],[178.0208,-19.1515],[178.1621,-19.1214],[178.1817,-19.1119],[178.1891,-19.0923],[178.2113,-19.0663],[178.288,-19.0039],[178.3156,-19.0103],[178.359,-19.0457],[178.4875,-19.0171],[178.4881,-18.9743],[178.4203,-18.951],[178.3341,-18.9346],[178.2822,-18.9568],[178.2081,-18.9695],[178.1568,-19.0277]],[[149.5479,-1.4075],[149.5458,-1.4715],[149.6712,-1.5763],[149.6907,-1.5711],[149.7633,-1.589],[149.7654,-1.553],[149.7252,-1.4308],[149.6331,-1.362],[149.5807,-1.353],[149.5479,-1.4075]],[[136.2283,-1.8938],[136.3262,-1.8726],[136.4611,-1.8907],[136.622,-1.8732],[136.7087,-1.8378],[136.8924,-1.7996],[136.8167,-1.7536],[136.7188,-1.734],[136.3897,-1.7219],[136.2012,-1.6552],[135.9759,-1.6356],[135.8689,-1.642],[135.4742,-1.5917],[135.4694,-1.616],[135.4874,-1.6684],[135.8658,-1.752],[136.0494,-1.824],[136.1923,-1.8589],[136.2283,-1.8938]],[[135.8415,-0.7117],[135.7489,-0.7323],[135.6732,-0.6884],[135.5959,-0.6905],[135.3832,-0.6513],[135.3879,-0.7048],[135.4319,-0.7688],[135.4832,-0.8011],[135.4911,-0.7852],[135.524,-0.7873],[135.6456,-0.8821],[135.7472,-0.8228],[135.8256,-1.0281],[135.8388,-1.1197],[135.915,-1.1784],[136.0023,-1.17],[136.1103,-1.217],[136.1648,-1.2149],[136.3055,-1.1731],[136.3754,-1.0942],[136.2828,-1.0646],[136.1547,-0.9784],[136.0685,-0.8778],[135.8933,-0.7259],[135.8415,-0.7117]]],[[[-180.0,-60.5335],[-180.0,-16.9627],[-179.9747,-16.9248],[-179.8679,-16.8502],[-179.8223,-16.7655],[-179.861,-16.6883],[-179.8938,-16.7004],[-180.0,-16.7855],[-180.0,-16.5401],[-179.9292,-16.5031],[-179.9271,-16.4793],[-179.9012,-16.4316],[-179.9435,-16.4417],[-180.0,-16.4886],[-180.0,-16.168],[-179.9562,-16.149],[-179.9446,-16.1263],[-179.9694,-16.1263],[-180.0,-16.1526],[-180.0,0.2599],[-92.4315,0.2599],[-92.468,2.3321],[-91.1335,2.0696],[-90.4556,1.187],[-89.7026,0.053],[-80.1014,0.053],[-80.1332,-0.0063],[-80.2369,-0.1132],[-80.3216,-0.1656],[-80.4824,-0.3682],[-80.4681,-0.436],[-80.3845,-0.5841],[-80.2824,-0.6207],[-80.3586,-0.6249],[-80.4554,-0.5852],[-80.5052,-0.6836],[-80.5538,-0.8482],[-80.6237,-0.8985],[-80.8412,-0.9747],[-80.9026,-1.0789],[-80.82,-1.2858],[-80.8015,-1.3832],[-80.8348,-1.6324],[-80.7634,-1.8229],[-80.7607,-1.9346],[-80.7703,-2.0764],[-80.8676,-2.141],[-80.9629,-2.1891],[-80.9518,-2.2357],[-80.9412,-2.2531],[-80.9592,-2.2637],[-80.801,-3.7358],[-80.892,-3.8819],[-81.2322,-4.2343],[-81.283,-4.3222],[-81.3365,-4.6693],[-81.2894,-4.7608],[-81.1952,-4.8794],[-81.1084,-5.0275],[-81.1508,-5.1017],[-81.1677,-5.1673],[-80.9433,-5.4752],[-80.8819,-5.6351],[-80.8824,-5.7589],[-80.9306,-5.8409],[-80.9915,-5.861],[-81.092,-5.8123],[-81.1645,-5.8753],[-81.1804,-5.9425],[-81.1423,-6.0568],[-81.0587,-6.1293],[-80.8115,-6.2822],[-80.1104,-6.6495],[-79.995,-6.769],[-79.9045,-6.9019],[-79.7622,-7.0664],[-79.6177,-7.2956],[-79.5887,-7.4189],[-79.3775,-7.8353],[-79.313,-7.9232],[-79.1643,-8.047],[-79.0124,-8.21],[-78.9256,-8.4047],[-78.7621,-8.6169],[-78.7547,-8.7402],[-78.6647,-8.9709],[-78.5801,-9.1567],[-78.4456,-9.3704],[-78.3567,-9.652],[-78.2758,-9.8101],[-78.1858,-10.089],[-78.0953,-10.2605],[-77.736,-10.8368],[-77.6641,-11.022],[-77.6387,-11.1934],[-77.6334,-11.2876],[-77.3101,-11.5326],[-77.2201,-11.6633],[-77.1577,-11.9237],[-77.1529,-12.0602],[-77.0629,-12.1068],[-77.0381,-12.1729],[-76.9941,-12.2195],[-76.8322,-12.3486],[-76.7581,-12.5269],[-76.6369,-12.728],[-76.5555,-12.8232],[-76.502,-12.9846],[-76.4274,-13.1101],[-76.2237,-13.3715],[-76.184,-13.5154],[-76.2591,-13.8027],[-76.3194,-13.8213],[-76.3766,-13.8631],[-76.2972,-13.9482],[-76.2887,-14.1329],[-76.175,-14.2266],[-76.1364,-14.3203],[-76.0062,-14.496],[-75.9337,-14.6335],[-75.7379,-14.7849],[-75.5337,-14.8991],[-75.3966,-15.0934],[-75.2743,-15.178],[-75.1907,-15.3204],[-75.1045,-15.4119],[-74.5547,-15.6992],[-74.3726,-15.8342],[-74.1472,-15.9125],[-73.825,-16.1528],[-73.7276,-16.2014],[-73.4,-16.3041],[-73.2635,-16.3888],[-72.9577,-16.5211],[-72.7942,-16.6147],[-72.4676,-16.7079],[-72.3623,-16.775],[-72.2687,-16.8761],[-72.1115,-17.0026],[-71.967,-17.064],[-71.8681,-17.1513],[-71.7745,-17.1989],[-71.5321,-17.2942],[-71.4358,-17.3661],[-71.3993,-17.4217],[-71.3649,-17.6207],[-71.3368,-17.6826],[-71.0564,-17.8757],[-70.9415,-17.9323],[-70.8177,-18.0525],[-70.4917,-18.2779],[-70.3616,-18.398],[-70.3362,-18.5954],[-70.3351,-18.8277],[-70.2758,-19.2675],[-70.2102,-19.487],[-70.1986,-19.613],[-70.1573,-19.7056],[-70.1483,-19.805],[-70.1473,-20.23],[-70.1938,-20.5316],[-70.197,-20.7253],[-70.0885,-21.2534],[-70.0801,-21.3571],[-70.0874,-21.4931],[-70.1298,-21.6407],[-70.1552,-21.8667],[-70.1853,-21.9746],[-70.2288,-22.1932],[-70.2594,-22.5562],[-70.3319,-22.8488],[-70.3891,-22.9695],[-70.4494,-23.034],[-70.5632,-23.0568],[-70.569,-23.1732],[-70.5933,-23.2552],[-70.588,-23.3685],[-70.5118,-23.4828],[-70.4198,-23.5283],[-70.3923,-23.5658],[-70.4097,-23.6558],[-70.488,-23.7818],[-70.5076,-23.8855],[-70.5203,-23.9686],[-70.5076,-24.1294],[-70.5463,-24.3315],[-70.5743,-24.6443],[-70.5584,-24.7787],[-70.4452,-25.1729],[-70.4521,-25.2518],[-70.4896,-25.3766],[-70.578,-25.4873],[-70.633,-25.5455],[-70.7135,-25.7841],[-70.6997,-25.8608],[-70.6357,-25.9926],[-70.6621,-26.2254],[-70.6468,-26.3291],[-70.687,-26.4217],[-70.7082,-26.5969],[-70.8029,-26.8409],[-70.8129,-26.9504],[-70.8981,-27.1875],[-70.914,-27.3081],[-70.9093,-27.505],[-70.9257,-27.5886],[-70.9458,-27.6177],[-71.0527,-27.7272],[-71.0865,-27.8145],[-71.1543,-28.0643],[-71.1865,-28.3781],[-71.267,-28.5078],[-71.3066,-28.6723],[-71.3839,-28.7787],[-71.4935,-28.8554],[-71.5194,-28.9263],[-71.486,-29.1983],[-71.3532,-29.3502],[-71.3268,-29.4433],[-71.3156,-29.6497],[-71.3479,-29.9333],[-71.4003,-30.1429],[-71.6697,-30.3302],[-71.7088,-30.6281],[-71.7056,-30.7594],[-71.6538,-30.9864],[-71.6617,-31.1695],[-71.5771,-31.4965],[-71.5257,-31.806],[-71.513,-32.2077],[-71.4215,-32.3871],[-71.4612,-32.5379],[-71.4522,-32.6596],[-71.5919,-32.9697],[-71.6358,-33.0226],[-71.7432,-33.0951],[-71.6967,-33.2893],[-71.6956,-33.429],[-71.6363,-33.5195],[-71.6644,-33.6528],[-71.8311,-33.8195],[-71.8538,-33.8894],[-71.9268,-34.0159],[-72.003,-34.165],[-71.9914,-34.2883],[-72.0306,-34.4206],[-72.056,-34.6159],[-72.1824,-34.9202],[-72.2237,-35.0964],[-72.3867,-35.2403],[-72.455,-35.3409],[-72.5052,-35.4472],[-72.5618,-35.5054],[-72.6238,-35.5859],[-72.5872,-35.7594],[-72.6835,-35.8769],[-72.7783,-35.9785],[-72.8746,-36.3902],[-72.9677,-36.5379],[-73.0063,-36.6437],[-73.118,-36.6881],[-73.1376,-36.7998],[-73.1513,-36.876],[-73.173,-37.0532],[-73.2159,-37.167],[-73.2709,-37.2072],[-73.3746,-37.2242],[-73.6017,-37.1887],[-73.6334,-37.2554],[-73.6625,-37.3411],[-73.6032,-37.4792],[-73.6646,-37.5904],[-73.662,-37.6983],[-73.517,-37.9105],[-73.4646,-38.0402],[-73.472,-38.1301],[-73.5323,-38.3666],[-73.5202,-38.5095],[-73.481,-38.6238],[-73.2265,-39.2244],[-73.2498,-39.4223],[-73.4106,-39.789],[-73.4821,-39.8542],[-73.671,-39.9631],[-73.6694,-40.0822],[-73.7424,-40.2632],[-73.7842,-40.4685],[-73.9202,-40.8717],[-73.9837,-40.9744],[-73.9657,-41.1183],[-73.8763,-41.3194],[-73.8551,-41.4464],[-73.8107,-41.5173],[-73.7107,-41.5734],[-73.6239,-41.5813],[-73.6249,-41.612],[-73.6879,-41.639],[-73.7218,-41.6924],[-73.735,-41.7422],[-73.6239,-41.7734],[-73.5482,-41.7909],[-73.5487,-41.793],[-73.5376,-41.8951],[-73.7308,-41.8771],[-74.0366,-41.7956],[-74.0631,-41.8226],[-74.0303,-41.8539],[-74.0186,-41.8909],[-74.0567,-42.0026],[-74.0594,-42.056],[-74.0721,-42.1057],[-74.1605,-42.2163],[-74.1705,-42.2687],[-74.1642,-42.3253],[-74.1742,-42.3814],[-74.1938,-42.436],[-74.1991,-42.4814],[-74.1562,-42.5905],[-74.2097,-42.8788],[-74.2896,-43.0794],[-74.3732,-43.1858],[-74.3875,-43.2318],[-74.3552,-43.2636],[-74.2388,-43.3186],[-74.1144,-43.3578],[-73.9901,-43.3567],[-73.9186,-43.372],[-73.8673,-43.3683],[-73.8551,-43.7742],[-73.8567,-43.7837],[-73.8414,-43.789],[-73.8107,-43.8271],[-73.7895,-43.8763],[-73.8334,-43.8832],[-73.9043,-43.8753],[-73.9382,-43.9144],[-73.9557,-43.9218],[-73.9027,-44.1346],[-73.9948,-44.1404],[-74.0827,-44.1864],[-74.1081,-44.2758],[-74.0975,-44.3891],[-74.1329,-44.4161],[-74.2123,-44.4272],[-74.3012,-44.3954],[-74.4219,-44.4357],[-74.5018,-44.4738],[-74.4806,-44.5844],[-74.6177,-44.6479],[-74.4986,-44.7484],[-74.4187,-44.8653],[-74.3499,-44.9109],[-74.2679,-45.059],[-74.1954,-45.1447],[-74.089,-45.1955],[-74.0991,-45.3252],[-74.016,-45.3448],[-73.8488,-45.3405],[-73.8403,-45.3321],[-73.8361,-45.3363],[-73.7239,-45.4802],[-73.7308,-45.4802],[-73.7805,-45.6279],[-73.7567,-45.703],[-73.662,-45.7305],[-73.5942,-45.7771],[-73.5916,-45.8993],[-73.6292,-45.9866],[-73.6519,-46.1591],[-73.6683,-46.2121],[-73.662,-46.2973],[-73.716,-46.4153],[-73.7705,-46.5],[-73.8456,-46.5661],[-73.9435,-46.5714],[-73.9488,-46.5333],[-73.935,-46.5005],[-73.8107,-46.3772],[-73.708,-46.0703],[-73.708,-45.9665],[-73.6948,-45.8596],[-73.735,-45.8115],[-73.8128,-45.8184],[-73.8789,-45.847],[-73.9292,-46.0502],[-73.9678,-46.1544],[-74.0896,-46.2221],[-74.2134,-46.2396],[-74.3726,-46.2465],[-74.3928,-46.2174],[-74.3568,-46.2126],[-74.0816,-46.1317],[-74.0197,-46.0559],[-74.061,-45.9475],[-73.9996,-45.8951],[-73.9604,-45.8353],[-73.8821,-45.5692],[-73.844,-45.5024],[-73.825,-45.4469],[-73.9202,-45.4077],[-73.9573,-45.4046],[-74.0377,-45.4178],[-74.0991,-45.4601],[-74.1229,-45.4961],[-74.0991,-45.6035],[-74.0827,-45.6448],[-74.0816,-45.6781],[-74.0964,-45.7168],[-74.1578,-45.767],[-74.3012,-45.803],[-74.3689,-45.8099],[-74.4626,-45.8406],[-74.6309,-45.8448],[-74.7632,-45.8237],[-75.0669,-45.875],[-75.0743,-46.0046],[-74.9976,-46.0978],[-74.9246,-46.1597],[-75.0748,-46.2349],[-75.2468,-46.3692],[-75.3759,-46.4291],[-75.4368,-46.483],[-75.6569,-46.6105],[-75.7061,-46.7053],[-75.7083,-46.7751],[-75.6352,-46.8629],[-75.4977,-46.9397],[-75.5014,-46.946],[-75.2516,-47.7578],[-75.2611,-47.7636],[-75.1944,-47.8181],[-75.186,-47.8509],[-75.1124,-47.8376],[-75.0844,-47.8244],[-75.051,-47.8006],[-74.9161,-47.7567],[-74.9267,-47.7234],[-74.651,-47.7064],[-74.6086,-47.7578],[-74.569,-47.7731],[-74.4298,-47.7996],[-74.3764,-47.8297],[-74.3795,-47.8911],[-74.3504,-47.9446],[-74.2271,-47.9689],[-74.0848,-47.9546],[-73.9409,-47.9292],[-73.8466,-47.8668],[-73.7794,-47.7387],[-73.7482,-47.6615],[-73.716,-47.6556],[-73.635,-47.8805],[-73.6287,-47.9414],[-73.6101,-47.9938],[-73.5694,-48.0192],[-73.5011,-48.1065],[-73.391,-48.1462],[-73.3847,-48.1774],[-73.5281,-48.198],[-73.8541,-48.0419],[-74.2504,-48.0451],[-74.4007,-48.0128],[-74.5848,-47.9991],[-74.5907,-48.1621],[-74.5774,-48.2742],[-74.4997,-48.3621],[-74.4743,-48.4642],[-74.343,-48.4928],[-74.27,-48.4547],[-74.1716,-48.4277],[-74.0091,-48.4748],[-74.0567,-48.5039],[-74.1292,-48.5044],[-74.1763,-48.4938],[-74.2277,-48.5171],[-74.3409,-48.5959],[-74.3822,-48.7934],[-74.3801,-49.0479],[-74.3583,-49.3511],[-74.3663,-49.4003],[-74.3483,-49.4262],[-74.3017,-49.4638],[-74.2213,-49.5003],[-74.1848,-49.4045],[-74.1679,-49.3204],[-74.1398,-49.2505],[-74.0737,-49.1881],[-74.0615,-49.1109],[-74.0276,-49.0262],[-73.935,-49.0209],[-73.9377,-49.0463],[-73.9848,-49.0601],[-74.0155,-49.0907],[-74.0054,-49.1579],[-74.0234,-49.2442],[-74.0493,-49.3056],[-74.0837,-49.3617],[-74.0943,-49.43],[-73.9879,-49.4908],[-73.8927,-49.5236],[-73.8366,-49.6093],[-73.8916,-49.6236],[-73.9557,-49.5929],[-74.1022,-49.5554],[-74.2303,-49.5791],[-74.2906,-49.6041],[-74.3187,-49.7199],[-74.324,-49.7834],[-74.1716,-49.9072],[-74.0731,-49.9485],[-74.0112,-49.9284],[-73.9588,-49.9946],[-74.0197,-50.0226],[-74.3335,-49.9745],[-74.4346,-50.0655],[-74.6298,-50.194],[-74.5166,-50.2655],[-74.425,-50.3502],[-74.3742,-50.3629],[-74.3054,-50.3983],[-74.0308,-50.4697],[-73.9504,-50.5105],[-74.1859,-50.4856],[-74.197,-50.61],[-74.1642,-50.638],[-74.0969,-50.7169],[-73.9779,-50.8269],[-73.8916,-50.7825],[-73.7504,-50.5396],[-73.68,-50.4904],[-73.6546,-50.4925],[-73.6932,-50.5703],[-73.6138,-50.628],[-73.6181,-50.6513],[-73.6588,-50.6507],[-73.7408,-50.6967],[-73.8244,-50.8359],[-73.8064,-50.9386],[-73.8477,-50.9402],[-74.1393,-50.8179],[-74.1562,-50.7973],[-74.1901,-50.7777],[-74.3314,-50.5597],[-74.3658,-50.4877],[-74.5642,-50.3819],[-74.6446,-50.3608],[-74.7219,-50.4083],[-74.7759,-50.4697],[-74.7023,-50.5354],[-74.6489,-50.6185],[-74.6859,-50.6618],[-74.8367,-50.6788],[-75.0944,-50.6814],[-75.0553,-50.7857],[-74.9833,-50.8809],[-74.8145,-51.0629],[-74.6901,-51.0868],[-74.587,-51.1307],[-74.5076,-51.1497],[-74.4144,-51.1624],[-74.3324,-51.1952],[-74.2107,-51.2048],[-74.1213,-51.1952],[-73.9393,-51.2661],[-73.8959,-51.3312],[-73.9297,-51.618],[-74.0694,-51.5789],[-74.1964,-51.6805],[-74.1462,-51.7122],[-73.9731,-51.7847],[-73.8943,-51.7577],[-73.8578,-51.79],[-73.8107,-51.8011],[-73.7525,-51.7953],[-73.6503,-51.8562],[-73.5821,-51.9604],[-73.518,-52.0409],[-73.3831,-52.0699],[-73.1889,-51.9906],[-72.9285,-51.8599],[-72.5999,-51.799],[-72.5835,-51.7371],[-72.6492,-51.6953],[-72.7047,-51.6778],[-72.7894,-51.6143],[-73.1148,-51.5042],[-73.1635,-51.4958],[-73.1968,-51.4778],[-73.1688,-51.454],[-73.127,-51.4397],[-72.7613,-51.5731],[-72.5428,-51.7059],[-72.4899,-51.7636],[-72.4941,-51.8477],[-72.5227,-51.8911],[-72.6248,-51.9466],[-72.6248,-52.007],[-72.6137,-52.0371],[-72.5243,-52.1705],[-72.5195,-52.2171],[-72.5232,-52.2557],[-72.5327,-52.2821],[-72.5687,-52.334],[-72.6317,-52.3716],[-72.6772,-52.3848],[-72.7142,-52.3568],[-72.6936,-52.3303],[-72.5835,-52.2541],[-72.5708,-52.2001],[-72.5878,-52.1451],[-72.6497,-52.1001],[-72.6947,-52.0445],[-72.6952,-51.9853],[-72.7354,-51.9604],[-72.7952,-51.9493],[-72.8434,-51.961],[-72.9439,-52.0466],[-73.1376,-52.1297],[-73.2603,-52.1578],[-73.327,-52.1657],[-73.4577,-52.1462],[-73.5323,-52.153],[-73.6493,-52.0779],[-73.6842,-52.0779],[-73.6853,-52.1366],[-73.7027,-52.1991],[-73.7493,-52.216],[-73.8345,-52.234],[-74.0403,-52.1594],[-74.1335,-52.1546],[-74.1948,-52.1202],[-74.2647,-52.1049],[-74.2959,-52.1181],[-74.2657,-52.1715],[-74.2382,-52.2022],[-74.1763,-52.3171],[-74.1509,-52.3827],[-74.0932,-52.3763],[-74.0372,-52.4028],[-74.0001,-52.5123],[-74.0361,-52.5774],[-74.0165,-52.633],[-74.0218,-52.6346],[-74.6346,-52.7473],[-74.67,-52.734],[-74.7118,-52.7489],[-74.7113,-52.7685],[-74.6198,-52.8346],[-74.5584,-52.9219],[-74.4144,-52.995],[-74.27,-53.0817],[-74.2361,-53.0764],[-74.1388,-53.0907],[-73.9938,-53.0759],[-73.8668,-53.0971],[-73.7937,-53.1209],[-73.617,-53.2299],[-73.5958,-53.2532],[-73.5826,-53.3003],[-73.5673,-53.3066],[-73.5011,-53.3182],[-73.4096,-53.3204],[-73.2259,-53.3584],[-73.1751,-53.3558],[-73.1751,-53.3574],[-73.0831,-53.4035],[-73.1111,-53.4252],[-73.1154,-53.4479],[-73.0995,-53.5119],[-73.3656,-53.4701],[-73.4471,-53.4103],[-73.6863,-53.4267],[-73.8456,-53.5458],[-73.6413,-53.5701],[-73.5815,-53.6553],[-73.4709,-53.7363],[-73.3603,-53.7241],[-73.3249,-53.7226],[-73.3143,-53.7294],[-73.2947,-53.7919],[-73.2926,-53.8358],[-73.3122,-53.9194],[-73.3048,-53.9437],[-73.2106,-53.9861],[-73.1201,-54.0094],[-73.081,-53.9983],[-73.0709,-53.9781],[-73.0857,-53.9157],[-73.073,-53.8755],[-73.0397,-53.8326],[-72.9841,-53.8606],[-72.936,-53.8606],[-72.8719,-53.8485],[-72.764,-53.8649],[-72.7814,-53.9548],[-72.8815,-54.0416],[-72.9587,-54.0659],[-72.946,-54.0919],[-72.9074,-54.1146],[-72.8709,-54.1268],[-72.8402,-54.1252],[-72.7889,-54.103],[-72.6767,-54.0787],[-72.5629,-54.0739],[-72.4703,-54.0279],[-72.4084,-54.004],[-72.3692,-53.9808],[-72.366,-53.9411],[-72.3063,-53.8622],[-72.2052,-53.8072],[-72.211,-53.8025],[-72.0152,-53.894],[-72.0692,-53.9215],[-72.1459,-53.939],[-72.2105,-54.048],[-72.0914,-54.1189],[-71.9723,-54.2072],[-71.9485,-54.3009],[-71.8178,-54.2766],[-71.7612,-54.23],[-71.6707,-54.2253],[-71.558,-54.2459],[-71.4733,-54.2311],[-71.3045,-54.3136],[-71.1431,-54.3739],[-71.1177,-54.3666],[-71.0828,-54.3163],[-71.0278,-54.2813],[-71.005,-54.2464],[-71.023,-54.1618],[-71.0225,-54.1379],[-70.8643,-54.0982],[-70.8627,-54.0982],[-70.8632,-54.1104],[-70.76,-54.2411],[-70.6362,-54.2623],[-70.5399,-54.3036],[-70.4685,-54.3734],[-70.2975,-54.4856],[-70.3108,-54.5285],[-70.4177,-54.502],[-70.5732,-54.5046],[-70.7013,-54.4856],[-70.6875,-54.4147],[-70.6987,-54.3491],[-70.7971,-54.3274],[-70.8981,-54.338],[-70.9283,-54.3602],[-70.9463,-54.3983],[-70.9664,-54.4195],[-71.0802,-54.4443],[-71.159,-54.4507],[-71.3553,-54.3956],[-71.3934,-54.4004],[-71.5003,-54.4448],[-71.5728,-54.4951],[-71.6062,-54.4972],[-71.7157,-54.4438],[-71.8004,-54.4337],[-71.8236,-54.4745],[-71.9067,-54.4951],[-71.9279,-54.5285],[-71.9014,-54.6015],[-71.8316,-54.6263],[-71.4411,-54.6195],[-71.2294,-54.6941],[-70.9246,-54.7142],[-70.7352,-54.7507],[-70.497,-54.8094],[-70.2817,-54.7517],[-70.2589,-54.7565],[-70.2377,-54.7777],[-70.1382,-54.8195],[-70.0303,-54.8158],[-69.8996,-54.7819],[-69.7715,-54.7391],[-69.7234,-54.7121],[-69.5874,-54.8126],[-69.4863,-54.8592],[-69.0815,-54.91],[-69.0921,-54.9941],[-69.7027,-54.919],[-69.8843,-54.8819],[-69.9208,-55.0613],[-69.9467,-55.1111],[-69.988,-55.1306],[-69.98,-55.1476],[-69.8869,-55.174],[-69.8657,-55.1904],[-69.8536,-55.2201],[-69.8239,-55.2365],[-69.68,-55.219],[-69.6572,-55.2291],[-69.6562,-55.2984],[-69.6461,-55.3212],[-69.6101,-55.3402],[-69.5085,-55.3709],[-69.4556,-55.4238],[-69.4117,-55.4444],[-69.2408,-55.4767],[-69.181,-55.4746],[-69.299,-55.3693],[-69.3593,-55.3005],[-69.3561,-55.274],[-69.2969,-55.1656],[-69.1926,-55.1719],[-69.1508,-55.1836],[-69.0466,-55.2444],[-69.008,-55.2555],[-68.9127,-55.2386],[-68.8899,-55.2412],[-68.8889,-55.2634],[-68.9323,-55.3476],[-68.9312,-55.3709],[-68.8963,-55.4238],[-68.8672,-55.4503],[-68.7852,-55.4354],[-68.6936,-55.4524],[-68.5942,-55.4497],[-68.4666,-55.4889],[-68.338,-55.5053],[-68.2936,-55.5212],[-68.2296,-55.6016],[-68.157,-55.6339],[-68.0825,-55.6508],[-68.0777,-55.6969],[-68.0777,-60.5335],[-180.0,-60.5335]],[[-71.3887,-54.9343],[-71.3252,-54.9137],[-71.2993,-54.8925],[-71.2739,-54.8867],[-71.2035,-54.893],[-71.1204,-54.938],[-70.9908,-54.9904],[-70.9675,-55.0068],[-70.9643,-55.0396],[-70.94,-55.0619],[-70.8156,-55.0798],[-70.7447,-55.1042],[-70.7108,-55.1068],[-70.641,-55.0846],[-70.5976,-55.082],[-70.551,-55.1121],[-70.5388,-55.1349],[-70.5436,-55.1613],[-70.4753,-55.1772],[-70.4039,-55.1656],[-70.2981,-55.1137],[-70.2832,-55.0661],[-70.4177,-54.9089],[-70.5346,-54.9211],[-70.615,-54.9454],[-70.7494,-54.9529],[-70.805,-54.9677],[-70.9278,-54.9428],[-70.9452,-54.9312],[-70.9918,-54.8682],[-71.0887,-54.8677],[-71.1971,-54.8444],[-71.3744,-54.8343],[-71.4104,-54.8391],[-71.4374,-54.8894],[-71.4268,-54.9137],[-71.4067,-54.9306],[-71.3887,-54.9343]],[[-74.1721,-51.9419],[-74.1419,-51.9313],[-74.1186,-51.9112],[-74.1155,-51.8885],[-74.1335,-51.871],[-74.2769,-51.8117],[-74.3256,-51.7704],[-74.3621,-51.7508],[-74.451,-51.725],[-74.4753,-51.7255],[-74.4372,-51.7905],[-74.4234,-51.8451],[-74.3388,-51.898],[-74.2832,-51.9186],[-74.1721,-51.9419]],[[-74.678,-45.7384],[-74.5616,-45.7226],[-74.4658,-45.757],[-74.3684,-45.7358],[-74.3128,-45.6914],[-74.2441,-45.6538],[-74.2292,-45.6115],[-74.2398,-45.5744],[-74.3155,-45.4644],[-74.2853,-45.277],[-74.3107,-45.1728],[-74.4219,-45.203],[-74.4499,-45.2527],[-74.5023,-45.285],[-74.4949,-45.4258],[-74.5584,-45.5257],[-74.6462,-45.5999],[-74.6896,-45.6628],[-74.678,-45.7384]],[[-74.9696,-48.7912],[-74.9807,-48.8187],[-74.9452,-48.8897],[-74.9495,-48.9601],[-75.0373,-49.022],[-75.1844,-49.0833],[-75.2103,-49.1479],[-75.0939,-49.1855],[-75.086,-49.2701],[-75.2167,-49.2929],[-75.2696,-49.2627],[-75.3267,-49.2685],[-75.4331,-49.322],[-75.4675,-49.359],[-75.4289,-49.4082],[-75.3643,-49.4628],[-75.3061,-49.494],[-75.3373,-49.6284],[-75.5209,-49.6215],[-75.5702,-49.6972],[-75.55,-49.7914],[-75.4511,-49.7697],[-75.3003,-49.8474],[-75.1669,-49.8559],[-75.0659,-49.8522],[-75.0315,-49.8363],[-74.9934,-49.7517],[-74.9907,-49.6056],[-74.9812,-49.5644],[-74.96,-49.5331],[-74.7436,-49.4225],[-74.724,-49.4236],[-74.7187,-49.4368],[-74.7272,-49.4522],[-74.7812,-49.4892],[-74.805,-49.5162],[-74.8119,-49.6051],[-74.8595,-49.6342],[-74.8822,-49.6924],[-74.8806,-49.7257],[-74.8219,-49.8141],[-74.8245,-49.8797],[-74.8108,-49.9295],[-74.7632,-50.0115],[-74.7034,-50.0194],[-74.5949,-50.0067],[-74.57,-49.9908],[-74.5425,-49.9194],[-74.4959,-49.8596],[-74.4721,-49.7861],[-74.4589,-49.6908],[-74.4711,-49.6686],[-74.5155,-49.6596],[-74.5219,-49.6231],[-74.4838,-49.4421],[-74.4668,-49.2945],[-74.4764,-49.1479],[-74.5309,-48.8124],[-74.5462,-48.7669],[-74.5663,-48.7547],[-74.6515,-48.7499],[-74.7468,-48.7087],[-74.7933,-48.705],[-74.896,-48.733],[-74.9696,-48.7912]],[[-74.915,-51.7382],[-75.0082,-51.7239],[-75.1055,-51.789],[-75.0505,-51.9038],[-75.0172,-52.0376],[-74.9177,-52.152],[-74.8515,-52.2705],[-74.6944,-52.2795],[-74.6658,-52.1599],[-74.5319,-51.9922],[-74.5367,-51.9651],[-74.6473,-51.8662],[-74.7494,-51.8519],[-74.7801,-51.8249],[-74.823,-51.6302],[-74.9098,-51.6498],[-74.915,-51.7382]],[[-74.8817,-51.2793],[-75.0405,-51.318],[-75.1537,-51.2788],[-75.2098,-51.3831],[-75.2384,-51.4534],[-75.3003,-51.5566],[-75.2892,-51.6254],[-75.1923,-51.5667],[-75.1463,-51.5244],[-75.0473,-51.3984],[-74.9367,-51.4286],[-74.8531,-51.4344],[-74.7976,-51.4116],[-74.7309,-51.3672],[-74.6907,-51.3704],[-74.6203,-51.3958],[-74.5928,-51.3873],[-74.561,-51.3608],[-74.5584,-51.2772],[-74.5706,-51.2455],[-74.6113,-51.2069],[-74.7367,-51.2074],[-74.8817,-51.2793]],[[-75.2474,-48.0266],[-75.2341,-48.0536],[-75.213,-48.1414],[-75.1585,-48.225],[-75.132,-48.2795],[-75.0791,-48.3615],[-75.0521,-48.3912],[-75.0129,-48.5356],[-74.923,-48.6266],[-74.7097,-48.6013],[-74.5864,-48.6155],[-74.5674,-48.5917],[-74.6182,-48.4251],[-74.6002,-48.3933],[-74.6023,-48.3705],[-74.615,-48.343],[-74.6642,-48.2991],[-74.7023,-48.206],[-74.715,-48.1456],[-74.7293,-48.1261],[-74.805,-48.0785],[-74.8463,-48.0208],[-74.8277,-47.8504],[-74.8955,-47.8392],[-74.9748,-47.9229],[-75.1981,-47.9747],[-75.2474,-48.0266]],[[-75.3267,-50.012],[-75.3691,-50.1125],[-75.3765,-50.1681],[-75.3976,-50.1924],[-75.4119,-50.2565],[-75.449,-50.3433],[-75.3077,-50.3433],[-75.2505,-50.3761],[-75.0547,-50.2962],[-74.9632,-50.2374],[-74.8388,-50.1972],[-74.8759,-50.1099],[-75.0045,-50.0887],[-75.1225,-50.0554],[-75.2098,-50.0454],[-75.3267,-50.012]],[[-75.1188,-48.7727],[-75.2363,-48.7785],[-75.2971,-48.8108],[-75.4902,-48.8505],[-75.5352,-48.8383],[-75.5834,-48.859],[-75.6194,-48.886],[-75.6379,-48.9426],[-75.576,-48.9807],[-75.54,-48.9886],[-75.5146,-49.0098],[-75.4876,-49.0823],[-75.5728,-49.1389],[-75.6411,-49.1955],[-75.5802,-49.2299],[-75.5061,-49.2304],[-75.3897,-49.159],[-75.2627,-49.069],[-75.1151,-48.9161],[-75.1066,-48.8368],[-75.1188,-48.7727]],[[-75.3304,-50.7725],[-75.3019,-50.6799],[-75.2923,-50.5968],[-75.2034,-50.5809],[-75.1606,-50.5544],[-75.1151,-50.5105],[-75.1563,-50.4967],[-75.304,-50.4841],[-75.4278,-50.4803],[-75.4199,-50.5306],[-75.4426,-50.5957],[-75.4776,-50.6544],[-75.4527,-50.6825],[-75.4384,-50.7412],[-75.4114,-50.7645],[-75.3304,-50.7725]],[[-75.3913,-48.0197],[-75.5606,-48.071],[-75.5717,-48.0959],[-75.5538,-48.1567],[-75.5088,-48.2309],[-75.5183,-48.3287],[-75.6511,-48.5864],[-75.6231,-48.7648],[-75.5103,-48.7632],[-75.4341,-48.7214],[-75.2251,-48.6717],[-75.1585,-48.6224],[-75.1553,-48.4251],[-75.2754,-48.2187],[-75.3384,-48.0742],[-75.3913,-48.0197]],[[-89.4798,-0.7932],[-89.5433,-0.827],[-89.6084,-0.8884],[-89.6026,-0.9133],[-89.5772,-0.9339],[-89.5364,-0.9524],[-89.419,-0.9112],[-89.3581,-0.826],[-89.2946,-0.7857],[-89.2592,-0.7286],[-89.2676,-0.7048],[-89.2877,-0.69],[-89.3184,-0.6799],[-89.4232,-0.7223],[-89.4798,-0.7932]],[[-90.3873,-0.7736],[-90.335,-0.7715],[-90.3154,-0.7572],[-90.2609,-0.7418],[-90.1926,-0.6588],[-90.1852,-0.545],[-90.2693,-0.4847],[-90.4699,-0.5175],[-90.5318,-0.5815],[-90.5424,-0.6768],[-90.3873,-0.7736]],[[-90.6207,-0.364],[-90.5742,-0.3338],[-90.5535,-0.2783],[-90.6673,-0.1899],[-90.7805,-0.1603],[-90.8202,-0.192],[-90.8678,-0.2714],[-90.8091,-0.3296],[-90.6207,-0.364]],[[-91.5499,-0.0465],[-91.469,-0.0105],[-91.4288,-0.0233],[-91.369,-0.2873],[-91.2494,-0.3735],[-91.197,-0.4968],[-91.1208,-0.5593],[-91.1446,-0.6228],[-91.334,-0.7064],[-91.4584,-0.7995],[-91.4954,-0.8609],[-91.4838,-0.9244],[-91.4192,-0.9969],[-91.3716,-1.017],[-91.1308,-1.0196],[-90.9054,-0.9408],[-90.7996,-0.7519],[-90.8625,-0.672],[-90.9589,-0.5953],[-90.9684,-0.5757],[-90.9504,-0.5254],[-90.9758,-0.4169],[-91.1763,-0.2232],[-91.2102,-0.0391],[-91.2721,0.0249],[-91.306,0.0916],[-91.3615,0.126],[-91.4912,0.1054],[-91.5092,0.0625],[-91.597,0.0022],[-91.5901,-0.0148],[-91.5499,-0.0465]],[[-91.46,-0.2555],[-91.6468,-0.2846],[-91.6542,-0.3111],[-91.6468,-0.391],[-91.6108,-0.4439],[-91.5261,-0.4783],[-91.4261,-0.4608],[-91.4002,-0.4212],[-91.3991,-0.3227],[-91.46,-0.2555]],[[-149.6329,-17.6175],[-149.5789,-17.735],[-149.4815,-17.753],[-149.3413,-17.7323],[-149.2905,-17.8223],[-149.2545,-17.8498],[-149.182,-17.8625],[-149.1508,-17.8122],[-149.1778,-17.7365],[-149.3217,-17.69],[-149.3302,-17.5889],[-149.3794,-17.5222],[-149.508,-17.4963],[-149.6111,-17.5317],[-149.635,-17.564],[-149.6329,-17.6175]],[[-171.7282,-14.0472],[-171.4541,-14.0467],[-171.4493,-14.0223],[-171.4615,-13.9773],[-171.507,-13.9498],[-171.5652,-13.943],[-171.6039,-13.8795],[-171.8584,-13.807],[-171.9848,-13.8244],[-172.0457,-13.8572],[-172.0282,-13.907],[-171.9118,-14.0017],[-171.8637,-14.0022],[-171.7282,-14.0472]],[[-172.6696,-13.5239],[-172.7786,-13.517],[-172.7442,-13.5789],[-172.659,-13.6451],[-172.5357,-13.7916],[-172.4844,-13.8001],[-172.3309,-13.7747],[-172.2251,-13.8043],[-172.1769,-13.6847],[-172.2214,-13.5593],[-172.3336,-13.4651],[-172.5108,-13.4826],[-172.6696,-13.5239]],[[-176.6675,-43.7652],[-176.7611,-43.7578],[-176.8479,-43.8239],[-176.8077,-43.8345],[-176.6346,-43.8202],[-176.5553,-43.852],[-176.5235,-43.9007],[-176.5627,-43.9541],[-176.6315,-44.0065],[-176.6293,-44.0361],[-176.5981,-44.107],[-176.5717,-44.115],[-176.5156,-44.1166],[-176.4526,-44.0769],[-176.3341,-44.0483],[-176.3335,-44.025],[-176.3854,-43.9515],[-176.4388,-43.9546],[-176.5002,-43.8599],[-176.4415,-43.816],[-176.4547,-43.8049],[-176.5166,-43.7848],[-176.4992,-43.7679],[-176.4076,-43.761],[-176.3754,-43.7906],[-176.3817,-43.8668],[-176.2748,-43.7647],[-176.2134,-43.7663],[-176.1774,-43.7403],[-176.5658,-43.7176],[-176.6675,-43.7652]]]]}}
