{"type":"Feature","properties":{"id":5,"name":"Indian Ocean","featurecla":"ocean","scalerank":0,"wikidataid":"Q1239","source":"Natural Earth 5.2.0-pre ne_10m_geography_marine_polys (public domain)"},"geometry":{"type":"Polygon","coordinates":[[[19.6158,-60.5335],[19.6158,-34.8133],[19.6349,-34.7535],[19.8502,-34.7567],[19.9265,-34.7747],[20.0206,-34.7858],[20.4344,-34.5085],[20.5297,-34.463],[20.7747,-34.4397],[20.8821,-34.3868],[20.9901,-34.3677],[21.0599,-34.3646],[21.2488,-34.4069],[21.3499,-34.408],[21.5531,-34.373],[21.7891,-34.3725],[22.2452,-34.0693],[22.4146,-34.0539],[22.5537,-34.01],[22.7358,-34.01],[22.9258,-34.0629],[23.2681,-34.0809],[23.3501,-34.0688],[23.5856,-33.9852],[23.6978,-33.9925],[24.1831,-34.0613],[24.5953,-34.1746],[24.827,-34.1688],[24.9054,-34.0598],[25.0027,-33.9735],[25.17,-33.9608],[25.4774,-34.028],[25.5742,-34.0354],[25.6383,-34.0111],[25.6526,-33.8497],[25.806,-33.737],[25.9896,-33.7116],[26.4294,-33.7597],[26.6135,-33.7073],[27.0776,-33.5211],[27.3639,-33.3608],[27.7618,-33.0962],[27.8608,-33.0538],[28.2142,-32.7691],[28.4492,-32.6247],[28.8562,-32.2945],[29.1281,-32.0034],[29.4827,-31.6748],[29.7351,-31.4705],[29.8303,-31.424],[29.9711,-31.3219],[30.2886,-30.9699],[30.4722,-30.7144],[30.6637,-30.4339],[30.8775,-30.0709],[31.0236,-29.901],[31.1702,-29.591],[31.3353,-29.3782],[31.7782,-28.9369],[31.8914,-28.912],[31.9554,-28.884],[32.0274,-28.8395],[32.2857,-28.6215],[32.3751,-28.4982],[32.5349,-28.1998],[32.6571,-27.6071],[32.7058,-27.4415],[32.8492,-27.0801],[32.8862,-26.8493],[32.8894,-26.8303],[32.9095,-26.5715],[32.9328,-26.5731],[45.1121,-25.5412],[45.1153,-25.5433],[45.2058,-25.5703],[45.508,-25.5629],[45.6048,-25.5285],[45.6921,-25.4682],[45.9207,-25.3412],[46.1588,-25.2306],[46.3869,-25.1729],[46.6224,-25.1703],[46.7288,-25.1496],[46.9383,-25.0486],[47.0351,-24.9792],[47.1775,-24.7872],[47.2727,-24.5644],[47.3119,-24.4432],[47.3336,-24.3178],[47.3727,-24.2183],[47.4278,-24.1252],[47.558,-23.8744],[47.5887,-23.7564],[47.6039,-23.6331],[47.7394,-23.2335],[47.804,-22.9917],[47.8585,-22.7472],[47.9082,-22.4657],[47.9347,-22.3938],[48.176,-21.8429],[48.3506,-21.3492],[48.4686,-20.8999],[48.6067,-20.4575],[48.7083,-20.2072],[48.7973,-19.9533],[48.9179,-19.5304],[49.0602,-19.1198],[49.2031,-18.7922],[49.2968,-18.5441],[49.3629,-18.3361],[49.4777,-17.8985],[49.4937,-17.6694],[49.437,-17.3465],[49.4492,-17.2407],[49.5396,-17.0328],[49.5952,-16.9312],[49.6371,-16.8931],[49.7397,-16.8497],[49.7672,-16.8153],[49.7386,-16.7581],[49.7338,-16.7031],[49.8112,-16.6031],[49.8392,-16.4866],[49.8313,-16.256],[49.828,-16.2491],[50.1948,-15.9591],[50.2091,-15.9607],[50.2625,-15.9014],[50.2916,-15.8586],[50.4049,-15.6289],[50.4826,-15.3855],[50.4413,-15.1495],[50.3133,-14.9367],[50.2355,-14.732],[50.2048,-14.5145],[50.1736,-14.0403],[50.0736,-13.5778],[49.9672,-13.2704],[49.9376,-13.0725],[49.8762,-12.973],[49.8048,-12.8799],[49.6381,-12.637],[49.5841,-12.537],[49.5381,-12.4322],[49.4799,-12.3486],[49.364,-12.2364],[49.3301,-12.1888],[49.3121,-12.1237],[49.2634,-12.0803],[49.256,-12.0803],[49.2566,-12.0475],[48.8861,-11.7829],[44.6327,-11.2733],[42.4658,-10.9891],[40.6089,-10.6589],[40.5168,-10.5674],[40.4353,-10.4103],[40.3888,-10.3536],[40.2158,-10.2409],[40.1379,-10.2028],[40.0835,-10.1568],[39.9834,-10.1594],[39.9453,-10.0922],[39.8639,-10.0218],[39.7252,-10.0007],[39.784,-9.9144],[39.775,-9.8372],[39.7278,-9.725],[39.6966,-9.5784],[39.6257,-9.4096],[39.6411,-9.1926],[39.4511,-8.9429],[39.4802,-8.9058],[39.4882,-8.8619],[39.3775,-8.7206],[39.304,-8.4439],[39.3087,-8.3507],[39.34,-8.2428],[39.441,-8.0116],[39.4283,-7.8125],[39.3304,-7.7464],[39.287,-7.7877],[39.2886,-7.5178],[39.3532,-7.3416],[39.4336,-7.2072],[39.5194,-7.1241],[39.5458,-7.0241],[39.4722,-6.8786],[39.2876,-6.8151],[39.2283,-6.6854],[39.1257,-6.5558],[39.0675,-6.4992],[38.9812,-6.4553],[38.8738,-6.3314],[38.8553,-6.2049],[38.8045,-6.07],[38.8193,-5.8774],[38.9108,-5.6261],[38.978,-5.5186],[39.0585,-5.2318],[39.0881,-5.1657],[39.1188,-5.0657],[39.123,-4.9805],[39.2019,-4.7762],[39.2283,-4.6656],[39.2876,-4.6085],[39.377,-4.6254],[39.4908,-4.4783],[39.6368,-4.1529],[39.658,-4.119],[39.6871,-4.0682],[39.7316,-3.993],[39.7458,-3.9555],[39.7612,-3.9131],[39.8189,-3.7861],[39.8612,-3.5766],[39.8961,-3.5359],[39.9369,-3.4427],[39.9919,-3.3506],[40.1152,-3.2506],[40.1279,-3.1733],[40.1946,-3.0194],[40.1797,-2.8188],[40.2226,-2.6881],[40.2787,-2.6288],[40.4046,-2.5558],[40.6444,-2.5394],[40.8132,-2.3923],[40.8201,-2.3362],[40.8984,-2.2701],[40.9222,-2.1939],[40.9058,-2.1372],[40.8899,-2.0235],[40.9163,-2.0425],[40.9524,-2.0557],[40.9709,-1.9917],[40.9957,-1.9505],[41.0587,-1.9753],[41.1069,-1.9822],[41.2677,-1.9452],[41.3868,-1.8669],[41.5328,-1.6954],[41.6318,-1.5785],[41.7323,-1.4303],[41.8461,-1.2033],[41.8884,-1.1504],[41.926,-1.0556],[41.98,-0.9731],[42.1065,-0.8561],[42.2192,-0.7381],[42.3996,-0.51],[42.4658,-0.4566],[42.5605,-0.3217],[42.7118,-0.1756],[43.4675,0.6218],[43.7178,0.8578],[44.0326,1.106],[44.3327,1.3912],[44.92,1.8103],[45.8265,2.3099],[46.0514,2.475],[46.879,3.2856],[47.5113,3.9683],[47.9754,4.4969],[48.2342,4.9525],[48.6491,5.4944],[49.0491,6.1738],[49.0925,6.4077],[49.2349,6.7776],[49.3486,6.9903],[49.5698,7.2967],[49.6714,7.4698],[49.7614,7.6597],[49.8519,7.9624],[50.1027,8.2],[50.2858,8.5096],[50.3212,8.6197],[50.4297,8.8451],[50.6382,9.1091],[50.6853,9.2409],[50.825,9.4282],[50.8329,9.7103],[50.8737,9.924],[50.8986,10.2532],[50.9298,10.3357],[51.0356,10.3849],[51.2086,10.431],[51.2679,10.4029],[51.3843,10.3865],[51.3881,10.4088],[73.123,-0.6805],[80.2128,6.05],[80.2154,6.0532],[80.2673,6.0098],[80.4959,5.9495],[80.724,5.9791],[80.9711,6.0886],[81.3061,6.204],[81.3801,6.241],[81.6373,6.4252],[81.7125,6.512],[81.7675,6.6141],[81.8188,6.7565],[81.8612,6.9014],[81.877,7.0205],[81.8744,7.2417],[95.1999,5.524],[95.2242,5.5219],[95.2237,5.5171],[95.2433,5.4642],[95.247,5.4108],[95.2205,5.3462],[95.2067,5.2838],[95.3814,4.9763],[95.4322,4.8652],[95.4946,4.7615],[95.5787,4.662],[95.9878,4.263],[96.2302,4.0725],[96.3106,3.9863],[96.4445,3.8164],[96.5254,3.7667],[96.8012,3.7085],[96.8938,3.6539],[96.9689,3.5751],[97.1885,3.2756],[97.2477,3.1888],[97.3134,3.0772],[97.3911,2.975],[97.5907,2.8464],[97.6166,2.7851],[97.6404,2.6766],[97.6621,2.494],[97.7007,2.3585],[97.7949,2.2829],[97.9187,2.2644],[98.005,2.2384],[98.0864,2.195],[98.5643,1.9024],[98.5955,1.8648],[98.7024,1.7019],[98.7966,1.4944],[98.9352,1.0319],[99.0596,0.6864],[99.1114,0.4588],[99.1591,0.352],[99.2364,0.2678],[99.3348,0.2086],[99.5978,0.1022],[99.6698,0.045],[99.7211,-0.0328],[99.8602,-0.3137],[99.9306,-0.4],[100.0169,-0.4741],[100.0878,-0.5529],[100.2888,-0.799],[100.3084,-0.8265],[100.3942,-1.1011],[100.4862,-1.299],[100.8551,-1.934],[100.8482,-2.1441],[100.8895,-2.2484],[100.9445,-2.3452],[101.1186,-2.5876],[101.2065,-2.6638],[101.3059,-2.7289],[101.3662,-2.8088],[101.4144,-2.8987],[101.5784,-3.167],[101.6488,-3.2442],[101.8182,-3.3781],[102.1277,-3.5993],[102.1875,-3.6745],[102.3722,-3.9692],[102.5378,-4.1523],[102.9188,-4.4709],[103.1384,-4.5963],[103.2389,-4.6757],[103.3321,-4.7651],[103.4057,-4.8164],[103.7702,-5.0329],[103.8316,-5.0794],[104.0671,-5.3858],[104.1507,-5.4667],[104.2428,-5.5387],[104.3693,-5.6906],[104.4809,-5.8033],[104.6016,-5.9044],[104.6079,-5.9049],[104.6074,-5.9091],[105.1302,-6.6061],[105.1921,-6.5457],[105.2254,-6.5288],[105.2604,-6.524],[105.2773,-6.5616],[105.2529,-6.6405],[105.1947,-6.6611],[105.2768,-6.7267],[105.2736,-6.7294],[105.2434,-6.778],[105.2556,-6.8352],[105.3027,-6.841],[105.362,-6.8262],[105.408,-6.8315],[105.4207,-6.8331],[105.4784,-6.8537],[105.6012,-6.86],[105.725,-6.8463],[105.8346,-6.8458],[105.9446,-6.859],[106.198,-6.9278],[106.5198,-7.0537],[106.4918,-7.1141],[106.4484,-7.1765],[106.4171,-7.2395],[106.4113,-7.312],[106.4552,-7.3686],[106.5351,-7.394],[106.6315,-7.4157],[107.0712,-7.4475],[107.285,-7.4718],[107.5469,-7.5422],[107.5977,-7.5665],[107.6956,-7.6353],[107.8046,-7.6882],[107.9173,-7.7242],[108.2206,-7.7824],[108.3354,-7.794],[108.4518,-7.7967],[108.518,-7.7359],[108.5703,-7.7073],[108.7412,-7.667],[108.8561,-7.6681],[108.9868,-7.7041],[109.1937,-7.6951],[109.2815,-7.7052],[109.8525,-7.8285],[110.0387,-7.8904],[110.6071,-8.1496],[110.8304,-8.202],[111.0553,-8.2396],[111.3384,-8.2618],[111.5099,-8.3052],[112.1152,-8.3237],[112.3517,-8.3534],[112.5862,-8.3994],[112.6788,-8.4095],[112.7719,-8.3962],[112.8978,-8.3613],[113.019,-8.3126],[113.1338,-8.2883],[113.2534,-8.2867],[113.6927,-8.4777],[113.9403,-8.5682],[114.1599,-8.6264],[114.2769,-8.6148],[114.3393,-8.6476],[114.3832,-8.7053],[114.4594,-8.7407],[114.5838,-8.7699],[114.5954,-8.7376],[114.6261,-8.7487],[115.1442,-8.8524],[115.1553,-8.8545],[116.602,-8.9783],[116.9571,-9.0794],[116.9582,-9.0762],[117.0613,-9.099],[117.1614,-9.0693],[117.21,-9.0339],[117.265,-9.026],[117.3265,-9.0339],[117.3878,-9.0317],[117.5079,-9.0074],[117.7318,-8.9201],[117.7952,-8.9201],[117.8614,-8.9318],[118.0704,-8.8508],[118.1313,-8.8561],[118.19,-8.8408],[118.234,-8.8079],[118.379,-8.6746],[118.4001,-8.7037],[118.398,-8.8132],[118.4271,-8.8555],[118.4784,-8.8566],[118.4789,-8.8598],[118.507,-8.8545],[118.9478,-9.5249],[118.9632,-9.5313],[118.9774,-9.5726],[119.0081,-9.6207],[119.0425,-9.6689],[119.0854,-9.707],[119.3627,-9.7721],[119.4167,-9.771],[119.4706,-9.7604],[119.5463,-9.7678],[119.6627,-9.8155],[119.813,-9.9176],[119.9305,-9.9663],[119.9982,-10.0399],[120.0522,-10.1229],[120.1448,-10.2002],[120.2554,-10.2425],[120.3945,-10.2637],[120.439,-10.2938],[120.5618,-10.2356],[120.6406,-10.2277],[120.6533,-10.2229],[121.3291,-10.7949],[122.8107,-10.8479],[122.8223,-10.8558],[122.8261,-10.8992],[122.8557,-10.9098],[122.9033,-10.9093],[122.9166,-10.9182],[126.8985,-13.7456],[126.7758,-13.7885],[126.7646,-13.8731],[126.7805,-13.9551],[126.6789,-14.0895],[126.5699,-14.161],[126.4826,-14.0789],[126.4032,-14.0191],[126.3233,-14.062],[126.299,-14.1361],[126.2583,-14.1636],[126.2281,-14.1133],[126.1842,-14.0022],[126.1191,-13.9578],[126.054,-13.9773],[126.0736,-14.0657],[126.1111,-14.1139],[126.1011,-14.1842],[126.0535,-14.2165],[126.045,-14.2832],[126.0164,-14.3711],[126.0207,-14.4944],[125.946,-14.5203],[125.8904,-14.6182],[125.8503,-14.5976],[125.8397,-14.534],[125.8196,-14.4689],[125.7386,-14.4441],[125.7084,-14.505],[125.6904,-14.5256],[125.6619,-14.5293],[125.6809,-14.48],[125.6815,-14.388],[125.7048,-14.2912],[125.6275,-14.2568],[125.5973,-14.2779],[125.5984,-14.3616],[125.5799,-14.4832],[125.5036,-14.5023],[125.4359,-14.5568],[125.3354,-14.5579],[125.2846,-14.5843],[125.2666,-14.6484],[125.1787,-14.7145],[125.1803,-14.7939],[125.2396,-14.8748],[125.2432,-14.9447],[125.3835,-15.0156],[125.3755,-15.087],[125.3555,-15.1199],[125.3026,-15.1071],[125.1888,-15.0452],[125.0729,-15.0325],[125.038,-15.0039],[125.0242,-15.0246],[125.0231,-15.0717],[124.9787,-15.1066],[124.9142,-15.1098],[124.839,-15.1606],[124.8925,-15.2405],[124.883,-15.2722],[124.9094,-15.3098],[125.0242,-15.3172],[125.0729,-15.3066],[125.0777,-15.3744],[125.0628,-15.4421],[125.0163,-15.4664],[124.9718,-15.4045],[124.7507,-15.2855],[124.6924,-15.2738],[124.6803,-15.3108],[124.6909,-15.3595],[124.6443,-15.4188],[124.5617,-15.4961],[124.5057,-15.4754],[124.4395,-15.4934],[124.3966,-15.6257],[124.3818,-15.758],[124.4554,-15.8506],[124.5041,-15.9723],[124.6067,-15.8225],[124.6485,-15.8056],[124.6485,-15.8702],[124.6089,-15.9374],[124.585,-16.02],[124.5771,-16.1136],[124.5099,-16.1162],[124.4348,-16.1036],[124.4162,-16.1337],[124.3881,-16.203],[124.4046,-16.2988],[124.4543,-16.3353],[124.5702,-16.3316],[124.6692,-16.339],[124.757,-16.3734],[124.7718,-16.4025],[124.6924,-16.3861],[124.53,-16.3951],[124.4527,-16.3819],[124.3004,-16.3882],[124.186,-16.3337],[124.1299,-16.2787],[124.0442,-16.2649],[123.9611,-16.2872],[123.9151,-16.3634],[123.859,-16.3824],[123.7288,-16.1924],[123.6473,-16.1797],[123.6071,-16.2242],[123.6463,-16.3432],[123.6262,-16.4163],[123.5812,-16.4708],[123.5251,-16.4676],[123.4902,-16.4909],[123.5182,-16.5406],[123.6071,-16.6682],[123.6807,-16.7237],[123.7452,-16.801],[123.7781,-16.8677],[123.8563,-16.8645],[123.8743,-16.9184],[123.8294,-16.9968],[123.831,-17.1206],[123.7992,-17.127],[123.7537,-17.1],[123.6637,-17.0232],[123.6177,-17.0084],[123.5934,-17.0301],[123.5865,-17.0825],[123.6076,-17.2201],[123.5616,-17.4154],[123.5717,-17.4725],[123.5631,-17.5212],[123.5251,-17.4858],[123.4785,-17.41],[123.3833,-17.2926],[123.2658,-17.037],[123.142,-16.8629],[123.0743,-16.7153],[122.9705,-16.4369],[122.9166,-16.4327],[122.8483,-16.5523],[122.7721,-16.71],[122.7202,-16.7878],[122.598,-16.865],[122.5223,-16.9428],[122.4318,-16.9703],[122.3328,-17.0592],[122.2609,-17.136],[122.1604,-17.3138],[122.1429,-17.4286],[122.1476,-17.5492],[122.1911,-17.7202],[122.2376,-17.9683],[122.3059,-17.9948],[122.3609,-18.0371],[122.3456,-18.1117],[122.262,-18.1594],[122.0064,-18.3938],[121.8339,-18.4769],[121.7847,-18.5361],[121.7222,-18.6599],[121.6306,-18.8166],[121.5894,-18.915],[121.4936,-19.1066],[121.3375,-19.3198],[121.1798,-19.478],[120.9978,-19.6045],[120.8782,-19.6648],[120.4337,-19.8421],[120.1961,-19.9093],[119.768,-19.9585],[119.586,-20.0384],[119.3589,-20.0125],[119.1044,-19.9956],[118.7515,-20.2618],[118.4583,-20.3268],[118.199,-20.375],[118.0874,-20.4189],[117.8323,-20.5723],[117.6842,-20.6427],[117.4064,-20.7211],[117.2925,-20.7131],[117.1391,-20.6412],[116.9952,-20.6575],[116.8364,-20.647],[116.7068,-20.6538],[116.6057,-20.7137],[116.0109,-21.0306],[115.8935,-21.1168],[115.7712,-21.2423],[115.5961,-21.3582],[115.4563,-21.4915],[115.1616,-21.6307],[114.859,-21.736],[114.7092,-21.8233],[114.6028,-21.9424],[114.4171,-22.2609],[114.3779,-22.3414],[114.3033,-22.4255],[114.2054,-22.4557],[114.1414,-22.4832],[114.1636,-22.3234],[114.0927,-22.1815],[114.1425,-21.9096],[114.1239,-21.8286],[114.0228,-21.8815],[113.9583,-21.9392],[113.7948,-22.3324],[113.6826,-22.6377],[113.7678,-22.8129],[113.7953,-22.9145],[113.7948,-23.0235],[113.7646,-23.1806],[113.7672,-23.2828],[113.7572,-23.4182],[113.5529,-23.7326],[113.49,-23.8696],[113.4212,-24.1321],[113.4127,-24.2538],[113.3974,-25.6471],[113.3953,-25.7132],[113.5133,-25.8984],[113.589,-26.0985],[113.7064,-26.2239],[113.7757,-26.2561],[113.8529,-26.3323],[113.8366,-26.5006],[113.7805,-26.5631],[113.7334,-26.5953],[113.5815,-26.5583],[113.5466,-26.4366],[113.4275,-26.1979],[113.3889,-26.1053],[113.3561,-26.0805],[113.3429,-26.1259],[113.3455,-26.2085],[113.3233,-26.244],[113.3,-26.2403],[113.2529,-26.1974],[113.2106,-26.1741],[113.1846,-26.1821],[113.2312,-26.2413],[113.3328,-26.4176],[113.7096,-26.8478],[114.0282,-27.3473],[114.0985,-27.5441],[114.1334,-27.9765],[114.1652,-28.0807],[114.3536,-28.295],[114.5372,-28.5426],[114.5917,-28.6659],[114.5907,-28.7718],[114.6282,-28.8718],[114.8568,-29.1428],[114.959,-29.4338],[114.9717,-29.5396],[114.942,-29.7216],[114.969,-30.0424],[114.9944,-30.2164],[115.0166,-30.308],[115.0166,-33.5295],[114.9939,-33.5153],[114.9759,-33.8042],[114.9732,-34.0513],[115.0055,-34.1449],[115.0087,-34.2561],[115.1277,-34.3418],[115.195,-34.3084],[115.2775,-34.3037],[115.5649,-34.426],[115.7262,-34.526],[115.9866,-34.7948],[116.2173,-34.8657],[116.5174,-34.9879],[116.8656,-35.0265],[117.1439,-35.0334],[117.5821,-35.098],[117.6757,-35.0747],[117.863,-35.0551],[118.0064,-35.0133],[118.036,-35.0075],[118.0472,-35.0604],[145.9062,-43.3942],[145.9887,-43.417],[146.013,-43.445],[146.0433,-43.5472],[146.1867,-43.5128],[146.3602,-43.5181],[146.7793,-43.6324],[165.8986,-50.792],[165.8891,-50.8079],[165.904,-50.8217],[165.9717,-50.8195],[166.0664,-50.855],[166.0664,-60.5335],[19.6158,-60.5335]],[[112.9645,-25.7831],[113.1566,-26.0942],[113.183,-26.0529],[113.1482,-25.9741],[113.1317,-25.9519],[113.1317,-25.8826],[113.0963,-25.8148],[112.9825,-25.52],[112.947,-25.5317],[112.9084,-25.5698],[112.9645,-25.7831]],[[102.2859,-5.4837],[102.3674,-5.4789],[102.4055,-5.4048],[102.3717,-5.3662],[102.1987,-5.289],[102.1536,-5.2863],[102.1108,-5.3223],[102.1357,-5.3604],[102.2859,-5.4837]],[[100.2042,-2.9871],[100.2598,-3.0569],[100.3323,-3.113],[100.3486,-3.1591],[100.346,-3.2295],[100.4651,-3.3284],[100.4249,-3.1829],[100.4338,-3.1411],[100.4645,-3.1168],[100.4688,-3.0389],[100.4545,-3.0019],[100.2455,-2.7833],[100.1984,-2.7855],[100.1793,-2.8204],[100.2042,-2.9871]],[[100.1328,-2.8215],[100.2042,-2.741],[100.2021,-2.6796],[100.0121,-2.5103],[99.9877,-2.5251],[99.9692,-2.5939],[99.9682,-2.6098],[99.9968,-2.6495],[99.992,-2.7696],[100.0148,-2.8199],[100.1328,-2.8215]],[[99.5618,-2.051],[99.5591,-2.1156],[99.5375,-2.1616],[99.6073,-2.2574],[99.6851,-2.2817],[99.848,-2.3696],[99.8428,-2.3431],[99.8158,-2.2844],[99.7348,-2.1775],[99.6867,-2.0632],[99.6221,-2.0166],[99.5724,-2.0256],[99.5618,-2.051]],[[99.0718,-1.7838],[99.1638,-1.7779],[99.2713,-1.7382],[99.267,-1.6277],[99.2104,-1.5594],[99.1305,-1.4424],[99.1406,-1.4186],[99.1289,-1.3843],[99.1014,-1.3403],[99.0649,-1.2409],[98.9548,-1.0562],[98.9326,-0.954],[98.8691,-0.9154],[98.676,-0.9704],[98.6019,-1.198],[98.6268,-1.2615],[98.8162,-1.5383],[98.8278,-1.6102],[98.8744,-1.6637],[99.0718,-1.7838]],[[98.3743,0.0069],[98.323,-0.001],[98.4273,-0.2264],[98.4088,-0.309],[98.3548,-0.3794],[98.3399,-0.4677],[98.3098,-0.5317],[98.3998,-0.5768],[98.459,-0.5307],[98.5199,-0.3799],[98.5442,-0.2577],[98.4844,-0.1677],[98.4156,-0.0174],[98.3743,0.0069]],[[97.3557,1.5399],[97.3425,1.5278],[97.3245,1.4817],[97.244,1.4235],[97.079,1.4256],[97.2969,1.1875],[97.3689,1.0568],[97.4055,0.9467],[97.4615,0.9414],[97.6039,0.834],[97.6827,0.6409],[97.6838,0.5959],[97.8203,0.5647],[97.8764,0.6282],[97.9023,0.8843],[97.9319,0.9737],[97.9034,1.0182],[97.7864,1.1457],[97.6986,1.1838],[97.4816,1.4653],[97.3557,1.5399]],[[95.8063,2.9158],[95.7724,2.8549],[95.7174,2.8258],[95.7327,2.7665],[95.8084,2.6554],[95.8799,2.6411],[95.9386,2.5983],[96.0222,2.5956],[96.2905,2.4295],[96.3408,2.3723],[96.4011,2.3506],[96.4635,2.3601],[96.4593,2.4157],[96.4429,2.4654],[96.4175,2.5152],[96.1799,2.6612],[96.1296,2.721],[96.1016,2.7411],[95.9978,2.7814],[95.8957,2.8893],[95.8063,2.9158]],[[73.4649,-53.1843],[73.5881,-53.1843],[73.7072,-53.1373],[73.7951,-53.1299],[73.838,-53.1129],[73.731,-53.0912],[73.5855,-53.0272],[73.3882,-52.9997],[73.3051,-52.9664],[73.2511,-52.9759],[73.2538,-52.9891],[73.2855,-53.0214],[73.3363,-53.0298],[73.413,-53.1468],[73.4649,-53.1843]],[[68.8728,-49.7099],[68.9929,-49.7051],[69.086,-49.6527],[69.1532,-49.5299],[69.2744,-49.5427],[69.3527,-49.5633],[69.4776,-49.6173],[69.6131,-49.6511],[69.6819,-49.6421],[69.7464,-49.6019],[69.8041,-49.6136],[69.8258,-49.6448],[69.9189,-49.6892],[70.075,-49.7088],[70.1242,-49.7046],[70.2073,-49.6649],[70.2163,-49.6289],[70.2586,-49.6008],[70.3073,-49.5834],[70.2475,-49.5305],[70.1655,-49.5093],[70.0734,-49.5178],[70.0629,-49.5892],[69.9867,-49.5818],[69.856,-49.5442],[69.7803,-49.4903],[69.7491,-49.4474],[69.7602,-49.4305],[69.8184,-49.4379],[69.8612,-49.4204],[69.902,-49.3892],[69.9158,-49.3485],[69.993,-49.3447],[70.1655,-49.3431],[70.238,-49.3717],[70.2978,-49.4246],[70.3386,-49.4352],[70.3862,-49.4342],[70.4116,-49.4109],[70.3899,-49.3654],[70.4851,-49.3278],[70.537,-49.2654],[70.5555,-49.2013],[70.5307,-49.1368],[70.4841,-49.0839],[70.4063,-49.0611],[70.32,-49.0585],[70.2851,-49.0764],[70.2084,-49.1352],[70.0613,-49.1362],[69.984,-49.16],[69.8544,-49.2214],[69.7708,-49.2479],[69.6665,-49.2648],[69.611,-49.2659],[69.5421,-49.2559],[69.4051,-49.1818],[69.4363,-49.1241],[69.5723,-49.1288],[69.6443,-49.1172],[69.5872,-49.0717],[69.5929,-48.9712],[69.5348,-48.9743],[69.3141,-49.1061],[69.2654,-49.1156],[69.185,-49.1098],[69.0521,-49.0818],[69.0326,-49.0177],[69.0993,-48.9378],[69.104,-48.8997],[69.1363,-48.8611],[69.1225,-48.7658],[69.0717,-48.7526],[69.0929,-48.724],[69.0812,-48.679],[69.0575,-48.6563],[69.0024,-48.6611],[68.9585,-48.6939],[68.9003,-48.7759],[68.832,-48.8489],[68.8368,-48.9262],[68.7966,-48.9949],[68.7696,-49.0659],[68.7902,-49.1035],[68.8167,-49.1352],[68.8537,-49.1415],[68.8834,-49.1648],[68.8135,-49.1923],[68.7987,-49.2315],[68.8416,-49.2855],[68.8183,-49.3537],[68.8617,-49.3924],[68.8723,-49.4442],[68.8484,-49.4998],[68.8103,-49.55],[68.7913,-49.5998],[68.7828,-49.6511],[68.8145,-49.6998],[68.8728,-49.7099]],[[57.5248,-20.5131],[57.6512,-20.4851],[57.7068,-20.4348],[57.7248,-20.3686],[57.7809,-20.3268],[57.792,-20.2125],[57.737,-20.0982],[57.6566,-19.9897],[57.5756,-19.9972],[57.5153,-20.0559],[57.4867,-20.1437],[57.4163,-20.1839],[57.3856,-20.2284],[57.3623,-20.3374],[57.365,-20.4062],[57.3179,-20.4279],[57.3285,-20.4501],[57.3835,-20.5036],[57.5248,-20.5131]],[[55.4504,-20.865],[55.3113,-20.9041],[55.2499,-21.0026],[55.233,-21.0587],[55.3102,-21.2174],[55.3626,-21.2735],[55.5579,-21.3582],[55.6563,-21.3693],[55.7976,-21.3391],[55.8225,-21.2777],[55.8388,-21.1386],[55.7394,-21.0216],[55.6616,-20.9063],[55.5965,-20.8798],[55.4504,-20.865]],[[39.7167,-7.8316],[39.6607,-7.9004],[39.603,-7.9358],[39.6363,-7.9777],[39.6575,-7.9904],[39.7115,-7.9777],[39.7617,-7.912],[39.8247,-7.9004],[39.8977,-7.7279],[39.9073,-7.649],[39.8908,-7.6634],[39.8464,-7.73],[39.7167,-7.8316]],[[39.7808,-4.945],[39.6734,-4.927],[39.7009,-5.1138],[39.6469,-5.3684],[39.6734,-5.4064],[39.7077,-5.4297],[39.7495,-5.444],[39.7956,-5.3943],[39.8527,-5.2556],[39.8591,-5.1551],[39.8559,-5.0043],[39.8707,-4.9566],[39.8649,-4.9064],[39.7808,-4.945]],[[39.3828,-6.3648],[39.4236,-6.3478],[39.4474,-6.4198],[39.4807,-6.4537],[39.5093,-6.4515],[39.5633,-6.4272],[39.5728,-6.3875],[39.4966,-6.1748],[39.4331,-6.1155],[39.368,-5.951],[39.3574,-5.8113],[39.3087,-5.7218],[39.2669,-5.8531],[39.1923,-5.9309],[39.2061,-6.0832],[39.1823,-6.1727],[39.2437,-6.2748],[39.3125,-6.279],[39.3828,-6.3648]]]}}
