{"type":"Feature","properties":{"id":6,"name":"South Atlantic Ocean","featurecla":"ocean","scalerank":0,"wikidataid":"Q97","source":"Natural Earth 5.2.0-pre ne_10m_geography_marine_polys (public domain)"},"geometry":{"type":"Polygon","coordinates":[[[-68.0777,-60.5335],[-68.0777,-55.6969],[-68.0825,-55.6508],[-68.0486,-55.6434],[-68.0454,-55.5873],[-68.0581,-55.518],[-68.0898,-55.4783],[-68.1528,-55.437],[-68.3052,-55.3566],[-68.3264,-55.3328],[-68.3227,-55.3085],[-68.2825,-55.255],[-68.3301,-55.2195],[-68.3819,-55.1915],[-68.5857,-55.1778],[-68.6132,-55.1555],[-68.5978,-55.1285],[-68.4,-55.0418],[-68.4581,-54.9597],[-68.6534,-54.9581],[-68.9011,-55.0179],[-69.0921,-54.9941],[-69.0815,-54.91],[-68.8434,-54.8766],[-68.8037,-54.8539],[-68.6534,-54.8539],[-68.6185,-54.8338],[-68.491,-54.8364],[-68.3317,-54.8163],[-68.22,-54.8174],[-68.0073,-54.8486],[-67.7935,-54.8687],[-67.1273,-54.9036],[-66.9305,-54.9248],[-66.6278,-55.0132],[-66.5114,-55.0322],[-66.3986,-55.0095],[-66.287,-54.9777],[-66.1722,-54.9751],[-66.0605,-54.9565],[-65.9536,-54.9195],[-65.8419,-54.91],[-65.7229,-54.9264],[-65.6033,-54.928],[-65.471,-54.9147],[-65.3461,-54.8777],[-65.2525,-54.7888],[-65.1789,-54.6782],[-65.2519,-54.638],[-65.3694,-54.6322],[-65.7472,-54.6534],[-65.9928,-54.5988],[-66.2356,-54.5332],[-66.4621,-54.4411],[-66.6701,-54.3136],[-66.8654,-54.2226],[-67.0696,-54.148],[-67.294,-54.0501],[-67.5025,-53.922],[-67.6782,-53.7871],[-67.8613,-53.6622],[-67.9401,-53.6188],[-68.0083,-53.5638],[-68.1438,-53.3188],[-68.1613,-53.3066],[-68.3931,-53.295],[-68.4883,-53.2611],[-68.5206,-53.2219],[-68.5206,-53.1775],[-68.4793,-53.114],[-68.4312,-53.0553],[-68.3327,-53.0198],[-68.2401,-53.0817],[-68.2782,-52.9838],[-68.3386,-52.9002],[-68.5714,-52.6949],[-68.6592,-52.6314],[-68.7577,-52.5822],[-68.7624,-52.5816],[-68.7608,-52.5727],[-68.6963,-52.3144],[-68.4433,-52.3568],[-68.3936,-52.307],[-68.3989,-52.3012],[-67.9099,-49.984],[-67.911,-49.9824],[-67.8258,-49.9194],[-67.7835,-49.8591],[-67.6618,-49.3421],[-67.6935,-49.304],[-67.685,-49.2469],[-67.4665,-48.9516],[-67.2633,-48.814],[-67.131,-48.688],[-67.0331,-48.6277],[-66.7828,-48.5229],[-66.596,-48.4197],[-66.3933,-48.3425],[-66.0171,-48.0842],[-65.9435,-48.0192],[-65.9123,-47.9769],[-65.8102,-47.9408],[-65.8636,-47.853],[-65.934,-47.8265],[-66.0975,-47.853],[-66.1722,-47.8578],[-66.2251,-47.8265],[-66.0404,-47.7832],[-65.8864,-47.7017],[-65.8144,-47.6382],[-65.7753,-47.5683],[-65.7382,-47.345],[-65.7689,-47.2566],[-65.8457,-47.1662],[-65.8441,-47.1646],[-65.6446,-45.0077],[-65.6388,-45.0077],[-65.6059,-44.9453],[-65.5991,-44.8754],[-65.6985,-44.796],[-65.6477,-44.6616],[-65.3615,-44.4774],[-65.29,-44.3605],[-65.2657,-44.2796],[-65.3085,-44.1584],[-65.2387,-44.0488],[-65.3048,-43.7875],[-65.2837,-43.6297],[-65.2525,-43.5721],[-65.1895,-43.5218],[-64.9858,-43.2937],[-64.8397,-43.1889],[-64.7153,-43.1355],[-64.4323,-43.0593],[-64.3756,-43.0243],[-64.319,-42.9688],[-64.3804,-42.9492],[-64.4418,-42.9508],[-64.6291,-42.909],[-65.027,-42.7587],[-64.9709,-42.6661],[-64.8122,-42.6333],[-64.6503,-42.5312],[-64.4878,-42.5132],[-64.3243,-42.5724],[-64.2481,-42.646],[-64.2201,-42.7556],[-64.1306,-42.8614],[-64.0348,-42.8815],[-63.6925,-42.8053],[-63.6443,-42.7455],[-63.6173,-42.6957],[-63.5946,-42.5555],[-63.5956,-42.4063],[-63.63,-42.2825],[-63.6845,-42.1888],[-63.7295,-42.1528],[-63.7856,-42.1195],[-63.403,-41.1691],[-63.403,-41.1559],[-63.2131,-41.1527],[-62.959,-41.1098],[-62.395,-40.8908],[-62.3018,-40.8146],[-62.2463,-40.6744],[-62.3934,-40.459],[-62.4272,-40.3558],[-62.4018,-40.1965],[-62.324,-39.9504],[-62.287,-39.8954],[-62.1314,-39.8256],[-62.0827,-39.5684],[-62.0769,-39.4652],[-62.0738,-39.4652],[-61.4081,-38.9863],[-61.4081,-38.9831],[-61.3827,-38.981],[-61.1123,-38.9932],[-60.9038,-38.9741],[-59.8285,-38.8381],[-59.6761,-38.7969],[-59.0072,-38.6736],[-58.1791,-38.4359],[-57.6457,-38.1698],[-57.5467,-38.0857],[-57.5071,-37.9095],[-57.3959,-37.7449],[-57.088,-37.4464],[-56.727,-36.9575],[-56.672,-36.8511],[-56.6683,-36.7352],[-56.698,-36.4267],[-56.7175,-36.3891],[-56.7493,-36.3463],[-56.7503,-36.3463],[-56.7509,-36.3362],[-54.9189,-34.9625],[-54.9125,-34.9308],[-54.9025,-34.9329],[-54.3654,-34.7329],[-54.2723,-34.6667],[-54.1685,-34.671],[-54.0103,-34.517],[-53.7854,-34.3804],[-53.7431,-34.2497],[-53.5346,-34.0174],[-53.4727,-33.8491],[-53.4198,-33.7793],[-53.3706,-33.7423],[-52.9208,-33.402],[-52.7631,-33.2665],[-52.6525,-33.138],[-52.5085,-32.8755],[-52.3419,-32.44],[-52.2747,-32.3236],[-52.19,-32.2209],[-52.1275,-32.168],[-52.1672,-32.0886],[-52.1683,-32.0833],[-52.0688,-32.0632],[-52.0392,-32.1151],[-51.9201,-31.9897],[-51.7979,-31.9002],[-51.4603,-31.7023],[-51.1518,-31.4806],[-50.9216,-31.2583],[-50.748,-31.0679],[-50.62,-30.8974],[-50.2993,-30.426],[-50.0331,-29.801],[-49.7458,-29.3634],[-49.4997,-29.0755],[-49.2711,-28.8713],[-49.0234,-28.6988],[-48.7996,-28.5755],[-48.7975,-28.4427],[-48.6932,-28.3104],[-48.6483,-28.2072],[-48.6207,-28.0754],[-48.6059,-27.8251],[-48.6425,-27.5579],[-48.5721,-27.3727],[-48.5953,-27.2637],[-48.5541,-27.196],[-48.5684,-27.1235],[-48.5932,-27.0578],[-48.6155,-26.8779],[-48.6779,-26.7028],[-48.6763,-26.6123],[-48.6583,-26.5192],[-48.6514,-26.4064],[-48.7007,-26.3482],[-48.7483,-26.2688],[-48.7139,-26.227],[-48.679,-26.226],[-48.6197,-26.1794],[-48.5763,-25.9355],[-48.6128,-25.8752],[-48.679,-25.8752],[-48.6657,-25.8445],[-48.5451,-25.8159],[-48.4011,-25.5974],[-48.4297,-25.5502],[-48.507,-25.5211],[-48.6922,-25.4915],[-48.7319,-25.3687],[-48.644,-25.4365],[-48.5641,-25.4476],[-48.4763,-25.4428],[-48.4276,-25.4031],[-48.4583,-25.3105],[-48.4027,-25.2719],[-48.2736,-25.3063],[-48.1858,-25.31],[-48.2424,-25.4031],[-48.2027,-25.4163],[-48.0244,-25.237],[-47.9291,-25.1682],[-47.9085,-25.0682],[-47.9593,-25.0655],[-47.9889,-25.0359],[-47.9143,-24.9999],[-47.8767,-24.9972],[-47.8312,-24.9528],[-47.5921,-24.7808],[-47.137,-24.493],[-46.8671,-24.2363],[-46.6306,-24.1104],[-45.9723,-23.7955],[-45.8432,-23.7638],[-45.6648,-23.7648],[-45.5272,-23.8051],[-45.4643,-23.8024],[-45.4336,-23.7585],[-45.4235,-23.6854],[-45.3256,-23.5997],[-45.2156,-23.5754],[-44.9515,-23.3817],[-44.6673,-23.3352],[-44.6192,-23.3161],[-44.5694,-23.2738],[-44.6213,-23.2282],[-44.6737,-23.2065],[-44.6811,-23.1071],[-44.6372,-23.0557],[-44.3678,-23.005],[-44.1482,-23.0113],[-44.0477,-22.9446],[-43.8662,-22.9107],[-43.7032,-22.9663],[-43.6762,-23.0097],[-43.7916,-23.0462],[-43.899,-23.0351],[-43.9736,-23.0574],[-43.899,-23.1012],[-43.7365,-23.0669],[-43.5328,-23.0462],[-43.3693,-22.9981],[-43.2243,-22.9912],[-43.1936,-22.9388],[-43.209,-22.8779],[-43.2365,-22.8287],[-43.2418,-22.7948],[-43.2291,-22.7478],[-43.1545,-22.725],[-43.0862,-22.7234],[-43.0656,-22.7705],[-43.1005,-22.8499],[-43.0809,-22.9023],[-43.0164,-22.9425],[-42.9581,-22.9674],[-42.829,-22.9732],[-42.5808,-22.9409],[-42.1226,-22.9409],[-42.0422,-22.9473],[-41.9876,-22.8451],[-41.9411,-22.7885],[-41.9861,-22.7356],[-41.9977,-22.6446],[-41.9802,-22.5805],[-41.7056,-22.3096],[-41.5828,-22.2434],[-41.1225,-22.0842],[-41.0002,-21.999],[-40.9881,-21.9202],[-41.023,-21.5968],[-41.0473,-21.5058],[-40.9547,-21.238],[-40.8288,-21.0312],[-40.7891,-20.9063],[-40.7272,-20.8465],[-40.5965,-20.784],[-40.3959,-20.5692],[-40.3186,-20.4258],[-40.2991,-20.293],[-40.2028,-20.2062],[-40.1419,-19.968],[-40.0011,-19.7421],[-39.8445,-19.649],[-39.7831,-19.5717],[-39.7313,-19.4537],[-39.7001,-19.278],[-39.7419,-18.8462],[-39.7397,-18.6398],[-39.6509,-18.2525],[-39.4868,-17.99],[-39.4127,-17.9202],[-39.2783,-17.8492],[-39.154,-17.7037],[-39.1704,-17.6418],[-39.2154,-17.3159],[-39.2026,-17.1783],[-39.164,-17.0434],[-39.1249,-16.7634],[-39.0635,-16.5041],[-38.9608,-16.1866],[-38.8804,-15.8644],[-38.9434,-15.5643],[-38.9963,-15.2537],[-39.0132,-14.9357],[-39.0598,-14.6547],[-38.9423,-14.0308],[-38.9666,-14.0033],[-39.0084,-14.1012],[-39.0481,-14.0441],[-39.0349,-13.9911],[-39.0413,-13.7583],[-39.001,-13.6646],[-38.9889,-13.6149],[-39.009,-13.5815],[-39.0349,-13.5588],[-39.0894,-13.5884],[-39.0672,-13.4805],[-39.0307,-13.3651],[-38.9592,-13.273],[-38.8354,-13.1471],[-38.8333,-13.0328],[-38.764,-12.9074],[-38.7835,-12.8444],[-38.8518,-12.7904],[-38.7878,-12.7825],[-38.7439,-12.7486],[-38.6909,-12.6237],[-38.6539,-12.6444],[-38.5248,-12.7624],[-38.4989,-12.9566],[-38.4475,-12.9672],[-38.4015,-12.9661],[-38.2396,-12.8444],[-38.0194,-12.5915],[-37.9575,-12.4756],[-37.6887,-12.0999],[-37.4691,-11.6538],[-37.4119,-11.4971],[-37.4384,-11.394],[-37.359,-11.2527],[-37.322,-11.2151],[-37.3209,-11.2664],[-37.3315,-11.3099],[-37.3548,-11.3506],[-37.3559,-11.404],[-37.3151,-11.376],[-37.1812,-11.1876],[-37.1828,-11.0685],[-37.1257,-11.085],[-37.0934,-11.0548],[-36.9378,-10.8204],[-36.7685,-10.6716],[-36.6357,-10.5896],[-36.4118,-10.4902],[-36.3986,-10.4838],[-36.2234,-10.2251],[-36.0552,-10.0758],[-35.8853,-9.8477],[-35.8477,-9.7726],[-35.8906,-9.6868],[-35.8303,-9.7191],[-35.7641,-9.7028],[-35.5969,-9.5408],[-35.3408,-9.2308],[-35.1577,-8.9307],[-34.9667,-8.4073],[-34.8905,-8.092],[-34.8349,-7.9713],[-34.837,-7.8718],[-34.8788,-7.7475],[-34.873,-7.6919],[-34.855,-7.6342],[-34.8608,-7.5951],[-34.8577,-7.5332],[-34.8164,-7.3951],[-34.8053,-7.2882],[-34.8339,-7.0246],[-34.8762,-7.0029],[-34.8799,-6.9082],[-34.9296,-6.7849],[-34.9883,-6.3939],[-35.0952,-6.1854],[-35.1418,-5.9171],[-35.2355,-5.5668],[-35.3926,-5.2509],[-35.4815,-5.1662],[-35.5493,-5.1291],[-35.98,-5.0545],[-36.1615,-5.0937],[-36.3869,-5.0842],[-36.5907,-5.0974],[-36.7473,-5.0509],[-36.8611,-4.9667],[-36.9547,-4.9365],[-37.1749,-4.9122],[-37.3014,-4.7133],[-37.6263,-4.5921],[-37.7956,-4.4042],[-38.0491,-4.2163],[-38.2718,-3.9481],[-38.3618,-3.8766],[-38.4756,-3.7173],[-38.6862,-3.6538],[-38.8957,-3.502],[-39.0143,-3.3903],[-39.3529,-3.1972],[-39.5111,-3.1258],[-39.6096,-3.0564],[-39.772,-2.986],[-39.9646,-2.8617],[-40.2356,-2.813],[-40.4748,-2.7955],[-40.8753,-2.8696],[-41.1944,-2.886],[-41.3182,-2.9363],[-41.4802,-2.9167],[-41.64,-2.8786],[-41.722,-2.8088],[-41.876,-2.7463],[-41.9998,-2.8061],[-42.2496,-2.7918],[-42.5935,-2.6611],[-42.6761,-2.5897],[-42.8322,-2.5294],[-42.9364,-2.4648],[-43.2296,-2.386],[-43.3799,-2.3759],[-43.3884,-2.3817],[-44.5451,-1.9547],[-44.5462,-1.9547],[-44.5467,-1.9462],[-44.5917,-1.842],[-44.6515,-1.7457],[-44.7208,-1.7922],[-44.7785,-1.7991],[-44.7213,-1.7335],[-44.7901,-1.725],[-44.8282,-1.6716],[-44.9198,-1.589],[-45.0256,-1.5133],[-45.0764,-1.4663],[-45.1822,-1.507],[-45.2383,-1.6293],[-45.2822,-1.6964],[-45.3293,-1.7171],[-45.3531,-1.5673],[-45.4585,-1.3562],[-45.5569,-1.3308],[-45.6447,-1.3477],[-45.7786,-1.2509],[-45.9723,-1.1874],[-46.0448,-1.1032],[-46.1405,-1.1186],[-46.2152,-1.0996],[-46.2189,-1.0313],[-46.321,-1.0392],[-46.4215,-1.0302],[-46.5163,-0.9969],[-46.6173,-0.9704],[-46.6443,-0.9165],[-46.7697,-0.8365],[-46.811,-0.7794],[-46.8935,-0.78],[-46.9444,-0.7434],[-47.0248,-0.7503],[-47.1269,-0.7455],[-47.2005,-0.6805],[-47.2687,-0.6455],[-47.3979,-0.6265],[-47.4391,-0.6477],[-47.4603,-0.681],[-47.4328,-0.7217],[-47.4185,-0.7662],[-47.4709,-0.7487],[-47.5571,-0.6699],[-47.6513,-0.7186],[-47.6873,-0.7249],[-47.7318,-0.7106],[-47.7736,-0.6768],[-47.8074,-0.6635],[-47.8836,-0.6931],[-47.9609,-0.7694],[-48.0323,-0.7053],[-48.035,-0.7058],[-48.389,-0.3122],[-48.3927,-0.2973],[-48.4445,-0.2719],[-48.5155,-0.2481],[-48.5879,-0.2317],[-48.7864,-0.2153],[-49.1171,-0.1635],[-49.215,-0.1587],[-49.3145,-0.1677],[-49.3261,-0.1739],[-49.4099,-0.0816],[-49.3806,-0.0555],[-49.3722,0.0011],[-49.3827,0.0223],[6.9835,0.0329],[8.7102,-0.6069],[8.8441,-0.9138],[8.8764,-0.9461],[8.9092,-1.0249],[8.942,-1.0715],[9.0647,-1.2985],[9.2039,-1.3821],[9.26,-1.3742],[9.2965,-1.361],[9.3177,-1.3329],[9.3468,-1.325],[9.2801,-1.4821],[9.296,-1.5149],[9.3304,-1.5345],[9.3971,-1.5303],[9.4484,-1.5086],[9.5008,-1.5551],[9.5235,-1.5986],[9.4066,-1.6345],[9.3569,-1.6377],[9.3187,-1.6319],[9.0362,-1.3091],[9.0526,-1.3789],[9.1574,-1.5277],[9.2584,-1.7261],[9.2478,-1.7795],[9.2658,-1.8251],[9.342,-1.8293],[9.4833,-1.8944],[9.4955,-1.9351],[9.4828,-1.9621],[9.3426,-1.8938],[9.2986,-1.9028],[9.3706,-1.9748],[9.4024,-2.0277],[9.5331,-2.1637],[9.5738,-2.2298],[9.5908,-2.2933],[9.6246,-2.3669],[9.6765,-2.4156],[9.7685,-2.4129],[9.8606,-2.4426],[9.9591,-2.4897],[10.0623,-2.55],[10.0342,-2.5754],[10.0019,-2.5886],[9.7638,-2.4738],[9.722,-2.4674],[9.7595,-2.5188],[10.0061,-2.7485],[10.3475,-3.013],[10.5856,-3.2781],[10.6406,-3.3982],[10.8486,-3.5612],[10.947,-3.6623],[11.0322,-3.8263],[11.1301,-3.9163],[11.3645,-4.1306],[11.3937,-4.2005],[11.6683,-4.4344],[11.7773,-4.5661],[11.781,-4.6767],[11.8011,-4.7053],[11.8207,-4.7556],[11.8932,-4.8656],[11.9667,-4.9545],[12.0027,-4.9821],[12.0186,-5.0043],[12.0398,-5.035],[12.1107,-5.1974],[12.1773,-5.3249],[12.2064,-5.4683],[12.18,-5.5387],[12.1556,-5.6329],[12.199,-5.7319],[12.2403,-5.8076],[12.3149,-5.8954],[12.4117,-5.9864],[12.453,-6.0007],[12.5144,-6.0044],[12.6805,-5.961],[12.7917,-5.8779],[12.861,-5.8541],[13.0034,-5.8361],[13.0679,-5.8647],[13.0097,-5.9075],[12.7906,-6.0039],[12.5536,-6.0457],[12.3805,-6.0843],[12.3027,-6.0928],[12.2832,-6.1245],[12.3345,-6.1875],[12.4022,-6.3537],[12.5213,-6.5902],[12.8234,-6.9548],[12.8621,-7.2321],[13.0907,-7.7803],[13.3785,-8.3698],[13.3663,-8.4692],[13.3679,-8.555],[13.3785,-8.6248],[13.359,-8.6873],[13.0536,-9.0069],[13.0467,-8.9752],[13.0774,-8.9344],[13.0928,-8.8995],[13.0467,-8.9222],[12.9986,-8.991],[12.9986,-9.0482],[13.0758,-9.2302],[13.1558,-9.3895],[13.197,-9.5509],[13.2092,-9.7033],[13.2875,-9.8266],[13.3325,-9.9991],[13.4955,-10.2573],[13.5394,-10.4208],[13.6336,-10.5124],[13.7214,-10.6336],[13.7389,-10.7574],[13.8336,-10.9299],[13.8474,-11.0543],[13.7844,-11.4881],[13.7854,-11.8126],[13.6854,-12.1237],[13.5981,-12.2861],[13.4171,-12.5206],[13.1626,-12.6523],[12.9832,-12.7756],[12.8975,-13.0275],[12.5504,-13.4376],[12.5038,-13.7556],[12.3789,-14.0392],[12.2805,-14.6378],[12.0731,-15.2484],[12.0159,-15.5135],[11.9678,-15.6342],[11.9,-15.7199],[11.8497,-15.7686],[11.7508,-15.8321],[11.7693,-15.9152],[11.7968,-15.9866],[11.8201,-16.5041],[11.8191,-16.7041],[11.7799,-16.8714],[11.7217,-17.4667],[11.7334,-17.7509],[11.7757,-18.0017],[11.9513,-18.2705],[12.0413,-18.4705],[12.0958,-18.5409],[12.3287,-18.7509],[12.4583,-18.9266],[13.042,-20.0284],[13.1684,-20.1845],[13.2843,-20.5242],[13.4505,-20.9169],[13.8394,-21.473],[13.8881,-21.6069],[13.9733,-21.7678],[14.3221,-22.19],[14.4628,-22.4493],[14.5258,-22.7028],[14.5199,-22.8049],[14.4956,-22.9213],[14.4591,-22.9081],[14.4384,-22.8806],[14.4035,-22.9679],[14.4236,-23.0785],[14.4739,-23.2812],[14.4723,-23.4764],[14.4967,-23.6426],[14.4834,-24.0506],[14.5014,-24.2019],[14.6279,-24.548],[14.7681,-24.7883],[14.8369,-25.0333],[14.8184,-25.2465],[14.8226,-25.3587],[14.8639,-25.5338],[14.8454,-25.7259],[14.9311,-25.9582],[14.9676,-26.318],[15.0967,-26.426],[15.1391,-26.508],[15.1634,-26.6001],[15.1237,-26.6678],[15.1327,-26.7874],[15.2158,-26.9948],[15.2878,-27.2748],[15.3417,-27.3864],[15.719,-27.9659],[15.891,-28.1526],[16.0069,-28.2315],[16.335,-28.5363],[16.4477,-28.6173],[16.481,-28.6416],[16.7393,-29.0094],[16.9499,-29.4036],[17.1891,-30.1],[17.3473,-30.445],[17.6775,-31.0192],[17.9384,-31.3833],[18.1638,-31.6552],[18.2109,-31.7426],[18.3109,-32.1225],[18.3299,-32.2696],[18.3252,-32.505],[18.2511,-32.6522],[18.1252,-32.749],[18.0368,-32.7749],[17.9653,-32.7088],[17.8955,-32.7506],[17.851,-32.8273],[17.878,-32.9618],[17.9585,-33.0464],[17.9929,-33.1522],[18.0749,-33.2073],[18.1564,-33.3586],[18.2611,-33.4216],[18.3093,-33.5147],[18.4331,-33.7174],[18.4564,-33.7962],[18.4649,-33.8878],[18.3543,-33.9391],[18.3331,-34.074],[18.3522,-34.1884],[18.4104,-34.2958],[18.4617,-34.3471],[18.4622,-34.1682],[18.5003,-34.1095],[18.5337,-34.0857],[18.6051,-34.0772],[18.7088,-34.0719],[18.7522,-34.0825],[18.8089,-34.1085],[18.8263,-34.1884],[18.8305,-34.254],[18.8252,-34.2963],[18.8316,-34.3641],[18.9015,-34.3608],[18.9523,-34.3439],[19.0983,-34.3503],[19.1491,-34.417],[19.2449,-34.4122],[19.2793,-34.4371],[19.3306,-34.4926],[19.3232,-34.5709],[19.2983,-34.6148],[19.3915,-34.6058],[19.6349,-34.7535],[19.6158,-34.8133],[19.6158,-60.5335],[-45.6109,-60.5335],[-45.7177,-60.5207],[-45.7828,-60.5335],[-45.894,-60.5335],[-45.9347,-60.5265],[-45.9384,-60.5335],[-68.0777,-60.5335]],[[-35.9388,-54.8343],[-35.8668,-54.7925],[-35.7985,-54.7634],[-35.9133,-54.711],[-35.9218,-54.6374],[-35.8953,-54.5549],[-35.9647,-54.5681],[-36.0329,-54.5676],[-36.0731,-54.5539],[-36.1171,-54.4581],[-36.1726,-54.3824],[-36.2356,-54.3607],[-36.2854,-54.2887],[-36.3266,-54.2512],[-36.3859,-54.2792],[-36.4065,-54.3036],[-36.4489,-54.3083],[-36.5409,-54.248],[-36.6473,-54.2623],[-36.6071,-54.1898],[-36.7039,-54.1083],[-36.76,-54.1078],[-36.805,-54.1014],[-36.8489,-54.085],[-36.9288,-54.0813],[-37.0061,-54.1141],[-37.1034,-54.0654],[-37.2326,-54.0607],[-37.3685,-54.0094],[-37.3823,-53.9839],[-37.5358,-53.994],[-37.9454,-53.9956],[-38.0173,-54.0078],[-37.9125,-54.0289],[-37.6189,-54.0421],[-37.6892,-54.0765],[-37.6924,-54.1347],[-37.631,-54.1675],[-37.4977,-54.1559],[-37.1579,-54.2713],[-37.0828,-54.3115],[-37.0066,-54.3411],[-36.886,-54.3395],[-36.8516,-54.366],[-36.8241,-54.4041],[-36.7351,-54.4665],[-36.6282,-54.4962],[-36.5066,-54.511],[-36.4721,-54.5343],[-36.4457,-54.5708],[-36.3113,-54.6936],[-36.2515,-54.7798],[-36.1234,-54.8528],[-36.0853,-54.8666],[-35.9388,-54.8343]],[[-48.5546,-27.8124],[-48.4858,-27.7669],[-48.4969,-27.7071],[-48.4096,-27.5664],[-48.3779,-27.4515],[-48.4149,-27.3997],[-48.4647,-27.4362],[-48.5054,-27.4954],[-48.5424,-27.5748],[-48.5546,-27.8124]],[[-58.2066,-51.4048],[-58.259,-51.417],[-58.2891,-51.4577],[-58.2765,-51.5058],[-58.241,-51.5514],[-58.2347,-51.5783],[-58.2717,-51.5746],[-58.4738,-51.5091],[-58.5087,-51.4836],[-58.5193,-51.4238],[-58.4675,-51.4116],[-58.4066,-51.4186],[-58.3786,-51.373],[-58.4257,-51.3244],[-58.5061,-51.3079],[-58.6977,-51.3286],[-58.8501,-51.2698],[-58.9173,-51.272],[-58.8866,-51.3577],[-59.0967,-51.4916],[-59.0993,-51.5895],[-59.0654,-51.6503],[-59.0596,-51.6853],[-59.0956,-51.7043],[-59.1803,-51.7128],[-59.2618,-51.7371],[-59.3089,-51.7805],[-59.5708,-51.9255],[-59.5369,-51.9705],[-59.6491,-52.0773],[-59.6486,-52.1345],[-59.5322,-52.2367],[-59.3956,-52.3081],[-59.3417,-52.1959],[-59.2565,-52.1832],[-59.1628,-52.2017],[-59.0681,-52.1731],[-59.1956,-52.0175],[-59.1311,-52.008],[-58.6527,-52.099],[-58.6379,-52.0229],[-58.6432,-51.9948],[-58.6834,-51.9361],[-58.3363,-51.8636],[-58.2177,-51.8223],[-58.151,-51.7657],[-58.0039,-51.7435],[-57.8383,-51.709],[-57.8314,-51.6847],[-57.7917,-51.636],[-57.8664,-51.6048],[-57.9605,-51.5831],[-57.9156,-51.5339],[-57.8087,-51.518],[-57.9225,-51.4037],[-57.9764,-51.3841],[-58.2066,-51.4048]],[[-60.2884,-52.0737],[-60.2465,-51.9863],[-60.1936,-51.9826],[-60.1322,-51.9937],[-59.9899,-51.9842],[-59.9216,-51.9694],[-59.7147,-51.8075],[-59.5734,-51.681],[-59.5142,-51.6265],[-59.4369,-51.5927],[-59.3925,-51.5561],[-59.3544,-51.5112],[-59.294,-51.4784],[-59.2681,-51.4276],[-59.321,-51.3836],[-59.3877,-51.3598],[-59.465,-51.4106],[-59.4935,-51.3958],[-59.7116,-51.4392],[-59.7883,-51.4461],[-59.8417,-51.4032],[-59.9169,-51.3879],[-60.0084,-51.4106],[-60.1418,-51.481],[-60.2862,-51.4619],[-60.4455,-51.3995],[-60.5159,-51.3545],[-60.5683,-51.3577],[-60.518,-51.4281],[-60.5228,-51.463],[-60.5058,-51.4857],[-60.4148,-51.545],[-60.3026,-51.5805],[-60.2449,-51.6387],[-60.2809,-51.6561],[-60.4672,-51.6974],[-60.5281,-51.6964],[-60.5826,-51.7128],[-60.5,-51.7567],[-60.3794,-51.735],[-60.3286,-51.7186],[-60.2767,-51.7165],[-60.2381,-51.7339],[-60.2386,-51.772],[-60.2889,-51.8011],[-60.3344,-51.8398],[-60.4497,-51.8773],[-60.591,-51.9514],[-60.7625,-51.9466],[-60.9614,-52.0572],[-60.8122,-52.1477],[-60.6863,-52.1885],[-60.5085,-52.1948],[-60.4841,-52.1705],[-60.4519,-52.1604],[-60.3841,-52.1541],[-60.3534,-52.1398],[-60.2884,-52.0737]],[[-64.6376,-54.9026],[-64.509,-54.8401],[-64.4534,-54.8401],[-64.3227,-54.7962],[-64.0285,-54.7925],[-63.9714,-54.8105],[-63.8327,-54.7682],[-63.8152,-54.7253],[-63.8819,-54.7227],[-64.0322,-54.7422],[-64.0549,-54.73],[-64.1052,-54.7216],[-64.2206,-54.7221],[-64.4386,-54.7396],[-64.5492,-54.7163],[-64.5815,-54.7528],[-64.6249,-54.7735],[-64.6894,-54.7745],[-64.7572,-54.8264],[-64.7312,-54.8629],[-64.6376,-54.9026]],[[-67.874,-54.9296],[-68.1068,-54.9296],[-68.3015,-54.9804],[-68.1745,-55.0714],[-68.1354,-55.1724],[-68.0994,-55.2069],[-68.0697,-55.2211],[-67.7676,-55.2598],[-67.7369,-55.2566],[-67.6914,-55.2428],[-67.585,-55.192],[-67.5353,-55.1788],[-67.4945,-55.1772],[-67.4633,-55.182],[-67.4432,-55.201],[-67.4294,-55.2365],[-67.3993,-55.2724],[-67.3395,-55.2926],[-67.2575,-55.282],[-67.1728,-55.2428],[-67.1093,-55.192],[-67.0797,-55.1539],[-67.0855,-55.1153],[-67.1072,-55.0635],[-67.2453,-54.9777],[-67.4247,-54.9687],[-67.874,-54.9296]]]}}
