{"type":"Feature","properties":{"id":7,"name":"Black Sea","featurecla":"sea","scalerank":1,"wikidataid":"Q166","source":"Natural Earth 5.2.0-pre ne_10m_geography_marine_polys (public domain)"},"geometry":{"type":"Polygon","coordinates":[[[36.6174,45.392],[36.7,45.3782],[36.7206,45.3719],[36.7619,45.3486],[36.8111,45.3401],[36.9412,45.2898],[36.873,45.2517],[36.619,45.1856],[36.6275,45.1512],[36.6508,45.1263],[36.9444,45.0697],[37.2048,44.9718],[37.2842,44.9051],[37.3524,44.7882],[37.4112,44.7353],[37.4953,44.6951],[37.5726,44.6707],[37.7049,44.6612],[37.8514,44.6988],[38.1811,44.4199],[38.3118,44.3744],[38.6357,44.3178],[38.7172,44.2881],[39.3294,43.8971],[39.5167,43.7277],[39.8739,43.4727],[39.9782,43.4198],[40.1909,43.3123],[40.4618,43.1456],[40.5243,43.1208],[40.8365,43.0636],[41.0613,42.9308],[41.1286,42.8282],[41.4196,42.7377],[41.4889,42.6594],[41.663,42.1471],[41.763,41.9698],[41.7609,41.8847],[41.7588,41.8169],[41.7017,41.7053],[41.5101,41.5174],[41.4143,41.4238],[41.0836,41.2613],[40.9598,41.2115],[40.8195,41.1904],[40.6872,41.1073],[40.2655,40.9612],[40.1284,40.9433],[40.0004,40.9771],[39.9109,40.9665],[39.8078,40.9824],[39.4263,41.1063],[38.8521,41.0179],[38.5568,40.9364],[38.3812,40.9247],[37.9102,41.002],[37.7657,41.0787],[37.4307,41.1142],[37.0661,41.1846],[36.9921,41.2756],[36.7777,41.3634],[36.647,41.3523],[36.5873,41.3269],[36.5095,41.2623],[36.4052,41.2745],[36.2782,41.3359],[36.1793,41.4264],[36.0517,41.6825],[35.9782,41.7047],[35.92,41.7137],[35.558,41.6338],[35.2977,41.7285],[35.2093,41.7942],[35.122,41.891],[35.1141,41.9571],[35.141,41.9894],[35.1548,42.0275],[35.0066,42.0635],[34.7505,41.9566],[34.1928,41.9635],[33.3816,42.0175],[33.2847,42.0048],[32.9466,41.8915],[32.5423,41.8063],[32.3063,41.7296],[32.0867,41.5894],[31.4581,41.32],[31.3464,41.1581],[31.2548,41.1078],[30.8098,41.0851],[30.3452,41.1967],[29.9192,41.1507],[29.3223,41.2279],[29.1482,41.2211],[29.1329,41.2089],[29.0535,41.2153],[29.0572,41.2295],[28.9466,41.2486],[28.3465,41.4666],[28.1978,41.5544],[28.0502,41.7291],[27.9872,41.855],[28.0142,41.9693],[27.9825,42.0476],[27.8216,42.208],[27.7084,42.3498],[27.6396,42.4011],[27.4845,42.4678],[27.7539,42.7064],[27.8184,42.7165],[27.8888,42.7498],[27.8967,43.0208],[27.929,43.1864],[27.9793,43.2303],[28.0349,43.2684],[28.1338,43.3954],[28.3195,43.4267],[28.4656,43.3891],[28.5619,43.5012],[28.5905,43.7976],[28.6587,43.9839],[28.6455,44.2955],[28.699,44.3744],[28.8519,44.5061],[28.8884,44.5749],[28.8069,44.5649],[28.8138,44.6024],[28.8466,44.6368],[28.8492,44.7162],[28.8704,44.7501],[28.926,44.8099],[28.8916,44.9189],[28.9307,44.966],[28.9805,44.993],[29.0953,44.975],[29.0477,44.9258],[29.0694,44.8713],[29.081,44.7988],[29.0482,44.7575],[29.5573,44.8432],[29.6054,44.9157],[29.6356,44.9797],[29.6784,45.1517],[29.7272,45.3433],[29.6705,45.5407],[29.6012,45.5999],[29.6017,45.6825],[29.6282,45.7227],[29.6848,45.7544],[29.8213,45.7322],[29.9018,45.7523],[30.0065,45.7979],[30.1843,45.8502],[30.2193,45.8666],[30.4928,46.09],[30.5113,46.1053],[30.6569,46.2667],[30.6722,46.3043],[30.7215,46.3662],[30.7728,46.4731],[30.796,46.5519],[31.1368,46.6244],[31.3204,46.6128],[31.403,46.6286],[31.4967,46.7382],[31.5633,46.7773],[31.5321,46.6646],[31.657,46.6424],[31.7798,46.6318],[31.8729,46.6498],[31.9015,46.7218],[31.9126,46.926],[31.866,47.0033],[31.8369,47.0869],[31.7591,47.2128],[31.838,47.1573],[31.865,47.0954],[31.9396,46.9821],[31.9639,46.8546],[31.9449,46.7842],[31.9745,46.7091],[32.0444,46.6424],[32.1274,46.5974],[32.3539,46.5646],[32.5777,46.6154],[32.5524,46.5921],[32.419,46.518],[32.3613,46.4752],[32.1317,46.5096],[31.8782,46.5217],[31.7163,46.5551],[31.5549,46.5545],[31.6237,46.5101],[31.7137,46.472],[31.856,46.4625],[32.0084,46.4302],[32.0131,46.3873],[31.9915,46.3646],[31.9158,46.3487],[31.8427,46.3461],[31.7798,46.3249],[31.8311,46.2815],[31.9253,46.2873],[32.0359,46.2609],[32.3296,46.1302],[32.4767,46.0836],[32.7968,46.1317],[32.9418,46.1238],[33.2022,46.1757],[33.2635,46.1259],[33.4297,46.0577],[33.499,46.0788],[33.5943,46.0963],[33.6366,46.0328],[33.6646,45.9471],[33.4662,45.8381],[33.28,45.765],[33.1424,45.7491],[32.8281,45.593],[32.5079,45.4036],[32.5518,45.3502],[32.6116,45.3279],[32.7725,45.3592],[32.9185,45.3481],[33.1868,45.1946],[33.2615,45.1708],[33.3927,45.1877],[33.5551,45.0978],[33.6012,44.9813],[33.6123,44.9078],[33.5302,44.6802],[33.4911,44.6189],[33.4625,44.5966],[33.4509,44.5538],[33.6557,44.4331],[33.7557,44.3987],[33.9102,44.3876],[34.0742,44.4236],[34.2817,44.5384],[34.4701,44.7215],[34.7167,44.8072],[34.8876,44.8236],[35.0876,44.8025],[35.1548,44.8961],[35.358,44.9787],[35.4728,45.0983],[35.5696,45.1194],[35.6776,45.102],[35.7597,45.0708],[35.8035,45.0395],[35.8702,45.0052],[36.0549,45.0311],[36.2301,45.0258],[36.3936,45.0655],[36.4285,45.1533],[36.4507,45.2321],[36.5142,45.3036],[36.5751,45.3936],[36.6174,45.392]]]}}
