{"type":"Feature","properties":{"id":8,"name":"Philippine Sea","featurecla":"sea","scalerank":1,"wikidataid":"Q159183","source":"Natural Earth 5.2.0-pre ne_10m_geography_marine_polys (public domain)"},"geometry":{"type":"Polygon","coordinates":[[[139.797,33.9196],[140.1145,33.1259],[140.4849,31.9088],[140.4849,31.1151],[140.9082,30.0038],[142.0195,28.3105],[142.4428,27.6226],[142.5486,26.723],[142.4428,25.9821],[142.1253,25.0296],[141.5432,23.8655],[141.5432,22.5426],[141.8078,21.7488],[142.3899,21.2726],[144.6653,20.9021],[145.3532,20.6376],[145.8824,19.6321],[146.1999,18.8384],[146.2528,17.6742],[146.3057,16.6159],[146.1999,15.6634],[145.8824,14.6051],[145.2474,13.4409],[144.7182,12.9117],[128.5744,2.6215],[126.9398,4.2799],[126.8572,4.1948],[126.9213,4.2911],[126.8869,4.3726],[126.8652,4.48],[126.8123,4.5371],[126.7573,4.5477],[126.7207,4.416],[126.7223,4.344],[126.7673,4.2826],[126.8133,4.2583],[126.77,4.1625],[126.7043,4.0709],[126.7081,4.0445],[126.6668,4.0175],[126.6852,4.0016],[126.7398,3.918],[126.7192,3.8746],[126.7218,3.8323],[126.6614,3.9286],[126.6455,4.0037],[125.6756,3.3973],[125.6513,3.4275],[125.6333,3.4052],[125.5116,3.4613],[125.5174,3.5497],[125.501,3.5931],[125.4688,3.6391],[125.4629,3.6582],[125.4248,3.7053],[125.3777,5.6177],[125.456,5.6643],[125.6079,5.8701],[125.6677,5.9786],[125.6677,5.9854],[126.1715,6.3437],[126.1894,6.3098],[126.2212,6.4834],[126.2402,6.7337],[126.1921,6.8528],[126.217,6.8909],[126.2942,6.8824],[126.4392,7.0126],[126.5466,7.1761],[126.5816,7.2475],[126.5895,7.3253],[126.5932,7.547],[126.5699,7.6772],[126.5445,7.7248],[126.4943,7.7571],[126.4355,7.8328],[126.4254,7.9275],[126.4567,8.1487],[126.4588,8.2027],[126.38,8.327],[126.3651,8.4836],[126.2826,8.5392],[126.1731,8.5598],[126.1397,8.5958],[126.1418,8.627],[126.2201,8.6964],[126.263,8.744],[126.3196,8.8446],[126.3048,8.952],[126.209,9.0806],[126.1921,9.125],[126.1932,9.2769],[126.1683,9.2732],[126.1,9.7505],[126.0979,9.7669],[126.0593,9.7664],[126.0466,9.7611],[125.991,9.8383],[125.9984,9.9272],[126.0582,10.0315],[125.6772,10.3632],[125.6846,10.3918],[125.6666,10.44],[125.6481,10.4368],[125.6418,10.4283],[125.7116,11.0771],[125.7354,11.0496],[125.7492,11.0734],[125.7042,11.165],[125.6275,11.2337],[125.5735,11.2385],[125.5825,11.2792],[125.609,11.3232],[125.5931,11.3782],[125.5058,11.5444],[125.492,11.5941],[125.5,11.6555],[125.4968,11.7137],[125.4645,11.7714],[125.4566,11.9523],[125.5132,12.0545],[125.5031,12.136],[125.5354,12.1915],[125.4814,12.2518],[125.4089,12.2847],[125.3523,12.2926],[125.32,12.3217],[125.3274,12.3873],[125.3105,12.4461],[125.2396,12.5281],[125.1502,12.5725],[124.8401,12.5344],[124.566,12.526],[124.2998,12.5683],[124.1013,12.6879],[124.1374,12.7911],[124.1426,13.0355],[124.1045,13.025],[124.0691,13.0318],[123.9553,13.0996],[123.8728,13.117],[123.7849,13.1107],[123.8167,13.1917],[123.8193,13.2694],[123.7648,13.3536],[123.7034,13.4314],[123.6082,13.5282],[123.5494,13.6457],[123.6071,13.7044],[123.8061,13.7219],[123.8574,13.7996],[123.8156,13.8372],[123.7257,13.8843],[123.6839,13.897],[123.6331,13.8986],[123.4325,13.9664],[123.3775,14.0288],[123.3203,14.0616],[123.2806,14.0245],[123.2595,13.9753],[123.3055,13.9367],[123.2971,13.8362],[123.2314,13.7473],[123.1018,13.7505],[123.06,13.7885],[123.0568,13.8457],[123.0706,13.9028],[123.0711,13.96],[123.0144,14.0796],[122.934,14.1881],[122.8563,14.251],[122.761,14.2849],[122.6271,14.3177],[122.4911,14.3225],[122.3837,14.2637],[122.2826,14.1907],[122.2376,14.1748],[122.1995,14.1478],[122.2027,14.1119],[122.2747,14.0447],[122.2874,13.996],[122.2286,13.9796],[122.2117,13.9304],[122.1445,13.9325],[122.0794,13.9473],[121.9117,14.0203],[121.8535,14.0632],[121.8006,14.114],[121.7667,14.168],[121.7519,14.2341],[121.6487,14.4818],[121.6281,14.5812],[121.6265,14.6818],[121.6952,14.7373],[121.6857,14.7654],[121.6603,14.7897],[121.5439,14.9993],[121.4349,15.2162],[121.3989,15.2665],[121.3925,15.3242],[121.4122,15.375],[121.4518,15.4168],[121.4899,15.5094],[121.5794,15.6232],[121.6069,15.6697],[121.609,15.7258],[121.5905,15.7782],[121.5608,15.8269],[121.5952,15.9333],[121.6852,16.0148],[121.7889,16.0772],[121.9746,16.1582],[122.135,16.1846],[122.2144,16.3513],[122.226,16.4354],[122.4254,16.8228],[122.4678,16.99],[122.5001,17.0583],[122.5192,17.1249],[122.4678,17.1551],[122.4075,17.1784],[122.3927,17.2382],[122.3874,17.307],[122.3625,17.3451],[122.2688,17.3953],[122.2366,17.435],[122.1752,17.5758],[122.1524,17.6642],[122.1509,17.7562],[122.1794,18.0642],[122.2228,18.1573],[122.2938,18.2341],[122.3149,18.3203],[122.2995,18.4029],[122.2656,18.459],[122.2213,18.5008],[122.1794,18.4929],[122.2662,19.0575],[122.2662,19.6507],[122.0535,20.4407],[121.8625,20.7556],[121.8296,20.7005],[121.7904,20.7011],[121.7963,20.7466],[121.8301,20.809],[121.7952,20.8661],[121.3846,21.2313],[120.8221,21.9303],[120.8221,21.9308],[120.8401,21.925],[120.8644,22.0324],[120.8782,22.1414],[120.8771,22.2621],[120.8973,22.379],[120.947,22.5029],[121.0089,22.6204],[121.1613,22.7764],[121.2957,22.9664],[121.3524,23.0675],[121.3973,23.1723],[121.4772,23.4242],[121.5258,23.6681],[121.5836,23.8607],[121.6132,24.0528],[121.6392,24.1301],[121.737,24.2851],[121.828,24.5343],[121.8265,24.6407],[121.8133,24.7465],[121.8201,24.8243],[121.8561,24.8952],[121.9291,24.9735],[121.9265,24.9836],[121.9641,24.9942],[122.1757,24.7476],[123.0928,23.9359],[123.9749,23.6538],[125.3153,24.1126],[127.0086,25.2768],[127.6563,26.0948],[127.7293,26.097],[127.8034,26.1525],[127.8066,26.171],[127.7854,26.2086],[127.7902,26.2552],[127.8489,26.3192],[127.905,26.3282],[127.8722,26.3758],[127.932,26.4531],[127.951,26.4563],[128.0378,26.5335],[128.1267,26.552],[128.1622,26.6071],[128.259,26.6526],[128.3109,26.7209],[128.3315,26.8119],[128.258,26.8785],[128.4903,27.1818],[128.9062,27.7252],[128.8999,27.7279],[128.8829,27.8427],[128.9077,27.8982],[128.9516,27.9104],[128.9845,27.8247],[129.2248,28.1184],[129.1925,28.1925],[129.2576,28.1761],[129.2639,28.166],[129.2856,28.1925],[129.3666,28.1279],[129.4528,28.2089],[129.4391,28.2549],[129.4565,28.2724],[129.5126,28.2988],[129.5746,28.3613],[129.6417,28.4115],[129.7105,28.4322],[129.7147,28.4697],[129.6894,28.5174],[129.5978,28.4761],[129.5772,28.4613],[129.5608,28.4311],[129.5094,28.3978],[129.4645,28.3951],[129.4475,28.3909],[129.5841,28.5576],[130.6778,29.7921],[130.8541,30.2155],[130.6069,30.6034],[130.7128,30.9918],[130.6995,31.0214],[130.9022,31.1119],[131.0985,31.2563],[131.035,31.3775],[131.071,31.4368],[131.1398,31.4421],[131.2499,31.4098],[131.3372,31.4045],[131.46,31.6707],[131.4753,31.7786],[131.4605,31.8834],[131.5054,32.0019],[131.5309,32.1168],[131.5647,32.2231],[131.6102,32.3253],[131.6605,32.4655],[131.7319,32.593],[131.9764,32.8438],[132.0023,32.8825],[132.0045,32.8941],[132.495,32.8957],[132.495,32.9163],[132.6019,32.9195],[132.7087,32.9026],[132.6416,32.7623],[132.6924,32.7761],[132.8046,32.7518],[132.8702,32.7544],[132.9771,32.8417],[133.0163,32.9841],[133.0511,33.0126],[133.1009,33.028],[133.1453,33.083],[133.2401,33.2497],[133.2861,33.3598],[133.6322,33.5111],[133.6856,33.5164],[133.8539,33.4926],[133.9587,33.4481],[134.1243,33.2868],[134.1815,33.2471],[134.2058,33.3471],[134.2428,33.4397],[134.3064,33.527],[134.3773,33.6085],[134.5487,33.7291],[134.7387,33.8207],[134.736,33.8217],[135.171,33.908],[135.1752,33.8979],[135.2567,33.8064],[135.3467,33.7223],[135.3943,33.6286],[135.4531,33.5535],[135.6954,33.4868],[135.9161,33.5619],[136.0727,33.7784],[136.2679,34.0948],[136.3299,34.1768],[136.5447,34.2578],[136.7923,34.299],[136.8537,34.3239],[136.8813,34.3805],[136.8802,34.4335],[136.8416,34.4641],[136.6156,34.589],[136.5331,34.6785],[136.577,34.7896],[136.6902,34.9843],[136.7437,35.023],[136.804,35.0505],[136.8516,35.0595],[136.8971,35.0356],[136.8532,34.9785],[136.8564,34.9123],[136.8844,34.806],[136.8712,34.733],[136.913,34.7091],[136.9442,34.7213],[136.9347,34.815],[136.9633,34.8351],[137.0061,34.8139],[137.0321,34.7658],[137.0966,34.7589],[137.2226,34.7748],[137.275,34.7727],[137.2956,34.7277],[137.2877,34.7033],[137.077,34.6213],[137.0617,34.5827],[137.3179,34.6361],[137.5433,34.6642],[137.7486,34.6472],[137.8645,34.6509],[137.9787,34.6409],[138.1893,34.5964],[138.2534,34.7324],[138.3486,34.8478],[138.4333,34.915],[138.5095,34.987],[138.5371,35.0441],[138.5773,35.0864],[138.7196,35.124],[138.8206,35.0955],[138.9037,35.025],[138.8027,34.9748],[138.8043,34.8758],[138.7609,34.6991],[138.7953,34.6509],[138.8376,34.6192],[138.8969,34.6282],[138.9826,34.6986],[139.0154,34.7361],[139.0382,34.77],[139.797,33.9196]],[[144.7902,13.5266],[144.6494,13.4287],[144.65,13.3133],[144.6627,13.2911],[144.6997,13.2578],[144.742,13.2594],[144.7801,13.4112],[144.941,13.5705],[144.9097,13.5991],[144.8753,13.6144],[144.8368,13.6224],[144.7902,13.5266]],[[130.872,30.3864],[130.9599,30.397],[130.9927,30.5298],[131.0573,30.6425],[131.0827,30.7907],[131.0605,30.8282],[131.0398,30.8187],[131.0123,30.7923],[130.9472,30.6711],[130.9398,30.5753],[130.8704,30.4441],[130.872,30.3864]],[[124.186,14.0595],[124.1537,14.0261],[124.123,13.9796],[124.1236,13.7907],[124.0389,13.6631],[124.0569,13.6054],[124.1754,13.5314],[124.2485,13.5864],[124.2945,13.5901],[124.3268,13.5674],[124.3538,13.6325],[124.4041,13.6795],[124.3961,13.7499],[124.4173,13.8711],[124.3368,13.9309],[124.3083,13.9468],[124.2246,14.0775],[124.186,14.0595]],[[122.0318,14.9718],[122.0514,14.9697],[122.0334,15.0051],[121.9714,15.0464],[121.8397,15.0379],[121.8201,14.9638],[121.8625,14.9173],[121.8894,14.84],[121.9227,14.7998],[121.9344,14.7368],[121.9223,14.7146],[121.9106,14.6664],[121.9328,14.6559],[121.9895,14.6622],[122.0217,14.7596],[121.9704,14.8929],[122.0175,14.9654],[122.0318,14.9718]]]}}
