{"type":"Feature","properties":{"id":9,"name":"Coral Sea","featurecla":"sea","scalerank":1,"wikidataid":"Q82931","source":"Natural Earth 5.2.0-pre ne_10m_geography_marine_polys (public domain)"},"geometry":{"type":"Polygon","coordinates":[[[169.769,-20.1511],[169.7504,-20.1532],[169.7372,-20.2019],[169.807,-20.2411],[169.8213,-20.2411],[169.8362,-20.267],[167.5364,-22.6006],[167.5295,-22.5795],[167.4433,-22.5414],[167.4221,-22.6187],[167.4438,-22.6393],[167.4734,-22.6536],[167.4825,-22.6552],[167.4724,-22.6657],[159.0412,-29.0157],[159.0412,-29.8762],[153.278,-29.8762],[153.2754,-29.8756],[153.3468,-29.4968],[153.3479,-29.2904],[153.4622,-29.0502],[153.6045,-28.8544],[153.6167,-28.6728],[153.5691,-28.5331],[153.5754,-28.2405],[153.4547,-28.0484],[153.4283,-27.8976],[153.3854,-27.7685],[153.1981,-27.4049],[153.1166,-27.1944],[153.1622,-26.9827],[153.0843,-26.3038],[153.1647,-25.964],[153.1256,-25.9228],[153.0283,-25.8704],[152.9848,-25.8164],[152.9203,-25.6889],[152.9134,-25.4322],[152.7891,-25.274],[152.6541,-25.202],[152.5631,-25.0719],[152.5022,-24.9639],[152.4933,-24.9041],[152.4563,-24.8025],[152.3531,-24.7326],[152.2822,-24.6993],[152.1297,-24.5977],[152.0551,-24.4945],[151.9027,-24.2008],[151.8318,-24.1231],[151.691,-24.0384],[151.5752,-24.0336],[151.5006,-24.0125],[151.2365,-23.8252],[151.1539,-23.7839],[151.0878,-23.696],[150.9889,-23.6018],[150.9312,-23.532],[150.8433,-23.4579],[150.783,-23.1764],[150.783,-22.9028],[150.764,-22.5763],[150.6724,-22.4181],[150.6227,-22.3673],[150.5687,-22.3842],[150.5645,-22.4864],[150.5798,-22.5557],[150.5412,-22.5588],[150.4051,-22.4689],[150.2348,-22.3731],[150.1432,-22.2657],[150.076,-22.1646],[150.0204,-22.1683],[149.9813,-22.1842],[149.9416,-22.308],[150.0057,-22.5218],[149.9744,-22.5509],[149.9204,-22.5012],[149.8226,-22.3901],[149.7718,-22.426],[149.704,-22.4403],[149.6453,-22.3281],[149.5956,-22.2578],[149.5241,-22.0239],[149.4601,-21.7656],[149.4543,-21.5788],[149.3294,-21.4762],[149.2802,-21.2994],[149.2416,-21.2502],[149.205,-21.1248],[149.0605,-20.9613],[148.9124,-20.8454],[148.7897,-20.7359],[148.6838,-20.5803],[148.7298,-20.4676],[148.805,-20.4919],[148.8849,-20.4808],[148.8209,-20.3665],[148.7594,-20.2893],[148.6007,-20.1453],[148.5266,-20.1088],[148.3668,-20.0877],[148.1895,-19.9559],[148.081,-19.8987],[148.0043,-19.8897],[147.9154,-19.8691],[147.853,-19.7945],[147.7424,-19.7702],[147.5863,-19.6225],[147.5096,-19.4743],[147.4709,-19.4193],[147.4186,-19.378],[147.3413,-19.4029],[147.2783,-19.414],[147.1386,-19.3934],[147.0926,-19.3325],[147.0026,-19.2558],[146.8291,-19.2357],[146.692,-19.1875],[146.5873,-19.1394],[146.4809,-19.0785],[146.3834,-18.9769],[146.2967,-18.8409],[146.3116,-18.6668],[146.3332,-18.5536],[146.2232,-18.5097],[146.0322,-18.2726],[146.0226,-18.1758],[146.0739,-17.9774],[146.1258,-17.6355],[146.0496,-17.381],[145.9019,-17.0703],[145.912,-16.9127],[145.838,-16.9105],[145.7549,-16.8793],[145.6384,-16.7259],[145.55,-16.6253],[145.4903,-16.5322],[145.4262,-16.4062],[145.4363,-16.3052],[145.4517,-16.2369],[145.458,-16.0564],[145.3754,-15.8813],[145.3495,-15.7014],[145.2717,-15.4765],[145.2929,-15.3273],[145.276,-15.204],[145.2516,-15.0976],[145.277,-15.0293],[145.2876,-14.9431],[145.1802,-14.8568],[145.0643,-14.7912],[144.9156,-14.6742],[144.6478,-14.4928],[144.5865,-14.3546],[144.4732,-14.2319],[144.3219,-14.2795],[144.2097,-14.3017],[144.106,-14.3943],[143.962,-14.4631],[143.8224,-14.4012],[143.7562,-14.3488],[143.707,-14.1647],[143.6435,-13.9636],[143.589,-13.8625],[143.5482,-13.7408],[143.5868,-13.4434],[143.5297,-13.3037],[143.5123,-13.0947],[143.4577,-12.8555],[143.3974,-12.7359],[143.4016,-12.6402],[143.2895,-12.4989],[143.254,-12.3978],[143.1905,-12.3613],[143.1101,-12.3036],[143.099,-12.2258],[143.1048,-12.1697],[143.1529,-12.0761],[143.1789,-11.9544],[143.0667,-11.9242],[142.9884,-11.9189],[142.9339,-11.8808],[142.8724,-11.8216],[142.8508,-11.6326],[142.8529,-11.4321],[142.837,-11.3072],[142.8031,-11.214],[142.7798,-11.1151],[143.0783,-9.0926],[143.2271,-9.036],[143.3662,-8.9608],[143.3736,-8.9429],[146.6264,-8.9429],[146.6306,-8.9513],[146.6968,-9.0254],[146.8561,-9.0879],[146.9132,-9.0915],[146.964,-9.0598],[146.9301,-9.154],[146.9254,-9.2471],[147.0175,-9.3879],[147.0645,-9.426],[147.2989,-9.5795],[147.4085,-9.6747],[147.4964,-9.7906],[147.553,-9.9123],[147.6144,-9.9599],[147.6688,-10.0128],[147.7689,-10.07],[147.8901,-10.0874],[148.0515,-10.1282],[148.1012,-10.1245],[148.1504,-10.107],[148.2689,-10.1282],[148.3832,-10.1854],[148.4304,-10.1912],[148.5912,-10.1784],[148.6542,-10.1573],[148.7129,-10.1668],[148.8378,-10.2341],[148.9367,-10.2552],[149.3527,-10.2896],[149.5442,-10.3383],[149.6511,-10.3378],[149.7543,-10.3531],[149.8348,-10.3986],[149.948,-10.4827],[149.9813,-10.5177],[150.0168,-10.5769],[150.1422,-10.6209],[150.32,-10.6547],[150.4258,-10.6484],[150.4824,-10.6367],[150.6179,-10.5573],[150.6803,-10.5658],[151.2799,-10.9891],[153.1849,-11.2357],[153.2844,-11.3495],[153.2034,-11.3241],[153.2071,-11.3516],[153.2347,-11.4204],[153.3225,-11.4718],[153.287,-11.5167],[153.3569,-11.4951],[153.3791,-11.5596],[153.5193,-11.5951],[153.5537,-11.6305],[153.6992,-11.6125],[153.7553,-11.5887],[159.9826,-11.5188],[159.9794,-11.5379],[160.0038,-11.5797],[160.0874,-11.5945],[160.1,-11.6109],[160.1497,-11.6437],[160.2705,-11.6638],[160.3551,-11.712],[160.3948,-11.7887],[160.443,-11.8152],[160.5065,-11.8321],[160.5763,-11.7977],[160.5372,-11.7586],[160.5234,-11.749],[160.5578,-11.7649],[162.1183,-10.8219],[162.1236,-10.8246],[162.2013,-10.8077],[162.3014,-10.832],[162.3733,-10.8235],[162.2882,-10.7759],[162.2876,-10.7357],[167.1549,-9.8954],[167.5041,-13.7329],[167.4809,-13.7096],[167.4068,-13.7482],[167.392,-13.7885],[167.4512,-13.9096],[167.4745,-13.917],[167.4888,-13.9075],[167.4989,-13.8847],[167.5078,-13.8821],[167.5078,-14.143],[167.5062,-14.1424],[167.439,-14.1684],[167.411,-14.1975],[167.4036,-14.2816],[167.4306,-14.2948],[167.5433,-14.3118],[167.5592,-14.2922],[168.0719,-14.8695],[168.1169,-15.159],[168.1307,-15.3188],[168.1444,-15.3426],[168.1587,-15.4696],[168.1227,-15.6807],[168.1794,-15.9257],[168.1963,-15.9718],[168.2122,-15.9702],[168.1942,-16.1152],[168.164,-16.0819],[168.0646,-16.1813],[167.9846,-16.1967],[167.9291,-16.229],[167.9571,-16.2723],[168.0217,-16.3157],[168.1825,-16.347],[168.2063,-16.3448],[168.3063,-16.6946],[168.2963,-16.684],[168.2656,-16.6708],[168.2338,-16.6396],[168.199,-16.5941],[168.182,-16.5999],[168.1355,-16.637],[168.1243,-16.6899],[168.1487,-16.7655],[168.1815,-16.8041],[168.2122,-16.8063],[168.3191,-16.7883],[168.3191,-17.445],[168.3545,-17.5508],[168.3408,-17.5519],[168.3196,-17.5439],[168.2974,-17.545],[168.273,-17.5524],[168.191,-17.645],[168.1582,-17.7106],[168.182,-17.717],[168.2333,-17.6979],[168.2777,-17.7058],[168.3058,-17.7455],[168.2519,-17.781],[168.3995,-17.8069],[168.4551,-17.8027],[169.0244,-18.5737],[169.0557,-18.6292],[169.016,-18.6436],[168.9868,-18.7076],[168.998,-18.8251],[168.9868,-18.8711],[169.2012,-18.9632],[169.2012,-19.35],[169.2377,-19.3865],[169.2176,-19.4764],[169.2621,-19.5453],[169.3472,-19.6236],[169.4383,-19.649],[169.4563,-19.6114],[169.769,-20.1511]],[[168.0063,-21.6429],[168.1206,-21.6159],[168.1391,-21.4455],[168.0576,-21.4487],[168.0111,-21.4302],[167.9946,-21.4069],[167.9852,-21.3698],[167.9883,-21.3381],[167.9259,-21.373],[167.8153,-21.3925],[167.8793,-21.5238],[167.8756,-21.582],[167.9413,-21.6058],[167.9666,-21.6418],[168.0063,-21.6429]],[[167.8444,-15.4818],[167.9111,-15.4357],[168.0026,-15.2834],[167.8264,-15.3119],[167.674,-15.4516],[167.72,-15.4776],[167.8444,-15.4818]],[[167.2179,-16.1554],[167.2458,-16.1496],[167.3158,-16.1157],[167.3491,-16.1544],[167.3803,-16.2459],[167.401,-16.4004],[167.447,-16.502],[167.4359,-16.5152],[167.4491,-16.5549],[167.5263,-16.5745],[167.6116,-16.4988],[167.7597,-16.5163],[167.8365,-16.4496],[167.7925,-16.3946],[167.7761,-16.3406],[167.7142,-16.3136],[167.6814,-16.2607],[167.6423,-16.2633],[167.4989,-16.166],[167.4835,-16.1178],[167.4586,-16.1178],[167.4126,-16.0961],[167.3359,-15.9168],[167.2538,-15.8765],[167.1993,-15.885],[167.183,-15.9284],[167.1517,-16.0803],[167.2179,-16.1554]],[[167.0559,-20.72],[167.0448,-20.7597],[167.1364,-20.766],[167.1893,-20.8036],[167.1115,-20.9041],[167.0327,-20.9226],[167.0729,-20.9973],[167.1337,-21.0608],[167.2734,-21.0967],[167.3464,-21.1687],[167.401,-21.1608],[167.4306,-21.0872],[167.4306,-21.0555],[167.3607,-20.9422],[167.2935,-20.8914],[167.2977,-20.7327],[167.2687,-20.7004],[167.2041,-20.6734],[167.0559,-20.72]],[[166.8258,-15.6347],[166.9369,-15.5781],[167.094,-15.5808],[167.1999,-15.486],[167.2009,-15.4431],[167.1819,-15.3897],[167.1316,-15.1351],[167.1062,-15.1256],[167.0686,-15.0717],[167.0543,-14.9743],[167.0755,-14.9357],[167.0263,-14.9224],[166.9872,-14.9399],[166.9676,-15.0616],[166.9231,-15.1394],[166.885,-15.1569],[166.8104,-15.1574],[166.7458,-14.8267],[166.6627,-14.7351],[166.6077,-14.6367],[166.5675,-14.642],[166.5262,-14.76],[166.5273,-14.8499],[166.6479,-15.2114],[166.631,-15.4061],[166.6987,-15.5156],[166.7591,-15.567],[166.7585,-15.631],[166.8258,-15.6347]],[[164.0408,-20.1728],[164.037,-20.2337],[164.0651,-20.2787],[164.1238,-20.3046],[164.1582,-20.348],[164.1524,-20.4152],[164.1699,-20.4803],[164.3127,-20.6327],[164.3746,-20.739],[164.4545,-20.829],[164.5593,-20.9058],[164.6556,-20.992],[164.8551,-21.2015],[164.9276,-21.2899],[165.0101,-21.327],[165.2419,-21.5254],[165.3288,-21.5799],[165.4277,-21.6148],[165.6203,-21.7244],[165.7436,-21.7773],[165.8235,-21.854],[165.9331,-21.908],[166.096,-21.9566],[166.1235,-21.9889],[166.1431,-22.0445],[166.1765,-22.0889],[166.2923,-22.1551],[166.4162,-22.1964],[166.4379,-22.2313],[166.468,-22.2562],[166.522,-22.2493],[166.5707,-22.2657],[166.7739,-22.3763],[166.8353,-22.3556],[166.8998,-22.3535],[166.9702,-22.3228],[167.0041,-22.2615],[166.9422,-22.09],[166.8199,-22.017],[166.6898,-21.953],[166.5876,-21.873],[166.4929,-21.7825],[166.3035,-21.637],[166.0579,-21.4841],[165.9494,-21.4423],[165.8854,-21.3894],[165.823,-21.364],[165.7748,-21.3116],[165.6626,-21.2672],[165.5822,-21.1798],[165.4473,-21.0804],[165.4202,-21.0428],[165.4124,-20.9814],[165.3805,-20.9359],[165.3065,-20.8872],[165.2525,-20.8179],[165.1917,-20.7687],[165.1118,-20.7443],[164.9758,-20.6809],[164.5879,-20.3813],[164.436,-20.2824],[164.3154,-20.3088],[164.2021,-20.2458],[164.0598,-20.1416],[164.0408,-20.1728]],[[166.0277,-10.7701],[166.0532,-10.7748],[166.1331,-10.7579],[166.1299,-10.7452],[166.1622,-10.6928],[166.1256,-10.6801],[166.0235,-10.6611],[165.9092,-10.6743],[165.86,-10.7029],[165.8357,-10.7605],[165.7902,-10.7563],[165.7913,-10.7849],[165.8193,-10.8441],[165.8563,-10.8415],[165.904,-10.8516],[165.968,-10.7796],[166.0277,-10.7701]],[[152.9764,-25.5513],[153.0071,-25.7291],[153.0521,-25.7783],[153.0774,-25.7508],[153.0838,-25.6825],[153.1415,-25.5127],[153.3499,-25.0629],[153.359,-24.9776],[153.2981,-24.9152],[153.2823,-24.7385],[153.2569,-24.729],[153.2229,-24.7395],[153.1812,-24.7649],[153.1436,-24.8147],[153.1865,-24.8327],[153.242,-24.9227],[153.2277,-25.0057],[153.1891,-25.0708],[153.0383,-25.193],[153.0606,-25.3021],[153.0516,-25.3544],[152.9992,-25.4486],[152.9764,-25.5513]],[[151.2381,-23.7759],[151.2614,-23.7622],[151.2958,-23.7204],[151.2741,-23.6685],[151.2291,-23.5949],[151.2402,-23.5299],[151.2121,-23.5129],[151.1809,-23.5161],[151.1466,-23.4907],[151.0598,-23.4605],[151.0333,-23.5304],[151.1841,-23.7405],[151.2381,-23.7759]]]}}
