{"type":"Feature","properties":{"id":10,"name":"Tasman Sea","featurecla":"sea","scalerank":1,"wikidataid":"Q33254","source":"Natural Earth 5.2.0-pre ne_10m_geography_marine_polys (public domain)"},"geometry":{"type":"Polygon","coordinates":[[[166.3839,-48.1562],[166.1034,-50.5391],[166.1013,-50.5391],[166.1018,-50.5528],[166.0971,-50.5941],[166.0738,-50.6788],[165.9156,-50.7629],[165.8986,-50.792],[146.7793,-43.6324],[146.3602,-43.5181],[146.4132,-43.5197],[146.5486,-43.5091],[146.6994,-43.6022],[146.8344,-43.6191],[146.8741,-43.6123],[146.9545,-43.5022],[147.0048,-43.3694],[147.036,-43.3191],[147.0773,-43.2757],[146.9873,-43.2186],[146.9847,-43.19],[146.9968,-43.1561],[147.173,-43.2562],[147.245,-43.2159],[147.2598,-43.1265],[147.2598,-43.071],[147.281,-43.0318],[147.3249,-43.0132],[147.3429,-42.9646],[147.3477,-42.9265],[147.3022,-42.8402],[147.2979,-42.791],[147.408,-42.8937],[147.4524,-43.0334],[147.5366,-42.9963],[147.5493,-42.9746],[147.536,-42.8778],[147.5736,-42.8455],[147.6931,-42.872],[147.8001,-42.9281],[147.8075,-42.954],[147.8006,-42.9805],[147.7742,-43.0032],[147.6874,-42.9799],[147.6482,-43.0207],[147.699,-43.1228],[147.7857,-43.2202],[147.8387,-43.1953],[147.9456,-43.1821],[147.9811,-43.1572],[147.9577,-42.9603],[147.9149,-42.8164],[147.9123,-42.6587],[147.9244,-42.5724],[147.9736,-42.5058],[148.0096,-42.436],[148.0049,-42.3449],[148.0229,-42.2592],[148.0668,-42.1703],[148.1276,-42.1036],[148.1562,-42.0883],[148.1414,-42.0697],[148.1673,-42.0121],[148.2139,-41.9697],[148.2414,-42.0216],[148.2044,-42.0422],[148.1832,-42.065],[148.2557,-42.1025],[148.2774,-42.1364],[148.2848,-42.1735],[148.2769,-42.2195],[148.2901,-42.2549],[148.3314,-42.2619],[148.3425,-42.2153],[148.3308,-42.1592],[148.3409,-42.111],[148.3281,-42.074],[148.3012,-42.0401],[148.3017,-42.0042],[148.3155,-41.9279],[148.2875,-41.8157],[148.2964,-41.6464],[148.2869,-41.5549],[148.2901,-41.4649],[148.3123,-41.3496],[148.306,-41.2331],[148.2917,-41.1744],[148.2853,-41.1152],[148.2927,-40.9469],[148.2155,-40.8548],[148.0541,-40.7892],[148.1429,-40.5569],[148.1271,-40.5442],[148.1171,-40.5214],[148.161,-40.5108],[148.1821,-40.4558],[148.2139,-40.4574],[148.3191,-40.4346],[148.3525,-40.4971],[148.4039,-40.4865],[148.4743,-40.4325],[148.4207,-40.3674],[148.3261,-40.3071],[148.198,-40.3579],[148.1716,-40.3579],[148.1594,-40.2473],[148.2102,-40.2336],[148.2996,-40.1727],[148.3134,-40.1738],[148.3234,-40.1446],[148.2509,-40.0997],[148.2901,-40.0653],[148.2975,-39.9859],[148.2699,-39.9669],[148.1779,-39.9383],[148.0007,-39.7578],[147.9514,-39.7345],[149.4437,-37.8047],[149.4394,-37.7782],[149.4807,-37.7713],[149.5654,-37.73],[149.7088,-37.6168],[149.8093,-37.548],[149.9326,-37.5285],[149.9622,-37.4438],[149.9628,-37.3533],[149.986,-37.2586],[149.9506,-37.0803],[149.9601,-36.8453],[149.9882,-36.7225],[150.0628,-36.5505],[150.0956,-36.3728],[150.129,-36.1203],[150.1586,-35.9706],[150.1951,-35.8335],[150.2919,-35.6822],[150.374,-35.5843],[150.5676,-35.2144],[150.6343,-35.1779],[150.6904,-35.1779],[150.7148,-35.1551],[150.7221,-35.1345],[150.7058,-35.1197],[150.6809,-35.0768],[150.6973,-35.0419],[150.756,-35.007],[150.7745,-35.0202],[150.8047,-35.0128],[150.8089,-34.9937],[150.7809,-34.8921],[150.8216,-34.7492],[150.8714,-34.499],[150.9275,-34.3868],[150.9603,-34.2968],[151.0899,-34.1624],[151.2317,-34.0296],[151.191,-34.0153],[151.1249,-34.0053],[151.1677,-33.9735],[151.2016,-33.964],[151.2444,-33.9852],[151.2804,-33.9264],[151.2884,-33.8349],[151.3227,-33.6994],[151.2921,-33.5808],[151.3576,-33.5438],[151.4323,-33.5216],[151.4634,-33.3972],[151.4836,-33.3475],[151.5302,-33.3009],[151.6079,-33.202],[151.6683,-33.0988],[151.8128,-32.9009],[151.9541,-32.8205],[152.1641,-32.7575],[152.188,-32.7215],[152.1345,-32.6998],[152.1366,-32.6781],[152.216,-32.6781],[152.2477,-32.6088],[152.3313,-32.5574],[152.4705,-32.4389],[152.5165,-32.3299],[152.5451,-32.2431],[152.5594,-32.0457],[152.7859,-31.7865],[152.9441,-31.4346],[152.9822,-31.2086],[153.0214,-31.0864],[153.0478,-30.907],[153.024,-30.7202],[153.0304,-30.5636],[153.188,-30.164],[153.2241,-29.9984],[153.2722,-29.8926],[153.2754,-29.8756],[153.278,-29.8762],[159.0412,-29.8762],[159.0412,-31.5912],[171.9878,-34.0608],[172.4466,-34.237],[172.7286,-34.4487],[172.7291,-34.4518],[172.7059,-34.4551],[172.8609,-34.6323],[173.0297,-34.8],[173.1175,-34.9032],[173.1905,-35.0159],[173.189,-35.1239],[173.1165,-35.2054],[173.1599,-35.2477],[173.2281,-35.3313],[173.2747,-35.3398],[173.2911,-35.3663],[173.2901,-35.4081],[173.3138,-35.4435],[173.3763,-35.5002],[173.4016,-35.4811],[173.4541,-35.3991],[173.4959,-35.3625],[173.5419,-35.3298],[173.5816,-35.3128],[173.6261,-35.3192],[173.6102,-35.3573],[173.5859,-35.3885],[173.4806,-35.4589],[173.4123,-35.5425],[173.9452,-36.1759],[173.9912,-36.2373],[174.0547,-36.3595],[174.0975,-36.3913],[174.1457,-36.377],[174.1664,-36.3278],[174.1425,-36.2897],[174.0034,-36.1463],[173.9171,-36.0182],[173.9086,-35.9542],[173.9145,-35.9087],[173.9695,-36.0209],[174.0362,-36.1224],[174.2537,-36.2489],[174.2775,-36.2436],[174.252,-36.1955],[174.2679,-36.1632],[174.3034,-36.1706],[174.3928,-36.2399],[174.3955,-36.2743],[174.3532,-36.323],[174.3541,-36.3759],[174.4097,-36.4056],[174.4468,-36.4511],[174.4542,-36.5108],[174.432,-36.5643],[174.4018,-36.6019],[174.2457,-36.485],[174.1891,-36.4923],[174.3817,-36.7262],[174.4061,-36.768],[174.4447,-36.8823],[174.4754,-36.9421],[174.5368,-36.9734],[174.6013,-36.9855],[174.668,-36.9717],[174.7331,-36.9495],[174.7818,-36.9437],[174.9289,-37.085],[174.8638,-37.0893],[174.8035,-37.1099],[174.7463,-37.1501],[174.7342,-37.2152],[174.6596,-37.0887],[174.6098,-37.0697],[174.586,-37.0977],[174.6728,-37.2734],[174.7071,-37.3253],[174.7675,-37.339],[174.7437,-37.3935],[174.7294,-37.4486],[174.7495,-37.5046],[174.8458,-37.6851],[174.9278,-37.8047],[174.8797,-37.8205],[174.8368,-37.8491],[174.8019,-37.8957],[174.84,-38.0227],[174.8093,-38.0999],[174.7156,-38.2254],[174.6531,-38.4286],[174.6183,-38.6053],[174.5971,-38.7852],[174.5664,-38.8413],[174.4584,-38.926],[174.3986,-38.9625],[174.3563,-38.972],[174.3119,-38.971],[174.0716,-39.0313],[173.8441,-39.1392],[173.806,-39.1694],[173.7817,-39.2112],[173.7663,-39.2651],[173.7636,-39.3186],[173.7832,-39.3763],[173.8123,-39.4255],[173.9345,-39.5091],[174.1489,-39.5684],[174.3521,-39.6435],[174.4548,-39.7351],[174.5675,-39.8129],[174.687,-39.8472],[174.8135,-39.8599],[175.0093,-39.952],[175.1559,-40.115],[175.2098,-40.1997],[175.2543,-40.2896],[175.2003,-40.5055],[175.1623,-40.6214],[175.0522,-40.7923],[174.0806,-41.0061],[173.9996,-40.9934],[173.9975,-41.0283],[174.024,-41.0723],[173.9573,-41.0998],[173.9145,-41.158],[173.9335,-41.1871],[173.897,-41.2395],[173.7981,-41.2718],[173.8626,-41.1919],[173.8604,-41.1247],[173.915,-41.0702],[173.8801,-41.0316],[173.8901,-41.0072],[173.9526,-40.9849],[174.0023,-40.9178],[173.9473,-40.9241],[173.8975,-40.9506],[173.7837,-40.9723],[173.7377,-40.9892],[173.5626,-41.1019],[173.4472,-41.1516],[173.3377,-41.2109],[173.2308,-41.2839],[173.1154,-41.2792],[173.0688,-41.1861],[173.0519,-41.0786],[173.0424,-40.9537],[172.9884,-40.8485],[172.8694,-40.8204],[172.7666,-40.7733],[172.7291,-40.7236],[172.7042,-40.668],[172.7111,-40.6055],[172.7328,-40.5436],[172.9434,-40.5188],[172.8302,-40.4902],[172.7111,-40.4965],[172.6408,-40.5182],[172.4683,-40.622],[172.2725,-40.7585],[172.1396,-40.9474],[172.0931,-41.2014],[172.0105,-41.4448],[171.9481,-41.5385],[171.8306,-41.6554],[171.7317,-41.7195],[171.6723,-41.7448],[171.5364,-41.7576],[171.4861,-41.7946],[171.4205,-41.9729],[171.3601,-42.0798],[171.3226,-42.1894],[171.2967,-42.3026],[171.2522,-42.4021],[171.2961,-42.4306],[171.3136,-42.4603],[171.257,-42.4656],[171.2215,-42.4788],[171.1898,-42.5005],[171.0279,-42.6963],[171.0474,-42.8021],[171.0384,-42.8619],[171.0115,-42.8852],[171.0178,-42.8185],[171.0115,-42.7635],[170.9702,-42.7185],[170.8406,-42.8487],[170.7416,-42.9276],[170.7251,-42.9757],[170.7352,-43.0297],[170.6654,-42.9614],[170.6157,-42.9725],[170.5236,-43.009],[170.5357,-43.0408],[170.6119,-43.0916],[170.5357,-43.0582],[170.4585,-43.0376],[170.3797,-43.0662],[170.3029,-43.1074],[170.3743,-43.1344],[170.396,-43.1821],[170.3558,-43.1535],[170.3003,-43.1445],[170.2404,-43.1641],[170.1896,-43.2223],[170.1489,-43.2477],[170.104,-43.2652],[170.0177,-43.3493],[169.8589,-43.426],[169.9082,-43.4466],[169.8906,-43.4615],[169.8351,-43.4588],[169.824,-43.4969],[169.8341,-43.5371],[169.769,-43.5387],[169.6615,-43.5911],[169.5155,-43.6234],[169.3228,-43.7017],[169.1694,-43.7769],[169.1355,-43.8197],[169.179,-43.9134],[169.1361,-43.9002],[169.0662,-43.8636],[168.9906,-43.8901],[168.8064,-43.9922],[168.7747,-43.9964],[168.6508,-43.9721],[168.4577,-44.0303],[168.3667,-44.0822],[168.1963,-44.2234],[168.0185,-44.3589],[167.8566,-44.5007],[167.8666,-44.5923],[167.9016,-44.6251],[167.909,-44.6648],[167.8592,-44.6246],[167.7873,-44.595],[167.6983,-44.6415],[167.5777,-44.741],[167.4851,-44.7717],[167.4602,-44.8024],[167.4565,-44.8383],[167.4819,-44.8738],[167.4793,-44.9151],[167.466,-44.9585],[167.411,-44.8278],[167.1946,-44.9632],[167.1718,-44.9971],[167.2052,-45.0479],[167.2597,-45.0823],[167.1882,-45.0939],[167.1279,-45.0505],[167.0258,-45.1236],[167.0226,-45.1765],[167.0327,-45.2225],[167.1274,-45.2659],[167.2068,-45.2802],[167.23,-45.2903],[167.1454,-45.3019],[167.1178,-45.3178],[167.1121,-45.3538],[167.1559,-45.4109],[167.0522,-45.3834],[166.9088,-45.3077],[166.8691,-45.3114],[166.8754,-45.3675],[166.9199,-45.4077],[166.7781,-45.4098],[166.7431,-45.4686],[166.7337,-45.5437],[166.8691,-45.5501],[166.9909,-45.5316],[166.8258,-45.603],[166.7977,-45.6458],[166.8099,-45.6993],[167.003,-45.712],[166.9527,-45.7501],[166.8357,-45.7745],[166.513,-45.8115],[166.4882,-45.8321],[166.4775,-45.903],[166.4929,-45.9639],[166.6125,-45.9554],[166.7178,-45.8893],[166.7337,-45.9285],[166.7268,-45.9633],[166.6501,-46.0417],[166.7305,-46.0528],[166.8565,-45.9808],[166.9168,-45.957],[166.712,-46.1338],[166.7316,-46.1978],[166.831,-46.2253],[167.1003,-46.2496],[167.3687,-46.2417],[167.4142,-46.229],[167.4904,-46.1549],[167.5396,-46.1486],[167.6819,-46.193],[167.7221,-46.2269],[167.8418,-46.3661],[167.9005,-46.3677],[167.9608,-46.3623],[167.9714,-46.4894],[167.8555,-46.6979],[167.7841,-46.6999],[167.7656,-46.7979],[167.7783,-46.837],[167.665,-47.0402],[167.6539,-47.0445],[167.6311,-47.0878],[167.6306,-47.1027],[167.5978,-47.1619],[167.5385,-47.199],[167.5269,-47.2418],[166.3839,-48.1562]]]}}
