{"type":"Feature","properties":{"id":11,"name":"Bay of Bengal","featurecla":"bay","scalerank":1,"wikidataid":"Q38684","source":"Natural Earth 5.2.0-pre ne_10m_geography_marine_polys (public domain)"},"geometry":{"type":"Polygon","coordinates":[[[95.1999,5.524],[81.8744,7.2417],[81.8738,7.2883],[81.832,7.4285],[81.7966,7.465],[81.7273,7.6248],[81.6828,7.6846],[81.6765,7.7111],[81.6786,7.7418],[81.6654,7.7825],[81.4362,8.1191],[81.4219,8.1476],[81.4219,8.2154],[81.3727,8.4313],[81.3341,8.472],[81.2743,8.4836],[81.2272,8.5053],[81.2161,8.5493],[81.2193,8.6085],[81.1981,8.662],[81.0161,8.9324],[80.9791,8.9567],[80.9357,8.9715],[80.9102,9.0245],[80.8933,9.0859],[80.7113,9.3663],[80.3758,9.6425],[80.253,9.7965],[80.2123,9.8044],[79.8387,10.3347],[79.8504,10.7686],[79.8487,11.1967],[79.8355,11.2687],[79.799,11.3385],[79.6932,11.3126],[79.7488,11.3708],[79.7932,11.4465],[79.754,11.5756],[79.7715,11.6904],[79.8583,11.9889],[79.9816,12.2355],[80.0377,12.2958],[80.1429,12.4519],[80.2292,12.6905],[80.3425,13.3615],[80.2901,13.4366],[80.1144,13.5287],[80.062,13.606],[80.1562,13.7139],[80.2334,13.606],[80.2657,13.5213],[80.3064,13.4848],[80.2456,13.6859],[80.244,13.7737],[80.2244,13.8584],[80.1435,14.059],[80.1117,14.2124],[80.1361,14.2865],[80.17,14.3495],[80.179,14.4786],[80.1652,14.5781],[80.0985,14.7982],[80.0535,15.0739],[80.1011,15.3237],[80.2932,15.7105],[80.3848,15.793],[80.6467,15.8952],[80.7081,15.8883],[80.7817,15.8671],[80.8261,15.766],[80.8648,15.7824],[80.9177,15.7597],[80.9785,15.7581],[80.9933,15.8089],[81.0299,15.8814],[81.132,15.9618],[81.2383,16.264],[81.286,16.337],[81.4018,16.365],[81.7119,16.3344],[81.7622,16.3296],[82.1416,16.4852],[82.2586,16.5598],[82.3274,16.6646],[82.3385,16.7064],[82.3597,16.7826],[82.3501,16.8254],[82.3073,16.8784],[82.2818,16.936],[82.2866,16.9778],[82.3597,17.0964],[82.593,17.2742],[82.9767,17.462],[83.1984,17.6091],[83.3878,17.7864],[83.5725,18.0034],[83.6545,18.07],[84.1043,18.2928],[84.1816,18.4008],[84.4625,18.6897],[84.6091,18.8844],[84.6906,18.9649],[84.7499,19.0501],[84.771,19.1252],[85.2256,19.5083],[85.4415,19.6263],[85.4367,19.657],[85.3706,19.6787],[85.2288,19.6014],[85.1806,19.5951],[85.1626,19.621],[85.2484,19.7576],[85.46,19.8957],[85.504,19.8877],[85.5553,19.8671],[85.5595,19.7533],[85.5108,19.7269],[85.4971,19.6967],[85.5749,19.693],[85.8527,19.7919],[86.2162,19.8957],[86.2797,19.9195],[86.303,19.9449],[86.312,19.9877],[86.2453,20.0528],[86.2935,20.0539],[86.3766,20.0068],[86.4459,20.0888],[86.4988,20.1719],[86.7501,20.3132],[86.7692,20.356],[86.7623,20.419],[86.8359,20.5344],[86.9248,20.6196],[86.9755,20.7],[86.9396,20.745],[86.8957,20.9656],[86.8422,21.1064],[86.8597,21.2366],[86.9538,21.3652],[87.1005,21.5006],[87.2004,21.5451],[87.6783,21.6536],[87.8238,21.7271],[87.9487,21.8255],[88.0508,22.0012],[88.1043,22.0473],[88.1593,22.1219],[88.0831,22.1827],[88.0106,22.2129],[87.9614,22.2552],[87.9412,22.3743],[87.9941,22.2658],[88.0868,22.2176],[88.1964,22.1393],[88.181,22.033],[88.0995,21.7938],[88.0567,21.6943],[88.1222,21.6356],[88.2535,21.6223],[88.2794,21.6969],[88.2874,21.7583],[88.3053,21.7234],[88.4461,21.6144],[88.5848,21.6599],[88.5996,21.7139],[88.5668,21.8319],[88.6414,22.1219],[88.6594,22.0668],[88.7081,22.0563],[88.7303,22.0361],[88.7404,22.0055],[88.6911,21.7335],[88.6948,21.6626],[88.7128,21.6218],[88.7451,21.5842],[88.8345,21.6615],[88.8578,21.7446],[88.9075,21.653],[88.9674,21.6414],[89.0515,21.6541],[89.0419,21.7589],[89.0197,21.8335],[88.9493,21.9377],[89.0282,21.9372],[89.0515,22.0933],[89.0816,22.015],[89.0938,21.8726],[89.1668,21.7843],[89.2341,21.7223],[89.2785,21.707],[89.3536,21.7213],[89.452,21.8213],[89.5007,21.9144],[89.5023,22.0319],[89.4695,22.2129],[89.4833,22.2753],[89.5473,21.9837],[89.5669,21.8604],[89.5685,21.7673],[89.6283,21.8144],[89.6679,21.8779],[89.7569,21.9192],[89.8119,21.9837],[89.8526,22.0906],[89.8659,22.1732],[89.8532,22.2891],[89.8817,22.3875],[89.9849,22.4664],[89.8939,22.3087],[89.8939,22.2028],[89.9183,22.116],[89.9542,22.0229],[90.0685,22.0981],[90.1437,22.1377],[90.2093,22.1568],[90.0881,22.0176],[90.0701,21.96],[90.0712,21.8875],[90.131,21.8472],[90.159,21.8171],[90.2304,21.8298],[90.2882,21.8996],[90.3559,22.0483],[90.494,22.179],[90.5527,22.2182],[90.5892,22.2584],[90.6162,22.3621],[90.5956,22.4357],[90.5316,22.5394],[90.4876,22.5886],[90.4987,22.6346],[90.4808,22.6849],[90.4352,22.7521],[90.4368,22.8283],[90.4617,22.8818],[90.5522,22.905],[90.4776,22.9865],[90.4659,23.0537],[90.5278,23.0849],[90.595,23.1342],[90.5993,23.204],[90.5908,23.2665],[90.5226,23.3464],[90.3913,23.367],[90.2691,23.4559],[90.4077,23.4321],[90.5559,23.4215],[90.5681,23.4744],[90.5617,23.5369],[90.5734,23.5781],[90.6041,23.5914],[90.6162,23.5316],[90.6157,23.4421],[90.6559,23.2728],[90.6337,23.0945],[90.6565,23.0257],[90.8268,22.7214],[90.9454,22.597],[91.1512,22.614],[91.2163,22.642],[91.3137,22.7352],[91.4094,22.7971],[91.4798,22.8849],[91.4819,22.7976],[91.5296,22.7077],[91.6931,22.505],[91.7338,22.4066],[91.7968,22.2976],[91.8455,22.3431],[91.8635,22.3505],[91.8576,22.3171],[91.8249,22.2287],[91.8502,22.1573],[91.9132,21.8832],[92.008,21.6848],[92.0111,21.5165],[92.0561,21.1747],[92.1947,20.9841],[92.2482,20.8836],[92.308,20.7905],[92.3244,20.7921],[92.3784,20.7174],[92.608,20.4698],[92.7228,20.2957],[92.7329,20.4534],[92.7091,20.564],[92.7356,20.5624],[92.7869,20.4693],[92.8509,20.4148],[92.8911,20.3402],[92.8715,20.3015],[92.8435,20.2825],[92.7911,20.2116],[92.8282,20.1777],[92.8821,20.1523],[92.9906,20.2878],[93.0186,20.346],[93.0356,20.4063],[93.0668,20.3777],[93.0149,20.1851],[93.0684,20.1888],[93.0954,20.1814],[93.0403,20.1295],[93.0017,20.0751],[93.1297,19.8581],[93.1906,19.8512],[93.1991,19.8983],[93.1568,20.0407],[93.2499,20.0703],[93.3621,20.0581],[93.4097,20.0385],[93.4393,20.0094],[93.5817,19.9094],[93.7071,19.9121],[93.66,19.8544],[93.6118,19.7761],[93.669,19.7322],[93.7394,19.6972],[93.7611,19.648],[93.77,19.6094],[93.8394,19.5342],[93.888,19.5041],[93.9605,19.4819],[93.9981,19.4411],[93.9622,19.3294],[93.8859,19.2718],[93.8251,19.2384],[93.7283,19.2665],[93.5785,19.4014],[93.5303,19.3977],[93.4928,19.3697],[93.5981,19.1887],[93.7055,19.0268],[93.8002,18.9606],[93.9293,18.8998],[93.9611,18.9585],[93.968,18.995],[93.941,19.1458],[94.0013,19.1818],[94.0225,19.2686],[94.0447,19.2877],[94.0389,19.1464],[94.0701,18.8934],[94.0912,18.849],[94.2458,18.741],[94.1706,18.7326],[94.2521,18.6093],[94.2659,18.5071],[94.431,18.2018],[94.4945,17.8245],[94.5601,17.6991],[94.5892,17.5694],[94.5643,17.3086],[94.4945,17.1668],[94.4733,17.1355],[94.4527,16.9545],[94.3997,16.8683],[94.3532,16.6402],[94.3273,16.572],[94.2712,16.5175],[94.231,16.2439],[93.742,15.8221],[92.9303,14.3934],[92.5599,13.2467],[92.2778,11.6592],[92.2,10.3543],[92.4281,9.1763],[93.0451,7.6862],[93.5303,6.8438],[94.077,6.2617],[95.003,5.768],[95.2279,5.5828],[95.2353,5.569],[95.2279,5.5648],[95.2242,5.5219],[95.1999,5.524]],[[93.815,19.2988],[93.9018,19.3321],[93.9341,19.3654],[93.9473,19.4083],[93.9457,19.4284],[93.8748,19.4808],[93.8293,19.4755],[93.715,19.5581],[93.6886,19.5443],[93.6441,19.4951],[93.6621,19.4591],[93.7325,19.4162],[93.7558,19.3257],[93.815,19.2988]],[[93.6182,18.8887],[93.4875,18.8675],[93.57,18.7595],[93.6737,18.6754],[93.6906,18.6844],[93.7182,18.7156],[93.7457,18.8082],[93.7446,18.8654],[93.6182,18.8887]],[[90.83,22.16],[90.866,22.3907],[90.8681,22.4849],[90.7369,22.6389],[90.6993,22.7135],[90.6829,22.7854],[90.6723,22.8129],[90.5967,22.8637],[90.503,22.8352],[90.5226,22.7473],[90.5601,22.6727],[90.5649,22.6177],[90.649,22.5404],[90.675,22.4452],[90.6802,22.3277],[90.5152,22.0652],[90.6035,22.0541],[90.7776,22.0896],[90.83,22.16]]]}}
