{"type":"Feature","properties":{"id":12,"name":"South China Sea","featurecla":"sea","scalerank":1,"wikidataid":"Q37660","source":"Natural Earth 5.2.0-pre ne_10m_geography_marine_polys (public domain)"},"geometry":{"type":"Polygon","coordinates":[[[120.8221,21.9303],[121.3846,21.2313],[121.7952,20.8661],[121.8301,20.809],[121.7963,20.7466],[121.7904,20.7011],[121.8296,20.7005],[121.8625,20.7556],[122.0535,20.4407],[122.2662,19.6507],[122.2662,19.0575],[122.1794,18.4929],[122.1466,18.4865],[122.0768,18.3717],[122.0387,18.3277],[121.9477,18.2849],[121.8455,18.2955],[121.7169,18.3299],[121.5931,18.3764],[121.2544,18.5632],[121.1015,18.6151],[121.0512,18.6135],[120.9248,18.5849],[120.8676,18.5992],[120.8136,18.6034],[120.7094,18.5458],[120.5998,18.5077],[120.5845,18.3685],[120.5507,18.2642],[120.5051,18.1626],[120.3586,17.6382],[120.3718,17.5351],[120.4247,17.4382],[120.4274,17.3768],[120.4115,17.2699],[120.42,17.09],[120.4089,16.9556],[120.321,16.7619],[120.3046,16.6455],[120.3051,16.5291],[120.3252,16.4005],[120.3893,16.2216],[120.3888,16.1608],[120.3686,16.1095],[120.3369,16.0666],[120.2712,16.0513],[120.1596,16.0475],[120.1242,16.0661],[120.0336,16.1846],[119.985,16.2153],[119.9305,16.2386],[119.886,16.2873],[119.831,16.3264],[119.7902,16.3031],[119.7728,16.255],[119.7617,16.055],[119.7691,16.0084],[119.8082,15.9518],[119.8596,15.9057],[119.8812,15.8751],[119.8918,15.8375],[119.9326,15.4311],[119.9596,15.3401],[120.0051,15.2295],[120.0368,15.1146],[120.0448,14.9781],[120.0824,14.8511],[120.1379,14.8003],[120.2141,14.8088],[120.2506,14.7934],[120.284,14.6844],[120.3654,14.6082],[120.3961,14.4934],[120.439,14.4532],[120.4956,14.4399],[120.5554,14.4415],[120.5887,14.4834],[120.583,14.5945],[120.5469,14.7659],[120.5835,14.8813],[120.6385,14.8162],[120.7078,14.7765],[120.8046,14.759],[120.8883,14.7156],[120.9412,14.6453],[120.9518,14.5579],[120.9221,14.4929],[120.6882,14.2912],[120.6427,14.2442],[120.6168,14.1881],[120.6173,13.9955],[120.6369,13.8044],[120.729,13.9007],[120.8406,13.8849],[120.9322,13.7621],[120.974,13.76],[120.9412,13.5293],[120.9338,13.497],[120.9152,13.5012],[120.7555,13.471],[120.7046,13.4795],[120.6533,13.4975],[120.4681,13.5224],[120.4014,13.5171],[120.3527,13.4732],[120.3385,13.4123],[120.3877,13.4017],[120.438,13.4054],[120.4554,13.3933],[120.4807,13.3112],[120.5083,13.2599],[120.5729,13.2091],[120.6512,13.1689],[120.6803,13.1308],[120.7634,12.9699],[120.7687,12.8408],[120.7708,12.8276],[120.7438,12.8239],[120.2152,12.2312],[120.2284,12.2196],[120.1935,12.1672],[120.1548,12.1524],[120.0998,12.1677],[120.0776,12.1979],[119.9638,12.2704],[119.9162,12.319],[119.8966,12.3132],[119.8854,12.3],[119.8802,12.2799],[119.8918,12.2725],[119.8696,12.2439],[119.8659,12.1989],[119.8961,12.1788],[119.8993,12.1735],[119.4966,11.3824],[119.5013,11.3464],[119.4653,11.2935],[119.341,11.0332],[119.3055,10.9739],[119.2611,10.8453],[119.2965,10.7511],[119.313,10.6871],[119.287,10.5739],[119.224,10.4776],[119.1859,10.4394],[119.1431,10.4093],[119.0801,10.386],[119.024,10.3537],[118.8451,10.1315],[118.8203,10.1056],[118.7277,10.0352],[118.6912,9.9896],[118.5335,9.7939],[118.344,9.6029],[118.1149,9.3467],[118.0239,9.27],[117.9831,9.2536],[117.9313,9.2515],[117.8847,9.2409],[117.745,9.098],[117.5932,8.9684],[117.5302,8.9028],[117.418,8.7668],[117.3497,8.7138],[117.2561,8.5408],[117.2285,8.4567],[117.2185,8.3672],[117.1968,8.3212],[117.0438,8.0619],[117.0772,8.0693],[117.0798,7.8836],[117.0285,7.8074],[116.9698,7.8947],[116.9719,7.9402],[116.8243,7.6899],[116.7592,7.0094],[116.7703,6.9872],[116.7496,6.9771],[116.538,6.5829],[116.4946,6.5215],[116.1385,6.1294],[116.1099,6.0035],[116.0596,5.8823],[115.9183,5.7251],[115.877,5.6135],[115.7971,5.5362],[115.7411,5.533],[115.685,5.5351],[115.6246,5.5489],[115.604,5.6034],[115.5564,5.5669],[115.4188,5.4129],[115.422,5.3303],[115.4669,5.2542],[115.5818,5.1944],[115.5548,5.0933],[115.5198,5.0488],[115.4278,4.9695],[115.3749,4.933],[115.1399,4.8996],[115.0267,4.8996],[115.0473,4.9626],[115.0478,5.0165],[114.9954,5.0224],[114.8404,4.9462],[114.7409,4.8811],[114.6462,4.798],[114.5446,4.7244],[114.4245,4.6604],[114.2996,4.607],[114.1779,4.5911],[114.0535,4.5927],[114.0123,4.5752],[113.9842,4.5456],[113.9906,4.4826],[113.9879,4.4207],[113.9525,4.2889],[113.9239,4.2434],[113.7122,4.0016],[113.4461,3.7407],[113.3201,3.5613],[113.1402,3.3433],[113.045,3.2052],[112.9878,3.1618],[112.9206,3.1306],[112.7375,3.0703],[112.1189,2.9147],[111.7278,2.8539],[111.6231,2.8179],[111.5125,2.7432],[111.4432,2.6342],[111.4405,2.4982],[111.4506,2.4242],[111.4437,2.3813],[111.4062,2.3681],[111.3516,2.3644],[111.2961,2.3988],[111.2421,2.4358],[111.2087,2.3797],[111.1955,2.2972],[111.2087,2.1977],[111.268,2.14],[111.251,2.0638],[111.1981,1.9849],[111.1701,1.9024],[111.1542,1.7389],[111.1103,1.6839],[111.0468,1.6336],[111.0288,1.5579],[111.058,1.4865],[111.1235,1.4489],[111.223,1.396],[111.1452,1.387],[111.0987,1.4008],[110.9399,1.5172],[110.895,1.5325],[110.7823,1.5209],[110.6753,1.5479],[110.3996,1.6997],[110.3494,1.7198],[110.2981,1.7013],[110.2456,1.695],[110.1139,1.6987],[109.9848,1.7177],[109.8646,1.7643],[109.7197,1.8579],[109.6943,1.8886],[109.6286,2.0273],[109.3784,1.9225],[109.318,1.8209],[109.2731,1.7056],[109.1667,1.6071],[109.0757,1.496],[109.0555,1.4383],[109.01,1.2399],[109.0656,1.2473],[109.0963,1.2584],[109.1318,1.2537],[109.0884,1.224],[109.0307,1.2044],[108.9588,1.1346],[108.9169,0.9129],[108.9058,0.7938],[108.9227,0.5329],[108.9444,0.3556],[109.0746,0.253],[109.1487,0.1678],[109.181,0.1175],[109.2201,0.0736],[109.2471,0.0556],[109.2577,0.0313],[109.1948,-0.0095],[109.1646,-0.1423],[109.1498,-0.1857],[109.1217,-0.265],[109.1212,-0.391],[109.1302,-0.4455],[109.1603,-0.4947],[109.2572,-0.5773],[109.3725,-0.6381],[109.3662,-0.6672],[109.3117,-0.6805],[109.2709,-0.7318],[109.2588,-0.8074],[109.2889,-0.8456],[109.3334,-0.8752],[109.454,-0.8688],[109.6816,-0.9445],[109.7874,-1.0112],[109.8736,-1.1011],[109.9382,-1.1811],[109.9832,-1.2747],[110.0192,-1.3991],[110.0361,-1.5255],[110.0234,-1.6425],[109.9636,-1.743],[109.9599,-1.8626],[110.0748,-1.9462],[110.0965,-2.0013],[110.1245,-2.2341],[110.2245,-2.6886],[110.2319,-2.9098],[110.2166,-2.9104],[108.2761,-2.8749],[108.2719,-2.8675],[108.2904,-2.83],[108.2152,-2.6971],[108.156,-2.6548],[108.1364,-2.6193],[108.0867,-2.6056],[108.0745,-2.5971],[108.0126,-2.5855],[107.8517,-2.5415],[107.8379,-2.5304],[107.8231,-2.5336],[107.7824,-2.5225],[106.8251,-2.5738],[106.8235,-2.5765],[106.8183,-2.5733],[106.3658,-2.4648],[106.2086,-2.1886],[106.1616,-1.8669],[106.1271,-1.8001],[106.0801,-1.7382],[106.0457,-1.6695],[106.0272,-1.5933],[105.9811,-1.5393],[105.9102,-1.5049],[105.816,-1.506],[105.7202,-1.534],[105.7546,-1.6589],[105.7007,-1.7308],[105.6678,-1.6806],[105.6403,-1.6102],[105.5853,-1.5266],[105.4593,-1.5747],[105.4128,-1.6113],[105.3731,-1.6573],[105.3641,-1.7049],[105.3863,-1.751],[105.3747,-1.8134],[105.3159,-1.8605],[105.1911,-1.9171],[105.1376,-1.9727],[105.1334,-2.0425],[105.2477,-2.0796],[105.2927,-2.1145],[105.343,-2.1251],[105.553,-2.079],[105.5991,-2.1034],[105.7054,-2.1325],[105.7858,-2.1812],[105.807,-2.3077],[105.8626,-2.4156],[105.9076,-2.4521],[105.9393,-2.4934],[105.9081,-2.6431],[105.9372,-2.7437],[105.9986,-2.8246],[106.1261,-2.8553],[106.2499,-2.894],[106.3414,-2.949],[106.3976,-2.9664],[106.4489,-2.994],[106.496,-3.0289],[106.5468,-3.0554],[106.5563,-3.0575],[106.5315,-3.1019],[106.088,-3.2194],[106.0584,-3.2173],[106.0557,-3.1607],[106.0441,-3.1062],[105.8991,-2.8876],[105.5821,-2.4918],[105.4953,-2.4299],[105.3969,-2.3802],[105.2863,-2.3563],[105.026,-2.3574],[104.9709,-2.3706],[104.9169,-2.3923],[104.8783,-2.4188],[104.736,-2.5706],[104.6984,-2.5981],[104.6508,-2.595],[104.6307,-2.5431],[104.6471,-2.4299],[104.6683,-2.3854],[104.7873,-2.2828],[104.8259,-2.2341],[104.8445,-2.1716],[104.845,-2.0928],[104.791,-2.041],[104.6762,-1.987],[104.5687,-1.9219],[104.5158,-1.8192],[104.5185,-1.6986],[104.4783,-1.6002],[104.447,-1.3626],[104.4259,-1.2509],[104.3815,-1.0741],[104.3608,-1.0382],[104.2576,-1.0535],[104.1983,-1.054],[104.0613,-1.0212],[103.9401,-0.9789],[103.721,-0.8868],[103.5776,-0.7958],[103.5327,-0.7545],[103.4385,-0.5757],[103.431,-0.5334],[103.5094,-0.4656],[103.4956,-0.418],[103.4051,-0.3624],[103.4443,-0.2719],[103.4115,-0.2402],[103.4284,-0.1915],[103.5893,-0.0687],[103.7062,-0.0195],[103.7867,0.0471],[103.7427,0.1742],[103.6729,0.289],[103.5787,0.3869],[103.4787,0.48],[103.4125,0.507],[103.339,0.5139],[103.2765,0.4943],[103.1088,0.3996],[103.0029,0.3318],[102.8961,0.2784],[102.7796,0.2445],[102.55,0.2165],[102.7865,0.298],[103.0077,0.4154],[103.0665,0.4922],[103.0315,0.579],[102.9495,0.6641],[102.9072,0.6859],[102.9421,0.743],[102.9717,0.7366],[103.0088,0.7081],[103.0273,0.7467],[103.0067,0.8404],[103.0627,0.8637],[103.0866,0.8483],[103.1374,0.8414],[103.1664,0.87],[103.1474,0.8975],[103.1522,0.8996],[103.3109,1.0319],[103.3268,1.0558],[103.3152,1.0711],[103.3549,1.1171],[103.3797,1.1335],[103.4051,1.0726],[103.4236,1.0483],[103.4295,1.0494],[103.9481,1.0922],[103.9554,1.1372],[103.9999,1.1372],[104.0248,1.1806],[104.0883,1.1372],[104.1396,1.1658],[104.1375,1.1283],[104.1317,1.1065],[104.1407,1.1039],[104.2475,1.0907],[104.2444,1.0775],[104.2518,1.015],[104.2941,1.0161],[104.4391,1.0504],[104.4624,0.9954],[104.4285,0.9563],[104.4809,0.9325],[104.4714,0.9134],[104.4809,0.8869],[104.5041,0.8526],[104.5751,0.8319],[104.5989,0.8589],[104.6529,0.961],[104.6629,1.0494],[104.6481,1.1044],[104.591,1.1409],[104.5852,1.2161],[104.5,1.1801],[104.4301,1.1954],[104.4307,1.1992],[104.4894,1.2627],[104.4217,1.4076],[104.2809,1.4076],[104.2767,1.4124],[104.2804,1.4156],[104.2883,1.4807],[104.2185,1.723],[103.9676,2.2612],[103.8321,2.5083],[103.812,2.5803],[103.5374,2.775],[103.485,2.8364],[103.4395,2.9332],[103.4448,3.2608],[103.4295,3.3788],[103.4538,3.5206],[103.3734,3.6709],[103.3617,3.7693],[103.4205,3.9767],[103.4687,4.3932],[103.4538,4.6694],[103.4157,4.8504],[103.1971,5.2621],[103.0971,5.4087],[102.9823,5.5251],[102.8987,5.5637],[102.7902,5.6447],[102.5341,5.8627],[102.3489,6.158],[102.4024,6.1913],[104.7487,8.608],[104.7704,8.5974],[104.8921,8.5831],[105.1143,8.6292],[105.1911,8.7112],[105.3223,8.8011],[105.4011,8.9626],[105.5011,9.0932],[106.1684,9.397],[106.1928,9.4478],[106.206,9.5023],[106.1584,9.5944],[106.1124,9.6738],[105.8308,10.0008],[105.9256,9.9616],[106.2039,9.6753],[106.378,9.5563],[106.4838,9.5594],[106.5394,9.6034],[106.5722,9.6409],[106.5643,9.7156],[106.5076,9.8214],[106.1838,10.1421],[106.1361,10.222],[106.4489,9.9394],[106.5574,9.868],[106.5955,9.86],[106.6569,9.9013],[106.6589,9.9913],[106.714,10.06],[106.7855,10.1167],[106.7855,10.1511],[106.7288,10.1934],[106.6023,10.2315],[106.4642,10.2982],[106.4918,10.304],[106.6437,10.2892],[106.7574,10.2955],[106.7765,10.3389],[106.7775,10.376],[106.741,10.4442],[106.6986,10.4622],[106.6431,10.4564],[106.606,10.4648],[106.7272,10.5358],[106.8129,10.4331],[106.9019,10.3828],[106.9474,10.4003],[106.9659,10.4405],[106.9839,10.6183],[107.0066,10.6606],[107.0209,10.631],[107.0357,10.5564],[107.0876,10.4982],[107.194,10.4717],[107.2352,10.4199],[107.2617,10.3982],[107.3845,10.4585],[107.4702,10.486],[107.5644,10.5554],[107.8454,10.7003],[108.0014,10.7204],[108.0951,10.8972],[108.1761,10.9199],[108.2719,10.9342],[108.4184,11.0406],[108.5513,11.1559],[108.7005,11.1993],[108.8206,11.3152],[108.9868,11.3364],[109.0185,11.4682],[109.0397,11.5925],[109.1323,11.601],[109.1731,11.665],[109.1984,11.7248],[109.1926,11.7735],[109.1577,11.837],[109.1672,11.9121],[109.2,11.9724],[109.1989,11.9989],[109.2143,12.0106],[109.2201,11.9587],[109.2471,11.9084],[109.2593,11.9545],[109.2561,11.9931],[109.2159,12.073],[109.2069,12.4154],[109.3048,12.391],[109.2191,12.6461],[109.2741,12.709],[109.3355,12.7519],[109.3815,12.671],[109.445,12.5995],[109.4202,12.7191],[109.4238,12.9562],[109.3768,13.0255],[109.3096,13.2192],[109.272,13.2795],[109.2879,13.4509],[109.2519,13.5906],[109.2471,13.8547],[109.2879,13.7653],[109.3032,13.8563],[109.2445,14.0537],[109.2239,14.0965],[109.2074,14.1542],[109.1916,14.2706],[109.137,14.3844],[109.0868,14.5527],[109.0847,14.7162],[109.0222,14.803],[108.9402,15.0014],[108.8984,15.1808],[108.8211,15.3782],[108.7429,15.4268],[108.674,15.4835],[108.5777,15.5845],[108.4476,15.7629],[108.3952,15.8724],[108.2861,15.9888],[108.274,16.029],[108.2676,16.0899],[108.2407,16.101],[108.2089,16.091],[108.1698,16.1635],[108.0883,16.2428],[108.0295,16.3312],[107.9909,16.337],[107.9364,16.3296],[107.8819,16.3095],[107.8337,16.3227],[107.803,16.4032],[107.7242,16.4878],[107.5935,16.5683],[107.5411,16.6085],[107.5495,16.6423],[107.3548,16.7937],[107.1802,16.8979],[107.1199,17.0556],[106.9262,17.2212],[106.7357,17.3673],[106.5166,17.6626],[106.3706,17.7467],[106.3558,17.7652],[106.4791,17.7197],[106.4595,17.8737],[106.4843,17.9187],[106.5124,17.9034],[108.6994,18.5384],[108.701,18.5384],[108.7016,18.5352],[108.9222,18.4161],[109.0297,18.3679],[109.1831,18.3251],[109.3408,18.2997],[109.4001,18.2812],[109.5191,18.2182],[109.5895,18.2261],[109.681,18.2473],[109.7027,18.2589],[109.7599,18.3484],[109.8154,18.3965],[109.9678,18.4219],[110.0202,18.4161],[110.0673,18.4473],[110.0663,18.4754],[110.0483,18.505],[110.1563,18.5696],[110.252,18.6558],[110.2907,18.6696],[110.3335,18.6733],[110.3996,18.6982],[110.4515,18.7479],[110.4774,18.8124],[110.5192,18.9702],[110.5658,19.0987],[110.5626,19.1352],[110.5721,19.1718],[110.6028,19.2072],[110.6409,19.2914],[110.8225,19.5581],[110.9124,19.5861],[111.0135,19.6554],[110.9976,19.7644],[110.9706,19.8835],[110.9383,19.9475],[110.8886,19.992],[110.8092,20.0142],[110.7447,20.0597],[110.6785,20.137],[110.6711,20.137],[110.5695,20.4084],[110.2166,20.1968],[109.934,20.2814],[109.9382,20.2952],[110.1229,20.264],[110.3446,20.2947],[110.4494,20.3555],[110.487,20.4269],[110.5177,20.4598],[110.5113,20.5185],[110.3129,20.6714],[110.3261,20.7201],[110.3706,20.7519],[110.3885,20.7905],[110.3652,20.8376],[110.1806,20.8588],[110.1541,20.9445],[110.1938,21.0376],[110.3314,21.1313],[110.3748,21.1725],[110.3975,21.2477],[110.4108,21.3382],[110.4346,21.327],[110.4578,21.2307],[110.5044,21.2075],[110.5669,21.2138],[110.6521,21.2789],[110.7712,21.3863],[110.878,21.3959],[110.9966,21.4302],[111.0167,21.5117],[111.0611,21.5112],[111.1008,21.4847],[111.1442,21.4821],[111.2204,21.4938],[111.3193,21.4863],[111.3924,21.535],[111.6029,21.5594],[111.6818,21.6086],[111.712,21.6551],[111.776,21.7192],[111.8247,21.7096],[111.8734,21.717],[111.9263,21.7763],[111.9437,21.8499],[112.0252,21.843],[112.1173,21.8065],[112.1935,21.7631],[112.3052,21.7419],[112.3565,21.7673],[112.3899,21.8012],[112.3777,21.9176],[112.3597,21.9779],[112.3962,21.9811],[112.429,21.9584],[112.4396,21.9271],[112.4211,21.8806],[112.4946,21.8181],[112.5862,21.7768],[112.6343,21.8197],[112.6608,21.8594],[112.7253,21.9023],[112.8084,21.9446],[112.9037,21.8816],[112.954,21.9076],[112.9836,21.9382],[113.0084,22.1192],[113.0889,22.2081],[113.1492,22.0748],[113.2661,22.0885],[113.3275,22.1457],[113.3672,22.1647],[113.499,22.2018],[113.5482,22.2224],[113.5763,22.297],[113.589,22.3505],[113.5513,22.4039],[113.5529,22.5939],[113.4847,22.6923],[113.4497,22.7262],[113.4318,22.7897],[113.345,22.8648],[113.3376,22.8886],[113.3313,22.9119],[113.4418,22.9405],[113.4603,22.9955],[113.4455,23.0553],[113.5196,23.1019],[113.6207,23.1273],[113.5921,23.077],[113.5863,23.0199],[113.6032,22.9691],[113.6196,22.8616],[113.6609,22.8018],[113.7546,22.7336],[113.8281,22.6071],[113.9313,22.5309],[114.0154,22.5119],[114.0065,22.4838],[113.8964,22.4282],[113.9027,22.396],[113.9371,22.3648],[114.0329,22.3759],[114.1387,22.3484],[114.2678,22.2954],[114.288,22.3251],[114.2906,22.3738],[114.3351,22.396],[114.325,22.4372],[114.2848,22.4574],[114.2911,22.4997],[114.2663,22.541],[114.3409,22.5934],[114.4203,22.5833],[114.4965,22.5272],[114.5541,22.5288],[114.5446,22.6209],[114.5721,22.6542],[114.5927,22.6987],[114.6515,22.7553],[114.7113,22.7389],[114.7504,22.6262],[114.8536,22.6166],[114.8965,22.6394],[114.9145,22.6849],[115.0119,22.7087],[115.0912,22.7817],[115.196,22.8172],[115.2902,22.7759],[115.3823,22.7188],[115.4981,22.7188],[115.5347,22.7653],[115.5611,22.8246],[115.6405,22.8537],[115.7559,22.8241],[115.8522,22.8013],[116.0628,22.8791],[116.1575,22.8876],[116.2062,22.9188],[116.2221,22.9495],[116.2516,22.9812],[116.3454,22.941],[116.4708,22.9458],[116.52,23.0066],[116.538,23.1797],[116.5867,23.2183],[116.6692,23.2284],[116.6989,23.2776],[116.6825,23.3273],[116.6296,23.3538],[116.7121,23.3606],[116.7597,23.3823],[116.8608,23.4532],[116.9105,23.6469],[117.0327,23.6236],[117.0825,23.5787],[117.1481,23.5988],[117.2249,23.6469],[117.291,23.7141],[117.3307,23.7088],[117.3466,23.6358],[117.3677,23.5887],[117.4169,23.621],[117.4624,23.7364],[117.4609,23.7554],[117.5191,23.7596],[120.0591,23.0543],[120.094,23.0775],[120.1215,23.0368],[120.15,22.9749],[120.2326,22.7177],[120.2728,22.6272],[120.3258,22.5426],[120.3163,22.5478],[120.3877,22.4843],[120.4798,22.442],[120.5814,22.3563],[120.6078,22.3124],[120.6781,22.1594],[120.6903,22.033],[120.7427,21.9562],[120.8221,21.9308],[120.8221,21.9303]],[[109.4503,-1.044],[109.4281,-1.2414],[109.4635,-1.2773],[109.5107,-1.2827],[109.7101,-1.1805],[109.7509,-1.145],[109.7604,-1.1054],[109.7435,-1.0392],[109.6996,-1.0075],[109.6144,-0.9789],[109.4762,-0.9853],[109.4503,-1.044]],[[108.1798,3.6529],[108.3158,3.6894],[108.3935,3.836],[108.3989,3.8762],[108.3931,3.9863],[108.2555,4.1519],[108.248,4.217],[108.202,4.2006],[108.0036,4.0424],[108.0025,3.9831],[108.0443,3.8889],[108.0888,3.8519],[108.2433,3.8106],[108.2359,3.7847],[108.2163,3.7719],[108.1861,3.7682],[108.1004,3.7047],[108.1798,3.6529]],[[104.5667,-0.2455],[104.7021,-0.209],[104.9143,-0.3233],[104.9286,-0.3169],[104.9508,-0.2846],[105.0053,-0.283],[104.9497,-0.2471],[104.909,-0.2116],[104.8434,-0.1407],[104.8074,-0.1925],[104.7789,-0.1762],[104.7137,-0.1031],[104.6529,-0.0762],[104.6582,-0.0629],[104.6355,-0.0184],[104.5428,0.0175],[104.4968,-0.1264],[104.447,-0.1894],[104.4735,-0.2121],[104.5667,-0.2455]],[[104.3634,-0.4027],[104.3407,-0.3826],[104.3185,-0.3799],[104.3021,-0.3857],[104.2571,-0.4635],[104.3296,-0.5392],[104.3629,-0.6588],[104.4137,-0.5836],[104.4852,-0.6127],[104.5063,-0.5969],[104.5439,-0.5206],[104.5899,-0.4667],[104.5677,-0.4318],[104.4741,-0.3349],[104.3634,-0.4027]],[[103.611,-0.2307],[103.5491,-0.2275],[103.4792,-0.2973],[103.4612,-0.3577],[103.6062,-0.3831],[103.7364,-0.3481],[103.7644,-0.318],[103.7237,-0.2767],[103.611,-0.2307]]]}}
