{"type":"Feature","properties":{"id":13,"name":"Sea of Japan","featurecla":"sea","scalerank":1,"wikidataid":"Q27092","namealt":"East Sea","source":"Natural Earth 5.2.0-pre ne_10m_geography_marine_polys (public domain)"},"geometry":{"type":"Polygon","coordinates":[[[130.8335,34.5089],[130.6172,35.0174],[130.206,35.5799],[129.6002,36.056],[129.5707,36.0296],[129.5729,36.0506],[129.51,36.0374],[129.4581,36.0067],[129.4258,36.0188],[129.4036,36.0522],[129.4026,36.1379],[129.3915,36.2019],[129.3925,36.3226],[129.4274,36.3856],[129.4449,36.4707],[129.4333,36.6364],[129.4735,36.7417],[129.4263,36.9253],[129.4184,37.0592],[129.3353,37.2745],[129.0517,37.6778],[128.8522,37.8873],[128.6188,38.1762],[128.3744,38.6234],[128.3294,38.6811],[128.313,38.6943],[128.313,40.041],[128.3929,40.0892],[128.5115,40.1305],[128.6109,40.1977],[128.7014,40.3178],[128.8432,40.3585],[128.9453,40.4279],[129.1099,40.4908],[129.2449,40.6612],[129.3412,40.7263],[129.709,40.8575],[129.7418,40.9322],[129.7121,41.1237],[129.7661,41.3036],[129.7592,41.3915],[129.6825,41.4941],[129.6862,41.5952],[129.7566,41.7121],[129.8761,41.8053],[129.928,41.8968],[130.0074,41.991],[130.0683,42.0455],[130.1799,42.0968],[130.2354,42.1831],[130.3148,42.2143],[130.4577,42.3016],[130.5694,42.2916],[130.6366,42.2746],[130.7297,42.326],[130.834,42.5228],[130.7096,42.6562],[130.7562,42.6731],[130.9456,42.634],[131.025,42.645],[131.1583,42.626],[131.2451,42.6974],[131.2927,42.7721],[131.3933,42.8223],[131.5166,42.9964],[131.7219,43.2028],[131.7949,43.2552],[131.9389,43.3018],[131.9764,43.2959],[132.013,43.28],[131.8981,43.1705],[131.8663,43.0954],[131.9473,43.0954],[132.0288,43.1192],[132.233,43.2451],[132.3098,43.3134],[132.3341,43.2388],[132.304,42.8832],[132.4812,42.9096],[132.5764,42.8715],[132.7087,42.8758],[132.8632,42.7938],[132.9242,42.8054],[132.9967,42.8081],[133.0596,42.7228],[133.1602,42.6969],[133.3295,42.7636],[133.5867,42.8282],[133.7094,42.8297],[134.0106,42.9472],[134.1566,43.0419],[134.6916,43.2906],[134.917,43.4267],[135.1308,43.5256],[135.2599,43.6849],[135.4832,43.8352],[135.489,43.8987],[135.5329,43.9717],[135.8748,44.3733],[135.987,44.44],[136.1426,44.4892],[136.2087,44.5622],[136.251,44.667],[136.4606,44.822],[136.604,44.9782],[136.7373,45.0803],[136.8035,45.1713],[137.1469,45.3936],[137.4252,45.6402],[137.6856,45.8185],[137.7692,45.9285],[138.1062,46.2508],[138.21,46.463],[138.337,46.5434],[138.392,46.7451],[138.5005,46.89],[138.5296,46.9763],[138.5868,47.0573],[139.0011,47.3832],[139.1672,47.6351],[139.3726,47.8875],[139.5208,47.9754],[139.6763,48.0896],[139.7604,48.1807],[139.9986,48.3236],[140.1134,48.4225],[140.1705,48.5236],[140.224,48.7728],[140.3785,48.9644],[140.3335,48.995],[140.3092,49.0538],[140.3256,49.1199],[140.3489,49.1591],[140.3642,49.221],[140.3992,49.2898],[140.4309,49.3316],[140.5172,49.5962],[140.5114,49.7618],[140.4647,49.8253],[140.4627,49.9116],[140.5844,50.0333],[140.6135,50.0539],[140.6246,50.0825],[140.5643,50.1068],[140.5357,50.1306],[140.4764,50.5461],[140.5209,50.8001],[140.6458,50.9868],[140.6706,51.0514],[140.6876,51.2324],[140.8384,51.4144],[140.9326,51.6197],[141.1294,51.7277],[141.2585,51.8605],[141.3479,51.9102],[141.6829,51.9102],[141.721,51.8467],[141.8083,51.7891],[141.7718,51.752],[141.7221,51.7361],[141.7718,51.6901],[141.8729,51.6298],[142.0057,51.5208],[142.0909,51.4292],[142.2068,51.2223],[142.2078,50.9985],[142.1475,50.89],[142.1005,50.7762],[142.066,50.6302],[142.0707,50.5148],[142.1433,50.3121],[142.1534,50.2169],[142.1423,49.5692],[142.1089,49.4396],[142.0666,49.312],[142.02,49.0787],[141.9798,48.9723],[141.8666,48.75],[141.8729,48.7019],[141.8973,48.6548],[142.0285,48.477],[142.1354,48.2902],[142.1819,48.0135],[142.1491,47.9023],[142.0761,47.8081],[142.0158,47.7007],[141.9639,47.5875],[141.9623,47.5436],[141.984,47.3478],[142.0168,47.2446],[142.0385,47.1403],[142.011,47.0303],[141.8666,46.6943],[141.8305,46.4508],[141.9162,46.1709],[141.93,46.0884],[141.9618,46.0132],[142.0158,45.9619],[142.0703,45.9217],[141.9464,45.5041],[141.938,45.5094],[141.8787,45.4835],[141.8295,45.4385],[141.7782,45.419],[141.6681,45.4015],[141.6538,45.3766],[141.6528,45.3486],[141.594,45.256],[141.5829,45.156],[141.6559,45.0512],[141.7189,44.9411],[141.7824,44.7162],[141.7612,44.4823],[141.7162,44.3712],[141.6606,44.2638],[141.6448,44.0193],[141.6009,43.9188],[141.4469,43.7489],[141.3977,43.6426],[141.3982,43.5124],[141.4125,43.3817],[141.3739,43.2795],[141.2961,43.1996],[141.2453,43.1848],[141.1384,43.1801],[140.9538,43.2012],[140.8193,43.2055],[140.7807,43.215],[140.5844,43.3118],[140.487,43.3383],[140.3923,43.3034],[140.3791,43.2372],[140.3976,43.1673],[140.4865,43.0499],[140.4325,42.9541],[140.3287,42.8668],[140.224,42.7953],[140.1145,42.7329],[140.0149,42.6847],[139.9505,42.6715],[139.8912,42.6493],[139.86,42.5816],[139.8287,42.4482],[139.8208,42.3874],[139.8356,42.2784],[139.8954,42.19],[140.024,42.0995],[140.0568,42.0672],[140.1081,41.9127],[140.0843,41.8032],[140.0214,41.6957],[139.9954,41.5767],[140.0092,41.5211],[140.0367,41.474],[140.0854,41.4343],[140.1441,41.4243],[140.3177,41.1465],[140.3436,41.0057],[140.3261,40.9475],[140.2812,40.8459],[140.2526,40.8089],[140.2012,40.775],[140.1462,40.7517],[140.0854,40.7475],[140.0293,40.7332],[139.9668,40.6729],[139.9229,40.5982],[139.924,40.5337],[139.9642,40.4141],[140.0145,40.3146],[140.0112,40.2601],[139.9727,40.1368],[139.9081,40.022],[139.8737,39.9855],[139.8256,39.9659],[139.7552,39.959],[139.7414,39.9209],[139.8102,39.8775],[139.8912,39.887],[139.9451,39.8849],[139.9949,39.8553],[140.0546,39.7495],[140.0647,39.6246],[140.0483,39.4637],[140.0367,39.4113],[140.0108,39.3579],[139.9769,39.3108],[139.9388,39.2732],[139.9123,39.2288],[139.8785,39.105],[139.8017,38.8816],[139.7493,38.788],[139.6599,38.6969],[139.58,38.5991],[139.5208,38.5027],[139.4768,38.4001],[139.4456,38.2689],[139.4011,38.1424],[139.3641,38.099],[139.2472,38.009],[138.8852,37.8439],[138.8191,37.7746],[138.7704,37.6635],[138.7095,37.5608],[138.6328,37.4719],[138.5482,37.392],[138.3201,37.2185],[138.218,37.1735],[138.1095,37.1512],[137.9132,37.0645],[137.5142,36.9517],[137.4824,36.9248],[137.3427,36.7703],[137.2977,36.7539],[137.2464,36.7533],[137.1237,36.774],[137.0167,36.8374],[137.0125,36.8951],[137.0183,36.9597],[136.9945,37.0269],[136.8998,37.1179],[136.9241,37.1719],[136.9823,37.2],[137.0458,37.2195],[137.1522,37.283],[137.3374,37.4375],[137.3411,37.4857],[137.3226,37.5222],[137.1988,37.4973],[136.9622,37.4137],[136.8437,37.382],[136.7193,37.1984],[136.7495,36.9512],[136.6982,36.7422],[136.5558,36.5718],[136.359,36.3617],[136.2616,36.2877],[136.1563,36.2231],[136.0674,36.1167],[136.006,35.9908],[136.0224,35.8744],[136.0954,35.7675],[136.016,35.6823],[135.9034,35.6066],[135.7948,35.5495],[135.6806,35.5029],[135.6017,35.5177],[135.3271,35.5257],[135.2678,35.5511],[135.2319,35.5918],[135.2689,35.6595],[135.2657,35.722],[135.2207,35.741],[135.1742,35.7468],[134.882,35.6633],[134.4561,35.6278],[134.3365,35.578],[134.2143,35.5394],[133.9814,35.5071],[133.8602,35.495],[133.7396,35.4955],[133.6152,35.5114],[133.4951,35.4976],[133.4353,35.4722],[133.3766,35.459],[133.267,35.5564],[133.157,35.559],[132.9231,35.5114],[132.7463,35.4489],[132.6977,35.4182],[132.6188,35.3066],[132.4141,35.1563],[132.2595,35.0224],[132.1579,34.9663],[132.0648,34.9002],[131.9632,34.8092],[131.8563,34.7261],[131.7341,34.6668],[131.6081,34.6155],[131.515,34.5504],[131.4324,34.47],[131.3546,34.4134],[131.262,34.3933],[131.1324,34.4075],[131.0043,34.3927],[130.9519,34.3498],[130.9043,34.2996],[130.8944,34.2754],[130.8335,34.5089]],[[138.2492,37.8196],[138.3439,37.8222],[138.4968,37.9037],[138.5751,38.0657],[138.4534,38.0757],[138.4629,38.1244],[138.51,38.2588],[138.5037,38.316],[138.4613,38.2916],[138.3063,38.1609],[138.2502,38.0783],[138.246,37.9947],[138.3216,37.991],[138.3222,37.9693],[138.2878,37.8958],[138.2825,37.854],[138.2253,37.8291],[138.2492,37.8196]]]}}
