{"type":"Feature","properties":{"id":15,"name":"Arabian Sea","featurecla":"sea","scalerank":1,"wikidataid":"Q58705","source":"Natural Earth 5.2.0-pre ne_10m_geography_marine_polys (public domain)"},"geometry":{"type":"Polygon","coordinates":[[[51.3881,10.4088],[51.3902,10.4225],[51.369,10.4754],[51.296,10.4987],[51.1928,10.5548],[51.1854,10.53],[51.188,10.4797],[51.0631,10.4342],[51.0319,10.4447],[51.051,10.4717],[51.0938,10.4887],[51.1049,10.5358],[51.1314,10.5961],[51.1409,10.6569],[51.1224,11.0766],[51.0843,11.3359],[51.1361,11.5052],[51.2182,11.6576],[51.2319,11.7449],[51.2547,11.8306],[51.2674,11.8306],[51.2674,15.1871],[51.261,15.2094],[51.3224,15.2263],[51.604,15.3369],[51.6817,15.3792],[51.7484,15.4401],[51.831,15.4591],[51.9659,15.5358],[52.0871,15.5861],[52.2178,15.6555],[52.222,15.7607],[52.1738,15.9571],[52.2374,16.1714],[52.3278,16.2936],[52.4485,16.391],[52.5813,16.4704],[53.0856,16.6482],[53.2978,16.7233],[53.61,16.7598],[53.7751,16.8556],[53.9545,16.918],[54.0683,17.0053],[54.3768,17.0334],[54.5667,17.0313],[54.6647,17.0091],[54.7721,16.9646],[55.0642,17.0387],[55.1737,17.1578],[55.2753,17.3207],[55.2954,17.3816],[55.2817,17.4461],[55.2383,17.5049],[55.2552,17.5859],[55.479,17.843],[55.6139,17.8859],[55.9976,17.9351],[56.2701,17.951],[56.3834,17.988],[56.5506,18.1658],[56.6548,18.5875],[56.8258,18.7537],[56.957,18.8278],[57.1766,18.9024],[57.4279,18.9437],[57.6756,18.958],[57.7386,18.9776],[57.8116,19.0172],[57.8111,19.0204],[58.6482,20.2079],[58.6593,20.2036],[58.7223,20.219],[58.7721,20.2666],[58.835,20.4238],[58.9509,20.5164],[58.8842,20.6804],[58.7879,20.4968],[58.6413,20.3375],[58.481,20.4174],[58.5339,20.5037],[58.6906,20.8069],[58.8959,21.1127],[59.0689,21.289],[59.3044,21.4355],[59.3716,21.499],[59.5176,21.7821],[59.6526,21.9515],[59.6806,22.0536],[59.8002,22.2198],[59.8245,22.3049],[59.8378,22.4203],[59.8309,22.4616],[59.8399,22.4632],[61.4009,25.0826],[61.4057,25.1037],[61.412,25.1021],[61.4904,25.1535],[61.5332,25.1953],[61.7439,25.1381],[61.9079,25.1312],[62.0894,25.1556],[62.1524,25.2064],[62.1984,25.2249],[62.2486,25.1974],[62.3153,25.135],[62.391,25.1524],[62.4444,25.1974],[62.5725,25.2545],[62.6646,25.2646],[63.0149,25.2249],[63.1699,25.255],[63.2858,25.2276],[63.4911,25.2106],[63.4959,25.2974],[63.5568,25.3529],[63.7208,25.3858],[63.9357,25.3424],[63.9875,25.3514],[64.0595,25.4027],[64.1251,25.3741],[64.1521,25.3334],[64.5436,25.2365],[64.5939,25.2064],[64.659,25.1841],[64.7765,25.3074],[65.0612,25.3111],[65.4062,25.3741],[65.6798,25.3551],[65.8835,25.4196],[66.2349,25.4641],[66.3285,25.4657],[66.4032,25.4466],[66.4677,25.445],[66.4074,25.4852],[66.3566,25.5075],[66.1311,25.4932],[66.1624,25.554],[66.219,25.59],[66.3243,25.6017],[66.4285,25.5752],[66.5339,25.4842],[66.5698,25.3783],[66.6984,25.2265],[66.7101,25.1111],[66.682,24.9291],[66.7032,24.8608],[67.1006,24.792],[67.1715,24.7561],[67.2884,24.3677],[67.3043,24.2629],[67.3096,24.175],[67.3652,24.0914],[67.4276,24.065],[67.4768,24.0184],[67.5038,23.9401],[67.5631,23.8819],[67.6456,23.92],[67.6493,23.867],[67.6684,23.811],[67.8192,23.8279],[67.8599,23.9025],[67.951,23.8284],[68.0013,23.8263],[68.0372,23.848],[68.0679,23.8184],[68.1155,23.7533],[68.1488,23.7972],[68.1653,23.8575],[68.1923,23.7289],[68.2351,23.5972],[68.3436,23.6168],[68.4251,23.7057],[68.497,23.748],[68.6426,23.8083],[68.777,23.8522],[68.6272,23.7543],[68.4537,23.6295],[68.4177,23.5712],[68.5293,23.3638],[68.6404,23.1897],[68.8024,23.0654],[68.8013,23.0638],[68.9908,22.4378],[69.0135,22.4081],[68.9834,22.3854],[68.9701,22.2901],[69.0087,22.197],[69.1919,21.9917],[69.3855,21.8393],[69.5421,21.6784],[69.7485,21.5059],[70.0343,21.1789],[70.1274,21.0948],[70.4851,20.8402],[70.7195,20.7402],[70.8582,20.718],[70.8572,20.7127],[72.6531,19.8385],[72.669,19.8359],[72.6679,19.8311],[72.6759,19.7978],[72.6976,19.757],[72.7267,19.5782],[72.7992,19.5199],[72.7563,19.4506],[72.7638,19.4131],[72.7881,19.3628],[72.987,19.2776],[72.8113,19.2988],[72.7944,19.2522],[72.8029,19.2189],[72.8029,19.0791],[72.8347,18.9754],[72.9008,19.0146],[72.9722,19.1533],[73.0055,19.021],[72.977,18.9273],[72.8987,18.7791],[72.8711,18.6828],[72.8754,18.6426],[72.9172,18.5759],[72.9431,18.3658],[72.9722,18.2595],[72.9939,18.0976],[73.0474,17.9065],[73.1558,17.6218],[73.149,17.5276],[73.2389,17.1985],[73.3374,16.4598],[73.4537,16.1523],[73.476,16.0544],[73.6077,15.8708],[73.6797,15.7089],[73.7326,15.657],[73.8326,15.6591],[73.7718,15.5729],[73.8136,15.5385],[73.8517,15.4824],[73.9321,15.3972],[73.8009,15.3972],[73.8845,15.3062],[73.9491,15.0749],[74.0406,14.9495],[74.0887,14.9025],[74.2231,14.7088],[74.2803,14.6495],[74.3348,14.5754],[74.3459,14.5564],[74.3391,14.5521],[72.4695,13.5642],[71.6578,13.0001],[71.3757,12.4],[71.8345,9.4018],[72.3282,4.6393],[72.5399,0.97],[73.123,-0.6805],[51.3881,10.4088]],[[53.719,12.319],[54.1296,12.3608],[54.2714,12.4466],[54.4138,12.4831],[54.4498,12.5233],[54.5112,12.553],[54.1873,12.6641],[53.9185,12.6593],[53.8249,12.6249],[53.763,12.6365],[53.6386,12.7075],[53.5349,12.7159],[53.4311,12.6635],[53.4042,12.6334],[53.3883,12.6016],[53.3158,12.5334],[53.4994,12.4254],[53.5984,12.3423],[53.719,12.319]]]}}
