{"type":"Feature","properties":{"id":16,"name":"Beaufort Sea","featurecla":"sea","scalerank":1,"wikidataid":"Q131274","source":"Natural Earth 5.2.0-pre ne_10m_geography_marine_polys (public domain)"},"geometry":{"type":"Polygon","coordinates":[[[-122.512,76.3752],[-122.5056,76.3583],[-122.5194,76.353],[-122.7739,76.2276],[-122.8782,76.1646],[-122.9031,76.135],[-122.8803,76.1376],[-124.6863,74.3485],[-124.6964,74.348],[-124.7091,74.3268],[-124.6451,74.3046],[-124.6292,74.2702],[-124.5752,74.2479],[-124.2609,73.9532],[-124.1916,73.9019],[-124.0878,73.8569],[-123.873,73.8278],[-123.7979,73.7855],[-123.7973,73.768],[-124.0302,73.6442],[-124.1143,73.5272],[-124.4244,73.4187],[-124.5937,73.2431],[-124.6466,73.2044],[-124.8038,73.1256],[-124.8366,73.0764],[-124.8171,73.0589],[-124.7366,73.0229],[-124.6435,73.0187],[-124.5884,73.0055],[-124.5705,72.9885],[-124.5609,72.9653],[-124.5652,72.9441],[-124.5826,72.9261],[-124.9308,72.8631],[-124.9694,72.8435],[-125.0001,72.8134],[-125.0155,72.7758],[-125.0149,72.7314],[-125.0303,72.6446],[-125.0187,72.6171],[-124.9848,72.6044],[-124.9869,72.588],[-125.07,72.5514],[-125.1684,72.5223],[-125.306,72.4509],[-125.3827,72.4239],[-125.4383,72.3821],[-125.5124,72.3075],[-125.5754,72.2652],[-125.6272,72.2546],[-125.6468,72.2366],[-125.6335,72.2101],[-125.6129,72.1927],[-125.5838,72.1831],[-125.7627,72.1376],[-125.7685,72.1292],[-125.7606,72.0831],[-125.768,72.054],[-125.7897,72.0249],[-125.8452,71.9789],[-125.8293,71.9657],[-125.8024,71.9635],[-127.9762,70.5713],[-127.991,70.574],[-128.0407,70.5665],[-128.1275,70.5237],[-128.1683,70.4798],[-128.1698,70.4184],[-128.1217,70.3972],[-127.9889,70.3634],[-128.0439,70.3289],[-128.0344,70.3152],[-127.9741,70.293],[-127.6835,70.2602],[-127.765,70.222],[-128.0958,70.1612],[-128.2789,70.1083],[-128.3593,69.9876],[-128.3868,69.9601],[-128.7054,69.8104],[-128.853,69.7511],[-128.9715,69.7125],[-129.0541,69.7008],[-129.1017,69.7172],[-129.1361,69.75],[-129.1578,69.8003],[-129.1382,69.8326],[-128.9387,69.8749],[-128.917,69.895],[-128.8837,69.9633],[-128.8991,69.9659],[-128.9842,69.9337],[-129.0329,69.9051],[-129.1091,69.8818],[-129.2647,69.8553],[-129.5721,69.8267],[-130.1177,69.7199],[-130.3537,69.6559],[-130.5162,69.5696],[-130.6606,69.4812],[-130.875,69.3198],[-130.9141,69.2849],[-130.9707,69.2092],[-130.9818,69.2532],[-130.9861,69.3627],[-131.0136,69.4288],[-131.0633,69.4505],[-131.1131,69.4595],[-131.1618,69.4548],[-131.2089,69.432],[-131.294,69.3637],[-131.3247,69.3611],[-131.303,69.4151],[-131.3427,69.4352],[-131.5629,69.4617],[-131.6316,69.459],[-131.6401,69.5669],[-131.4729,69.5796],[-131.3062,69.5966],[-131.2078,69.6156],[-130.9601,69.632],[-130.8321,69.6516],[-130.7088,69.686],[-130.459,69.7802],[-129.6483,69.9977],[-129.5383,70.0739],[-129.5383,70.1051],[-129.6229,70.1676],[-129.6759,70.193],[-129.7298,70.1919],[-129.8981,70.1062],[-129.9452,70.0908],[-130.0431,70.0951],[-130.1749,70.0861],[-130.2749,70.0982],[-130.3966,70.1294],[-130.4982,70.1432],[-130.6654,70.1268],[-130.9263,70.0516],[-130.9908,70.0183],[-131.0316,69.9797],[-131.1364,69.9067],[-131.2157,69.9009],[-131.3189,69.9241],[-131.4411,69.9178],[-131.5819,69.8823],[-131.9343,69.7532],[-132.1635,69.705],[-132.2323,69.7082],[-132.3339,69.7516],[-132.4884,69.7379],[-132.5376,69.7268],[-132.5704,69.7067],[-132.5683,69.6982],[-132.4789,69.6929],[-132.4127,69.6738],[-132.4037,69.6585],[-132.4524,69.6469],[-132.527,69.6431],[-132.8403,69.6506],[-132.9154,69.6294],[-133.0281,69.5082],[-133.0842,69.4706],[-133.1631,69.4341],[-133.2938,69.4119],[-133.4758,69.4055],[-133.6938,69.3685],[-133.9478,69.3013],[-134.1743,69.2526],[-134.1648,69.2807],[-134.0182,69.3886],[-133.9473,69.4294],[-133.8795,69.5077],[-133.9002,69.5283],[-134.0775,69.558],[-134.1341,69.587],[-134.1897,69.6389],[-134.242,69.6691],[-134.4087,69.6818],[-134.4516,69.6654],[-134.4601,69.6527],[-138.9506,69.6209],[-138.9315,69.6167],[-138.8786,69.5897],[-139.0395,69.5775],[-139.1728,69.5119],[-139.1813,69.5156],[-139.9766,69.622],[-140.4052,69.6024],[-140.8598,69.6352],[-141.0021,69.6506],[-141.081,69.6595],[-141.2895,69.6648],[-141.3387,69.6469],[-141.408,69.6532],[-141.5265,69.7146],[-141.699,69.7702],[-142.297,69.8702],[-142.4219,69.9395],[-142.7076,70.0337],[-143.2183,70.1162],[-143.2765,70.0951],[-143.3569,70.0898],[-143.5665,70.1014],[-143.7464,70.1019],[-144.0639,70.0543],[-144.4169,70.039],[-144.619,69.9823],[-145.1974,70.0088],[-145.2371,70.0342],[-145.4403,70.0511],[-145.8234,70.1601],[-146.0578,70.1564],[-146.2811,70.1861],[-146.7447,70.1919],[-147.0627,70.1702],[-147.7051,70.2173],[-147.7908,70.2401],[-147.8697,70.303],[-148.039,70.3157],[-148.1427,70.3554],[-148.2485,70.357],[-148.3713,70.3152],[-148.4793,70.3178],[-148.6883,70.4163],[-148.8449,70.4253],[-149.2693,70.5009],[-149.4106,70.4914],[-149.5439,70.5131],[-149.8699,70.5094],[-150.1525,70.4438],[-150.2737,70.4343],[-150.4033,70.4438],[-150.5435,70.4903],[-150.6626,70.5099],[-150.979,70.465],[-151.1283,70.4517],[-151.2246,70.4189],[-151.9448,70.4522],[-151.8194,70.5115],[-151.7998,70.538],[-151.7691,70.5602],[-152.1729,70.5565],[-152.2533,70.5681],[-152.2697,70.6147],[-152.3993,70.6205],[-152.4708,70.6539],[-152.4374,70.7332],[-152.2332,70.8105],[-152.3004,70.847],[-152.4914,70.8809],[-152.6708,70.8909],[-152.7851,70.8761],[-153.2328,70.9327],[-153.4979,70.8909],[-153.7016,70.8936],[-153.918,70.8772],[-154.1953,70.801],[-154.3922,70.8385],[-154.5985,70.8481],[-154.7854,70.8941],[-154.7261,70.928],[-154.6737,70.9872],[-154.8176,71.0486],[-154.9436,71.083],[-155.1669,71.0994],[-155.2298,71.0825],[-155.3135,71.0147],[-155.5796,70.8941],[-155.7082,70.857],[-155.8723,70.8348],[-155.9733,70.8422],[-156.0421,70.902],[-156.1464,70.928],[-155.8045,70.9957],[-155.6347,71.0618],[-155.5796,71.1211],[-155.6458,71.183],[-155.8114,71.1883],[-156.4702,71.2915],[-156.5671,71.3418],[-156.4967,71.3793],[-156.3951,71.3968],[-156.4115,71.3994],[-122.512,76.3752]]]}}
