{"type":"Feature","properties":{"id":17,"name":"Caribbean Sea","featurecla":"sea","scalerank":1,"wikidataid":"Q1247","source":"Natural Earth 5.2.0-pre ne_10m_geography_marine_polys (public domain)"},"geometry":{"type":"Polygon","coordinates":[[[-65.6081,18.3976],[-63.5263,18.7151],[-61.6568,18.0801],[-59.7449,14.967],[-59.2089,12.8228],[-60.2455,11.3771],[-60.8456,10.2484],[-60.9868,9.6129],[-61.0133,9.5563],[-61.2345,9.5976],[-61.3091,9.633],[-61.5123,9.8473],[-61.5891,9.8944],[-61.6256,9.8166],[-61.7658,9.814],[-61.7594,9.7542],[-61.7319,9.7023],[-61.7361,9.6314],[-61.7589,9.6764],[-61.8055,9.7055],[-61.8314,9.733],[-61.8372,9.7822],[-61.9086,9.8701],[-62.0166,9.9547],[-62.0769,9.9748],[-62.1198,9.9849],[-62.1552,9.9791],[-62.1473,9.9537],[-62.1701,9.8796],[-62.1531,9.8219],[-62.1722,9.8267],[-62.1902,9.842],[-62.2214,9.8828],[-62.2568,9.8187],[-62.2807,9.7928],[-62.2997,9.7881],[-62.3204,9.7833],[-62.4008,9.9182],[-62.5151,10.1759],[-62.5505,10.2003],[-62.6003,10.2172],[-62.6077,10.1632],[-62.6003,10.1172],[-62.6511,10.0706],[-62.7405,10.0563],[-62.6945,10.1003],[-62.6617,10.1987],[-62.686,10.2897],[-62.7061,10.3331],[-62.7813,10.3992],[-62.813,10.3998],[-62.8432,10.4178],[-62.8432,10.5072],[-62.9135,10.5315],[-62.6934,10.5627],[-62.3801,10.5469],[-62.233,10.6342],[-62.0404,10.6453],[-61.9214,10.6813],[-61.8796,10.7411],[-62.242,10.6998],[-62.7024,10.7496],[-62.9469,10.7072],[-63.0352,10.7199],[-63.1898,10.7093],[-63.4967,10.6432],[-63.8735,10.6638],[-64.2021,10.6326],[-64.2984,10.6352],[-64.2476,10.5426],[-64.1581,10.5791],[-63.8629,10.558],[-63.7316,10.5035],[-63.7793,10.4717],[-63.8338,10.4485],[-64.1883,10.458],[-64.8503,10.0981],[-64.944,10.095],[-65.0233,10.0764],[-65.1292,10.0701],[-65.3176,10.1225],[-65.4895,10.1595],[-65.6557,10.2283],[-65.852,10.258],[-66.0907,10.4728],[-66.0922,10.5172],[-66.106,10.5744],[-66.2473,10.6321],[-66.9892,10.6104],[-67.1331,10.5702],[-67.5813,10.5236],[-67.8718,10.4723],[-68.1401,10.4929],[-68.2343,10.5691],[-68.2962,10.6892],[-68.3248,10.8088],[-68.2719,10.8802],[-68.3248,10.9496],[-68.3433,11.0528],[-68.3984,11.1612],[-68.6164,11.3094],[-68.828,11.4316],[-69.0545,11.4613],[-69.2323,11.5184],[-69.5255,11.4994],[-69.5699,11.4856],[-69.6318,11.4798],[-69.7118,11.5645],[-69.7626,11.6761],[-69.8107,11.837],[-69.8308,11.9957],[-69.8599,12.0539],[-69.9144,12.1148],[-70.0039,12.1778],[-70.1219,12.1365],[-70.2028,12.0984],[-70.2451,12.0037],[-70.2864,11.8862],[-70.2203,11.7301],[-70.2203,11.6809],[-70.1928,11.6248],[-69.9107,11.6719],[-69.8176,11.6719],[-69.7737,11.5433],[-69.7731,11.5412],[-69.8049,11.474],[-69.8853,11.4443],[-70.0483,11.5301],[-70.097,11.52],[-70.1599,11.4279],[-70.2325,11.3729],[-70.5457,11.2613],[-70.8203,11.2083],[-71.2643,10.9993],[-71.4696,10.9644],[-71.4612,10.8358],[-71.5448,10.7786],[-71.5972,10.7247],[-71.5982,10.7247],[-71.5982,10.7263],[-71.6903,10.8353],[-71.731,10.9945],[-71.6755,10.9967],[-71.6416,11.0136],[-71.7914,11.1348],[-71.8353,11.1904],[-71.9469,11.4147],[-71.957,11.483],[-71.957,11.5698],[-71.9078,11.6078],[-71.8686,11.6274],[-71.4882,11.719],[-71.4146,11.755],[-71.3495,11.8148],[-71.2844,11.9185],[-71.1373,12.0465],[-71.1548,12.164],[-71.2622,12.3354],[-71.494,12.4323],[-71.5972,12.4344],[-71.7146,12.4201],[-71.9189,12.309],[-71.9311,12.2693],[-71.9702,12.2381],[-72.0549,12.2386],[-72.1358,12.1884],[-72.1655,12.0603],[-72.275,11.8894],[-72.447,11.8015],[-72.7217,11.7121],[-73.3132,11.2956],[-73.6768,11.2713],[-73.7959,11.2755],[-73.9096,11.3089],[-74.0594,11.3406],[-74.143,11.321],[-74.2001,11.2655],[-74.2192,11.1051],[-74.3002,10.9522],[-74.3504,10.8136],[-74.4007,10.7654],[-74.4605,10.7871],[-74.516,10.8623],[-74.4922,10.9342],[-74.4097,10.967],[-74.3525,10.9744],[-74.3303,10.9967],[-74.4541,10.9893],[-74.8447,11.1099],[-74.9214,11.0575],[-75.123,10.8702],[-75.2479,10.7834],[-75.2807,10.7273],[-75.4458,10.6109],[-75.4929,10.5278],[-75.5538,10.3278],[-75.6707,10.1966],[-75.7083,10.1436],[-75.6421,10.1722],[-75.5585,10.2362],[-75.5384,10.205],[-75.5961,10.1257],[-75.5929,9.9928],[-75.6368,9.8341],[-75.6802,9.7298],[-75.6352,9.6579],[-75.6035,9.5383],[-75.6395,9.4504],[-75.7554,9.4155],[-75.9051,9.4309],[-76.0273,9.3658],[-76.1353,9.2658],[-76.2766,8.989],[-76.6893,8.6948],[-76.8021,8.6408],[-76.8878,8.6197],[-76.9206,8.5736],[-77.2614,8.4937],[-77.3439,8.6366],[-77.3741,8.6583],[-77.6974,8.8895],[-77.8307,9.0684],[-78.0826,9.2361],[-78.5044,9.4065],[-78.697,9.4346],[-78.9314,9.4282],[-78.9748,9.4531],[-79.0166,9.5102],[-79.1124,9.5367],[-79.2119,9.5319],[-79.3553,9.569],[-79.5775,9.5981],[-79.6521,9.5584],[-79.7231,9.4796],[-79.8548,9.378],[-79.9151,9.3615],[-79.9781,9.3435],[-80.1273,9.2097],[-80.547,9.0821],[-80.6766,9.0218],[-80.8385,8.8874],[-81.0629,8.8128],[-81.2037,8.7869],[-81.355,8.7805],[-81.5455,8.8271],[-81.7122,9.0192],[-81.8027,9.0742],[-81.8424,9.1186],[-81.8942,9.1403],[-81.9,9.1113],[-81.8313,9.0456],[-81.7805,8.9573],[-81.8265,8.944],[-81.8942,8.9562],[-82.0779,8.935],[-82.1334,8.98],[-82.244,9.0313],[-82.2355,9.1414],[-82.2006,9.1679],[-82.1879,9.1917],[-82.2048,9.2155],[-82.2726,9.1906],[-82.3398,9.2091],[-82.3752,9.3372],[-82.3631,9.3822],[-82.371,9.4288],[-82.5001,9.5235],[-82.6102,9.6161],[-82.7785,9.6695],[-82.8102,9.7346],[-82.8663,9.7711],[-83.0288,9.9913],[-83.1245,10.0415],[-83.3468,10.3156],[-83.4484,10.4659],[-83.5754,10.7347],[-83.5881,10.8152],[-83.6172,10.8776],[-83.6421,10.9173],[-83.714,10.9337],[-83.768,11.0104],[-83.832,11.1305],[-83.868,11.2999],[-83.859,11.3539],[-83.8294,11.4279],[-83.7765,11.5041],[-83.7447,11.5666],[-83.6516,11.6422],[-83.6643,11.7237],[-83.7045,11.8248],[-83.7532,11.8211],[-83.7929,11.8359],[-83.8289,11.8608],[-83.813,11.8963],[-83.7696,11.9317],[-83.7733,11.9772],[-83.7669,12.0592],[-83.7156,12.0576],[-83.6976,12.0301],[-83.6802,12.0243],[-83.669,12.2275],[-83.6511,12.2873],[-83.6675,12.3371],[-83.7162,12.4069],[-83.7542,12.5021],[-83.7183,12.5524],[-83.6818,12.5683],[-83.6251,12.6127],[-83.5934,12.7133],[-83.578,12.6672],[-83.5912,12.5794],[-83.6235,12.5143],[-83.6272,12.4593],[-83.596,12.3963],[-83.5653,12.3937],[-83.5108,12.4116],[-83.5177,12.5143],[-83.541,12.5963],[-83.5145,12.944],[-83.5675,13.3202],[-83.4939,13.7388],[-83.4124,13.9965],[-83.3468,14.0568],[-83.2806,14.1537],[-83.2118,14.2669],[-83.1875,14.34],[-83.2992,14.749],[-83.3404,14.7654],[-83.3748,14.7659],[-83.4135,14.8252],[-83.3891,14.8707],[-83.3441,14.9019],[-83.3066,14.8903],[-83.3018,14.8019],[-83.2801,14.813],[-83.2161,14.9326],[-83.1854,14.9564],[-83.1573,14.9929],[-83.2256,15.0421],[-83.2907,15.0792],[-83.369,15.2401],[-83.6463,15.3686],[-83.6759,15.3655],[-83.551,15.294],[-83.4981,15.2221],[-83.5357,15.2194],[-83.5897,15.266],[-83.6722,15.2607],[-83.7162,15.2194],[-83.7606,15.2205],[-83.8019,15.2893],[-83.8707,15.3528],[-83.9273,15.394],[-84.013,15.4142],[-84.0479,15.3977],[-84.095,15.4009],[-84.1051,15.43],[-84.1114,15.4925],[-84.0828,15.511],[-83.9728,15.5194],[-83.7653,15.4057],[-83.7754,15.4369],[-84.2612,15.8227],[-84.5194,15.8729],[-84.4903,15.847],[-84.4257,15.8296],[-84.44,15.8126],[-84.4924,15.7941],[-84.5596,15.802],[-84.6459,15.8835],[-84.974,15.9899],[-85.0481,15.974],[-85.1634,15.9179],[-85.4836,15.8994],[-85.7841,16.0031],[-85.9857,16.0243],[-85.954,16.002],[-85.9365,15.9534],[-86.0683,15.9057],[-86.181,15.8851],[-86.3567,15.783],[-86.481,15.801],[-86.7573,15.7941],[-86.907,15.7623],[-88.2887,17.3128],[-88.267,17.3927],[-88.2035,17.5165],[-88.2717,17.6096],[-88.2215,17.7515],[-88.2077,17.8462],[-88.0971,18.1219],[-88.0855,18.2261],[-88.1305,18.3505],[-88.2474,18.3547],[-88.2956,18.3442],[-88.349,18.359],[-88.2956,18.4722],[-88.276,18.5145],[-88.1955,18.6426],[-88.1966,18.7198],[-88.1268,18.7733],[-88.0738,18.8347],[-88.0315,18.8389],[-88.0108,18.7267],[-88.0564,18.5246],[-88.0389,18.4838],[-87.9595,18.441],[-87.8817,18.2738],[-87.8532,18.269],[-87.804,18.3568],[-87.7616,18.4463],[-87.7336,18.6553],[-87.6531,18.7987],[-87.5934,19.0464],[-87.5013,19.2877],[-87.5092,19.3173],[-87.551,19.321],[-87.6219,19.2506],[-87.6558,19.258],[-87.6584,19.3522],[-87.6277,19.3829],[-87.5669,19.4157],[-87.5129,19.4258],[-87.4827,19.4437],[-87.4346,19.502],[-87.4246,19.5835],[-87.4695,19.5866],[-87.5119,19.575],[-87.5875,19.5729],[-87.6452,19.5538],[-87.6902,19.5935],[-87.6875,19.6369],[-87.5859,19.7792],[-87.5071,19.8274],[-87.4664,19.8242],[-87.4415,19.8613],[-87.4319,19.8983],[-87.4658,19.9983],[-87.4674,20.102],[-87.4214,20.2311],[-87.2213,20.5074],[-87.0594,20.6312],[-86.9261,20.7863],[-86.8647,20.8852],[-86.8155,21.0053],[-86.7715,21.1503],[-86.8038,21.2001],[-86.8171,21.2344],[-86.8239,21.4218],[-86.9118,21.4631],[-87.0166,21.5731],[-84.8872,21.8679],[-84.8846,21.8673],[-84.8872,21.8568],[-84.8385,21.8282],[-84.7856,21.8425],[-84.6824,21.8991],[-84.6268,21.9203],[-84.5602,21.933],[-84.5014,21.9303],[-84.4908,21.8541],[-84.5025,21.7763],[-84.4491,21.7917],[-84.2405,21.8986],[-84.1384,21.9293],[-84.031,21.943],[-83.9982,21.9801],[-83.9633,22.0922],[-83.9326,22.1499],[-83.9008,22.17],[-83.6865,22.1801],[-83.6431,22.1891],[-83.6013,22.2086],[-83.5442,22.2092],[-83.486,22.1869],[-83.3796,22.2229],[-83.2923,22.3034],[-83.1896,22.3552],[-83.1436,22.3864],[-83.1071,22.4298],[-83.0092,22.514],[-82.861,22.595],[-82.7864,22.6584],[-82.7383,22.6891],[-81.9032,22.6791],[-81.8387,22.6722],[-81.79,22.6569],[-81.7455,22.633],[-81.7027,22.5918],[-81.6831,22.5346],[-81.7106,22.4965],[-81.7572,22.4669],[-81.9731,22.4219],[-82.0779,22.3875],[-81.9725,22.2907],[-81.8492,22.2134],[-81.8164,22.2002],[-81.4413,22.1838],[-81.355,22.1039],[-81.2846,22.1092],[-81.2222,22.143],[-81.1994,22.2028],[-81.1857,22.2679],[-81.1412,22.2071],[-81.1169,22.134],[-81.083,22.0981],[-81.0359,22.0737],[-80.9618,22.0531],[-80.4988,22.0637],[-80.4851,22.0869],[-80.4856,22.1235],[-80.393,22.0335],[-80.3104,21.9335],[-80.2316,21.8721],[-80.1384,21.8292],[-79.9104,21.7424],[-79.3574,21.5853],[-79.2743,21.5625],[-79.1891,21.553],[-78.8229,21.6191],[-78.7277,21.5927],[-78.6367,21.5154],[-78.5764,21.4138],[-78.5372,21.2969],[-78.4906,21.0535],[-78.4541,21.0111],[-78.4065,20.9741],[-78.3139,20.9275],[-78.1165,20.7619],[-77.9974,20.7154],[-77.8567,20.7137],[-77.5926,20.69],[-77.4672,20.6894],[-77.3476,20.6725],[-77.2296,20.6439],[-77.2053,20.6111],[-77.1889,20.5598],[-77.1079,20.4915],[-77.0931,20.4529],[-77.1037,20.4074],[-77.1492,20.347],[-77.2132,20.3005],[-77.554,20.0819],[-77.7149,19.8555],[-77.463,19.8613],[-77.2122,19.8935],[-76.9994,19.893],[-76.8904,19.9211],[-76.7798,19.9401],[-76.5158,19.9565],[-76.2528,19.9872],[-76.1586,19.9898],[-75.7649,19.9602],[-75.6575,19.9322],[-75.5522,19.8909],[-75.2907,19.893],[-75.2193,19.9237],[-75.1775,19.9592],[-75.1516,20.0084],[-75.1219,19.9539],[-75.1241,19.9248],[-75.1167,19.9015],[-75.0034,19.9285],[-74.9553,19.9581],[-74.8499,20.0026],[-74.6346,20.0581],[-74.4123,20.0756],[-74.2531,20.0798],[-74.2176,20.1174],[-74.1536,20.1687],[-74.1499,20.1825],[-73.3693,19.8248],[-73.4006,19.8073],[-73.4381,19.7221],[-73.3963,19.6586],[-73.3154,19.6374],[-73.0529,19.611],[-72.8635,19.5263],[-72.7031,19.4411],[-72.7418,19.3416],[-72.7682,19.2406],[-72.7412,19.1315],[-72.8111,19.0718],[-72.6492,18.8939],[-72.465,18.7437],[-72.3475,18.6749],[-72.347,18.6235],[-72.3761,18.5743],[-72.4179,18.5585],[-72.6179,18.5505],[-72.6597,18.5156],[-72.6957,18.468],[-72.7396,18.442],[-72.7894,18.4346],[-72.9174,18.4558],[-73.5916,18.5225],[-73.6868,18.5653],[-73.8625,18.5754],[-73.9758,18.6013],[-74.1001,18.641],[-74.2277,18.6627],[-74.2843,18.6569],[-74.3875,18.6246],[-74.478,18.45],[-74.46,18.3928],[-74.4192,18.3463],[-74.1948,18.269],[-74.0853,18.215],[-73.9895,18.1431],[-73.8848,18.042],[-73.8393,18.0584],[-73.825,18.1219],[-73.7472,18.1902],[-73.644,18.2288],[-73.5149,18.2452],[-73.3852,18.251],[-73.2725,18.2335],[-73.1603,18.2055],[-72.8767,18.1515],[-72.755,18.1563],[-72.6333,18.1764],[-72.592,18.187],[-72.5534,18.2081],[-72.5036,18.2198],[-72.0597,18.2288],[-72.002,18.2119],[-71.9459,18.1859],[-71.8528,18.1193],[-71.7681,18.0393],[-71.7125,18.0055],[-71.6739,17.9541],[-71.6575,17.8885],[-71.6585,17.8213],[-71.6316,17.7737],[-71.5691,17.7573],[-71.5183,17.725],[-71.4389,17.6356],[-71.3956,17.6462],[-71.3585,17.6943],[-71.2675,17.8494],[-71.1061,18.07],[-71.0828,18.1282],[-71.0823,18.2245],[-71.0701,18.2505],[-71.0278,18.2732],[-70.9241,18.2923],[-70.759,18.3457],[-70.6447,18.3362],[-70.5653,18.2674],[-70.4801,18.2171],[-70.1832,18.2515],[-70.1414,18.2769],[-70.0631,18.3457],[-70.0181,18.3738],[-69.8964,18.4177],[-69.7705,18.4436],[-69.6446,18.4362],[-69.5197,18.4156],[-69.3969,18.4203],[-69.2747,18.4399],[-69.0725,18.3992],[-68.9349,18.4082],[-68.8196,18.3394],[-68.7783,18.2664],[-68.7211,18.2182],[-68.6873,18.215],[-68.6587,18.2219],[-68.6121,18.306],[-68.564,18.3553],[-68.4931,18.3791],[-68.4449,18.4177],[-68.3592,18.5384],[-68.3497,18.5727],[-67.1956,18.4325],[-67.185,18.4219],[-67.2135,18.3933],[-67.2638,18.3648],[-67.239,18.3209],[-67.204,18.2833],[-67.1723,18.224],[-67.1744,18.1526],[-67.1966,17.9944],[-67.1426,17.9668],[-67.0135,17.9679],[-66.9612,17.9536],[-66.8998,17.9478],[-66.8379,17.9552],[-66.7722,17.9864],[-66.5987,17.978],[-66.5108,17.987],[-66.4087,17.9505],[-66.3256,17.9642],[-66.2859,17.9499],[-66.2452,17.9473],[-66.1356,17.9494],[-65.9705,17.9743],[-65.834,18.0573],[-65.7822,18.1288],[-65.7186,18.1865],[-65.6208,18.2426],[-65.6287,18.3812],[-65.6081,18.3976]],[[-59.6115,13.1022],[-59.5221,13.062],[-59.4935,13.0821],[-59.4274,13.153],[-59.4877,13.1969],[-59.5914,13.3176],[-59.6465,13.3033],[-59.6428,13.1504],[-59.6115,13.1022]],[[-61.1414,14.6522],[-61.1043,14.6215],[-61.0112,14.6019],[-61.0906,14.5299],[-61.089,14.5098],[-61.0636,14.4669],[-60.8995,14.4738],[-60.862,14.4262],[-60.8366,14.4373],[-60.8265,14.4945],[-60.8699,14.6135],[-60.889,14.6447],[-60.9339,14.686],[-60.9186,14.7352],[-60.9271,14.7553],[-60.9524,14.7564],[-61.0271,14.8263],[-61.1276,14.8754],[-61.181,14.8718],[-61.2133,14.8485],[-61.2197,14.8045],[-61.1414,14.6522]],[[-60.9514,13.7176],[-60.8953,13.8219],[-60.8868,14.0113],[-60.908,14.0934],[-60.9445,14.0727],[-60.9969,14.0108],[-61.0636,13.9156],[-61.0731,13.8658],[-61.0604,13.7833],[-60.9514,13.7176]],[[-61.5917,10.7479],[-61.651,10.7178],[-61.6351,10.6993],[-61.5409,10.6643],[-61.4991,10.6389],[-61.4784,10.6035],[-61.4647,10.5389],[-61.4991,10.2685],[-61.5287,10.2532],[-61.6324,10.2437],[-61.6615,10.1918],[-61.906,10.069],[-61.7716,10.0849],[-61.5964,10.0648],[-61.1742,10.078],[-61.0122,10.1341],[-61.0043,10.168],[-60.9996,10.2616],[-60.9683,10.3236],[-61.0165,10.3865],[-61.0376,10.4823],[-61.0191,10.558],[-61.0339,10.6696],[-60.9969,10.7162],[-60.9175,10.84],[-61.0784,10.8321],[-61.1737,10.8035],[-61.37,10.7966],[-61.4647,10.7644],[-61.5917,10.7479]],[[-61.5007,16.3603],[-61.5398,16.2994],[-61.5224,16.228],[-61.4446,16.2195],[-61.3271,16.2307],[-61.1726,16.2561],[-61.3557,16.363],[-61.3959,16.4132],[-61.4065,16.4682],[-61.471,16.5069],[-61.5107,16.4778],[-61.5287,16.4339],[-61.5007,16.3603]],[[-61.4155,15.3999],[-61.3753,15.2273],[-61.2816,15.249],[-61.2509,15.3734],[-61.2774,15.5269],[-61.3202,15.5851],[-61.4583,15.6332],[-61.47,15.6036],[-61.4811,15.5253],[-61.4155,15.3999]],[[-61.7483,16.3555],[-61.7674,16.3407],[-61.7944,16.301],[-61.7594,16.0618],[-61.7102,15.9761],[-61.6705,15.9618],[-61.5896,16.0068],[-61.5637,16.0475],[-61.5753,16.2269],[-61.5525,16.2709],[-61.597,16.292],[-61.6414,16.3259],[-61.7483,16.3555]],[[-64.0073,11.0686],[-64.0285,11.002],[-64.1126,11.0057],[-64.1846,11.0432],[-64.2137,11.0861],[-64.2497,11.0803],[-64.3487,11.0517],[-64.4026,10.9818],[-64.3624,10.9617],[-64.219,10.9416],[-64.1608,10.9586],[-64.101,10.9014],[-64.0544,10.8845],[-63.9936,10.8813],[-63.9179,10.8877],[-63.8269,10.976],[-63.8174,11.0004],[-63.8496,11.1311],[-63.893,11.167],[-64.0073,11.0686]],[[-68.9953,12.1418],[-68.8032,12.0455],[-68.7513,12.0598],[-68.8275,12.1587],[-69.0132,12.2312],[-69.0768,12.3418],[-69.1185,12.373],[-69.1588,12.3804],[-69.154,12.2984],[-68.9953,12.1418]],[[-72.8222,18.7072],[-72.8047,18.7775],[-72.919,18.8617],[-73.0693,18.932],[-73.1704,18.9675],[-73.2762,18.9543],[-73.2852,18.8966],[-73.0778,18.7908],[-72.8222,18.7072]],[[-78.0943,18.4447],[-78.2165,18.4479],[-78.2525,18.4262],[-78.326,18.35],[-78.3393,18.287],[-78.2943,18.2182],[-78.0737,18.1912],[-78.0445,18.1737],[-77.963,18.0478],[-77.8815,18.0192],[-77.8493,17.9875],[-77.7683,17.8774],[-77.6709,17.8599],[-77.4641,17.8562],[-77.3614,17.8335],[-77.2799,17.7795],[-77.2047,17.715],[-77.1582,17.8451],[-77.1196,17.8801],[-77.0714,17.9012],[-77.0359,17.8541],[-76.9444,17.8488],[-76.8963,17.9039],[-76.8534,17.9737],[-76.7946,17.9764],[-76.7481,17.9647],[-76.7745,17.9404],[-76.6692,17.9277],[-76.6253,17.9012],[-76.5248,17.8663],[-76.4158,17.8684],[-76.3015,17.8801],[-76.211,17.9134],[-76.2327,17.9706],[-76.3496,18.152],[-76.701,18.2574],[-76.7931,18.3045],[-76.9084,18.3902],[-76.9592,18.4018],[-77.0137,18.4029],[-77.1397,18.4214],[-77.2614,18.4574],[-77.3545,18.4664],[-77.4513,18.4669],[-77.8736,18.5225],[-77.9271,18.5008],[-77.9784,18.468],[-78.0943,18.4447]],[[-82.9737,21.5922],[-83.0071,21.5657],[-83.0547,21.5493],[-83.1129,21.5736],[-83.1801,21.6229],[-83.1838,21.5932],[-83.1415,21.5318],[-83.0674,21.4694],[-82.9594,21.4414],[-82.8531,21.444],[-82.6546,21.5186],[-82.562,21.5715],[-82.5678,21.6218],[-82.6292,21.7668],[-82.6816,21.8213],[-82.7144,21.8901],[-82.7557,21.9097],[-82.9912,21.943],[-83.078,21.8335],[-83.0827,21.7911],[-82.9737,21.5922]],[[-86.9911,20.2719],[-86.9398,20.3031],[-86.8086,20.4682],[-86.7551,20.5518],[-86.7631,20.5788],[-86.8287,20.5587],[-86.9277,20.5513],[-86.9779,20.4899],[-87.0192,20.3825],[-86.9911,20.2719]]]}}
