{"type":"Feature","properties":{"id":18,"name":"Gulf of Mexico","featurecla":"gulf","scalerank":1,"wikidataid":"Q12630","source":"Natural Earth 5.2.0-pre ne_10m_geography_marine_polys (public domain)"},"geometry":{"type":"Polygon","coordinates":[[[-84.8872,21.8679],[-87.0166,21.5731],[-87.0346,21.5922],[-87.1282,21.6213],[-87.2166,21.5826],[-87.2759,21.5715],[-87.3685,21.5736],[-87.3864,21.5514],[-87.296,21.525],[-87.2494,21.5265],[-87.2108,21.544],[-87.188,21.5467],[-87.1642,21.5144],[-87.1875,21.4773],[-87.2182,21.4578],[-87.251,21.4472],[-87.4806,21.4726],[-87.6886,21.5361],[-87.7738,21.5493],[-88.0066,21.6038],[-88.1315,21.616],[-88.1712,21.6033],[-88.1717,21.5916],[-88.1849,21.5789],[-88.2511,21.5668],[-88.4665,21.5694],[-88.585,21.5387],[-88.7469,21.4482],[-88.8787,21.4138],[-89.8196,21.2747],[-89.8878,21.2525],[-90.1831,21.1207],[-90.353,21.0095],[-97.1951,20.8],[-97.357,21.1038],[-97.5004,21.398],[-97.5009,21.4318],[-97.5147,21.4779],[-97.5665,21.5075],[-97.5978,21.5361],[-97.6375,21.6038],[-97.7539,22.0266],[-97.5904,21.762],[-97.4565,21.6123],[-97.3835,21.5668],[-97.3851,21.5239],[-97.4242,21.4652],[-97.4343,21.3567],[-97.4094,21.2726],[-97.3877,21.3741],[-97.3369,21.4377],[-97.3147,21.5641],[-97.3602,21.6149],[-97.4845,21.7049],[-97.5846,21.8086],[-97.7634,22.106],[-97.7824,22.2795],[-97.8422,22.5103],[-97.8417,22.5568],[-97.8576,22.6246],[-97.8168,22.7764],[-97.7581,22.886],[-97.7454,22.9426],[-97.766,23.3061],[-97.7274,23.7321],[-97.7428,23.7607],[-97.7285,23.7882],[-97.7168,23.9808],[-97.6676,24.3899],[-97.5073,25.0143],[-97.4242,25.2328],[-97.2247,25.5853],[-97.1644,25.7551],[-97.1464,25.9615],[-97.14,26.0298],[-97.1506,26.0652],[-97.2141,26.0679],[-97.4025,26.3965],[-97.4353,26.4859],[-97.466,26.6918],[-97.4941,26.7595],[-97.5263,26.9077],[-97.5549,26.9675],[-97.5163,27.0532],[-97.4755,27.1177],[-97.4745,27.1728],[-97.4851,27.2373],[-97.6925,27.2871],[-97.7687,27.4574],[-97.6819,27.395],[-97.5237,27.314],[-97.4798,27.3167],[-97.439,27.3283],[-97.3803,27.4194],[-97.2887,27.6707],[-97.4316,27.8374],[-97.4046,27.8591],[-97.3739,27.8702],[-97.2517,27.8543],[-97.1713,27.8797],[-97.0728,27.9861],[-97.0342,28.094],[-97.1411,28.0607],[-97.1549,28.1025],[-97.1564,28.1443],[-97.0961,28.1581],[-97.0157,28.1634],[-96.9665,28.1893],[-96.9331,28.2242],[-96.9199,28.1856],[-96.8913,28.1575],[-96.8395,28.1946],[-96.8067,28.22],[-96.7945,28.3211],[-96.7733,28.4216],[-96.6765,28.3412],[-96.5617,28.3671],[-96.4887,28.4063],[-96.4209,28.4576],[-96.4754,28.4793],[-96.5246,28.4888],[-96.64,28.7089],[-96.6087,28.7232],[-96.576,28.7158],[-96.5596,28.6846],[-96.5262,28.6481],[-96.449,28.5946],[-96.3743,28.6311],[-96.3733,28.6571],[-96.2754,28.6549],[-96.1151,28.6222],[-96.0108,28.6322],[-96.1325,28.5608],[-96.2346,28.4888],[-96.1807,28.502],[-96.0203,28.5867],[-95.8537,28.6401],[-95.7325,28.7116],[-95.6557,28.7444],[-95.3875,28.8984],[-95.2737,28.964],[-95.152,29.0793],[-95.1393,29.1677],[-95.0181,29.2593],[-94.8884,29.3704],[-94.9361,29.4603],[-94.9927,29.5307],[-95.0229,29.7022],[-94.9821,29.7128],[-94.9297,29.6799],[-94.89,29.6768],[-94.8323,29.7524],[-94.7419,29.7498],[-94.7244,29.6551],[-94.7784,29.5477],[-94.7329,29.5355],[-94.6053,29.5678],[-94.5265,29.5482],[-94.7503,29.418],[-94.7598,29.3842],[-94.5746,29.4847],[-94.0994,29.6704],[-93.8904,29.6895],[-93.8862,29.7228],[-93.9465,29.8149],[-93.8412,29.98],[-93.7941,29.9773],[-93.7693,29.9525],[-93.773,29.9138],[-93.8089,29.8509],[-93.8481,29.8186],[-93.8841,29.8101],[-93.8656,29.7556],[-93.8264,29.7249],[-93.7661,29.7524],[-93.6946,29.7699],[-93.3882,29.7768],[-93.283,29.7895],[-93.1755,29.7789],[-92.9522,29.7143],[-92.7914,29.6344],[-92.6712,29.5969],[-92.2606,29.5566],[-92.0839,29.5926],[-92.059,29.617],[-92.114,29.6678],[-92.1357,29.6995],[-92.0802,29.7609],[-92.0172,29.8001],[-91.8934,29.8361],[-91.8246,29.7509],[-91.6727,29.7461],[-91.5647,29.6054],[-91.5139,29.5556],[-91.3309,29.5138],[-91.2779,29.563],[-91.2488,29.5641],[-91.2605,29.5053],[-91.2441,29.4572],[-91.1552,29.3508],[-91.1509,29.318],[-91.2377,29.3312],[-91.2827,29.3206],[-91.2901,29.2889],[-91.0028,29.1936],[-90.7509,29.1307],[-90.6773,29.1508],[-90.5863,29.2714],[-90.5027,29.3],[-90.3794,29.2952],[-90.3016,29.2556],[-90.2466,29.1312],[-90.2127,29.1047],[-90.136,29.136],[-90.1016,29.182],[-90.0826,29.2397],[-90.0735,29.2968],[-90.0529,29.337],[-90.0524,29.4313],[-90.1005,29.4635],[-90.1413,29.4799],[-90.1609,29.5043],[-90.1593,29.5371],[-89.8772,29.4582],[-89.8185,29.4159],[-89.7973,29.3805],[-89.7926,29.3334],[-89.7169,29.3127],[-89.6725,29.3164],[-89.6201,29.3027],[-89.5772,29.2677],[-89.5216,29.2492],[-89.4433,29.1942],[-89.3893,29.1053],[-89.3534,29.0703],[-89.3761,28.9815],[-89.3306,28.9989],[-89.2359,29.0809],[-89.1951,29.0539],[-89.1555,29.0164],[-89.1332,29.046],[-89.1094,29.0989],[-89.0216,29.1428],[-89.0157,29.2026],[-89.0655,29.218],[-89.1168,29.2482],[-89.1809,29.3355],[-89.2459,29.3334],[-89.5137,29.4201],[-89.5804,29.4863],[-89.6746,29.5387],[-89.7211,29.6191],[-89.6894,29.6461],[-89.683,29.6746],[-89.6619,29.6837],[-89.6206,29.6741],[-89.5592,29.698],[-89.591,29.7255],[-89.5306,29.772],[-89.4555,29.7842],[-89.3544,29.8202],[-89.3629,29.8398],[-89.3576,29.9212],[-89.401,29.9779],[-89.4142,30.0107],[-89.401,30.0461],[-89.4946,30.0583],[-89.5634,30.0022],[-89.5894,29.9149],[-89.6317,29.9038],[-89.7439,29.9297],[-89.8153,30.0075],[-89.7772,30.0456],[-89.7148,30.0784],[-89.665,30.1171],[-89.6677,30.1446],[-89.7375,30.1721],[-89.728,30.2049],[-89.5883,30.1657],[-89.4433,30.2234],[-89.3205,30.3451],[-89.2634,30.3435],[-89.2237,30.3324],[-89.0539,30.3684],[-88.9052,30.415],[-88.8729,30.4165],[-88.8199,30.4065],[-88.6919,30.3552],[-88.3501,30.3737],[-88.249,30.3631],[-88.1352,30.3668],[-88.1167,30.4155],[-88.0786,30.5663],[-88.0326,30.6811],[-88.0114,30.6944],[-87.9489,30.6271],[-87.923,30.5615],[-87.9241,30.4499],[-87.8976,30.4139],[-87.8569,30.4076],[-87.8135,30.3467],[-87.7902,30.2917],[-87.904,30.2589],[-87.9849,30.2546],[-88.0061,30.2308],[-87.6224,30.2647],[-87.5134,30.3679],[-87.4484,30.3943],[-87.4436,30.3636],[-87.5008,30.3091],[-87.4759,30.2943],[-87.2812,30.3393],[-87.251,30.3964],[-87.1848,30.4536],[-87.1705,30.5388],[-87.1187,30.5388],[-87.0721,30.5007],[-87.034,30.5541],[-86.9975,30.5705],[-86.9652,30.5018],[-86.9859,30.4308],[-87.124,30.3964],[-87.1637,30.3742],[-87.2012,30.3393],[-86.9673,30.3721],[-86.6795,30.4028],[-86.6059,30.4245],[-86.5234,30.4673],[-86.4477,30.4954],[-86.3742,30.4822],[-86.2572,30.4933],[-86.1657,30.4642],[-86.1376,30.4414],[-86.1239,30.406],[-86.2403,30.4293],[-86.4546,30.3991],[-86.1752,30.3324],[-85.8556,30.2144],[-85.791,30.1721],[-85.7556,30.1668],[-85.7428,30.2012],[-85.7407,30.2446],[-85.6756,30.2795],[-85.6037,30.2869],[-85.6407,30.2366],[-85.6635,30.1895],[-85.61,30.1483],[-85.6233,30.1171],[-85.6756,30.1218],[-85.5042,29.9758],[-85.3534,29.8757],[-85.3068,29.7979],[-85.3148,29.7583],[-85.3365,29.7403],[-85.3835,29.7853],[-85.4137,29.8424],[-85.4137,29.7678],[-85.3762,29.6953],[-85.319,29.6799],[-85.1862,29.708],[-85.0295,29.7212],[-84.9692,29.745],[-84.8888,29.7778],[-84.8004,29.7731],[-84.5501,29.898],[-84.4538,29.9101],[-84.3829,29.9075],[-84.3585,29.9292],[-84.3755,29.9821],[-84.3554,30.0292],[-84.3099,30.0647],[-84.0442,30.1038],[-83.6944,29.926],[-83.2907,29.4519],[-82.7695,29.0513],[-82.6515,28.8873],[-82.644,28.8121],[-82.6504,28.7698],[-82.6605,28.4856],[-82.7483,28.2369],[-82.8435,27.8459],[-82.8076,27.7765],[-82.7753,27.7342],[-82.743,27.7093],[-82.7155,27.7331],[-82.661,27.7183],[-82.6261,27.7459],[-82.6107,27.7771],[-82.5964,27.8734],[-82.634,27.8977],[-82.6753,27.9639],[-82.6361,27.9813],[-82.5795,27.9586],[-82.5207,27.8781],[-82.498,27.8681],[-82.4456,27.903],[-82.4059,27.8628],[-82.4006,27.8353],[-82.4303,27.7713],[-82.5207,27.6781],[-82.6361,27.5247],[-82.6869,27.5151],[-82.7144,27.4998],[-82.6552,27.449],[-82.6202,27.4008],[-82.4414,27.0595],[-82.3541,26.9357],[-82.29,26.8706],[-82.2429,26.8489],[-82.1805,26.8399],[-82.1689,26.8743],[-82.181,26.9368],[-82.0958,26.9632],[-82.0133,26.9616],[-82.0667,26.8918],[-82.0779,26.7044],[-82.0397,26.552],[-82.0064,26.5399],[-81.9704,26.552],[-81.9207,26.6314],[-81.8815,26.6648],[-81.8286,26.687],[-81.8953,26.597],[-81.9588,26.4901],[-81.9313,26.4674],[-81.8667,26.4351],[-81.8117,26.1462],[-81.7154,25.9832],[-81.5682,25.8916],[-81.3651,25.8308],[-81.345,25.7318],[-81.2269,25.5831],[-81.1132,25.3672],[-81.0571,25.3381],[-80.9803,25.3117],[-80.9407,25.2641],[-80.9655,25.2244],[-81.0978,25.3191],[-81.1359,25.3096],[-81.1587,25.2688],[-81.1672,25.2286],[-81.1105,25.1381],[-81.0121,25.1334],[-80.8623,25.1762],[-80.7364,25.1561],[-80.5576,25.2323],[-80.4845,25.2296],[-80.3671,25.3313],[-80.33,25.4223],[-80.3189,25.4175],[-79.8956,24.9593],[-80.4247,24.465],[-81.8006,24.0771],[-82.9997,24.2184],[-83.0351,23.0188],[-83.033,22.9998],[-83.0679,22.996],[-83.1774,22.9828],[-83.2579,22.9675],[-84.0448,22.6659],[-84.122,22.6187],[-84.2813,22.4743],[-84.3612,22.379],[-84.3829,22.2557],[-84.3263,22.0742],[-84.3734,22.0361],[-84.4332,22.0314],[-84.494,22.0414],[-84.5326,22.0314],[-84.8771,21.8943],[-84.8846,21.8673],[-84.8872,21.8679]],[[-97.1845,26.1129],[-97.1707,26.1594],[-97.2025,26.2996],[-97.3512,26.8013],[-97.3861,27.1966],[-97.4073,27.1003],[-97.402,26.8203],[-97.2676,26.3298],[-97.1845,26.1129]]]}}
