{"type":"Feature","properties":{"id":19,"name":"Labrador Sea","featurecla":"sea","scalerank":1,"wikidataid":"Q184189","source":"Natural Earth 5.2.0-pre ne_10m_geography_marine_polys (public domain)"},"geometry":{"type":"Polygon","coordinates":[[[-43.9472,59.7784],[-52.7313,47.7838],[-52.743,47.7674],[-52.7451,47.769],[-52.7826,47.7695],[-52.8171,47.7277],[-52.8731,47.6192],[-52.9451,47.5525],[-53.0568,47.4832],[-53.1224,47.4552],[-53.1578,47.488],[-53.17,47.5123],[-53.1753,47.6531],[-53.1536,47.7346],[-53.1107,47.8118],[-52.998,47.9759],[-52.9552,48.0293],[-52.8721,48.0939],[-52.8663,48.113],[-52.8832,48.1309],[-52.9208,48.1473],[-53.0853,48.0685],[-53.2827,47.9976],[-53.5039,47.7441],[-53.6039,47.6621],[-53.6722,47.6483],[-53.7653,47.6499],[-53.8055,47.6822],[-53.8378,47.7272],[-53.8637,47.787],[-53.8616,47.7992],[-53.6949,47.9214],[-53.6574,47.9685],[-53.6383,48.0145],[-53.6531,48.0256],[-53.7934,48.0098],[-53.8695,48.0198],[-53.7584,48.0425],[-53.7103,48.0569],[-53.7045,48.068],[-53.5695,48.0881],[-53.542,48.1082],[-53.56,48.1738],[-53.6097,48.2077],[-53.5314,48.232],[-53.4055,48.2944],[-53.3346,48.3558],[-53.3012,48.368],[-53.225,48.3638],[-53.1822,48.3744],[-53.1356,48.4019],[-53.0605,48.4802],[-53.0372,48.5156],[-53.0208,48.5717],[-53.0277,48.6347],[-53.0425,48.6564],[-53.0573,48.659],[-53.1271,48.6326],[-53.2203,48.5781],[-53.2753,48.5633],[-53.361,48.5728],[-53.4113,48.5622],[-53.552,48.4818],[-53.6447,48.5114],[-53.7389,48.4961],[-53.7992,48.4495],[-53.8526,48.449],[-53.9368,48.4368],[-54.104,48.3881],[-54.1146,48.3934],[-54.068,48.4188],[-53.8854,48.4844],[-53.7944,48.5262],[-53.7748,48.5765],[-53.7066,48.6554],[-53.6981,48.6797],[-53.7838,48.6956],[-53.886,48.6844],[-53.9659,48.7067],[-53.9696,48.7246],[-53.9616,48.7389],[-53.887,48.768],[-53.8479,48.7966],[-53.8526,48.8114],[-53.9505,48.8067],[-54.0997,48.785],[-54.1611,48.7876],[-53.9034,48.8892],[-53.8452,48.9252],[-53.8251,48.9511],[-53.8092,48.9935],[-53.7579,49.0353],[-53.6711,49.0776],[-53.5732,49.1411],[-53.56,49.1919],[-53.5695,49.2644],[-53.6193,49.3216],[-53.7553,49.385],[-53.8627,49.4263],[-53.9579,49.4417],[-54.2707,49.4195],[-54.3167,49.4242],[-54.3564,49.4152],[-54.3892,49.3919],[-54.4485,49.3295],[-54.4633,49.3417],[-54.4654,49.4004],[-54.4808,49.4692],[-54.4691,49.5301],[-54.5024,49.5274],[-54.5792,49.4909],[-54.6506,49.4443],[-54.7178,49.3888],[-54.7818,49.3554],[-54.8438,49.3454],[-54.9104,49.3163],[-54.9824,49.2681],[-55.0157,49.2602],[-55.0104,49.293],[-55.0263,49.3052],[-55.0634,49.2972],[-55.1761,49.2443],[-55.2443,49.1998],[-55.2539,49.1797],[-55.2475,49.1384],[-55.2523,49.121],[-55.3348,49.0781],[-55.3533,49.0792],[-55.3322,49.1258],[-55.3428,49.1681],[-55.2592,49.267],[-55.2248,49.3348],[-55.2004,49.4084],[-55.2068,49.4819],[-55.2295,49.5083],[-55.2666,49.5237],[-55.283,49.5136],[-55.2803,49.4126],[-55.2898,49.3919],[-55.3438,49.3729],[-55.3555,49.3808],[-55.3544,49.4374],[-55.3793,49.4729],[-55.3761,49.4898],[-55.4899,49.4623],[-55.6782,49.4348],[-55.8153,49.5152],[-56.0413,49.457],[-56.0873,49.4517],[-55.892,49.5803],[-55.8825,49.6459],[-55.8698,49.6703],[-55.9021,49.6808],[-55.9783,49.6782],[-56.0518,49.6586],[-56.1212,49.6216],[-56.1402,49.619],[-56.0402,49.7047],[-55.7174,49.829],[-55.5835,49.8925],[-55.5269,49.937],[-55.5031,49.983],[-55.5301,49.9973],[-55.6746,49.9666],[-55.7645,49.9603],[-55.8735,50.0132],[-55.927,50.018],[-56.0751,49.9825],[-56.1614,49.9402],[-56.164,49.9571],[-56.1275,50.0153],[-56.1222,50.0629],[-56.1481,50.1005],[-56.1794,50.1148],[-56.2471,50.0899],[-56.3217,50.0137],[-56.3762,49.9338],[-56.4276,49.8973],[-56.5011,49.8698],[-56.6106,49.7878],[-56.7567,49.6518],[-56.8223,49.6137],[-56.807,49.6735],[-56.8091,49.7105],[-56.8292,49.7248],[-56.8488,49.7655],[-56.8387,49.7878],[-56.7895,49.8338],[-56.754,49.883],[-56.7472,49.9084],[-56.7498,49.9666],[-56.7323,50.0079],[-56.6943,50.0597],[-56.5392,50.2069],[-56.4842,50.2709],[-56.4545,50.3503],[-56.4545,50.3799],[-56.3826,50.4169],[-56.1958,50.5847],[-56.1355,50.6508],[-56.1212,50.7339],[-56.1063,50.7593],[-56.0783,50.781],[-55.9619,50.8376],[-55.8714,50.9075],[-55.7999,51.0334],[-55.7846,51.0869],[-55.7851,51.1313],[-55.7957,51.1662],[-55.8153,51.1911],[-55.8412,51.2049],[-55.8735,51.208],[-55.9608,51.1916],[-56.0,51.199],[-56.0307,51.2271],[-56.0439,51.262],[-56.0312,51.3282],[-55.9413,51.343],[-55.7306,51.3589],[-55.6306,51.3731],[-55.5835,51.3885],[-55.5322,51.4372],[-55.4587,51.5366],[-55.4534,51.562],[-55.492,51.5869],[-55.4899,51.5901],[-55.4094,51.8896],[-55.4195,51.9002],[-55.3999,51.9383],[-55.3951,51.942],[-55.3888,51.9663],[-55.6936,52.1404],[-55.6941,52.1404],[-55.673,52.1902],[-55.6909,52.2415],[-55.7835,52.2801],[-55.8338,52.3103],[-56.0047,52.3706],[-56.0116,52.3944],[-55.8968,52.3696],[-55.7772,52.3643],[-55.7164,52.3912],[-55.7058,52.4283],[-55.7465,52.4743],[-55.8402,52.5077],[-56.0524,52.5373],[-56.2286,52.5357],[-56.3249,52.5447],[-56.2926,52.5738],[-56.1672,52.5749],[-55.8487,52.6236],[-55.8026,52.6431],[-55.8185,52.677],[-55.8724,52.7357],[-55.8582,52.8236],[-55.8301,52.8786],[-55.8926,53.0003],[-55.8084,53.1347],[-55.7978,53.212],[-55.8169,53.2459],[-55.855,53.2861],[-55.8635,53.312],[-55.8592,53.3437],[-55.9111,53.3909],[-55.9661,53.4713],[-56.1101,53.5877],[-56.2704,53.5999],[-56.354,53.6247],[-56.4445,53.7184],[-56.4651,53.765],[-56.5244,53.7666],[-56.6964,53.7575],[-56.8408,53.7396],[-57.0123,53.6724],[-57.2213,53.5284],[-57.3319,53.4692],[-57.3864,53.5607],[-57.4203,53.5834],[-57.5272,53.5999],[-57.524,53.6115],[-57.4896,53.6332],[-57.244,53.7152],[-57.1567,53.757],[-57.135,53.792],[-57.1488,53.8475],[-57.1991,53.9243],[-57.406,54.1518],[-57.397,54.1603],[-57.5727,54.4365],[-57.5631,54.4402],[-57.4853,54.5174],[-57.4044,54.5704],[-57.4044,54.591],[-57.4832,54.6402],[-57.6266,54.6503],[-57.7251,54.6736],[-57.8267,54.7185],[-57.9293,54.773],[-57.9627,54.8757],[-58.0584,54.882],[-58.1955,54.8656],[-58.223,54.8127],[-58.3982,54.7741],[-58.4998,54.7831],[-58.7802,54.8381],[-58.8861,54.9524],[-58.9559,55.0551],[-58.9972,55.1493],[-59.0861,55.1831],[-59.2597,55.2001],[-59.3242,55.153],[-59.3941,55.0805],[-59.4285,55.0556],[-59.7497,54.8868],[-59.838,54.8138],[-59.8163,54.8672],[-59.7417,54.9424],[-59.4856,55.1302],[-59.438,55.1757],[-59.5179,55.1974],[-59.6052,55.1731],[-59.6893,55.1964],[-59.6957,55.2694],[-59.7586,55.3096],[-59.8618,55.2948],[-59.9301,55.2593],[-60.2127,55.2366],[-60.3407,55.1937],[-60.5566,55.0672],[-60.617,55.0604],[-60.5206,55.1292],[-60.4503,55.2001],[-60.4333,55.2429],[-60.3608,55.3662],[-60.2238,55.4445],[-60.1926,55.4811],[-60.3085,55.5567],[-60.3518,55.6123],[-60.4085,55.6493],[-60.3656,55.7091],[-60.3413,55.7848],[-60.4127,55.7885],[-60.4757,55.8049],[-60.5619,55.7271],[-60.5926,55.815],[-60.6307,55.825],[-60.7365,55.8869],[-60.7434,55.9414],[-60.8318,55.9579],[-60.8927,55.9144],[-60.9958,55.8626],[-61.0895,55.8663],[-61.1229,55.8885],[-61.134,55.9303],[-61.1879,55.9552],[-61.3514,55.9737],[-61.4493,55.9959],[-61.4488,56.0224],[-61.3012,56.0473],[-61.3245,56.0764],[-61.3647,56.2161],[-61.4213,56.2219],[-61.5584,56.2076],[-61.7129,56.2309],[-61.7071,56.2886],[-61.4985,56.3277],[-61.4255,56.3605],[-61.5144,56.3902],[-61.6922,56.397],[-61.9404,56.4235],[-62.0097,56.4537],[-61.8991,56.5055],[-61.76,56.5108],[-61.7377,56.5262],[-61.8134,56.5706],[-61.8547,56.5844],[-61.9917,56.5907],[-62.1166,56.6669],[-62.3955,56.7299],[-62.4971,56.8019],[-62.4601,56.8183],[-62.3722,56.8362],[-62.296,56.8326],[-62.3817,56.7876],[-62.3659,56.7669],[-62.0626,56.6992],[-61.5319,56.6547],[-61.3715,56.6807],[-61.3726,56.7759],[-61.3906,56.8532],[-61.3456,56.9215],[-61.334,57.0103],[-61.6287,57.1834],[-61.7166,57.1961],[-61.7986,57.186],[-61.861,57.1977],[-61.9446,57.2284],[-61.9775,57.2479],[-61.9388,57.2744],[-61.8859,57.348],[-61.8499,57.3702],[-61.851,57.3813],[-61.9214,57.421],[-62.088,57.4527],[-62.1944,57.4543],[-62.3034,57.4406],[-62.3965,57.448],[-62.4548,57.4617],[-62.4955,57.4893],[-62.377,57.4781],[-62.3383,57.4845],[-62.2537,57.5289],[-62.1669,57.5363],[-62.0838,57.5617],[-61.9679,57.612],[-61.9314,57.6686],[-61.9949,57.7697],[-61.9679,57.8036],[-61.9139,57.8253],[-61.8991,57.8612],[-61.9584,57.9115],[-62.1177,57.9639],[-62.2013,57.9549],[-62.3055,57.9724],[-62.4865,58.1539],[-62.5881,58.1581],[-62.8178,58.129],[-62.9807,58.0936],[-63.2199,58.002],[-63.2617,58.0147],[-63.1517,58.084],[-63.0628,58.1269],[-62.8119,58.2004],[-62.6744,58.319],[-62.5939,58.474],[-62.6077,58.4962],[-62.7373,58.492],[-62.8373,58.4793],[-63.0755,58.4148],[-63.1321,58.4111],[-63.1194,58.4418],[-63.1453,58.4603],[-63.2099,58.4671],[-63.2967,58.4412],[-63.4734,58.3306],[-63.5369,58.3301],[-63.438,58.3989],[-63.3898,58.4523],[-63.2189,58.5195],[-63.1024,58.546],[-62.8739,58.6725],[-62.9263,58.7651],[-63.0083,58.8556],[-63.0501,58.8783],[-63.1855,58.8577],[-63.2824,58.8672],[-63.2221,58.9111],[-63.2162,58.928],[-63.2792,59.0032],[-63.3099,59.0265],[-63.3035,59.0344],[-63.2226,59.0572],[-63.2485,59.0683],[-63.3258,59.0815],[-63.3988,59.0794],[-63.5681,59.0471],[-63.7935,59.027],[-63.9412,59.0275],[-63.9714,59.054],[-63.9105,59.0656],[-63.7565,59.0635],[-63.6454,59.0789],[-63.5062,59.1154],[-63.4152,59.1942],[-63.5401,59.3329],[-63.6375,59.3413],[-63.7517,59.2773],[-63.7761,59.2773],[-63.7586,59.3186],[-63.7809,59.3493],[-63.9454,59.3799],[-63.9708,59.4091],[-63.8502,59.4477],[-63.7502,59.5128],[-63.8412,59.5742],[-63.929,59.6451],[-63.9698,59.6974],[-63.9788,59.7536],[-64.056,59.8223],[-64.1507,59.7938],[-64.2264,59.7414],[-64.1687,59.8467],[-64.183,59.9731],[-64.2836,60.0642],[-64.4079,60.0647],[-64.5593,60.0435],[-64.7328,59.9975],[-64.7683,60.0123],[-64.7132,60.0372],[-64.5275,60.0943],[-64.4196,60.1716],[-64.4365,60.2282],[-64.4555,60.2404],[-64.4598,60.3018],[-64.4418,60.2981],[-64.428,60.3245],[-45.4114,60.1663],[-45.3791,60.2028],[-44.8123,60.0499],[-44.6134,60.0165],[-44.5329,60.0298],[-44.4763,60.0954],[-44.3483,60.2049],[-44.2244,60.2737],[-44.1763,60.2446],[-44.2313,60.18],[-44.4049,60.061],[-44.4536,60.0144],[-44.4128,59.9229],[-44.3837,59.8991],[-44.3313,59.9017],[-44.2689,59.8927],[-44.1615,59.9165],[-44.0657,59.925],[-44.1054,59.8779],[-44.117,59.8319],[-43.944,59.8186],[-43.9472,59.7784]],[[-61.9378,57.5543],[-61.9833,57.567],[-62.0071,57.5575],[-62.0113,57.5485],[-61.9753,57.4956],[-61.7954,57.4226],[-61.6377,57.4162],[-61.6594,57.5247],[-61.7436,57.5543],[-61.8483,57.5792],[-61.8933,57.5734],[-61.9378,57.5543]]]}}
