{"type":"Feature","properties":{"id":20,"name":"Hudson Bay","featurecla":"bay","scalerank":1,"wikidataid":"Q3040","source":"Natural Earth 5.2.0-pre ne_10m_geography_marine_polys (public domain)"},"geometry":{"type":"Polygon","coordinates":[[[-85.8137,65.8321],[-85.9619,65.704],[-86.017,65.6405],[-86.0746,65.5336],[-86.1143,65.4172],[-86.1884,65.0103],[-86.2276,64.8965],[-86.344,64.6621],[-86.3742,64.5658],[-86.3747,64.5028],[-86.3546,64.3764],[-86.2741,64.2382],[-86.2524,64.1811],[-86.2519,64.1366],[-86.3085,64.0938],[-86.4218,64.0514],[-86.8859,63.9239],[-86.9319,63.9017],[-87.0319,63.8303],[-87.1547,63.7149],[-87.1891,63.672],[-87.1938,63.6329],[-87.1769,63.5953],[-87.152,63.5858],[-87.0531,63.572],[-86.9155,63.5688],[-86.8467,63.5752],[-86.5758,63.6625],[-86.3017,63.6567],[-85.8048,63.7064],[-85.7688,63.7001],[-85.7386,63.6842],[-85.7143,63.6577],[-85.5661,63.2709],[-85.4957,63.1392],[-85.3925,63.1196],[-85.238,63.1392],[-84.9613,63.1974],[-84.7956,63.2471],[-84.6327,63.309],[-84.5543,63.3498],[-84.5062,63.39],[-84.3877,63.5291],[-84.3077,63.5858],[-84.2607,63.6006],[-84.1416,63.6138],[-84.022,63.6599],[-83.7283,63.8133],[-83.6616,63.8726],[-83.6378,63.9181],[-83.6172,64.0134],[-83.5839,64.0583],[-83.4944,64.0991],[-83.3039,64.144],[-83.1854,64.1573],[-83.0653,64.1589],[-83.0161,64.1271],[-83.0388,64.0615],[-83.034,64.0234],[-82.9298,64.0006],[-82.5716,63.961],[-82.4673,63.9271],[-82.4118,63.7366],[-82.3779,63.707],[-82.1461,63.6911],[-81.9635,63.6646],[-81.3719,63.5382],[-81.1798,63.4831],[-81.0465,63.4614],[-81.0137,63.4625],[-80.9788,63.4731],[-80.9714,63.4471],[-78.1287,62.2893],[-78.1334,62.2825],[-78.1472,62.2089],[-78.1371,62.1073],[-78.0773,61.9231],[-78.0213,61.8321],[-77.9477,61.7617],[-77.89,61.7289],[-77.8138,61.6945],[-77.6985,61.6263],[-77.5143,61.5564],[-77.6487,61.4786],[-77.736,61.4374],[-77.7498,61.3929],[-77.727,61.2304],[-77.7307,61.2067],[-77.7651,61.1574],[-77.8302,61.0839],[-77.9339,61.0029],[-78.1599,60.8521],[-78.1816,60.8193],[-78.1223,60.8098],[-77.998,60.8182],[-77.8715,60.786],[-77.6032,60.8251],[-77.5894,60.8087],[-77.6609,60.7896],[-77.7344,60.697],[-77.7614,60.6791],[-77.7911,60.6399],[-77.7149,60.578],[-77.6397,60.5669],[-77.5154,60.5632],[-77.5037,60.5425],[-77.5979,60.5066],[-77.6815,60.4272],[-77.6487,60.3626],[-77.4529,60.1457],[-77.4614,60.1335],[-77.572,60.1012],[-77.5857,60.088],[-77.5471,60.061],[-77.3116,60.0425],[-77.2894,60.0218],[-77.373,59.925],[-77.3683,59.8843],[-77.3275,59.8335],[-77.3318,59.7964],[-77.4746,59.7155],[-77.4852,59.6848],[-77.4111,59.6096],[-77.3492,59.5789],[-77.3968,59.5694],[-77.5905,59.6805],[-77.726,59.6758],[-77.7477,59.6583],[-77.7334,59.581],[-77.7493,59.5583],[-77.8588,59.4758],[-77.8445,59.4435],[-77.7794,59.4101],[-77.7609,59.3799],[-77.8429,59.3048],[-77.9874,59.2455],[-78.0678,59.2001],[-78.1403,59.1418],[-78.2446,59.035],[-78.4303,58.9016],[-78.4589,58.8735],[-78.4827,58.8291],[-78.5023,58.7693],[-78.515,58.6825],[-78.506,58.6492],[-78.4631,58.6026],[-78.352,58.5809],[-78.0133,58.3994],[-77.8842,58.3507],[-77.6842,58.2915],[-77.5524,58.2396],[-77.4889,58.1952],[-77.1566,58.0189],[-76.891,57.7581],[-76.81,57.658],[-76.7862,57.5988],[-76.6555,57.3808],[-76.6015,57.2723],[-76.5729,57.1813],[-76.5253,56.8918],[-76.5195,56.7071],[-76.5301,56.4997],[-76.5465,56.3589],[-76.6042,56.1997],[-76.6507,56.1071],[-76.7618,55.9965],[-76.938,55.8673],[-77.0724,55.7562],[-77.1651,55.6636],[-77.3249,55.5557],[-77.7022,55.344],[-77.7752,55.2911],[-77.8911,55.2366],[-78.1287,55.1514],[-78.3038,55.0683],[-78.4753,55.0112],[-78.8462,54.908],[-78.9092,54.8815],[-79.6521,54.7005],[-82.1884,54.8392],[-82.2228,54.8334],[-82.2266,54.8561],[-82.308,54.9979],[-82.3932,55.0678],[-82.5774,55.1488],[-82.6875,55.1657],[-82.8007,55.1561],[-82.8679,55.1609],[-82.9473,55.2223],[-82.9864,55.2313],[-83.2145,55.2144],[-83.5696,55.262],[-83.6675,55.2646],[-83.9104,55.3149],[-83.9717,55.3144],[-84.0231,55.298],[-84.1056,55.2906],[-84.2189,55.2932],[-84.3564,55.2826],[-84.5178,55.2588],[-84.7057,55.2593],[-84.92,55.2832],[-85.0607,55.2858],[-85.129,55.2662],[-85.2137,55.2244],[-85.365,55.0794],[-85.3619,55.0953],[-85.2121,55.2975],[-85.2179,55.3488],[-85.2825,55.3832],[-85.4074,55.4313],[-85.4783,55.4742],[-85.5592,55.5403],[-85.6767,55.6012],[-85.8307,55.6567],[-85.9847,55.6959],[-86.1387,55.7181],[-86.3768,55.7732],[-86.9192,55.9144],[-87.287,55.9748],[-87.4822,56.0213],[-87.5611,56.0563],[-87.878,56.3415],[-88.0749,56.4674],[-88.2712,56.5357],[-88.4469,56.6087],[-88.6797,56.7251],[-88.8263,56.814],[-88.9485,56.8511],[-89.2116,56.8839],[-89.3422,56.9156],[-89.791,56.9813],[-90.0751,57.0522],[-90.345,57.149],[-90.5921,57.2247],[-90.8975,57.2569],[-91.1113,57.2411],[-92.0182,57.0638],[-92.249,57.0088],[-92.3559,56.9707],[-92.3723,56.9749],[-92.2982,57.0225],[-92.3035,57.0458],[-92.4564,57.0368],[-92.5104,57.0225],[-92.6511,56.9585],[-92.7252,56.9336],[-92.7982,56.922],[-92.8025,56.9283],[-92.7379,56.9527],[-92.6755,56.9897],[-92.6141,57.0389],[-92.5485,57.1109],[-92.4786,57.2051],[-92.44,57.2749],[-92.4326,57.3205],[-92.4495,57.385],[-92.4897,57.4686],[-92.7019,57.7776],[-92.74,57.8438],[-92.8416,58.0761],[-92.9252,58.2243],[-93.1004,58.4899],[-93.1263,58.5645],[-93.1544,58.6947],[-93.1787,58.7254],[-93.2782,58.7566],[-93.375,58.7412],[-93.4861,58.7444],[-93.7798,58.7725],[-94.0555,58.7598],[-94.1233,58.7365],[-94.209,58.6264],[-94.272,58.3782],[-94.3323,58.2973],[-94.3328,58.3391],[-94.281,58.6587],[-94.2873,58.7158],[-94.4191,58.7455],[-94.5397,58.8481],[-94.5794,58.8683],[-94.6239,58.8757],[-94.6736,58.8698],[-94.7133,58.9032],[-94.744,58.9757],[-94.7763,59.0206],[-94.8466,59.0503],[-94.9572,59.0688],[-94.8705,59.0879],[-94.8197,59.1514],[-94.7884,59.2678],[-94.7768,59.4784],[-94.7858,59.9536],[-94.7419,60.1075],[-94.6704,60.3012],[-94.6466,60.4166],[-94.6704,60.4531],[-94.7054,60.4774],[-94.7614,60.4981],[-94.6789,60.5378],[-94.5688,60.542],[-94.5095,60.6044],[-94.427,60.7309],[-94.3085,60.8711],[-94.154,61.0257],[-94.0677,61.1389],[-94.0497,61.2114],[-94.055,61.2664],[-94.0836,61.3035],[-94.0608,61.3178],[-93.9418,61.3082],[-93.8888,61.3442],[-93.8894,61.3638],[-93.9407,61.4437],[-93.9127,61.4813],[-93.7095,61.6024],[-93.4205,61.7056],[-93.3523,61.7395],[-93.3121,61.767],[-93.3142,61.7797],[-93.4301,61.812],[-93.4941,61.8469],[-93.5269,61.8718],[-93.5819,61.9422],[-93.3718,61.929],[-93.3332,61.9327],[-93.2734,61.9612],[-93.2967,61.9813],[-93.3666,62.0147],[-93.3496,62.03],[-93.1676,62.0337],[-93.0734,62.0607],[-93.0163,62.0925],[-93.0279,62.1089],[-93.0702,62.1279],[-93.066,62.1496],[-92.9056,62.2152],[-92.9147,62.2449],[-92.9877,62.2861],[-93.1792,62.3496],[-93.2052,62.365],[-93.1544,62.3666],[-92.866,62.3062],[-92.7347,62.2597],[-92.648,62.2078],[-92.5791,62.1771],[-92.5278,62.1687],[-92.5442,62.2025],[-92.6273,62.2793],[-92.7014,62.3285],[-92.766,62.3502],[-92.7681,62.3798],[-92.7072,62.4184],[-92.595,62.4703],[-92.5622,62.5031],[-92.5516,62.5465],[-92.4971,62.565],[-92.3998,62.5571],[-92.3241,62.5645],[-92.2696,62.5872],[-92.2072,62.5851],[-92.0812,62.5439],[-92.0077,62.5407],[-91.9447,62.5756],[-91.9357,62.5925],[-91.9558,62.6449],[-92.1489,62.665],[-92.2431,62.6835],[-92.3051,62.7116],[-92.3453,62.7338],[-92.3775,62.7724],[-92.3881,62.801],[-92.3612,62.8195],[-92.196,62.8291],[-92.1521,62.8391],[-92.1103,62.8619],[-92.0341,62.8635],[-91.8696,62.8349],[-91.4489,62.8042],[-91.3494,62.819],[-91.1149,62.9217],[-91.0075,62.9402],[-90.871,62.946],[-90.7779,62.9714],[-90.7276,63.0174],[-90.6985,63.064],[-90.6906,63.1106],[-90.7112,63.3043],[-90.7467,63.3514],[-90.97,63.4429],[-91.1033,63.4757],[-91.3303,63.5069],[-91.4891,63.562],[-91.6859,63.6599],[-91.842,63.6974],[-91.9569,63.6757],[-92.0764,63.6397],[-92.2897,63.563],[-92.4649,63.5551],[-92.4611,63.5694],[-92.205,63.6567],[-92.1569,63.6916],[-92.1966,63.708],[-92.3394,63.735],[-92.5294,63.7615],[-93.166,63.9017],[-93.2507,63.9271],[-93.3787,63.9483],[-93.4057,63.9414],[-93.3803,63.9001],[-93.3269,63.872],[-93.266,63.8535],[-93.2702,63.8408],[-93.4158,63.8382],[-93.5597,63.8652],[-93.6639,63.9414],[-93.656,63.9726],[-93.6047,64.0043],[-93.5967,64.0403],[-93.6962,64.1472],[-93.4295,64.0287],[-92.9702,63.9377],[-92.5501,63.8297],[-92.3384,63.7879],[-92.195,63.7757],[-92.095,63.7842],[-92.0378,63.8133],[-91.9823,63.8223],[-91.9288,63.8123],[-91.9193,63.8006],[-91.9537,63.7869],[-91.9558,63.7726],[-91.9262,63.7572],[-91.6748,63.7424],[-91.5388,63.7255],[-91.1081,63.6181],[-90.9456,63.5879],[-90.8117,63.581],[-90.707,63.5969],[-90.635,63.6239],[-90.5964,63.6614],[-90.5334,63.6652],[-90.4461,63.636],[-90.3688,63.6244],[-90.2455,63.6419],[-90.1545,63.6895],[-90.0132,63.8043],[-90.018,63.8292],[-90.0598,63.8773],[-90.1683,63.9789],[-90.1418,63.9821],[-89.9217,63.9435],[-89.8555,63.9567],[-89.8608,63.9789],[-89.9534,64.0806],[-89.9857,64.1001],[-90.0799,64.1276],[-90.0418,64.1409],[-89.8111,64.1806],[-89.792,64.1684],[-89.764,64.0996],[-89.7328,64.0768],[-89.6158,64.0308],[-89.5513,64.0149],[-89.501,64.0144],[-89.465,64.0297],[-89.4036,64.0398],[-89.2147,63.9842],[-89.1316,63.9683],[-89.1078,63.9811],[-89.2094,64.1054],[-89.2004,64.1139],[-89.0597,64.0345],[-88.9644,64.0112],[-88.8178,63.9922],[-88.6533,64.0091],[-88.3792,64.089],[-88.1056,64.1832],[-87.9976,64.2441],[-87.9638,64.3023],[-87.8849,64.4007],[-87.2806,64.8261],[-87.1827,64.9267],[-87.0287,65.0637],[-87.0028,65.1087],[-87.0277,65.1981],[-87.1081,65.2246],[-87.3917,65.2606],[-87.6801,65.2712],[-87.678,65.3352],[-87.4531,65.3389],[-87.2917,65.3548],[-87.1938,65.3828],[-87.0811,65.441],[-86.9531,65.5284],[-86.7017,65.6707],[-86.0429,66.0226],[-85.9984,66.0226],[-85.7164,65.9168],[-85.6989,65.8834],[-85.8137,65.8321]],[[-78.8775,56.1314],[-78.8267,56.1452],[-78.7616,56.1743],[-78.7102,56.2129],[-78.6727,56.2605],[-78.6573,56.3171],[-78.669,56.4389],[-78.7245,56.4394],[-78.7621,56.4209],[-78.7997,56.3833],[-78.8214,56.3399],[-78.8282,56.2896],[-78.8568,56.2319],[-78.9071,56.1663],[-78.914,56.133],[-78.8775,56.1314]],[[-79.3055,56.4632],[-79.3394,56.3764],[-79.3928,56.2764],[-79.4585,56.2113],[-79.5363,56.1801],[-79.5543,56.1917],[-79.5119,56.2468],[-79.4765,56.3129],[-79.432,56.4473],[-79.4352,56.5129],[-79.4479,56.5368],[-79.459,56.5399],[-79.469,56.5224],[-79.468,56.4606],[-79.4823,56.4039],[-79.5151,56.3267],[-79.5966,56.2446],[-79.7903,56.1139],[-80.0009,55.9319],[-80.0083,55.9113],[-79.9876,55.8922],[-79.9045,55.8711],[-79.7812,55.9404],[-79.5648,56.1208],[-79.5447,56.1282],[-79.4944,56.115],[-79.4976,56.0933],[-79.7649,55.807],[-79.6056,55.8758],[-79.5267,55.8705],[-79.495,55.8748],[-79.4553,55.8959],[-79.4077,55.9351],[-79.2219,56.1758],[-79.1822,56.2124],[-79.1426,56.1806],[-79.1362,56.1605],[-79.142,56.1362],[-79.2738,55.9224],[-79.2277,55.8785],[-79.1754,55.8848],[-79.0838,56.0679],[-79.0182,56.1647],[-78.9356,56.2658],[-78.9065,56.3203],[-78.9314,56.3277],[-78.9425,56.3452],[-78.9404,56.3717],[-78.9632,56.4219],[-78.9949,56.4362],[-79.0775,56.4537],[-79.1002,56.4738],[-79.1235,56.5198],[-79.1553,56.5378],[-79.2103,56.5489],[-79.2458,56.5685],[-79.2611,56.5955],[-79.2722,56.6002],[-79.3055,56.4632]],[[-79.6495,62.3983],[-79.7125,62.3952],[-79.868,62.4042],[-79.9268,62.393],[-80.0215,62.3428],[-80.1787,62.2126],[-80.2348,62.1528],[-80.2602,62.1089],[-80.275,62.0549],[-80.2797,61.9893],[-80.276,61.8586],[-80.2649,61.8184],[-80.2051,61.7771],[-80.0919,61.7469],[-80.0041,61.7025],[-79.8966,61.63],[-79.8162,61.5945],[-79.7633,61.5961],[-79.7141,61.6125],[-79.6685,61.6443],[-79.6114,61.7099],[-79.5421,61.8078],[-79.4622,61.894],[-79.3722,61.9676],[-79.3241,62.0263],[-79.3066,62.1036],[-79.2722,62.1861],[-79.2865,62.2475],[-79.3362,62.2936],[-79.4664,62.3846],[-79.5452,62.4116],[-79.5976,62.4131],[-79.6495,62.3983]],[[-79.5797,56.4664],[-79.6056,56.459],[-79.6813,56.4039],[-79.749,56.3764],[-79.8104,56.3764],[-79.8522,56.3674],[-79.8744,56.3483],[-80.0051,56.3177],[-80.0575,56.2875],[-80.0887,56.214],[-80.0284,56.1997],[-79.9776,56.2071],[-79.6881,56.3267],[-79.6326,56.3865],[-79.5797,56.4664]],[[-82.4599,62.936],[-82.7065,62.9444],[-82.9658,62.874],[-83.0261,62.8719],[-83.1108,62.8841],[-83.2896,62.9217],[-83.3764,62.9047],[-83.7389,62.5687],[-83.8992,62.4767],[-83.9104,62.4544],[-83.9125,62.4253],[-83.9029,62.4025],[-83.7611,62.3036],[-83.7288,62.257],[-83.7145,62.1734],[-83.6987,62.1602],[-83.3769,62.238],[-83.2526,62.2327],[-83.1298,62.2041],[-83.0716,62.2004],[-83.0161,62.21],[-82.5684,62.4031],[-82.4911,62.4465],[-82.3879,62.519],[-82.1138,62.6523],[-82.026,62.7301],[-81.99,62.7761],[-81.9646,62.8275],[-81.9487,62.8841],[-81.9604,62.9264],[-82.0006,62.954],[-82.0477,62.9704],[-82.1292,62.9778],[-82.235,62.9772],[-82.4599,62.936]]]}}
