{"type":"Feature","properties":{"id":21,"name":"Caspian Sea","featurecla":"sea","scalerank":1,"wikidataid":"Q5484","source":"Natural Earth 5.2.0-pre ne_10m_geography_marine_polys (public domain)"},"geometry":{"type":"Polygon","coordinates":[[[52.9015,41.1004],[52.92,41.0819],[52.9433,41.038],[52.8893,40.8634],[52.8501,40.6856],[52.7845,40.5469],[52.7337,40.3987],[52.7443,40.2199],[52.8046,40.0543],[52.8983,39.9124],[52.965,39.8341],[53.0353,39.7743],[52.9523,39.8955],[52.9877,39.9876],[53.1385,39.9786],[53.2888,39.9579],[53.4042,39.9606],[53.4544,39.941],[53.4873,39.9093],[53.4582,39.831],[53.4507,39.7484],[53.4724,39.669],[53.5333,39.6415],[53.5825,39.6077],[53.6031,39.5468],[53.4973,39.533],[53.3899,39.5362],[53.3052,39.5568],[53.2359,39.6087],[53.1247,39.432],[53.1242,39.3468],[53.1565,39.2647],[53.2031,39.3166],[53.2666,39.3425],[53.3364,39.341],[53.4751,39.3055],[53.5397,39.2743],[53.6174,39.2161],[53.7047,39.2097],[53.7095,39.1536],[53.7243,39.1034],[53.8148,39.0182],[53.8688,38.9494],[53.8852,38.8642],[53.8735,38.7419],[53.8513,38.6218],[53.8402,38.5149],[53.8518,38.4059],[53.854,38.2858],[53.8254,38.0471],[53.8233,37.9281],[53.8481,37.6698],[53.8979,37.4137],[53.9519,37.1819],[54.0169,36.9523],[54.0238,36.9015],[54.0164,36.8496],[53.9699,36.8184],[53.9064,36.8126],[53.7687,36.8184],[53.6793,36.8533],[53.8275,36.8814],[53.9153,36.93],[53.7677,36.93],[53.374,36.8687],[52.1903,36.6216],[51.7621,36.6147],[51.1187,36.7427],[50.9277,36.81],[50.5329,37.0137],[50.3382,37.1491],[50.2138,37.3396],[50.1762,37.3804],[50.1302,37.4074],[49.9804,37.445],[49.727,37.4804],[49.4703,37.4968],[49.3725,37.5201],[49.1713,37.6005],[49.0809,37.6677],[49.0153,37.7762],[48.9597,37.89],[48.9253,38.0154],[48.9015,38.1434],[48.8708,38.3927],[48.8507,38.8155],[48.8544,38.8388],[48.9263,38.9615],[48.9618,39.079],[49.0137,39.134],[49.1116,39.0848],[49.1089,39.0293],[49.1211,39.0039],[49.1656,39.0303],[49.1999,39.0727],[49.2693,39.2854],[49.3211,39.3288],[49.3629,39.3494],[49.3671,39.3986],[49.3275,39.5013],[49.3243,39.6082],[49.4153,39.8399],[49.4772,40.0871],[49.5513,40.194],[49.6688,40.249],[49.7921,40.2876],[49.9191,40.3162],[50.1434,40.3231],[50.3657,40.2797],[50.3069,40.412],[50.2482,40.4617],[50.1826,40.5046],[50.1191,40.5347],[49.9905,40.5765],[49.8519,40.5771],[49.7762,40.584],[49.7185,40.6083],[49.5561,40.7162],[49.4566,40.7999],[49.2264,41.0263],[49.1745,41.1163],[49.1433,41.2179],[49.1068,41.3015],[49.0507,41.374],[48.8237,41.6296],[48.6644,41.7868],[48.4766,41.9053],[48.4263,41.9238],[48.384,41.9534],[48.303,42.0805],[48.2284,42.181],[48.0802,42.3535],[47.8225,42.6133],[47.7696,42.6445],[47.7278,42.6805],[47.7093,42.8107],[47.6346,42.9033],[47.5288,42.9673],[47.4891,42.9996],[47.4632,43.035],[47.5129,43.2187],[47.5119,43.2705],[47.4897,43.3817],[47.5087,43.5097],[47.568,43.6849],[47.6278,43.8061],[47.6463,43.8844],[47.5627,43.8346],[47.4627,43.5552],[47.4293,43.7796],[47.3616,43.9934],[47.3071,44.1029],[47.2299,44.1923],[47.1224,44.2617],[47.0235,44.3432],[46.9155,44.3871],[46.7531,44.4204],[46.7208,44.4516],[46.7071,44.5035],[46.716,44.5606],[46.7552,44.6564],[46.8415,44.7183],[46.9573,44.7824],[46.9838,44.8257],[47.0028,44.876],[47.0393,44.8379],[47.0838,44.8168],[47.115,44.9062],[47.1616,44.9697],[47.2214,45.0242],[47.296,45.1496],[47.351,45.2179],[47.3912,45.2946],[47.413,45.4211],[47.4548,45.4332],[47.4886,45.455],[47.5145,45.4909],[47.5294,45.5301],[47.5241,45.6015],[47.4632,45.6798],[47.4796,45.6878],[47.5082,45.674],[47.5743,45.6343],[47.6331,45.5841],[47.65,45.6565],[47.7014,45.6862],[47.7638,45.6661],[47.8299,45.6629],[48.0527,45.7211],[48.1591,45.737],[48.2575,45.7777],[48.4871,45.9349],[48.5374,45.9423],[48.5893,45.9349],[48.6374,45.9058],[48.6898,45.8889],[48.7295,45.8968],[48.7496,45.9206],[48.7036,45.9762],[48.6872,46.0286],[48.6835,46.0862],[48.7427,46.1005],[48.8099,46.1005],[49.0798,46.1894],[49.1105,46.2286],[49.1253,46.2815],[49.246,46.2915],[49.2322,46.3371],[49.2058,46.3857],[49.2857,46.4365],[49.3619,46.4101],[49.3444,46.4858],[49.3476,46.5191],[49.437,46.5371],[49.5847,46.545],[49.6317,46.5678],[49.7603,46.5715],[49.8863,46.5958],[49.9995,46.6344],[50.1016,46.6964],[50.3064,46.7948],[50.4191,46.8795],[50.472,46.8832],[50.5287,46.8731],[50.5826,46.8821],[50.68,46.9387],[50.733,46.9514],[50.9203,47.0409],[51.1779,47.1102],[51.2907,47.0975],[51.6151,47.0297],[51.65,47.0181],[51.7447,46.934],[51.9452,46.8948],[52.0109,46.9017],[52.0855,46.8398],[52.1384,46.8287],[52.1887,46.8398],[52.3406,46.8948],[52.385,46.9223],[52.4204,46.9636],[52.4834,46.9906],[52.6776,46.9572],[52.9158,46.9546],[53.0348,46.8927],[53.0692,46.8562],[53.1375,46.7419],[53.1703,46.6689],[53.1322,46.6085],[53.0788,46.5477],[53.0639,46.4752],[53.1089,46.4143],[53.1353,46.1915],[53.0417,45.9677],[52.8877,45.7793],[52.7739,45.573],[52.8374,45.4967],[53.0856,45.4073],[53.2005,45.3322],[53.0788,45.3073],[52.9104,45.3195],[52.7718,45.3433],[52.531,45.3989],[52.4268,45.4047],[52.0489,45.3883],[51.7325,45.3994],[51.5394,45.3428],[51.4155,45.3581],[51.3335,45.2798],[51.2939,45.2301],[51.2499,45.1216],[51.1536,45.0401],[51.0404,44.9803],[51.0092,44.9221],[51.0208,44.8538],[51.0578,44.8115],[51.2182,44.7088],[51.3102,44.6189],[51.3664,44.5998],[51.4309,44.6019],[51.4939,44.5776],[51.5436,44.531],[51.3764,44.5411],[51.3108,44.5326],[51.1769,44.5014],[51.1108,44.5077],[51.0489,44.5305],[50.8604,44.6289],[50.6525,44.6331],[50.4096,44.6242],[50.2974,44.5818],[50.2646,44.5268],[50.253,44.4617],[50.2525,44.4067],[50.2757,44.3553],[50.3313,44.3257],[50.4715,44.295],[50.6848,44.2648],[50.7827,44.2278],[50.8308,44.1929],[50.9398,43.9585],[51.0647,43.75],[51.1399,43.6489],[51.2388,43.5769],[51.2743,43.533],[51.3018,43.4822],[51.314,43.4208],[51.3134,43.3557],[51.2922,43.2308],[51.2955,43.1742],[51.3478,43.1673],[51.514,43.1705],[51.6161,43.1583],[51.7002,43.1039],[51.7854,43.0044],[51.8108,42.9546],[51.8442,42.9107],[51.8982,42.8694],[51.9606,42.8504],[52.0188,42.8604],[52.0754,42.88],[52.1839,42.8689],[52.2728,42.7996],[52.3241,42.816],[52.4342,42.8244],[52.494,42.8202],[52.5501,42.8054],[52.5967,42.7604],[52.6385,42.5556],[52.6184,42.4281],[52.5734,42.3308],[52.5173,42.2371],[52.4623,42.1006],[52.4585,42.0482],[52.4675,41.8857],[52.494,41.7804],[52.6094,41.5296],[52.7475,41.3655],[52.8258,41.2306],[52.8501,41.2004],[52.9015,41.1004]]]}}
