{"type":"Feature","properties":{"id":22,"name":"Baffin Bay","featurecla":"bay","scalerank":1,"wikidataid":"Q37040","source":"Natural Earth 5.2.0-pre ne_10m_geography_marine_polys (public domain)"},"geometry":{"type":"Polygon","coordinates":[[[-72.7148,78.3622],[-72.6724,78.3352],[-72.5708,78.2987],[-72.5814,78.2792],[-72.818,78.1945],[-72.7915,78.1548],[-72.6532,78.1078],[-72.4426,77.4459],[-72.4893,77.4314],[-72.4946,77.3854],[-72.3745,77.3552],[-72.0237,77.3166],[-71.6676,77.325],[-71.6021,77.3344],[-71.0086,77.1365],[-71.0553,77.1203],[-71.1548,77.0737],[-71.1416,77.0287],[-71.0151,76.9848],[-70.7346,76.9292],[-70.7712,76.9165],[-70.7907,76.8964],[-70.7928,76.8689],[-70.7336,76.844],[-70.6129,76.8218],[-70.4415,76.8075],[-70.2245,76.8546],[-69.6943,76.9896],[-69.7118,76.9689],[-69.771,76.9314],[-69.8721,76.8769],[-69.888,76.8271],[-69.8187,76.7827],[-69.7472,76.7525],[-69.6736,76.7361],[-69.2519,76.6864],[-68.7672,76.6678],[-68.2232,76.6779],[-68.1142,76.6509],[-68.147,76.6356],[-68.2454,76.617],[-68.6608,76.5869],[-68.8651,76.5615],[-69.3995,76.4361],[-69.4842,76.399],[-69.4609,76.3715],[-69.3731,76.3318],[-69.1074,76.281],[-68.763,76.1868],[-68.5608,76.1503],[-68.3174,76.0905],[-68.1486,76.0672],[-66.8262,75.9688],[-66.731,75.9741],[-57.1975,74.1347],[-57.2303,74.1252],[-57.1911,74.1183],[-56.9541,74.131],[-56.6551,74.1585],[-56.4932,74.1823],[-56.3921,74.1813],[-56.2984,74.1633],[-56.2254,74.1289],[-56.1243,74.0389],[-56.0661,74.0072],[-56.0143,73.9638],[-55.9989,73.9458],[-55.9968,73.9304],[-55.9296,73.8955],[-55.8724,73.8336],[-55.8381,73.7595],[-55.8973,73.7516],[-55.9682,73.7595],[-56.0328,73.6701],[-56.0825,73.6272],[-56.109,73.5907],[-56.1042,73.5579],[-55.9921,73.5368],[-55.8756,73.5045],[-55.7873,73.4606],[-55.7581,73.4277],[-55.7391,73.3838],[-55.656,73.3992],[-55.4459,73.4606],[-55.3322,73.3976],[-55.2882,73.3272],[-55.2972,73.2621],[-55.3586,73.2028],[-55.4523,73.1621],[-55.5925,73.1404],[-55.6925,73.1129],[-55.6909,73.0541],[-55.6687,73.0081],[-55.6338,72.9912],[-55.5449,72.9848],[-55.4597,72.9642],[-55.3724,72.9563],[-55.2888,72.933],[-55.1983,72.9383],[-55.1337,72.9605],[-55.0729,73.015],[-54.866,72.9668],[-54.7729,72.9176],[-54.7379,72.8727],[-54.7607,72.8319],[-54.7575,72.7912],[-54.7289,72.7504],[-54.74,72.7001],[-54.7903,72.6414],[-54.9247,72.5721],[-55.0464,72.5345],[-55.1221,72.4996],[-55.4565,72.5033],[-55.6015,72.4536],[-55.5687,72.4371],[-55.428,72.4197],[-55.2957,72.3546],[-55.3777,72.3112],[-55.5893,72.3186],[-55.6359,72.3006],[-55.6597,72.2228],[-55.5814,72.1789],[-55.32,72.1995],[-54.8962,72.3943],[-54.8406,72.3795],[-54.8401,72.3562],[-54.8728,72.3255],[-54.9707,72.2684],[-55.3158,72.1107],[-55.4523,71.9577],[-55.5491,71.7683],[-55.6296,71.7386],[-55.6693,71.6915],[-55.6677,71.627],[-55.5941,71.5534],[-55.4481,71.4719],[-55.3364,71.427],[-55.0554,71.4085],[-54.8184,71.3751],[-54.7802,71.373],[-54.7813,71.3577],[-54.4432,70.7486],[-54.531,70.6994],[-54.5014,70.657],[-54.3432,70.5713],[-54.2569,70.529],[-54.2569,70.5284],[-54.2723,70.3115],[-54.3717,70.3173],[-54.7062,70.2559],[-54.7861,70.2178],[-54.8157,70.1893],[-54.8305,70.1612],[-54.8305,70.1331],[-54.8094,70.085],[-54.7739,70.0527],[-54.6522,70.0109],[-54.3225,69.9421],[-54.3633,69.9236],[-54.6644,69.9654],[-54.7877,69.95],[-54.821,69.9199],[-67.294,69.9707],[-67.3183,69.9982],[-67.3638,70.0342],[-67.7162,70.22],[-67.8554,70.2819],[-68.0592,70.3173],[-68.1205,70.3146],[-68.2036,70.2813],[-68.283,70.2284],[-68.3275,70.1803],[-68.3185,70.1607],[-68.2105,70.1284],[-68.2306,70.112],[-68.3052,70.0877],[-68.3915,70.0718],[-68.4894,70.0649],[-68.5777,70.0305],[-68.6566,69.9686],[-68.7439,69.9416],[-68.8968,69.9527],[-69.0085,69.9792],[-68.8392,70.0797],[-68.7767,70.1009],[-68.7233,70.1458],[-68.7344,70.1797],[-68.7529,70.1993],[-68.7783,70.2035],[-68.9185,70.2072],[-69.2461,70.185],[-69.4831,70.1601],[-69.6345,70.1289],[-69.7959,70.0469],[-69.9128,70.0289],[-70.0578,70.0427],[-70.0615,70.0707],[-69.699,70.1893],[-69.4355,70.2533],[-69.2985,70.2765],[-69.0794,70.2893],[-68.8428,70.3146],[-68.7937,70.3242],[-68.6428,70.3835],[-68.5613,70.4057],[-68.4825,70.4147],[-68.4169,70.4401],[-68.3634,70.4814],[-68.3581,70.5226],[-68.401,70.5649],[-68.4465,70.594],[-68.4957,70.6105],[-68.891,70.6872],[-69.0656,70.7279],[-69.1688,70.7639],[-69.2889,70.7835],[-69.3953,70.7893],[-69.5599,70.7772],[-69.6954,70.7861],[-69.7959,70.8348],[-69.9499,70.8449],[-70.0848,70.8295],[-70.3372,70.7877],[-70.5611,70.7385],[-70.8505,70.6438],[-70.9796,70.5808],[-71.0452,70.5189],[-71.313,70.2094],[-71.4051,70.1284],[-71.4294,70.1279],[-71.2797,70.4253],[-71.276,70.5004],[-71.3247,70.5311],[-71.3749,70.5486],[-71.4268,70.5523],[-71.4765,70.5438],[-71.5649,70.5057],[-71.6834,70.4173],[-71.7273,70.3951],[-71.7723,70.394],[-71.8903,70.4316],[-71.8004,70.457],[-71.7295,70.4877],[-71.6585,70.5337],[-71.5861,70.566],[-71.3802,70.6062],[-71.1918,70.6301],[-71.022,70.674],[-70.7616,70.792],[-70.6552,70.8708],[-70.6389,70.9025],[-70.6362,71.0068],[-70.6727,71.0523],[-70.7923,71.1031],[-70.8262,71.1089],[-70.8881,71.0989],[-71.0452,71.0502],[-71.186,70.9782],[-71.3707,70.975],[-71.7427,71.047],[-72.0094,71.0137],[-72.1501,70.9407],[-72.2237,70.8703],[-72.3126,70.8327],[-72.6327,70.8306],[-72.5978,70.8491],[-72.4491,70.884],[-72.2978,70.9391],[-72.0237,71.0656],[-71.938,71.0941],[-71.8559,71.1047],[-71.5929,71.0862],[-71.495,71.1052],[-71.3966,71.147],[-71.2193,71.2386],[-71.1865,71.2788],[-71.2294,71.3386],[-71.2559,71.3619],[-71.3331,71.4037],[-71.4601,71.4635],[-71.6406,71.5164],[-71.875,71.5614],[-72.1163,71.5926],[-72.3645,71.6111],[-72.5195,71.6159],[-72.5809,71.6069],[-72.7031,71.6402],[-72.9021,71.6778],[-73.1868,71.5651],[-73.2783,71.5381],[-73.3106,71.4841],[-73.1921,71.3497],[-73.1804,71.283],[-73.2624,71.3227],[-73.3979,71.3735],[-73.4815,71.4794],[-73.6218,71.5254],[-73.7128,71.5878],[-73.8509,71.519],[-73.9726,71.473],[-74.0631,71.4264],[-74.1975,71.4042],[-73.8684,71.5995],[-73.7133,71.7196],[-73.7075,71.7466],[-73.8139,71.7714],[-73.8668,71.7709],[-73.9922,71.7498],[-74.1393,71.682],[-74.4039,71.6725],[-74.488,71.6482],[-74.5997,71.5846],[-74.6954,71.4693],[-74.7589,71.3381],[-74.996,71.2179],[-75.0352,71.2306],[-74.9314,71.3143],[-74.841,71.4069],[-74.8346,71.4508],[-74.8685,71.5048],[-74.8288,71.5709],[-74.7076,71.6471],[-74.7007,71.6757],[-74.9595,71.6672],[-75.1913,71.6915],[-75.205,71.709],[-74.8928,71.7254],[-74.7891,71.7418],[-74.6214,71.7863],[-74.3155,71.8429],[-74.2483,71.8937],[-74.2128,71.9387],[-74.2091,71.9789],[-74.2663,72.0376],[-74.2927,72.0503],[-74.3774,72.0667],[-74.5198,72.0858],[-74.6949,72.0969],[-74.9034,72.1006],[-75.1479,72.063],[-75.4283,71.9842],[-75.5998,71.9186],[-75.6934,71.8387],[-75.822,71.7461],[-75.8967,71.7138],[-75.9226,71.7175],[-75.9115,71.7312],[-75.7876,71.8032],[-75.6411,71.9371],[-75.5426,72.008],[-75.3939,72.0397],[-75.0526,72.2265],[-75.0399,72.2694],[-75.0717,72.3228],[-75.1198,72.3779],[-75.186,72.434],[-75.2945,72.4811],[-75.7046,72.5716],[-75.8331,72.5763],[-75.9686,72.5625],[-76.0872,72.5615],[-76.1888,72.5721],[-76.4734,72.6334],[-76.6978,72.6948],[-76.8936,72.7208],[-77.0185,72.7261],[-77.0137,72.8441],[-76.4004,72.8208],[-76.1835,72.843],[-76.0898,72.8811],[-76.1348,72.9123],[-76.2554,72.9594],[-76.3094,72.9981],[-76.2893,73.0811],[-76.3311,73.1007],[-76.4586,73.1219],[-76.5697,73.1595],[-76.6216,73.2251],[-76.6571,73.2542],[-76.7587,73.3097],[-77.0052,73.3558],[-77.0412,73.3732],[-77.1196,73.4505],[-77.2063,73.4997],[-77.2465,73.5082],[-77.2143,73.6601],[-80.1776,74.5596],[-80.2776,74.5813],[-80.2628,74.5845],[-80.2205,74.657],[-80.2104,74.7036],[-80.2125,74.7496],[-80.1924,74.7803],[-80.149,74.7956],[-80.1898,74.8279],[-80.3147,74.8761],[-80.348,74.9031],[-80.2893,74.9083],[-80.2025,74.8946],[-79.9442,74.8338],[-79.5082,74.8803],[-79.4013,74.9179],[-79.4606,74.9586],[-79.5246,74.9898],[-79.6643,75.0211],[-79.7331,75.0216],[-80.0363,74.9909],[-80.1353,74.9882],[-80.2607,75.002],[-80.3819,75.0343],[-80.3575,75.0518],[-79.9771,75.1184],[-79.6347,75.1994],[-79.5093,75.2597],[-79.5077,75.2952],[-79.586,75.3846],[-79.6262,75.42],[-79.0097,75.7995],[-79.0516,75.8672],[-79.0632,75.9259],[-79.0568,75.9852],[-78.9462,76.0254],[-78.8452,76.1064],[-78.9261,76.1344],[-79.0092,76.1461],[-79.0129,76.145],[-79.0134,76.1471],[-78.4843,76.4646],[-78.4964,76.5318],[-78.2843,76.571],[-78.1186,76.644],[-77.9831,76.7552],[-77.9985,76.852],[-78.1652,76.935],[-78.289,76.9779],[-78.37,76.9811],[-78.4562,76.9673],[-78.6584,76.9081],[-78.7917,76.8837],[-78.979,76.8927],[-79.2209,76.9361],[-79.3188,76.9806],[-79.2738,77.0255],[-79.2812,77.0853],[-79.341,77.1584],[-79.4971,77.1959],[-79.9236,77.1938],[-80.2189,77.1467],[-80.2744,77.151],[-80.6724,77.2441],[-80.7983,77.2594],[-81.1174,77.2695],[-81.2772,77.2573],[-81.5344,77.2145],[-81.7561,77.2039],[-81.8402,77.2139],[-81.9678,77.2478],[-82.0662,77.2838],[-82.0567,77.2965],[-81.7672,77.296],[-81.5227,77.3108],[-81.3016,77.3441],[-81.2777,77.3653],[-81.3783,77.3854],[-81.5037,77.4298],[-81.654,77.4986],[-81.6593,77.5256],[-81.519,77.5097],[-81.3767,77.4822],[-80.8745,77.3584],[-80.5729,77.315],[-80.2819,77.3012],[-79.9062,77.2996],[-79.1378,77.3309],[-78.8695,77.3325],[-78.7087,77.342],[-78.4933,77.3695],[-78.2837,77.4129],[-78.1678,77.4579],[-78.0763,77.5193],[-78.0472,77.6156],[-78.081,77.7473],[-78.0842,77.8463],[-78.0562,77.9119],[-78.0128,77.9463],[-77.4561,77.9474],[-76.974,77.9272],[-76.7079,77.9378],[-76.3554,77.9907],[-76.0776,77.987],[-75.9697,77.9929],[-75.866,78.0098],[-75.5506,78.2209],[-75.1934,78.3278],[-75.2373,78.3559],[-75.4881,78.4035],[-76.1364,78.4919],[-76.4163,78.5115],[-76.3734,78.521],[-75.966,78.53],[-75.3966,78.5231],[-74.8785,78.5448],[-74.5467,78.6205],[-74.5388,78.6474],[-72.6984,78.3797],[-72.7148,78.3622]],[[-55.428,72.7885],[-55.5163,72.7806],[-55.574,72.7806],[-55.6666,72.7938],[-55.9936,72.7822],[-56.0783,72.7531],[-56.2148,72.7192],[-56.1407,72.6684],[-56.0429,72.6562],[-55.936,72.6684],[-55.8693,72.662],[-55.8269,72.652],[-55.8137,72.6367],[-55.7809,72.6171],[-55.6867,72.6102],[-55.6343,72.5795],[-55.5666,72.5642],[-55.5237,72.5684],[-55.2734,72.6842],[-55.1581,72.7234],[-55.0168,72.7912],[-55.0332,72.8203],[-55.2057,72.8414],[-55.2348,72.825],[-55.428,72.7885]]]}}
