{"type":"Feature","properties":{"id":23,"name":"Gulf of Alaska","featurecla":"gulf","scalerank":1,"wikidataid":"Q180531","source":"Natural Earth 5.2.0-pre ne_10m_geography_marine_polys (public domain)"},"geometry":{"type":"Polygon","coordinates":[[[-162.517,54.0481],[-162.961,54.3005],[-163.0922,54.664],[-163.0906,54.6704],[-163.0832,54.6688],[-163.089,54.6862],[-163.1351,54.7233],[-163.1869,54.7476],[-163.2748,54.7656],[-163.3367,54.7831],[-163.379,54.8154],[-163.3351,54.8392],[-163.2885,54.8376],[-163.2208,54.8635],[-163.1314,54.9164],[-163.1001,54.9736],[-163.1277,55.035],[-163.1197,55.0646],[-162.9959,55.0466],[-162.8652,54.9545],[-162.8197,54.9498],[-162.6742,54.9963],[-162.6191,55.0387],[-162.6144,55.0715],[-162.644,55.2181],[-162.6302,55.2466],[-162.5419,55.2429],[-162.4953,55.2085],[-162.427,55.1456],[-162.4127,55.1069],[-162.4524,55.0927],[-162.4577,55.0778],[-162.4281,55.0614],[-162.3863,55.0524],[-162.3329,55.0503],[-162.2746,55.0731],[-162.2117,55.1212],[-162.1667,55.144],[-162.0741,55.1392],[-161.9804,55.1985],[-161.7418,55.3911],[-161.7206,55.4207],[-161.6836,55.5297],[-161.6545,55.5636],[-161.5989,55.5927],[-161.5169,55.6186],[-161.4587,55.6292],[-161.3576,55.6123],[-161.2549,55.579],[-161.2147,55.5599],[-161.202,55.5435],[-161.3131,55.5589],[-161.3729,55.5562],[-161.4132,55.5361],[-161.4439,55.5133],[-161.4766,55.4647],[-161.4804,55.398],[-161.464,55.3826],[-161.3819,55.3715],[-161.1782,55.389],[-161.0994,55.4059],[-161.0242,55.4403],[-160.9523,55.4932],[-160.8967,55.5139],[-160.7707,55.4837],[-160.7263,55.4996],[-160.6829,55.5403],[-160.6252,55.5525],[-160.5533,55.5356],[-160.4993,55.5372],[-160.4628,55.5578],[-160.4072,55.6139],[-160.3733,55.6351],[-160.2437,55.6604],[-160.0458,55.7631],[-159.9622,55.7948],[-159.9135,55.7922],[-159.8743,55.8002],[-159.8103,55.8329],[-159.7711,55.8409],[-159.7431,55.8435],[-159.6785,55.8245],[-159.6653,55.7948],[-159.6701,55.6451],[-159.6595,55.6261],[-159.6103,55.653],[-159.5674,55.6954],[-159.5415,55.7483],[-159.523,55.8102],[-159.4293,55.8425],[-158.7901,55.9869],[-158.7049,56.043],[-158.6266,56.1547],[-158.5911,56.1843],[-158.5546,56.1827],[-158.5424,56.1669],[-158.5234,56.0727],[-158.5049,56.0621],[-158.4763,56.0753],[-158.4318,56.1113],[-158.2757,56.1965],[-158.2916,56.2039],[-158.317,56.2542],[-158.344,56.2801],[-158.3863,56.3018],[-158.4673,56.3182],[-158.5366,56.3076],[-158.5519,56.3129],[-158.5371,56.3357],[-158.4144,56.4357],[-158.3524,56.4537],[-158.1895,56.478],[-158.1244,56.5013],[-158.0709,56.5103],[-157.982,56.5098],[-157.9302,56.5203],[-157.9286,56.5315],[-157.9783,56.5431],[-158.0784,56.5521],[-158.0281,56.5923],[-157.8693,56.6452],[-157.7709,56.6516],[-157.6741,56.6336],[-157.6095,56.6278],[-157.5783,56.6346],[-157.5285,56.6733],[-157.4899,56.7595],[-157.4407,56.7902],[-157.3904,56.8098],[-157.3338,56.8161],[-157.2708,56.8087],[-157.2057,56.8119],[-157.1391,56.8267],[-157.0666,56.8601],[-156.9883,56.913],[-156.9232,56.9421],[-156.8718,56.9474],[-156.8237,56.9691],[-156.7798,57.0056],[-156.7126,57.0162],[-156.629,57.0098],[-156.5919,57.0648],[-156.5014,57.0897],[-156.475,57.1051],[-156.4004,57.2051],[-156.3977,57.2405],[-156.4438,57.2935],[-156.4739,57.3109],[-156.4781,57.3278],[-156.4358,57.3601],[-156.2421,57.449],[-156.1559,57.4633],[-156.0897,57.4453],[-156.0554,57.4475],[-156.0373,57.5263],[-156.0003,57.5448],[-155.8135,57.5591],[-155.7781,57.5681],[-155.7289,57.6268],[-155.6288,57.6729],[-155.596,57.7009],[-155.5902,57.7337],[-155.5299,57.7591],[-155.414,57.7771],[-155.3129,57.8073],[-155.1473,57.8819],[-155.0991,57.9131],[-155.0071,58.0163],[-154.5848,58.0554],[-154.5821,58.1099],[-154.5705,58.1179],[-154.4091,58.1475],[-154.2821,58.147],[-154.2472,58.1592],[-154.235,58.2348],[-154.208,58.2888],[-154.2816,58.2936],[-154.289,58.3042],[-154.0858,58.3661],[-154.0556,58.3973],[-154.0625,58.4418],[-154.0196,58.4931],[-153.8619,58.5878],[-153.8217,58.6042],[-153.6984,58.6264],[-153.6175,58.6545],[-153.4376,58.755],[-153.3629,58.8222],[-153.3344,58.8577],[-153.327,58.8841],[-153.3285,58.8873],[-151.9665,59.272],[-151.9585,59.2778],[-151.9495,59.2651],[-151.904,59.2598],[-151.7384,59.1884],[-151.6193,59.1873],[-151.477,59.2307],[-151.3664,59.2455],[-151.2876,59.2323],[-151.2225,59.2292],[-151.1706,59.2371],[-151.1632,59.2572],[-151.1992,59.2895],[-151.1828,59.3006],[-151.0637,59.2784],[-150.9605,59.244],[-150.9346,59.2493],[-150.8992,59.3027],[-150.8526,59.3419],[-150.6774,59.427],[-150.6229,59.4794],[-150.6213,59.535],[-150.6076,59.5636],[-150.5817,59.5646],[-150.5261,59.5371],[-150.4853,59.5355],[-150.3382,59.5816],[-150.2964,59.5832],[-150.2583,59.571],[-150.198,59.5668],[-149.9668,59.6901],[-149.9604,59.7128],[-150.016,59.7768],[-150.0054,59.7842],[-149.9652,59.7821],[-149.8011,59.7382],[-149.7826,59.7504],[-149.8038,59.8329],[-149.7948,59.8557],[-149.7138,59.9197],[-149.6847,59.8954],[-149.6297,59.7848],[-149.6127,59.7668],[-149.5979,59.7705],[-149.5492,59.8943],[-149.4598,59.9663],[-149.4323,60.0012],[-149.4148,60.1002],[-149.3952,60.106],[-149.3048,60.0139],[-149.2667,59.998],[-149.1217,60.0335],[-149.0704,60.0001],[-149.0042,59.98],[-148.8428,59.9515],[-148.7507,59.9478],[-148.6438,59.9568],[-148.574,59.97],[-148.5422,59.9875],[-148.5063,59.989],[-148.465,59.9747],[-148.4306,59.989],[-148.3332,60.1219],[-148.2914,60.1457],[-148.2448,60.1467],[-148.2136,60.1541],[-148.1993,60.1663],[-148.176,60.1271],[-148.0797,60.1515],[-147.9141,60.0922],[-147.9226,60.0901],[-147.7681,59.9435],[-147.8141,59.9017],[-147.8723,59.8282],[-147.8464,59.7991],[-147.7358,59.8134],[-147.6686,59.8313],[-147.6448,59.8536],[-147.6019,59.8657],[-147.54,59.8673],[-147.4993,59.8901],[-147.4797,59.9334],[-147.4474,59.9604],[-147.404,59.97],[-147.3765,59.9911],[-147.3463,60.052],[-147.3183,60.0753],[-146.9865,60.2542],[-146.96,60.2864],[-146.7028,60.4044],[-146.7023,60.4044],[-146.7028,60.3954],[-146.6827,60.3605],[-146.6505,60.3356],[-146.6182,60.2737],[-146.5954,60.2684],[-146.4192,60.3251],[-146.2023,60.3679],[-146.1282,60.3928],[-146.1022,60.4113],[-146.106,60.4134],[-145.8895,60.4827],[-145.899,60.478],[-145.8477,60.469],[-145.7186,60.4674],[-145.563,60.4409],[-145.3815,60.3886],[-145.2482,60.3801],[-145.1625,60.4155],[-145.0958,60.4536],[-144.9841,60.5367],[-144.8629,60.6007],[-144.7243,60.6627],[-144.691,60.669],[-144.7867,60.5849],[-144.8243,60.5335],[-144.8624,60.4595],[-144.9016,60.3351],[-144.8524,60.2949],[-144.7412,60.2727],[-144.6714,60.2494],[-144.6428,60.2245],[-144.5301,60.2055],[-144.3327,60.1912],[-144.1856,60.151],[-144.0888,60.0843],[-144.0845,60.0631],[-144.1607,60.0457],[-144.147,60.0165],[-143.9798,60.0086],[-143.8051,60.0128],[-143.5061,60.0552],[-142.9458,60.097],[-142.5484,60.0859],[-142.1039,60.0335],[-141.67,59.97],[-141.5302,59.9948],[-141.4472,60.0192],[-141.4096,60.0425],[-141.4223,60.0854],[-141.4218,60.1086],[-141.4085,60.1176],[-141.362,60.1054],[-141.3297,60.0827],[-141.29,60.0044],[-141.2948,59.98],[-141.4085,59.9028],[-141.3318,59.8737],[-140.8434,59.7488],[-140.6481,59.7234],[-140.4201,59.7107],[-140.2169,59.7266],[-139.9168,59.8059],[-139.8501,59.8308],[-139.6115,59.9737],[-139.5189,60.0171],[-139.4316,60.0123],[-139.4025,60.0012],[-139.2427,59.8927],[-138.9881,59.8351],[-139.0485,59.8282],[-139.1786,59.8398],[-139.221,59.8197],[-139.2458,59.7821],[-139.2585,59.7435],[-139.2654,59.6625],[-139.276,59.6202],[-139.2866,59.6107],[-139.3199,59.7387],[-139.3146,59.8477],[-139.331,59.8768],[-139.4469,59.9568],[-139.4829,59.9636],[-139.5125,59.9536],[-139.5543,59.9334],[-139.5691,59.9123],[-139.5813,59.8805],[-139.5824,59.8483],[-139.5586,59.79],[-139.5057,59.7266],[-139.5131,59.698],[-139.6115,59.6102],[-139.6739,59.5869],[-139.766,59.5662],[-139.7993,59.5461],[-139.7734,59.5271],[-139.7147,59.5038],[-139.5766,59.4625],[-139.3411,59.3757],[-138.8844,59.2371],[-138.704,59.1873],[-138.5151,59.1656],[-138.5209,59.1524],[-138.5606,59.1291],[-138.5373,59.1148],[-138.4516,59.1101],[-138.3526,59.0873],[-138.2409,59.0466],[-138.0272,58.9413],[-137.961,58.891],[-137.934,58.8471],[-137.8636,58.7857],[-137.7499,58.7069],[-137.661,58.6598],[-137.5969,58.6444],[-137.5647,58.6259],[-137.5567,58.5899],[-137.544,58.5809],[-137.072,58.3952],[-136.8651,58.3322],[-136.699,58.2666],[-136.6074,58.2438],[-136.5952,58.2444],[-136.5947,58.2385],[-162.517,54.0481]],[[-151.9977,58.3142],[-152.0369,58.3068],[-152.0786,58.3121],[-152.1252,58.374],[-152.1977,58.3629],[-152.3163,58.4137],[-152.3432,58.4116],[-152.3808,58.3523],[-152.4168,58.3603],[-152.4787,58.4],[-152.5438,58.428],[-152.612,58.4455],[-152.6745,58.4507],[-152.8412,58.4164],[-152.8438,58.3957],[-152.7687,58.3454],[-152.7719,58.2788],[-152.8147,58.2756],[-152.8952,58.2941],[-152.9761,58.2968],[-153.1158,58.2385],[-153.3815,58.0872],[-153.3053,58.0629],[-152.9825,57.9972],[-152.9285,57.9935],[-152.8407,58.0136],[-152.7814,58.0158],[-152.7639,58.0317],[-152.683,58.0634],[-152.6385,58.102],[-152.5983,58.1623],[-152.5713,58.1682],[-152.5581,58.1184],[-152.5375,58.101],[-152.4517,58.129],[-152.3813,58.1243],[-152.3094,58.1338],[-152.3051,58.1539],[-152.3327,58.1867],[-152.3342,58.2079],[-152.2686,58.2518],[-152.2517,58.2513],[-152.2236,58.2142],[-152.1866,58.1846],[-152.1093,58.1613],[-152.0691,58.1777],[-151.9823,58.2444],[-151.9744,58.31],[-151.9977,58.3142]],[[-153.2259,57.9575],[-153.1687,57.9105],[-153.1751,57.8787],[-153.201,57.8634],[-153.2005,57.82],[-153.2174,57.7956],[-153.2523,57.7903],[-153.3571,57.8046],[-153.3905,57.7983],[-153.4227,57.7792],[-153.454,57.7469],[-153.4878,57.7311],[-153.5243,57.7311],[-153.5688,57.7612],[-153.6624,57.8581],[-153.6958,57.8713],[-153.7688,57.8803],[-153.8059,57.875],[-153.8413,57.8629],[-153.9043,57.82],[-153.9059,57.7909],[-153.8794,57.757],[-153.8085,57.7147],[-153.6931,57.6634],[-153.69,57.6406],[-153.7995,57.6464],[-153.8381,57.6358],[-153.8186,57.5956],[-153.7979,57.4432],[-153.7572,57.367],[-153.6878,57.3051],[-153.7545,57.3252],[-153.8053,57.358],[-153.882,57.439],[-153.9471,57.53],[-154.008,57.5559],[-154.0159,57.567],[-153.9953,57.5871],[-154.0297,57.6305],[-154.1159,57.6512],[-154.1794,57.6522],[-154.2816,57.638],[-154.3869,57.5903],[-154.5356,57.5596],[-154.6732,57.4458],[-154.7123,57.3665],[-154.706,57.3353],[-154.5694,57.2061],[-154.4985,57.0368],[-154.3387,56.9209],[-154.2609,56.9119],[-154.2075,56.9638],[-154.1842,57.005],[-154.1911,57.0363],[-154.2091,57.0633],[-154.2392,57.0871],[-154.2694,57.0993],[-154.3811,57.0966],[-154.3768,57.1072],[-154.3245,57.1315],[-154.244,57.1432],[-154.135,57.1405],[-154.0651,57.1336],[-154.035,57.122],[-154.0255,57.1082],[-154.0805,57.0611],[-154.1032,57.0215],[-154.0837,57.0199],[-153.9995,57.05],[-153.8799,57.0035],[-153.8043,56.9977],[-153.7932,56.9897],[-154.071,56.8209],[-154.0699,56.8045],[-154.0508,56.7886],[-154.0276,56.7781],[-153.9725,56.7743],[-153.7572,56.8585],[-153.6434,56.9606],[-153.6312,56.9839],[-153.6328,57.0103],[-153.6466,57.0294],[-153.7328,57.0522],[-153.5884,57.0776],[-153.5243,57.1029],[-153.5037,57.1379],[-153.4439,57.167],[-153.2746,57.2262],[-153.0518,57.2379],[-152.9904,57.2818],[-152.8793,57.321],[-152.7893,57.3205],[-152.7142,57.331],[-152.6793,57.3453],[-152.6925,57.3797],[-152.7195,57.4109],[-152.7814,57.4533],[-152.9571,57.4601],[-152.9973,57.4691],[-152.9407,57.4982],[-152.9121,57.5083],[-152.8311,57.503],[-152.6311,57.4718],[-152.412,57.4548],[-152.3808,57.4601],[-152.3369,57.4824],[-152.2162,57.5771],[-152.2152,57.5977],[-152.2364,57.6146],[-152.4115,57.6459],[-152.4824,57.7036],[-152.4856,57.7343],[-152.4189,57.7824],[-152.412,57.8057],[-152.429,57.8258],[-152.5115,57.8512],[-152.6163,57.8491],[-152.6962,57.8321],[-152.8502,57.7755],[-152.8909,57.7692],[-152.8978,57.8237],[-152.8502,57.8967],[-152.9433,57.9358],[-153.1603,57.9718],[-153.2259,57.9575]],[[-153.2952,57.0003],[-153.2354,57.0289],[-153.1566,57.094],[-153.1343,57.0924],[-153.0073,57.1247],[-152.9333,57.1294],[-152.9079,57.14],[-152.9084,57.1522],[-152.9354,57.1675],[-153.2852,57.185],[-153.3545,57.1321],[-153.3746,57.0522],[-153.2952,57.0003]],[[-159.9818,55.1979],[-160.0389,55.1927],[-160.1024,55.1339],[-160.1336,55.1202],[-160.1723,55.1228],[-160.1522,55.0567],[-160.1537,55.0381],[-160.1638,55.0106],[-160.2273,54.9228],[-160.1696,54.9418],[-160.0384,55.0445],[-159.9992,55.0672],[-159.9532,55.0789],[-159.9341,55.1069],[-159.8727,55.1286],[-159.8542,55.1445],[-159.8394,55.1826],[-159.8981,55.2212],[-159.8712,55.2636],[-159.8876,55.2731],[-159.9204,55.2673],[-159.9818,55.1979]],[[-160.8395,55.3355],[-160.8464,55.3112],[-160.8252,55.1742],[-160.7951,55.145],[-160.7506,55.1709],[-160.702,55.1778],[-160.6088,55.1588],[-160.4876,55.1847],[-160.4829,55.1974],[-160.531,55.2334],[-160.5834,55.3075],[-160.5527,55.3636],[-160.5527,55.3805],[-160.5739,55.3784],[-160.639,55.3218],[-160.6697,55.3144],[-160.685,55.3149],[-160.6665,55.3594],[-160.6723,55.3795],[-160.6956,55.3985],[-160.7242,55.4049],[-160.7893,55.3832],[-160.8395,55.3355]]]}}
