{"type":"Feature","properties":{"id":24,"name":"Red Sea","featurecla":"sea","scalerank":1,"wikidataid":"Q23406","source":"Natural Earth 5.2.0-pre ne_10m_geography_marine_polys (public domain)"},"geometry":{"type":"Polygon","coordinates":[[[43.4754,12.8392],[43.4876,12.699],[43.4892,12.6995],[43.3003,12.4614],[43.2987,12.464],[43.1309,12.6604],[43.1166,12.7085],[43.0828,12.8244],[42.9992,12.8995],[42.9696,12.8085],[42.796,12.8641],[42.7346,13.0186],[42.5229,13.2213],[42.3991,13.2128],[42.3467,13.398],[42.2451,13.5875],[41.6583,13.9833],[41.4799,14.2436],[41.1762,14.6204],[40.7994,14.7432],[40.6343,14.8829],[40.5465,14.9337],[40.4364,14.9638],[40.3052,14.9739],[40.2041,15.0141],[40.084,15.1517],[40.0581,15.2173],[40.0411,15.3348],[39.9782,15.393],[39.8639,15.4702],[39.8136,15.4136],[39.7903,15.3189],[39.8157,15.2453],[39.8194,15.2014],[39.7855,15.1247],[39.721,15.2136],[39.631,15.4528],[39.5786,15.5226],[39.5067,15.5322],[39.422,15.7867],[39.2987,15.9211],[39.2225,16.1936],[39.1426,16.7291],[39.0347,17.0858],[38.9119,17.4271],[38.6092,18.0049],[38.5737,18.0732],[38.333,18.2193],[38.2832,18.287],[38.252,18.2642],[38.2017,18.2494],[38.1282,18.333],[38.0742,18.4098],[37.9218,18.5558],[37.7297,18.6944],[37.5995,18.7172],[37.5318,18.7532],[37.4715,18.8204],[37.3614,19.0919],[37.2482,19.5819],[37.2625,19.7919],[37.1932,20.1206],[37.1878,20.3952],[37.2275,20.5566],[37.1725,20.7317],[37.1566,20.8947],[37.1413,20.9815],[37.1508,21.1038],[37.2175,21.0778],[37.2572,21.0392],[37.263,21.0725],[37.2587,21.1085],[37.2117,21.1858],[37.081,21.326],[36.927,21.5864],[36.8825,21.7689],[36.8714,21.997],[36.8703,22.0155],[36.8296,22.0975],[36.4148,22.3944],[36.2296,22.6288],[35.9136,22.7394],[35.8459,22.7854],[35.7972,22.8489],[35.6977,22.9463],[35.5644,23.2712],[35.5226,23.4427],[35.5046,23.7792],[35.5152,23.8427],[35.5405,23.9205],[35.594,23.9427],[35.6321,23.9501],[35.784,23.938],[35.6247,24.066],[35.4781,24.1549],[35.3971,24.2698],[35.194,24.4751],[34.8531,25.1397],[34.6791,25.4424],[34.5653,25.6911],[34.3293,26.0245],[34.0494,26.551],[33.9589,26.6489],[33.8933,27.0495],[33.8493,27.1849],[33.8282,27.222],[33.8387,27.2278],[33.9732,27.4775],[34.0002,27.5247],[34.2055,27.7696],[34.2203,27.7644],[34.3187,27.8887],[34.3886,27.9993],[34.4251,27.976],[34.506,27.9961],[34.5864,28.084],[34.6225,28.0877],[34.6251,28.0644],[34.7219,28.1306],[34.8278,28.1089],[35.078,28.0871],[35.1807,28.0348],[35.4236,27.7337],[35.5813,27.4326],[35.7628,27.259],[35.8517,27.0706],[36.0321,26.8812],[36.0935,26.7658],[36.2497,26.5949],[36.519,26.1049],[36.6751,26.0387],[36.7026,25.9028],[36.763,25.7514],[36.8603,25.6927],[36.9206,25.6414],[37.1487,25.291],[37.2185,25.1508],[37.2434,25.0736],[37.2662,24.9603],[37.2201,24.8735],[37.181,24.8201],[37.3387,24.6158],[37.4307,24.4592],[37.5429,24.2914],[37.6382,24.2777],[37.7133,24.2745],[37.8207,24.1877],[37.9197,24.1856],[37.9779,24.1248],[38.0985,24.0581],[38.2891,23.911],[38.4642,23.712],[38.5425,23.558],[38.706,23.3056],[38.7568,23.1945],[38.797,23.0484],[38.8357,22.9892],[38.941,22.8818],[38.8828,22.8823],[38.9388,22.805],[39.0077,22.7701],[39.0013,22.6992],[39.0621,22.5923],[39.096,22.3928],[39.0701,22.2938],[39.0341,22.2033],[39.0214,22.0335],[38.9881,21.8816],[39.0299,21.7758],[39.0907,21.6641],[39.1474,21.5192],[39.1505,21.4329],[39.0934,21.3101],[39.2759,20.9741],[39.4913,20.737],[39.6135,20.5174],[39.7284,20.3904],[39.884,20.2931],[40.0808,20.2661],[40.4825,19.9936],[40.6158,19.8221],[40.7592,19.7554],[40.7772,19.7168],[40.7915,19.6464],[40.8481,19.5554],[40.9132,19.4903],[41.1159,19.0823],[41.1444,18.9892],[41.191,18.8712],[41.2206,18.7654],[41.2296,18.6786],[41.4318,18.4526],[41.5074,18.2563],[41.6577,18.0076],[41.7498,17.8859],[42.0525,17.6695],[42.2938,17.435],[42.3324,17.2567],[42.3832,17.1223],[42.4748,17.0498],[42.5441,16.9598],[42.5531,16.8683],[42.6472,16.8011],[42.6986,16.7371],[42.7266,16.6535],[42.7309,16.5698],[42.7896,16.4513],[42.8399,16.0322],[42.7171,15.6544],[42.7997,15.3718],[42.7991,15.3263],[42.7885,15.2655],[42.7367,15.2935],[42.698,15.3263],[42.6578,15.2326],[42.8558,15.1332],[42.8971,15.0056],[42.9362,14.9384],[42.9373,14.8982],[42.9129,14.8633],[42.9219,14.8172],[42.9468,14.7733],[43.0209,14.5548],[43.0187,14.5209],[43.006,14.4834],[43.0447,14.3415],[43.0934,14.2039],[43.0891,14.0108],[43.2341,13.8589],[43.2822,13.6928],[43.2828,13.6398],[43.232,13.2673],[43.4754,12.8392]],[[41.9641,16.6535],[42.0715,16.6714],[42.1022,16.6439],[42.1086,16.6185],[42.1276,16.5947],[42.1578,16.5709],[42.1673,16.5963],[42.1705,16.7085],[42.0599,16.8037],[42.0266,16.7577],[42.0334,16.7418],[42.0652,16.7101],[41.9879,16.7154],[41.9467,16.7487],[41.9625,16.7789],[41.9541,16.8064],[41.9477,16.9366],[41.917,16.9937],[41.8604,17.0027],[41.8848,16.9466],[41.8583,16.8932],[41.8159,16.8604],[41.7762,16.8471],[41.8017,16.7789],[41.8974,16.6842],[41.9641,16.6535]],[[40.0708,15.6766],[40.0633,15.666],[40.0242,15.6555],[39.9475,15.6962],[39.975,15.6126],[40.0951,15.5909],[40.1956,15.5983],[40.3047,15.5771],[40.3989,15.5798],[40.4084,15.629],[40.2501,15.7036],[40.2343,15.666],[40.2115,15.648],[40.1824,15.6427],[40.1411,15.6962],[40.1322,15.7952],[40.0967,15.8385],[40.0427,15.8756],[39.957,15.8893],[40.0004,15.8285],[39.9792,15.8068],[39.9453,15.7893],[39.9401,15.7443],[40.0162,15.7332],[40.0708,15.6766]]]}}
