{"type":"Feature","properties":{"id":25,"name":"Sea of Okhotsk","featurecla":"sea","scalerank":1,"wikidataid":"Q41602","source":"Natural Earth 5.2.0-pre ne_10m_geography_marine_polys (public domain)"},"geometry":{"type":"Polygon","coordinates":[[[156.2541,50.218],[155.037,49.1596],[153.5553,47.8367],[151.8091,46.5667],[149.4278,45.3496],[147.0466,43.8151],[146.1676,43.3605],[145.8178,43.3769],[145.8168,43.3795],[145.8332,43.3859],[145.7511,43.3965],[145.6733,43.3891],[145.5834,43.3277],[145.4876,43.2795],[145.4363,43.2822],[145.341,43.3023],[145.2728,43.4626],[145.214,43.578],[145.1394,43.6627],[145.1008,43.7648],[145.1262,43.8695],[145.2453,44.0759],[145.3522,44.2299],[145.3696,44.2813],[145.3696,44.3273],[145.3426,44.3336],[145.1014,44.1659],[144.8717,43.9817],[144.7986,43.9405],[144.7151,43.9278],[144.5965,43.9304],[144.4817,43.9495],[144.1012,44.1013],[144.0055,44.1167],[143.9493,44.1119],[143.8245,44.1172],[143.7594,44.1315],[143.6546,44.2215],[143.5117,44.2776],[143.2884,44.3966],[143.0752,44.5347],[142.8846,44.6702],[142.7042,44.8194],[142.4158,45.1253],[142.1719,45.3258],[142.0163,45.438],[141.9808,45.4835],[141.9464,45.5041],[142.0703,45.9217],[142.0771,45.9169],[142.1496,45.9994],[142.2084,46.0889],[142.3042,46.3577],[142.3502,46.4588],[142.4063,46.5545],[142.4788,46.644],[142.5777,46.7006],[142.636,46.7165],[142.692,46.7107],[142.7476,46.6704],[142.7958,46.6202],[142.8291,46.6053],[143.0476,46.5927],[143.2826,46.5588],[143.3519,46.4762],[143.3705,46.3587],[143.4186,46.2222],[143.4318,46.0286],[143.4636,46.0693],[143.4821,46.1159],[143.4905,46.1746],[143.5085,46.2302],[143.5805,46.3609],[143.5789,46.4059],[143.5403,46.5752],[143.4858,46.7519],[143.4472,46.7921],[143.3842,46.8059],[143.3185,46.8075],[143.2175,46.7948],[143.1778,46.844],[143.0894,47.0006],[143.0053,47.2229],[142.9402,47.3229],[142.9053,47.362],[142.864,47.3917],[142.801,47.416],[142.7454,47.4526],[142.6698,47.5367],[142.5788,47.6838],[142.5571,47.7378],[142.546,47.8849],[142.5741,48.0722],[142.6508,48.2468],[142.9715,48.9178],[143.027,49.1057],[143.1048,49.1988],[143.2366,49.2628],[143.3821,49.2909],[143.7323,49.312],[143.8192,49.3089],[143.9679,49.2766],[144.0488,49.2491],[144.1255,49.2083],[144.2838,49.0697],[144.4118,48.9866],[144.5362,48.8935],[144.6209,48.8146],[144.6727,48.6786],[144.714,48.6405],[144.7066,48.8194],[144.6854,48.8712],[144.6066,48.9358],[144.4319,49.0512],[144.3415,49.1803],[144.2722,49.3115],[144.2399,49.4322],[144.1996,49.5496],[144.1414,49.6613],[144.0478,49.8957],[143.816,50.2825],[143.7361,50.5069],[143.5339,51.2461],[143.4889,51.2768],[143.473,51.2991],[143.4673,51.4017],[143.4556,51.4716],[143.4175,51.5208],[143.3207,51.5832],[143.2996,51.6324],[143.2947,51.7441],[143.2508,51.8478],[143.1905,51.9446],[143.1555,52.0838],[143.1725,52.3494],[143.2011,52.4431],[143.2641,52.4786],[143.2953,52.5294],[143.3233,52.6135],[143.3329,52.7003],[143.3249,52.9633],[143.2878,53.1342],[143.2599,53.2173],[143.2238,53.2961],[143.0953,53.4888],[142.918,53.7941],[142.9365,53.811],[142.9117,53.8782],[142.9264,53.9555],[142.9672,54.029],[142.9857,54.0856],[142.9762,54.1412],[142.7608,54.3941],[142.6925,54.4159],[142.6661,54.3582],[142.6158,54.3037],[142.5518,54.2788],[142.3349,54.2809],[142.3349,54.2926],[139.7568,54.2656],[139.7075,54.2772],[139.3197,54.1931],[139.1048,54.2179],[138.6958,54.3201],[138.6571,54.2984],[138.7159,54.2227],[138.7048,54.1475],[138.7217,54.0438],[138.6995,53.8697],[138.6609,53.7449],[138.5111,53.5702],[138.4508,53.5369],[138.3201,53.5231],[138.2497,53.5242],[138.292,53.5925],[138.4069,53.674],[138.5693,53.8189],[138.5683,53.947],[138.528,53.9597],[138.4936,53.9597],[138.3788,53.9094],[138.2529,53.7263],[137.9507,53.6036],[137.738,53.5602],[137.3284,53.539],[137.2538,53.5459],[137.2215,53.5792],[137.3136,53.6316],[137.5168,53.7073],[137.6449,53.866],[137.7861,53.9031],[137.8348,53.9465],[137.6226,53.9703],[137.4766,54.0275],[137.3389,54.1005],[137.4035,54.1238],[137.4512,54.1306],[137.5131,54.1566],[137.666,54.2836],[137.6512,54.2841],[138.2095,55.0334],[138.1237,56.4817],[138.1406,56.4986],[138.1804,56.5886],[138.218,56.6288],[138.6619,56.9654],[138.9657,57.0881],[139.1815,57.2617],[139.444,57.33],[139.5065,57.3585],[139.6192,57.4559],[139.8033,57.5141],[139.8615,57.549],[140.0023,57.6877],[140.4468,57.8136],[140.495,57.8655],[140.6849,58.2121],[140.7902,58.3036],[140.9876,58.4169],[141.3469,58.528],[141.603,58.6492],[141.7549,58.7455],[142.0253,58.9995],[142.3306,59.1524],[142.5804,59.2403],[143.1921,59.3699],[143.5239,59.3435],[143.8689,59.4112],[144.1234,59.4085],[144.4833,59.3762],[145.5543,59.4133],[145.7564,59.3736],[145.829,59.3302],[145.9316,59.1985],[146.0496,59.1704],[146.2734,59.2217],[146.4443,59.4302],[146.5375,59.4572],[146.8037,59.3731],[147.0402,59.3657],[147.5143,59.2688],[147.6879,59.2905],[147.8747,59.3879],[148.2573,59.4144],[148.4912,59.2625],[148.7267,59.2577],[148.914,59.2826],[148.9648,59.3694],[148.8897,59.4001],[148.7441,59.3736],[148.7087,59.4487],[148.797,59.5324],[148.9251,59.4752],[149.133,59.4805],[149.205,59.4884],[149.1754,59.5265],[149.1278,59.5588],[149.0654,59.6308],[149.2902,59.7287],[149.4247,59.761],[149.6426,59.7705],[150.2025,59.6514],[150.3253,59.6387],[150.457,59.5906],[150.6671,59.5562],[150.5396,59.5249],[150.4835,59.4943],[150.6153,59.5064],[150.7295,59.4694],[150.8232,59.4609],[150.8634,59.4752],[150.9121,59.5228],[150.9825,59.5715],[151.0338,59.5858],[151.1703,59.5832],[151.3482,59.5609],[151.4857,59.5239],[151.7979,59.3233],[151.9424,59.2842],[152.1043,59.2905],[152.1694,59.2778],[152.2605,59.2239],[151.99,59.1598],[151.7334,59.1466],[151.5048,59.1641],[151.1211,59.0826],[151.327,58.8751],[151.7048,58.8667],[152.0879,58.9106],[152.1652,58.9968],[152.3197,59.0307],[152.4007,59.0265],[152.5758,58.954],[152.8176,58.9265],[152.8822,58.9392],[153.0774,59.082],[153.196,59.0942],[153.2727,59.0916],[153.3611,59.2149],[153.695,59.2249],[153.8919,59.1143],[154.0109,59.0757],[154.2464,59.1085],[154.376,59.1879],[154.458,59.2164],[154.7036,59.1413],[154.8237,59.1873],[155.0168,59.1958],[155.1598,59.19],[155.1598,59.1884],[156.815,57.7676],[156.7917,57.748],[156.9002,57.6771],[156.9483,57.6157],[156.9637,57.5612],[156.9769,57.4665],[156.8489,57.2903],[156.7282,57.1522],[156.5292,57.0209],[156.0672,56.7818],[156.0254,56.7521],[155.9826,56.695],[155.7164,56.0721],[155.6434,55.7938],[155.555,55.3488],[155.564,55.199],[155.6201,54.8646],[155.7064,54.5217],[155.9048,53.9279],[155.9503,53.7443],[156.099,53.0067],[156.1101,52.8659],[156.1545,52.7474],[156.2286,52.6262],[156.3646,52.5093],[156.3774,52.3664],[156.4901,51.9129],[156.5001,51.4753],[156.5212,51.38],[156.5434,51.3118],[156.671,51.2271],[156.7134,51.1239],[156.7245,51.0472],[156.7478,50.9694],[156.8473,51.0064],[157.1362,51.1742],[156.2541,50.218]],[[156.2133,50.7847],[156.1678,50.7318],[156.1964,50.7022],[156.326,50.6392],[156.3657,50.6339],[156.4049,50.6577],[156.4832,50.7514],[156.4874,50.8429],[156.4556,50.8593],[156.3763,50.862],[156.2133,50.7847]],[[156.0969,50.772],[156.0017,50.7572],[155.8847,50.6842],[155.7725,50.4826],[155.6799,50.4005],[155.4339,50.3688],[155.327,50.2931],[155.2185,50.2979],[155.1952,50.2645],[155.2428,50.2127],[155.2428,50.0947],[155.2888,50.0613],[155.3973,50.0412],[155.4492,50.0777],[155.5164,50.1455],[155.6074,50.1772],[155.7926,50.2021],[155.9212,50.3021],[156.0445,50.4519],[156.1006,50.5593],[156.1228,50.6715],[156.0969,50.772]],[[154.7147,49.2676],[154.8104,49.312],[154.8301,49.348],[154.8026,49.4681],[154.8835,49.5666],[154.8994,49.6306],[154.8248,49.647],[154.6131,49.3808],[154.611,49.294],[154.7147,49.2676]],[[151.754,46.7884],[151.8154,46.7874],[152.0022,46.8974],[152.289,47.1424],[152.2345,47.1435],[152.1657,47.1107],[152.0398,47.0149],[151.8641,46.8689],[151.7154,46.8525],[151.7233,46.8287],[151.754,46.7884]],[[149.9622,46.0217],[149.7961,45.8762],[149.6659,45.8396],[149.4469,45.5936],[149.5389,45.5915],[149.6876,45.6423],[149.8834,45.783],[149.9543,45.8227],[150.0565,45.8492],[150.1951,45.9333],[150.2348,46.0122],[150.5533,46.2085],[150.3486,46.2132],[150.3089,46.2005],[149.9622,46.0217]],[[148.3239,45.2824],[148.1303,45.2581],[148.0562,45.2623],[147.9646,45.3777],[147.9239,45.3835],[147.8726,45.3004],[147.8858,45.2258],[147.7694,45.1909],[147.6577,45.093],[147.5577,45.0623],[147.4302,44.9453],[147.2466,44.8559],[147.1545,44.766],[147.1408,44.6633],[146.9741,44.5659],[146.9333,44.513],[146.8973,44.4045],[147.0984,44.531],[147.2074,44.5538],[147.3101,44.6776],[147.563,44.8358],[147.6096,44.8866],[147.6217,44.9448],[147.6577,44.9771],[147.7842,44.9586],[147.9138,44.9903],[148.0054,45.0702],[148.262,45.2168],[148.4144,45.247],[148.5996,45.3179],[148.7907,45.3237],[148.8373,45.3629],[148.8029,45.4137],[148.8256,45.456],[148.8261,45.4862],[148.8123,45.51],[148.7727,45.5264],[148.7065,45.5206],[148.6124,45.4846],[148.3239,45.2824]],[[146.5677,44.4405],[146.356,44.4247],[146.2079,44.4977],[146.112,44.5003],[145.9406,44.2728],[145.8904,44.2484],[145.8517,44.1929],[145.7734,44.1289],[145.7484,44.0717],[145.6665,43.9992],[145.4616,43.8711],[145.4262,43.8103],[145.4389,43.7373],[145.5559,43.6648],[145.5866,43.8452],[145.7671,43.941],[145.8871,44.0479],[145.9141,44.104],[146.1126,44.2458],[146.1729,44.2685],[146.2962,44.2807],[146.4364,44.3754],[146.5164,44.3749],[146.5677,44.4405]]]}}
