{"type":"Feature","properties":{"id":26,"name":"Weddell Sea","featurecla":"sea","scalerank":1,"wikidataid":"Q173343","source":"Natural Earth 5.2.0-pre ne_10m_geography_marine_polys (public domain)"},"geometry":{"type":"Polygon","coordinates":[[[-11.9262,-71.1327],[-11.9262,-71.2888],[-12.0739,-71.2967],[-12.2077,-71.3321],[-12.3512,-71.3898],[-12.2845,-71.4951],[-12.148,-71.6137],[-11.6971,-71.7195],[-11.333,-71.7856],[-11.1796,-71.7767],[-11.0092,-71.7581],[-10.961,-71.8221],[-10.9584,-71.9021],[-11.1214,-72.0317],[-11.3463,-72.2815],[-11.4971,-72.4127],[-11.7775,-72.4439],[-12.0945,-72.4979],[-12.747,-72.6291],[-13.2084,-72.7852],[-13.6026,-72.7921],[-13.9392,-72.7561],[-14.2979,-72.7329],[-14.2985,-72.7847],[-14.1683,-72.8435],[-14.0,-73.0006],[-14.1646,-73.1022],[-14.3212,-73.1228],[-15.007,-73.0477],[-15.596,-73.0969],[-15.8029,-73.152],[-16.149,-73.3345],[-16.2792,-73.3885],[-16.4352,-73.4255],[-16.5072,-73.5562],[-16.5189,-73.6441],[-16.3876,-73.6811],[-16.0976,-73.7091],[-15.9357,-73.7578],[-16.0029,-73.8161],[-16.1807,-73.8303],[-16.2818,-73.8669],[-16.2199,-73.9155],[-15.7489,-73.9457],[-15.2595,-73.8891],[-14.6112,-73.8515],[-14.5737,-73.9372],[-14.6588,-73.9891],[-15.089,-74.1632],[-15.2896,-74.2807],[-15.5314,-74.3754],[-15.6727,-74.4071],[-16.4294,-74.324],[-16.7273,-74.3278],[-16.9893,-74.3198],[-17.2989,-74.3341],[-17.4359,-74.3791],[-17.9227,-74.6992],[-18.0682,-74.8628],[-18.2212,-74.9744],[-18.517,-75.0522],[-18.617,-75.1152],[-18.7493,-75.2422],[-18.617,-75.3422],[-18.517,-75.3898],[-18.4154,-75.3967],[-18.3048,-75.4316],[-18.5852,-75.4628],[-18.8509,-75.4702],[-19.4928,-75.5401],[-20.4876,-75.4919],[-20.7834,-75.594],[-20.9893,-75.6342],[-21.4338,-75.683],[-21.9481,-75.6941],[-22.4656,-75.6613],[-23.1975,-75.7179],[-24.2696,-75.7671],[-26.0592,-75.9571],[-26.5603,-76.0549],[-27.1345,-76.1576],[-27.6531,-76.2264],[-28.0796,-76.2576],[-28.9337,-76.3703],[-29.8914,-76.5979],[-30.2222,-76.6603],[-30.4894,-76.7624],[-31.6758,-77.0329],[-32.0631,-77.1598],[-32.4055,-77.1361],[-32.614,-77.1408],[-33.3765,-77.2816],[-33.5914,-77.3112],[-34.0755,-77.4255],[-34.2904,-77.5218],[-34.5513,-77.7287],[-34.8084,-77.8208],[-35.0879,-77.8372],[-35.5091,-78.0409],[-36.1811,-78.4685],[-36.2658,-78.6156],[-36.2393,-78.7744],[-35.8901,-78.8437],[-35.5159,-78.9331],[-34.9947,-78.9776],[-34.1973,-79.1104],[-32.9945,-79.2289],[-32.542,-79.222],[-31.4128,-79.1453],[-30.9852,-79.1278],[-30.6455,-79.1241],[-30.3158,-79.1633],[-30.1777,-79.3046],[-30.211,-79.485],[-30.0491,-79.5856],[-29.9491,-79.5993],[-25.2586,-79.7623],[-24.6707,-79.7745],[-24.5342,-79.7581],[-24.2997,-79.7708],[-24.0881,-79.8147],[-23.407,-79.8592],[-23.5742,-79.965],[-24.0198,-80.0089],[-24.2405,-80.0618],[-29.3289,-80.1719],[-29.5316,-80.1819],[-29.7972,-80.2232],[-30.4253,-80.2798],[-31.0154,-80.3079],[-31.3122,-80.4502],[-31.6345,-80.4444],[-32.2558,-80.4608],[-32.7061,-80.5137],[-33.0574,-80.5317],[-33.1913,-80.5185],[-33.3289,-80.5401],[-34.3502,-80.6037],[-35.327,-80.6508],[-35.5207,-80.7455],[-35.7758,-80.8127],[-35.9657,-80.891],[-36.234,-80.9206],[-36.4997,-80.9598],[-36.8124,-80.9746],[-37.2093,-81.064],[-38.011,-80.9545],[-38.7719,-80.8826],[-39.7625,-81.0317],[-40.4409,-81.1651],[-40.9145,-81.1725],[-41.1262,-81.2148],[-41.4336,-81.2979],[-41.7114,-81.4075],[-42.0464,-81.598],[-42.5645,-81.7615],[-43.1804,-82.0171],[-43.6693,-82.27],[-44.0641,-82.3314],[-44.2916,-82.3177],[-44.4552,-82.3658],[-45.0436,-82.4378],[-45.7886,-82.4949],[-46.1755,-82.5119],[-46.5168,-82.4547],[-46.4485,-82.3399],[-46.1988,-82.2711],[-46.0464,-82.1589],[-46.1194,-82.0398],[-46.258,-81.9472],[-46.5665,-81.979],[-47.02,-82.0033],[-47.3603,-82.0038],[-47.8868,-81.925],[-48.3609,-81.8922],[-50.0294,-81.9679],[-50.6533,-81.9753],[-51.2094,-82.0155],[-51.7307,-82.0615],[-52.4149,-82.1351],[-52.799,-82.1536],[-53.3393,-82.1446],[-53.5573,-82.1695],[-53.7394,-82.1785],[-53.986,-82.2007],[-54.6009,-82.3161],[-55.2946,-82.4647],[-55.8005,-82.4785],[-56.0751,-82.57],[-56.318,-82.6336],[-57.3536,-82.8405],[-57.5573,-82.8902],[-57.7976,-82.9584],[-58.2897,-83.1209],[-59.5158,-83.4585],[-59.8539,-83.4427],[-60.3968,-83.4405],[-60.9831,-83.4273],[-61.4255,-83.3956],[-61.5896,-83.3411],[-61.5308,-83.2792],[-61.4361,-83.2326],[-61.3033,-83.1844],[-61.2006,-83.0982],[-61.2186,-82.9918],[-61.3128,-82.9394],[-61.7092,-83.0098],[-61.9171,-82.9764],[-62.1288,-82.8225],[-62.4653,-82.7182],[-62.631,-82.6208],[-62.7358,-82.5272],[-62.5532,-82.5034],[-62.0944,-82.4669],[-60.817,-82.2759],[-60.5275,-82.1996],[-60.6873,-82.1885],[-60.8593,-82.1869],[-61.9018,-82.2711],[-62.6453,-82.2631],[-63.4665,-82.3071],[-63.7729,-82.3044],[-64.3968,-82.3742],[-64.9196,-82.3706],[-65.1699,-82.3182],[-65.4245,-82.2806],[-65.5721,-82.2944],[-65.7139,-82.279],[-65.9134,-82.1833],[-65.7864,-82.0456],[-65.8441,-81.9933],[-65.9531,-81.971],[-66.134,-81.9536],[-66.0425,-81.9139],[-65.916,-81.9022],[-64.7064,-81.8875],[-64.137,-81.8694],[-64.1904,-81.7949],[-64.8106,-81.8028],[-65.2636,-81.7858],[-65.4869,-81.7753],[-65.6197,-81.7292],[-65.0217,-81.6964],[-64.6963,-81.6525],[-64.4756,-81.6716],[-64.2328,-81.6599],[-63.7687,-81.6763],[-63.5538,-81.6673],[-62.9458,-81.6837],[-62.5421,-81.6784],[-62.1653,-81.6361],[-62.3537,-81.5768],[-62.4902,-81.5567],[-63.4776,-81.553],[-64.7503,-81.5218],[-65.5737,-81.4604],[-67.9655,-81.1482],[-68.1438,-81.1302],[-68.2846,-81.0741],[-68.3264,-81.0043],[-68.5899,-80.9677],[-69.1815,-81.0048],[-69.634,-80.9656],[-69.7721,-80.9614],[-70.0123,-80.918],[-70.2393,-80.8566],[-70.3923,-80.7354],[-70.56,-80.6465],[-70.6881,-80.6264],[-71.0177,-80.619],[-71.2305,-80.6465],[-71.3802,-80.6825],[-72.1734,-80.764],[-72.5534,-80.8529],[-73.0296,-80.9175],[-73.3831,-80.8937],[-73.9377,-80.8159],[-74.5113,-80.8381],[-74.8066,-80.8862],[-75.0754,-80.8598],[-75.2368,-80.8027],[-75.3447,-80.7191],[-75.4945,-80.6175],[-75.5548,-80.5306],[-75.7088,-80.3825],[-75.8226,-80.338],[-75.9855,-80.2952],[-76.2597,-80.1602],[-76.4073,-80.0952],[-76.7571,-80.1311],[-77.1603,-80.1528],[-78.1763,-80.1666],[-78.9071,-80.0898],[-79.6606,-79.9967],[-78.6922,-79.9951],[-77.7016,-80.0094],[-77.2222,-79.9941],[-76.9042,-79.9554],[-76.5581,-79.9036],[-76.3438,-79.821],[-76.0316,-79.6268],[-76.1051,-79.4649],[-76.2178,-79.3871],[-76.4994,-79.3258],[-79.4558,-79.3046],[-80.1511,-79.2681],[-80.4157,-79.2945],[-80.4888,-79.321],[-80.4787,-79.4263],[-80.5348,-79.5131],[-80.7047,-79.5173],[-80.892,-79.502],[-81.1634,-79.4004],[-81.2222,-79.2977],[-81.5032,-79.1628],[-81.6608,-79.0998],[-82.589,-78.9162],[-82.9705,-78.8167],[-83.26,-78.7744],[-83.595,-78.6108],[-83.6966,-78.5373],[-83.7627,-78.4611],[-83.7061,-78.4039],[-83.5447,-78.3553],[-83.3547,-78.4076],[-83.2272,-78.4018],[-83.2457,-78.3568],[-83.5082,-78.2483],[-83.6876,-78.1478],[-83.7521,-78.0663],[-83.7791,-77.9838],[-83.4119,-78.1145],[-83.0827,-78.2467],[-82.6086,-78.4124],[-81.9292,-78.559],[-80.8163,-78.7542],[-80.2924,-78.8225],[-79.7664,-78.8209],[-78.7118,-78.7521],[-77.8694,-78.7458],[-77.545,-78.6595],[-77.4524,-78.5606],[-77.4328,-78.4346],[-77.6646,-78.4013],[-77.8583,-78.351],[-79.5098,-78.1541],[-81.4413,-77.8859],[-81.581,-77.8462],[-81.1031,-77.842],[-80.8883,-77.7975],[-80.6015,-77.752],[-80.104,-77.7964],[-79.6791,-77.8425],[-77.7424,-77.9404],[-76.438,-78.0441],[-75.3987,-78.1579],[-74.8119,-78.178],[-74.0419,-78.1092],[-73.4852,-77.9705],[-73.2513,-77.8943],[-72.8751,-77.6938],[-72.8518,-77.59],[-73.4784,-77.5356],[-74.5806,-77.4779],[-75.3871,-77.4742],[-75.748,-77.3985],[-75.9374,-77.3345],[-76.2485,-77.2747],[-76.8238,-76.9937],[-77.1682,-76.8339],[-77.2873,-76.7016],[-77.1899,-76.6296],[-76.2443,-76.5852],[-75.9628,-76.5921],[-75.8316,-76.6084],[-75.659,-76.6079],[-75.4437,-76.5867],[-75.2685,-76.5815],[-73.88,-76.6968],[-73.472,-76.6757],[-72.7222,-76.6889],[-71.7988,-76.7529],[-70.895,-76.7392],[-70.551,-76.718],[-70.2102,-76.6741],[-70.0954,-76.6545],[-69.9155,-76.5217],[-69.3043,-76.3507],[-67.5184,-76.1095],[-66.3706,-76.0131],[-65.9658,-75.9517],[-65.3218,-75.8153],[-65.0445,-75.7877],[-64.7783,-75.738],[-64.0528,-75.5798],[-63.3633,-75.4517],[-63.2575,-75.3988],[-63.3041,-75.3522],[-63.475,-75.3363],[-63.6782,-75.3279],[-63.9724,-75.3295],[-64.2793,-75.293],[-63.8576,-75.2062],[-63.5512,-75.1712],[-63.231,-75.1538],[-63.1734,-75.1146],[-63.3369,-75.0347],[-63.5708,-75.0305],[-63.9248,-75.0046],[-63.7507,-74.9522],[-63.5586,-74.9056],[-63.357,-74.8781],[-63.1982,-74.9093],[-63.1252,-74.8495],[-63.1681,-74.7648],[-63.1781,-74.6844],[-63.0723,-74.6776],[-62.8871,-74.6908],[-62.7088,-74.7374],[-62.567,-74.8961],[-62.3722,-74.9522],[-62.1378,-74.9262],[-61.9282,-74.8628],[-61.8552,-74.777],[-61.8944,-74.713],[-62.1325,-74.55],[-62.2256,-74.5056],[-62.2352,-74.4415],[-62.0891,-74.4527],[-61.9944,-74.4759],[-61.6398,-74.5135],[-61.37,-74.5119],[-61.0107,-74.478],[-60.8387,-74.3727],[-60.7043,-74.3071],[-60.7836,-74.241],[-61.1207,-74.3071],[-61.3319,-74.3288],[-61.843,-74.2897],[-61.7182,-74.2283],[-61.571,-74.195],[-61.2271,-74.2082],[-61.0419,-74.1219],[-61.1609,-74.0558],[-61.3197,-74.0362],[-61.8383,-74.032],[-61.7414,-73.9959],[-61.6917,-73.924],[-61.5456,-73.896],[-61.4038,-73.896],[-61.2033,-73.9568],[-61.0884,-73.9293],[-60.9027,-73.8706],[-60.7905,-73.7118],[-60.8789,-73.6118],[-61.08,-73.5388],[-61.4054,-73.4673],[-61.6372,-73.5002],[-61.7377,-73.3753],[-61.7875,-73.2551],[-61.915,-73.216],[-62.0081,-73.1477],[-61.7266,-73.161],[-61.4282,-73.1917],[-61.2419,-73.2504],[-61.0816,-73.3282],[-60.8958,-73.3202],[-60.6868,-73.271],[-60.5609,-73.2112],[-60.4037,-73.2403],[-60.1222,-73.2753],[-60.0164,-73.1895],[-59.9571,-73.0308],[-60.01,-72.9382],[-60.1486,-72.9382],[-60.2545,-73.0176],[-60.3847,-73.0075],[-60.5323,-72.8323],[-60.5323,-72.6736],[-60.7244,-72.6471],[-60.9392,-72.6995],[-61.2864,-72.6006],[-61.28,-72.4683],[-61.0477,-72.4704],[-60.7302,-72.4259],[-60.6646,-72.3625],[-60.691,-72.2699],[-60.7043,-72.1444],[-60.7196,-72.0724],[-60.8334,-72.0513],[-60.9519,-72.0502],[-61.1075,-72.0915],[-61.3102,-72.1127],[-61.4927,-72.0724],[-61.6282,-72.0529],[-61.8938,-72.0708],[-62.2568,-72.0174],[-61.9388,-71.9036],[-61.6446,-71.8629],[-61.035,-71.8201],[-60.9493,-71.7476],[-60.9953,-71.6613],[-61.0816,-71.5888],[-61.2133,-71.5639],[-61.5626,-71.6751],[-61.7256,-71.6724],[-61.9589,-71.6576],[-61.9097,-71.6311],[-61.7896,-71.6163],[-61.516,-71.4793],[-61.3694,-71.4523],[-61.2371,-71.4004],[-61.1483,-71.3417],[-61.0032,-71.3194],[-60.9625,-71.2448],[-61.017,-71.167],[-61.0662,-71.1327],[-11.9262,-71.1327]],[[-12.9634,-72.0645],[-12.9438,-72.0989],[-12.8883,-72.137],[-12.72,-72.1878],[-12.5882,-72.1963],[-12.5088,-72.1735],[-12.5348,-72.1402],[-12.6369,-72.0714],[-12.7887,-72.0063],[-12.8756,-72.0005],[-12.9147,-72.0148],[-12.9634,-72.0645]],[[-16.4553,-72.4736],[-16.5167,-72.5307],[-16.5099,-72.582],[-16.4532,-72.6524],[-16.3178,-72.7022],[-16.1749,-72.7027],[-16.1045,-72.6789],[-16.1723,-72.6],[-16.303,-72.4778],[-16.3559,-72.4587],[-16.4553,-72.4736]],[[-21.2882,-73.9891],[-21.9306,-74.0568],[-22.0354,-74.1066],[-21.61,-74.0918],[-21.1665,-74.1325],[-21.0512,-74.1759],[-20.9766,-74.2251],[-20.8459,-74.4378],[-20.8178,-74.4547],[-20.7368,-74.4812],[-20.4892,-74.4929],[-20.4167,-74.4431],[-20.4114,-74.4087],[-20.4236,-74.3172],[-20.6003,-74.1971],[-20.6411,-74.1505],[-20.6543,-74.105],[-20.6072,-73.8864],[-20.5209,-73.7981],[-20.5209,-73.7118],[-20.5802,-73.6192],[-20.6903,-73.625],[-20.867,-73.6769],[-20.9792,-73.7906],[-21.0247,-73.8801],[-21.1263,-73.9399],[-21.2882,-73.9891]],[[-32.0002,-79.7327],[-31.8239,-79.8496],[-31.5943,-79.8877],[-30.8445,-79.9385],[-30.4222,-80.011],[-30.029,-79.9364],[-29.7999,-79.9258],[-29.7205,-79.9301],[-29.6147,-79.9094],[-29.8708,-79.8231],[-30.6603,-79.7332],[-30.7799,-79.6475],[-30.8614,-79.7258],[-30.8407,-79.7713],[-30.9852,-79.8184],[-31.1186,-79.7983],[-31.6049,-79.6448],[-31.6805,-79.6343],[-32.0002,-79.7327]],[[-32.515,-79.6829],[-32.3425,-79.6734],[-32.0012,-79.6072],[-31.9568,-79.6036],[-31.9335,-79.5681],[-32.1499,-79.53],[-32.3764,-79.5347],[-32.5007,-79.5925],[-32.5833,-79.6586],[-32.515,-79.6829]],[[-34.0501,-79.357],[-33.9343,-79.3204],[-33.947,-79.3056],[-33.9946,-79.2786],[-34.3915,-79.2231],[-35.5345,-79.0903],[-35.5974,-79.0919],[-35.7901,-79.149],[-36.0477,-79.1813],[-36.2377,-79.1956],[-36.5658,-79.2088],[-36.6007,-79.2829],[-36.4812,-79.294],[-34.0501,-79.357]],[[-49.3542,-78.2224],[-49.94,-78.4621],[-50.1416,-78.5569],[-50.2194,-78.605],[-50.294,-78.696],[-50.3776,-78.7807],[-50.3352,-78.8183],[-50.2421,-78.8331],[-50.2977,-78.8823],[-50.3797,-78.923],[-50.5025,-78.95],[-50.5136,-78.9797],[-50.5025,-79.022],[-50.5205,-79.1045],[-50.5734,-79.1723],[-50.649,-79.2326],[-50.7332,-79.2829],[-50.4638,-79.313],[-50.4194,-79.3215],[-50.3787,-79.3379],[-50.3315,-79.3813],[-50.295,-79.43],[-50.3395,-79.4797],[-50.4014,-79.5115],[-50.6644,-79.6268],[-51.184,-79.8195],[-51.7111,-79.9898],[-52.2974,-80.1412],[-52.3381,-80.1259],[-52.3572,-80.0777],[-52.4609,-80.0666],[-52.5668,-80.0988],[-52.807,-80.156],[-53.0536,-80.1751],[-53.1764,-80.1607],[-53.3467,-80.1147],[-53.3938,-80.1089],[-53.4822,-80.1888],[-53.6759,-80.2835],[-54.0447,-80.4872],[-54.1294,-80.5164],[-54.3474,-80.5693],[-54.3717,-80.6238],[-54.3506,-80.7603],[-54.2416,-80.8471],[-54.2019,-80.864],[-54.1627,-80.8698],[-49.7733,-80.7841],[-49.7013,-80.7534],[-49.6299,-80.7121],[-49.4103,-80.6672],[-49.1875,-80.6428],[-43.5281,-80.1914],[-43.4894,-80.1782],[-43.454,-80.155],[-43.4587,-80.1232],[-43.4899,-80.0957],[-43.7582,-80.0205],[-43.7424,-80.0031],[-43.7037,-79.9904],[-43.6,-79.974],[-43.4958,-79.9692],[-43.2672,-79.9787],[-43.0661,-79.8914],[-42.9899,-79.8014],[-42.9449,-79.5792],[-42.9655,-79.4771],[-43.1185,-79.3501],[-43.2106,-79.2998],[-43.2672,-79.1633],[-43.3635,-79.0849],[-43.4508,-78.9897],[-43.5445,-78.9018],[-43.6275,-78.8463],[-43.7223,-78.8183],[-44.0413,-78.8066],[-44.5663,-78.8045],[-45.0917,-78.8146],[-45.2225,-78.8108],[-45.3521,-78.7913],[-45.2949,-78.7399],[-45.2129,-78.687],[-45.0679,-78.6616],[-43.9472,-78.5976],[-43.8524,-78.5299],[-43.7884,-78.4325],[-43.7768,-78.3849],[-43.7847,-78.3362],[-43.8085,-78.2864],[-43.8546,-78.2584],[-44.0937,-78.1674],[-44.3398,-78.0928],[-44.5943,-78.0351],[-44.852,-77.9885],[-45.5304,-77.8817],[-45.9934,-77.8266],[-46.258,-77.8049],[-46.8258,-77.7853],[-47.0301,-77.7906],[-47.4635,-77.8192],[-47.6921,-77.8404],[-49.0811,-78.0473],[-49.1436,-78.0938],[-49.3542,-78.2224]],[[-59.7878,-80.1009],[-59.7856,-80.001],[-59.7523,-79.938],[-59.7063,-79.8755],[-59.8735,-79.7771],[-60.5789,-79.7411],[-61.0265,-79.8089],[-61.1149,-79.8623],[-61.343,-79.8866],[-61.3461,-79.9507],[-61.2462,-79.9782],[-61.3022,-79.9957],[-61.6843,-80.02],[-61.7171,-80.0692],[-61.6943,-80.1343],[-61.5975,-80.2057],[-61.4848,-80.2438],[-61.1938,-80.2565],[-61.3128,-80.3068],[-61.6335,-80.3438],[-62.232,-80.3687],[-62.5188,-80.3735],[-65.9801,-80.3846],[-66.1155,-80.3613],[-66.1674,-80.3459],[-66.2177,-80.2581],[-66.296,-80.2348],[-66.377,-80.2221],[-66.4828,-80.2242],[-66.5886,-80.2386],[-66.6812,-80.2603],[-66.7712,-80.2941],[-66.7336,-80.3185],[-66.5913,-80.3576],[-66.1838,-80.4423],[-65.2027,-80.6074],[-64.2682,-80.7487],[-64.2201,-80.7338],[-64.1264,-80.6677],[-64.065,-80.6502],[-63.7147,-80.6169],[-63.1437,-80.5947],[-63.0675,-80.6275],[-62.986,-80.7344],[-62.9405,-80.7661],[-62.6707,-80.8344],[-62.0235,-80.8889],[-60.5826,-80.9482],[-60.2682,-80.8815],[-60.1248,-80.8407],[-59.9264,-80.7746],[-59.8253,-80.7333],[-59.7714,-80.6566],[-59.7735,-80.5582],[-59.7338,-80.3444],[-59.6835,-80.3153],[-59.6126,-80.2555],[-59.5301,-80.2079],[-59.4263,-80.1978],[-59.3216,-80.1962],[-59.4078,-80.1507],[-59.4983,-80.1153],[-59.7878,-80.1009]],[[-65.8705,-79.738],[-66.0139,-79.6242],[-66.2738,-79.612],[-66.7855,-79.6078],[-66.8812,-79.5824],[-66.9791,-79.5686],[-67.4384,-79.5602],[-67.6877,-79.5284],[-67.8089,-79.5459],[-67.7708,-79.5893],[-67.7189,-79.6205],[-67.077,-79.7617],[-66.9934,-79.7935],[-66.9622,-79.8729],[-66.904,-79.9089],[-66.4103,-79.9734],[-66.3669,-80.0544],[-66.3193,-80.0751],[-66.2674,-80.0814],[-66.1737,-80.0777],[-65.9896,-80.0539],[-65.8991,-80.0406],[-65.5043,-79.9544],[-65.5398,-79.8369],[-65.5795,-79.7708],[-65.8705,-79.738]],[[-69.6345,-79.5173],[-69.6864,-79.4432],[-69.3943,-79.2797],[-69.2508,-79.2104],[-68.6381,-79.013],[-68.157,-78.8706],[-67.4808,-78.6823],[-67.1665,-78.5696],[-67.0463,-78.514],[-66.7871,-78.4219],[-66.7283,-78.3838],[-66.84,-78.3494],[-67.0379,-78.3156],[-67.4787,-78.3627],[-69.3985,-78.686],[-69.7477,-78.769],[-69.9721,-78.8092],[-70.5441,-78.8839],[-70.6261,-78.9013],[-71.2543,-79.0596],[-71.4538,-79.1289],[-71.6676,-79.2458],[-71.7834,-79.4442],[-71.7776,-79.5004],[-71.7353,-79.5385],[-71.6866,-79.5681],[-71.5257,-79.6237],[-71.4141,-79.64],[-70.9839,-79.6745],[-70.5526,-79.6829],[-70.334,-79.6797],[-70.1166,-79.666],[-69.7319,-79.6183],[-69.6345,-79.5173]],[[-67.4342,-79.5009],[-67.2617,-79.4527],[-67.3051,-79.394],[-67.2395,-79.3279],[-67.1728,-79.3114],[-67.0686,-79.2686],[-67.4744,-79.2231],[-67.7142,-79.2141],[-68.0327,-79.2273],[-68.2332,-79.285],[-68.3243,-79.2982],[-68.4222,-79.3331],[-68.5492,-79.4374],[-68.4079,-79.4638],[-68.1613,-79.4787],[-67.4342,-79.5009]]]}}
