{"type":"Feature","properties":{"id":27,"name":"Persian Gulf","featurecla":"gulf","scalerank":1,"wikidataid":"Q34675","namealt":"Arabian Gulf","source":"Natural Earth 5.2.0-pre ne_10m_geography_marine_polys (public domain)"},"geometry":{"type":"Polygon","coordinates":[[[57.1655,26.0991],[56.4252,26.2785],[56.4299,26.3272],[56.413,26.351],[56.3786,26.3562],[56.3464,26.3134],[56.3056,26.2351],[56.2283,26.2197],[56.1971,26.2293],[56.1643,26.207],[56.0749,26.0525],[56.0251,25.916],[55.941,25.7937],[55.5229,25.498],[55.4335,25.3942],[55.3219,25.3],[55.3033,25.2371],[55.098,25.0418],[54.7467,24.8106],[54.6588,24.7153],[54.6239,24.6211],[54.5805,24.5634],[54.5345,24.5312],[54.499,24.4629],[54.4583,24.3581],[54.3969,24.2782],[54.3043,24.2544],[54.1482,24.1713],[53.8931,24.0771],[53.8016,24.0697],[53.3295,24.0983],[53.0264,24.1475],[52.6485,24.1544],[52.5115,24.1126],[52.2511,23.9951],[52.1188,23.9713],[51.9061,23.9856],[51.8431,24.011],[51.7918,24.075],[51.7675,24.2544],[51.7347,24.2629],[51.6648,24.2502],[51.623,24.301],[51.6055,24.3385],[51.5685,24.2862],[51.5346,24.2862],[51.4769,24.3084],[51.3954,24.319],[51.3097,24.3401],[51.3701,24.4766],[51.4182,24.5312],[51.4113,24.5709],[51.3383,24.5645],[51.2679,24.6074],[51.3965,24.6449],[51.4277,24.6682],[51.5336,24.891],[51.587,24.9651],[51.6087,25.0529],[51.6018,25.1482],[51.5616,25.2847],[51.5198,25.39],[51.5103,25.4525],[51.4854,25.5249],[51.5267,25.6821],[51.5722,25.7811],[51.5431,25.9022],[51.3891,26.0112],[51.2621,26.1531],[51.1081,26.0806],[51.0033,25.9816],[50.9038,25.7239],[50.8684,25.6128],[50.8028,25.4969],[50.7631,25.4445],[50.7546,25.3995],[50.7774,25.1773],[50.8467,24.8884],[50.8361,24.8502],[50.8044,24.7894],[50.7255,24.8693],[50.6668,24.964],[50.5578,25.0868],[50.5086,25.3069],[50.4551,25.4249],[50.281,25.5662],[50.2387,25.6228],[50.1895,25.7557],[50.1302,25.8467],[50.081,25.9615],[50.0318,26.1112],[50.054,26.1229],[50.0958,26.1187],[50.1355,26.1007],[50.1556,26.1007],[50.2138,26.3086],[50.1847,26.405],[50.1106,26.4558],[50.0276,26.5267],[50.0111,26.6087],[50.008,26.6785],[50.0265,26.6991],[50.0868,26.6764],[50.1344,26.6595],[50.1498,26.6626],[49.9863,26.8288],[49.7164,26.9558],[49.5375,27.1516],[49.4052,27.1812],[49.2814,27.3103],[49.1751,27.4379],[49.2375,27.4929],[49.1576,27.5284],[49.0867,27.5485],[48.9062,27.6289],[48.7973,27.7241],[48.8073,27.7654],[48.8327,27.8009],[48.8089,27.8961],[48.774,27.9591],[48.6263,28.1327],[48.5231,28.3549],[48.4988,28.4491],[48.4427,28.5428],[48.3898,28.6317],[48.3712,28.692],[48.339,28.7634],[48.2527,28.9015],[48.184,28.9793],[48.1004,29.2106],[48.086,29.2757],[48.0517,29.3556],[47.9982,29.3857],[47.9352,29.3667],[47.8453,29.3656],[47.7225,29.3931],[47.7251,29.417],[47.8172,29.4873],[47.9696,29.617],[48.0485,29.5974],[48.0898,29.5789],[48.1432,29.5725],[48.1363,29.618],[48.077,29.7154],[48.0056,29.8361],[47.9738,29.9461],[47.9823,30.0112],[48.0728,30.0435],[48.1416,30.0409],[48.3549,29.9567],[48.4543,29.9387],[48.5956,29.9752],[48.6708,30.0281],[48.8322,30.0356],[48.8703,30.0625],[48.919,30.1207],[48.9089,30.2414],[48.8914,30.3277],[48.9168,30.3975],[49.0369,30.4504],[49.0021,30.5065],[49.1306,30.5097],[49.2243,30.4721],[49.2471,30.4123],[49.1904,30.3753],[49.0962,30.407],[49.0491,30.3975],[49.0021,30.3737],[49.0279,30.3335],[49.0544,30.307],[49.4301,30.1303],[49.555,30.0292],[49.9831,30.2091],[50.0715,30.1985],[50.1292,30.0482],[50.1689,29.9212],[50.2302,29.8731],[50.3869,29.6789],[50.5435,29.5482],[50.6499,29.4201],[50.6678,29.3397],[50.6461,29.2122],[50.6752,29.1465],[50.7954,29.1174],[50.8758,29.063],[50.8758,29.0042],[50.843,28.928],[50.8668,28.8703],[51.0213,28.782],[51.0621,28.7259],[51.0938,28.5121],[51.1282,28.4353],[51.2759,28.2189],[51.279,28.1316],[51.5187,27.9099],[51.5891,27.8644],[51.6664,27.8448],[51.8421,27.8485],[52.031,27.8242],[52.1918,27.7173],[52.476,27.6167],[52.6025,27.4934],[52.638,27.3918],[52.6914,27.3236],[52.9824,27.1421],[53.3417,27.0045],[53.455,26.9431],[53.5074,26.8516],[53.7058,26.7256],[53.8227,26.7076],[54.0693,26.7325],[54.2471,26.6965],[54.5223,26.5891],[54.6451,26.5092],[54.7594,26.5049],[54.8959,26.5568],[55.1546,26.7256],[55.2943,26.7859],[55.424,26.7706],[55.5187,26.8299],[55.5917,26.932],[55.6505,26.9775],[55.941,27.0378],[56.1183,27.1431],[56.2844,27.1907],[56.3564,27.2003],[56.7284,27.1278],[56.813,27.0902],[56.9104,26.9944],[56.9824,26.9055],[57.0358,26.8008],[57.0718,26.6801],[57.1041,26.3716],[57.2014,26.1589],[57.2036,26.1001],[57.1655,26.0991]],[[55.8478,26.7309],[55.8944,26.7325],[55.9542,26.7013],[56.095,26.8013],[56.1881,26.9214],[56.2791,26.9521],[56.2141,27.0034],[56.0743,26.9833],[55.9071,26.9098],[55.7579,26.9479],[55.7473,26.9309],[55.7844,26.8574],[55.7627,26.8119],[55.5319,26.7097],[55.3467,26.6478],[55.2964,26.6573],[55.2949,26.6394],[55.3113,26.5928],[55.3404,26.5859],[55.4235,26.5833],[55.543,26.6177],[55.6748,26.6859],[55.7473,26.6923],[55.8478,26.7309]],[[50.4895,26.0583],[50.4657,25.9657],[50.544,25.8334],[50.5747,25.807],[50.6075,25.8832],[50.6176,26.0022],[50.6097,26.1245],[50.5578,26.198],[50.5858,26.2409],[50.5641,26.2462],[50.4699,26.2287],[50.4525,26.1906],[50.4895,26.0583]],[[48.185,29.9789],[48.1585,29.9594],[48.139,29.8964],[48.1199,29.8863],[48.1136,29.8705],[48.1146,29.8487],[48.0813,29.799],[48.1427,29.6651],[48.1797,29.6112],[48.2183,29.6022],[48.2755,29.6244],[48.34,29.6948],[48.3475,29.7202],[48.348,29.7826],[48.2278,29.9361],[48.185,29.9789]]]}}
