{"type":"Feature","properties":{"id":28,"name":"Ross Sea","featurecla":"sea","scalerank":1,"wikidataid":"Q164466","source":"Natural Earth 5.2.0-pre ne_10m_geography_marine_polys (public domain)"},"geometry":{"type":"MultiPolygon","coordinates":[[[[179.9999,-71.9391],[179.9999,-84.3517],[179.6205,-84.2681],[179.403,-84.2062],[178.9442,-84.1814],[178.496,-84.1358],[178.3526,-84.1269],[178.2086,-84.1301],[177.5811,-84.075],[175.9109,-83.9729],[175.6056,-83.9676],[175.3231,-83.94],[175.1871,-83.8776],[175.0109,-83.839],[173.8224,-83.8099],[173.6615,-83.7612],[173.3974,-83.7586],[172.8741,-83.6734],[172.4503,-83.6755],[171.9174,-83.6442],[171.5369,-83.5813],[171.2893,-83.5554],[171.2205,-83.475],[171.0358,-83.4485],[170.8173,-83.4358],[170.332,-83.4786],[169.8377,-83.3992],[168.11,-83.3622],[167.8428,-83.3162],[167.6576,-83.2723],[167.6746,-83.2315],[167.8253,-83.2431],[167.973,-83.2431],[168.2402,-83.2299],[168.3201,-83.2109],[168.4085,-83.1553],[168.4815,-83.1268],[168.6075,-83.0654],[168.2762,-82.987],[168.092,-82.9749],[167.8275,-83.031],[167.602,-83.0474],[167.4046,-82.9987],[167.2973,-82.986],[167.2326,-82.9521],[167.2713,-82.8796],[167.1162,-82.8013],[166.957,-82.7648],[166.7421,-82.7569],[166.4458,-82.7219],[165.9817,-82.6298],[164.98,-82.3848],[164.7472,-82.3541],[164.0016,-82.397],[163.2687,-82.4632],[163.1745,-82.5187],[163.012,-82.5351],[162.6437,-82.4817],[161.2833,-82.4902],[161.1663,-82.4076],[162.4268,-82.3145],[163.6799,-82.1875],[163.6026,-82.1208],[163.0041,-81.9689],[162.8544,-81.9208],[162.821,-81.8663],[162.5766,-81.8319],[162.4252,-81.7652],[161.996,-81.653],[161.7304,-81.6107],[161.5823,-81.6096],[160.9081,-81.39],[160.4699,-81.3408],[160.4784,-81.2699],[160.5398,-81.2419],[160.7165,-81.1995],[160.7276,-81.1127],[160.717,-80.9074],[160.6075,-80.9011],[160.2757,-80.8465],[160.2604,-80.7867],[160.5027,-80.7794],[160.7202,-80.7529],[160.8303,-80.7302],[160.8234,-80.674],[160.6012,-80.6365],[160.5212,-80.5836],[160.6033,-80.5074],[160.6372,-80.4497],[160.5424,-80.4248],[159.0649,-80.4423],[158.5734,-80.4232],[158.5602,-80.3492],[158.7676,-80.2936],[160.1794,-80.0883],[160.3816,-80.0544],[160.5588,-80.0105],[160.5578,-79.9295],[160.3874,-79.8798],[160.1111,-79.8925],[159.8963,-79.8592],[159.8719,-79.7898],[160.2646,-79.7364],[160.3461,-79.6914],[160.3228,-79.6353],[160.0836,-79.6327],[159.9757,-79.5856],[160.0678,-79.5612],[160.2091,-79.5543],[160.6461,-79.4268],[160.6705,-79.3591],[160.5673,-79.3024],[160.4826,-79.2014],[160.8737,-79.0495],[161.1907,-78.9786],[161.5462,-79.0151],[161.7372,-79.0601],[161.8643,-79.0612],[161.9516,-79.03],[161.9516,-78.968],[161.8135,-78.9077],[161.5018,-78.677],[161.5103,-78.5711],[161.669,-78.5362],[161.7574,-78.5447],[161.9743,-78.6944],[162.6395,-78.8977],[162.8951,-78.8447],[163.5031,-78.7584],[163.9016,-78.7172],[164.3005,-78.6299],[164.635,-78.6034],[166.1167,-78.5711],[166.2865,-78.6278],[166.5246,-78.695],[166.8501,-78.6796],[167.0491,-78.686],[167.1306,-78.6061],[167.0581,-78.5182],[166.8014,-78.5214],[166.5104,-78.4976],[166.2087,-78.4515],[165.6631,-78.3055],[165.534,-78.1536],[166.3236,-77.5922],[166.5326,-77.7007],[166.6505,-77.7742],[166.7289,-77.851],[167.0252,-77.7562],[167.2798,-77.7028],[167.3925,-77.6488],[167.9174,-77.644],[168.3228,-77.6826],[168.5191,-77.6811],[168.7546,-77.653],[169.117,-77.5604],[169.3531,-77.525],[169.2758,-77.4546],[169.8589,-73.5679],[169.9605,-73.5144],[169.8864,-73.4589],[169.7833,-73.3245],[169.7399,-73.3202],[169.7113,-73.3308],[169.5377,-73.0524],[169.5451,-73.0504],[169.7124,-72.8768],[169.8447,-72.7948],[169.8288,-72.7286],[169.2694,-72.6212],[168.8201,-72.5524],[168.6217,-72.4725],[168.4286,-72.3836],[168.5763,-72.3794],[168.7185,-72.3847],[169.0726,-72.4688],[169.4404,-72.4868],[169.7748,-72.5339],[170.0478,-72.6006],[170.2066,-72.5651],[170.286,-72.4773],[170.2595,-72.3714],[170.1272,-72.3979],[169.9536,-72.4027],[170.0299,-72.1153],[170.2241,-71.9481],[170.4093,-71.9481],[170.6755,-71.9687],[170.7299,-71.9391],[179.9999,-71.9391]],[[166.8718,-78.2351],[166.9363,-78.2224],[167.3771,-78.2489],[167.5174,-78.2161],[167.6427,-78.1415],[167.6396,-78.1118],[167.5936,-78.0224],[167.4978,-77.9922],[167.4221,-78.0065],[167.3639,-78.0457],[167.1379,-78.1298],[166.8639,-78.1965],[166.7601,-78.1981],[166.567,-78.1478],[166.1114,-78.0896],[166.0129,-78.1018],[166.0124,-78.1314],[166.0505,-78.2134],[166.122,-78.2748],[166.2849,-78.3065],[166.6262,-78.2843],[166.8718,-78.2351]]],[[[-102.128,-71.9391],[-102.128,-71.9857],[-102.2364,-72.0095],[-114.6237,-73.9028],[-114.7909,-73.9886],[-114.991,-74.2748],[-115.1052,-74.4553],[-115.2227,-74.4875],[-116.4329,-74.4473],[-117.0685,-74.4733],[-117.8061,-74.4029],[-118.3422,-74.3817],[-118.656,-74.3928],[-118.8031,-74.4225],[-119.0227,-74.5177],[-119.4222,-74.6214],[-119.6773,-74.6548],[-121.5442,-74.75],[-123.8894,-74.7733],[-124.3122,-74.7357],[-124.8827,-74.7241],[-124.9351,-74.2007],[-124.8731,-74.2082],[-124.1995,-74.2256],[-123.9826,-74.2558],[-123.9376,-74.2563],[-123.8365,-74.2256],[-123.8386,-74.1685],[-123.8111,-74.1171],[-123.8005,-74.0764],[-123.8513,-74.0568],[-123.9323,-74.0081],[-124.1291,-73.9711],[-124.1519,-73.9441],[-124.1006,-73.9071],[-124.0418,-73.8806],[-124.1286,-73.834],[-124.5398,-73.7398],[-124.6176,-73.7351],[-124.6943,-73.7494],[-124.9933,-73.8298],[-125.1086,-73.8261],[-125.2245,-73.8007],[-125.3266,-73.7954],[-125.5526,-73.8203],[-125.6743,-73.8224],[-125.7986,-73.8017],[-125.8569,-73.78],[-125.86,-73.7488],[-125.8283,-73.7181],[-125.723,-73.7028],[-125.6124,-73.7107],[-125.2758,-73.6906],[-125.2642,-73.6663],[-125.3261,-73.6176],[-125.5039,-73.5626],[-125.5616,-73.5366],[-125.6267,-73.453],[-125.7357,-73.4054],[-125.8569,-73.3885],[-125.9759,-73.3567],[-126.0653,-73.315],[-126.3299,-73.2864],[-126.5966,-73.2789],[-126.83,-73.2906],[-126.9776,-73.308],[-127.1237,-73.2943],[-127.2676,-73.3038],[-134.94,-74.6934],[-135.3623,-74.6902],[-136.0301,-74.7654],[-136.228,-74.8363],[-136.4619,-75.0358],[-136.5497,-75.1395],[-136.6497,-75.1617],[-137.09,-75.1527],[-137.6181,-75.0755],[-139.149,-75.1601],[-139.6914,-75.213],[-140.2936,-75.4057],[-140.4709,-75.4475],[-140.7095,-75.4978],[-140.999,-75.52],[-141.2233,-75.5459],[-140.8741,-75.7459],[-141.009,-75.7507],[-141.1344,-75.7459],[-141.5059,-75.6904],[-142.0943,-75.53],[-142.3298,-75.4908],[-143.022,-75.5432],[-143.5744,-75.5633],[-144.2205,-75.7317],[-144.7211,-75.8322],[-145.1053,-75.8787],[-145.988,-75.8888],[-146.3234,-76.0206],[-146.3832,-76.1],[-145.8604,-76.2666],[-145.6424,-76.3259],[-145.4418,-76.409],[-145.6869,-76.4291],[-145.8858,-76.4243],[-146.5976,-76.3381],[-146.8172,-76.318],[-147.8601,-76.1312],[-148.3205,-76.1047],[-148.4591,-76.1179],[-148.4639,-76.1195],[-158.0032,-77.0911],[-158.2138,-77.1572],[-158.2466,-77.3546],[-158.2302,-77.4974],[-158.3514,-77.615],[-158.5006,-77.7785],[-158.407,-77.888],[-158.2858,-77.951],[-157.8482,-78.0737],[-157.2666,-78.1997],[-156.5692,-78.1864],[-155.3415,-78.1917],[-155.0367,-78.2209],[-154.6949,-78.2171],[-154.2932,-78.2589],[-154.5377,-78.3589],[-154.7165,-78.3981],[-155.9199,-78.5103],[-156.2077,-78.5585],[-156.4692,-78.6351],[-156.1146,-78.7447],[-155.2097,-78.9648],[-154.5176,-79.0463],[-153.5175,-79.1172],[-152.7015,-79.1347],[-152.2438,-79.103],[-152.1379,-79.1162],[-152.0532,-79.1929],[-152.0914,-79.2416],[-151.9035,-79.2807],[-151.6363,-79.3178],[-151.3685,-79.3934],[-151.0484,-79.4596],[-150.4906,-79.5453],[-149.0513,-79.657],[-148.4173,-79.7316],[-148.1766,-79.7761],[-148.0829,-79.857],[-148.1295,-79.9078],[-148.2962,-79.9067],[-148.4338,-79.9295],[-148.4301,-79.9713],[-148.3396,-80.0026],[-148.3173,-80.0708],[-148.448,-80.0904],[-148.7661,-80.1084],[-149.5778,-80.1057],[-149.8456,-80.1179],[-150.2207,-80.1502],[-150.4356,-80.211],[-150.5753,-80.3539],[-150.516,-80.4095],[-150.2816,-80.4804],[-150.1329,-80.5105],[-149.4286,-80.5862],[-149.2646,-80.5931],[-149.2143,-80.6042],[-149.2074,-80.6704],[-149.1471,-80.7185],[-148.9841,-80.7418],[-148.5428,-80.7603],[-148.0236,-80.836],[-148.1226,-80.9005],[-152.0347,-81.0291],[-155.9209,-81.1334],[-156.5284,-81.1625],[-156.8152,-81.2308],[-157.0327,-81.3191],[-156.4924,-81.3768],[-154.9076,-81.5101],[-154.4853,-81.5662],[-154.2318,-81.6234],[-153.9567,-81.7001],[-154.0614,-81.7652],[-154.1884,-81.8107],[-154.4514,-81.8673],[-154.7176,-81.9409],[-153.8826,-82.1764],[-153.01,-82.4494],[-153.3984,-82.5865],[-153.8223,-82.6695],[-155.1505,-82.8585],[-155.4595,-82.9807],[-156.0368,-83.0267],[-157.0184,-83.0754],[-157.5217,-83.1066],[-157.6794,-83.1294],[-157.5894,-83.1876],[-157.356,-83.1987],[-157.028,-83.2341],[-157.4285,-83.3463],[-157.6995,-83.3813],[-159.4441,-83.5432],[-159.9235,-83.4945],[-160.5945,-83.4897],[-162.1974,-83.5188],[-162.5742,-83.4109],[-162.9123,-83.3468],[-163.1113,-83.3289],[-163.7335,-83.3728],[-164.0585,-83.4247],[-164.4458,-83.4675],[-164.6443,-83.4125],[-164.9157,-83.2903],[-165.619,-83.2156],[-166.2169,-83.2008],[-167.7245,-83.2172],[-168.0547,-83.2268],[-168.1913,-83.2135],[-168.4177,-83.2289],[-168.604,-83.2013],[-168.7903,-83.1881],[-169.0162,-83.15],[-169.4406,-83.0961],[-171.0313,-82.9431],[-171.8213,-82.8473],[-172.1246,-82.8627],[-172.3923,-82.8929],[-172.5929,-82.8844],[-172.8516,-82.9166],[-173.0712,-82.9156],[-174.2359,-82.7933],[-174.1719,-82.8479],[-174.0661,-82.9003],[-171.5393,-83.2034],[-171.1879,-83.2564],[-169.1676,-83.45],[-168.785,-83.5294],[-168.4971,-83.6114],[-168.3474,-83.6369],[-168.0526,-83.7353],[-167.8013,-83.7909],[-167.5531,-83.811],[-166.6493,-83.7919],[-165.9216,-83.7903],[-165.5364,-83.7564],[-164.9506,-83.8057],[-164.0828,-83.9459],[-164.0114,-84.0157],[-164.1241,-84.0533],[-164.5024,-84.0718],[-164.603,-84.0967],[-164.685,-84.1544],[-164.5283,-84.1909],[-164.032,-84.274],[-163.8214,-84.2904],[-163.7574,-84.3057],[-163.7653,-84.3243],[-163.8992,-84.3528],[-165.1253,-84.3745],[-165.1851,-84.3697],[-165.2406,-84.3814],[-165.1353,-84.41],[-164.9168,-84.4311],[-164.114,-84.4454],[-163.8971,-84.4703],[-163.759,-84.493],[-163.6854,-84.5131],[-163.5685,-84.5285],[-158.3033,-84.7783],[-156.9861,-84.8111],[-156.621,-84.8396],[-156.4898,-84.8894],[-157.1497,-84.8915],[-157.4539,-84.9121],[-156.9883,-84.982],[-156.6427,-85.0794],[-156.4591,-85.1863],[-156.8105,-85.1921],[-157.1274,-85.1857],[-160.821,-84.9867],[-162.9335,-84.901],[-163.4637,-84.901],[-166.9112,-84.819],[-167.4922,-84.8338],[-168.0484,-84.7285],[-168.668,-84.6836],[-171.7039,-84.5423],[-174.663,-84.4629],[-174.9868,-84.4655],[-175.381,-84.4798],[-175.8748,-84.5105],[-176.1076,-84.475],[-176.2891,-84.4184],[-176.9855,-84.3994],[-177.7305,-84.3952],[-178.0692,-84.3523],[-178.3894,-84.3375],[-180.0,-84.3517],[-180.0,-71.9391],[-102.128,-71.9391]],[[-117.3981,-74.1225],[-117.3632,-74.1611],[-117.2304,-74.1928],[-116.7388,-74.1648],[-116.571,-74.1256],[-116.5139,-74.0955],[-116.534,-74.0833],[-116.6086,-74.0684],[-116.5848,-74.0558],[-116.4515,-74.0177],[-116.1551,-73.9103],[-116.2027,-73.8954],[-116.3811,-73.8653],[-117.3764,-74.0828],[-117.3981,-74.1225]],[[-119.7582,-74.1219],[-119.5487,-74.1103],[-119.4486,-74.0764],[-119.0586,-73.9975],[-118.9899,-73.9669],[-118.8772,-73.878],[-118.91,-73.834],[-118.9592,-73.8097],[-119.2164,-73.7774],[-119.5164,-73.7748],[-119.6688,-73.8092],[-119.8027,-73.8145],[-119.6614,-73.9891],[-119.6936,-74.006],[-119.7968,-74.0293],[-119.9053,-74.0817],[-119.8873,-74.097],[-119.8212,-74.1198],[-119.7582,-74.1219]],[[-123.2491,-73.7388],[-123.292,-73.8028],[-123.346,-73.843],[-123.1909,-73.8494],[-123.0348,-73.8378],[-122.9914,-73.8441],[-122.9512,-73.8663],[-122.6247,-73.9653],[-122.7099,-73.9938],[-122.8808,-74.0991],[-122.875,-74.141],[-122.794,-74.1907],[-122.7649,-74.2187],[-122.8909,-74.2272],[-122.956,-74.2404],[-122.9385,-74.3018],[-122.8591,-74.3426],[-122.2866,-74.4029],[-121.0626,-74.3373],[-121.0023,-74.3262],[-121.0049,-74.2928],[-121.0367,-74.2791],[-121.0542,-74.26],[-121.0192,-74.1732],[-120.9896,-74.1568],[-120.2726,-73.9891],[-120.3123,-73.9219],[-120.3779,-73.8557],[-120.5562,-73.7563],[-120.7224,-73.752],[-121.4976,-73.733],[-121.9664,-73.7118],[-122.4358,-73.6817],[-122.9105,-73.6795],[-123.0126,-73.6732],[-123.1121,-73.6822],[-123.2491,-73.7388]],[[-145.3482,-75.7163],[-145.2381,-75.711],[-145.2524,-75.683],[-145.3154,-75.6417],[-145.4175,-75.5883],[-145.7609,-75.5141],[-145.8954,-75.5046],[-146.0758,-75.5332],[-146.1509,-75.5734],[-146.043,-75.612],[-145.5413,-75.6925],[-145.3482,-75.7163]],[[-147.3453,-76.1465],[-147.1511,-76.1973],[-146.8944,-76.2608],[-146.6902,-76.2465],[-146.9489,-76.0984],[-147.3606,-76.0629],[-147.4183,-76.0735],[-147.4209,-76.0904],[-147.4077,-76.1047],[-147.3453,-76.1465]],[[-155.5251,-79.8464],[-155.0446,-79.8999],[-154.9414,-79.966],[-154.5292,-80.0004],[-154.3488,-80.0258],[-154.1138,-80.0359],[-153.9302,-80.0333],[-154.0255,-79.9877],[-154.5351,-79.9353],[-155.1621,-79.8507],[-155.6743,-79.7655],[-155.7511,-79.8295],[-155.5251,-79.8464]],[[-158.0762,-82.1118],[-157.9873,-82.1049],[-157.8344,-82.0309],[-158.2609,-81.9472],[-158.3466,-81.9007],[-158.9139,-81.78],[-158.9885,-81.7795],[-158.9266,-81.8186],[-158.7731,-81.8753],[-158.5451,-81.9488],[-158.154,-82.0583],[-158.0762,-82.1118]],[[-160.3019,-79.8443],[-159.0531,-79.8073],[-159.0097,-79.7803],[-158.9965,-79.7353],[-159.0515,-79.6946],[-159.1187,-79.6745],[-159.1896,-79.6374],[-159.2563,-79.5909],[-159.3663,-79.5453],[-159.4187,-79.5083],[-159.6838,-79.4024],[-159.9638,-79.3241],[-160.2495,-79.2712],[-160.7644,-79.1316],[-161.2835,-79.0072],[-161.6428,-78.9008],[-162.1609,-78.7934],[-162.39,-78.7601],[-162.6218,-78.7415],[-162.8726,-78.7251],[-163.124,-78.7193],[-163.2563,-78.722],[-163.3451,-78.7796],[-163.66,-78.8559],[-163.8145,-78.9289],[-164.1257,-78.9955],[-164.1997,-79.0506],[-164.2447,-79.1379],[-164.2818,-79.2453],[-164.2257,-79.321],[-163.9711,-79.3887],[-163.7124,-79.4421],[-163.3171,-79.5046],[-161.8656,-79.7036],[-160.8067,-79.812],[-160.3019,-79.8443]],[[-160.5713,-81.598],[-160.467,-81.5895],[-160.4855,-81.5668],[-160.6168,-81.5223],[-160.938,-81.4636],[-161.5587,-81.3969],[-162.4567,-81.3133],[-163.2007,-81.2815],[-163.869,-81.3239],[-163.9299,-81.3524],[-163.951,-81.3911],[-163.9394,-81.4043],[-163.8902,-81.4239],[-163.7658,-81.4451],[-163.2531,-81.4826],[-160.5713,-81.598]],[[-163.7351,-82.8569],[-163.7039,-82.8791],[-163.6346,-82.9024],[-163.6023,-82.9272],[-163.6018,-82.9685],[-163.5521,-82.9875],[-163.3483,-83.0214],[-163.242,-83.0595],[-163.0467,-83.0966],[-162.3048,-83.1415],[-161.9936,-83.1188],[-161.828,-83.0426],[-161.6354,-83.0267],[-162.3397,-82.9225],[-162.4106,-82.8992],[-162.7985,-82.8648],[-163.796,-82.8426],[-163.7351,-82.8569]]]]}}
