{"type":"Feature","properties":{"id":29,"name":"Celebes Sea","featurecla":"sea","scalerank":2,"wikidataid":"Q19270","source":"Natural Earth 5.2.0-pre ne_10m_geography_marine_polys (public domain)"},"geometry":{"type":"Polygon","coordinates":[[[125.4248,3.7053],[125.4629,3.6582],[125.4688,3.6391],[125.501,3.5931],[125.5174,3.5497],[125.5116,3.4613],[125.6333,3.4052],[125.6354,3.3973],[125.5217,3.001],[125.4814,2.7819],[125.4248,2.6284],[125.465,2.3527],[125.3354,1.9559],[125.1655,1.6643],[125.1554,1.6511],[125.1109,1.6855],[124.9893,1.7008],[124.947,1.6722],[124.8607,1.5759],[124.7877,1.4674],[124.7469,1.4415],[124.6437,1.4161],[124.6004,1.3923],[124.5755,1.3039],[124.5337,1.2304],[124.4109,1.1848],[124.2739,1.0224],[123.931,0.8504],[123.8468,0.8382],[123.278,0.9282],[123.0663,0.942],[123.0129,0.9388],[122.96,0.9229],[122.8922,0.8499],[122.8382,0.8457],[122.7901,0.8631],[122.6572,0.9404],[122.5493,0.9843],[122.4366,1.0182],[122.1079,1.0314],[121.8672,1.0886],[121.5915,1.0679],[121.5508,1.0796],[121.5132,1.1049],[121.4725,1.1557],[121.4402,1.2145],[121.4042,1.2436],[121.3566,1.2547],[121.282,1.2499],[121.2083,1.2627],[121.0819,1.3277],[121.0248,1.3256],[120.9655,1.3119],[120.9121,1.2891],[120.8761,1.2595],[120.8528,1.2875],[118.9579,0.9542],[118.9848,0.9822],[118.9632,1.0441],[118.8525,1.096],[118.6388,1.3187],[118.4716,1.4166],[118.1566,1.6405],[118.0805,1.7019],[117.9286,1.8669],[117.8646,1.9686],[117.8313,2.0019],[117.7895,2.0268],[117.881,2.0606],[117.8895,2.0871],[117.9572,2.1601],[118.0419,2.2157],[118.0662,2.2628],[118.0667,2.3178],[118.034,2.3776],[117.8858,2.5416],[117.8048,2.6692],[117.7858,2.747],[117.7498,2.7755],[117.6667,2.8068],[117.6386,2.8253],[117.6646,2.8591],[117.6979,2.8872],[117.6371,2.9147],[117.5693,2.9295],[117.6381,2.9507],[117.6122,3.0046],[117.6106,3.0645],[117.5672,3.0983],[117.5069,3.1047],[117.4222,3.165],[117.3524,3.1936],[117.3217,3.2433],[117.3846,3.3656],[117.346,3.4264],[117.1666,3.592],[117.1137,3.6127],[117.056,3.6227],[117.1714,3.6391],[117.2878,3.6391],[117.4502,3.6285],[117.4947,3.6656],[117.5096,3.7302],[117.5672,3.6783],[117.6296,3.6365],[117.7143,3.6449],[117.7773,3.6894],[117.7619,3.7339],[117.7318,3.7704],[117.7281,3.7968],[117.6392,3.8778],[117.5661,3.9302],[117.5593,3.9884],[117.4651,4.0762],[117.4974,4.1334],[117.5661,4.1625],[117.6037,4.2001],[117.6497,4.3043],[117.6963,4.3429],[117.7413,4.3376],[117.8958,4.263],[118.008,4.2503],[118.117,4.2874],[118.2287,4.3159],[118.3641,4.3355],[118.498,4.3625],[118.5483,4.3794],[118.5864,4.4096],[118.5954,4.4604],[118.5625,4.5022],[118.3239,4.6689],[118.1853,4.8287],[118.2604,4.989],[118.3202,5.0118],[118.3816,5.0187],[118.5515,4.9679],[118.6721,4.9642],[118.9124,5.0229],[119.132,5.1007],[119.2198,5.1599],[119.2431,5.1896],[119.2478,5.1859],[119.7945,5.0626],[119.8225,5.0832],[119.8215,5.0695],[119.8776,5.06],[119.958,5.0795],[120.013,5.151],[120.1009,5.169],[120.1183,5.2155],[120.15,5.1843],[120.1914,5.1684],[120.2231,5.1965],[120.2506,5.2568],[120.2294,5.2843],[120.2077,5.3399],[120.1654,5.3325],[120.1824,5.3446],[120.8771,5.9521],[120.9305,5.896],[121.0184,5.923],[121.083,5.8928],[121.218,5.9426],[121.2946,5.8701],[121.411,5.9399],[121.4148,5.9643],[121.3915,6.0019],[121.2825,6.0225],[121.2137,6.0035],[121.1857,6.04],[121.2232,6.05],[121.9577,6.4173],[121.9593,6.4157],[121.9916,6.4146],[122.0926,6.4284],[122.2012,6.4829],[122.2519,6.5797],[122.3234,6.6025],[122.2879,6.639],[122.0583,6.7406],[122.0524,6.7379],[122.0524,6.9231],[122.098,6.9136],[122.1424,6.9496],[122.1762,7.0041],[122.2514,7.1703],[122.3196,7.3401],[122.4488,7.5613],[122.4742,7.6391],[122.498,7.673],[122.616,7.7629],[122.7139,7.774],[122.7917,7.7227],[122.8187,7.5587],[122.843,7.5296],[122.9171,7.5306],[122.9896,7.5465],[123.0489,7.6142],[123.0965,7.7005],[123.1214,7.6666],[123.1388,7.6301],[123.1504,7.5751],[123.1785,7.5296],[123.2822,7.4639],[123.3907,7.4073],[123.4764,7.6656],[123.4817,7.71],[123.4775,7.7566],[123.4928,7.8079],[123.5532,7.8322],[123.6087,7.8317],[123.6659,7.818],[123.7172,7.7852],[123.7648,7.7428],[123.9685,7.6645],[124.068,7.5777],[124.1823,7.437],[124.2067,7.3962],[124.213,7.3322],[124.1908,7.2671],[124.158,7.2189],[124.1177,7.175],[124.0453,7.1142],[123.9854,6.9935],[123.9807,6.9295],[123.9881,6.8628],[124.0479,6.6665],[124.0495,6.5326],[124.0781,6.4045],[124.213,6.2331],[124.3987,6.1199],[124.6364,5.9982],[124.9274,5.8754],[124.975,5.8659],[125.0353,5.8706],[125.0761,5.9061],[125.174,6.0468],[125.1909,6.0627],[125.2317,6.0696],[125.2687,6.0331],[125.265,5.9257],[125.2333,5.8082],[125.2412,5.7569],[125.2877,5.6325],[125.3465,5.5992],[125.3777,5.6177],[125.4248,3.7053]],[[117.708,4.2625],[117.6619,4.2503],[117.6667,4.2037],[117.6249,4.1217],[117.7371,4.0043],[117.9228,4.0545],[117.9181,4.0905],[117.8847,4.1863],[117.7614,4.2524],[117.708,4.2625]]]}}
