{"type":"Feature","properties":{"id":30,"name":"Sulu Sea","featurecla":"sea","scalerank":2,"wikidataid":"Q160194","source":"Natural Earth 5.2.0-pre ne_10m_geography_marine_polys (public domain)"},"geometry":{"type":"Polygon","coordinates":[[[120.2152,12.2312],[120.7438,12.8239],[120.7708,12.8276],[120.776,12.7905],[120.7962,12.7482],[120.8549,12.7037],[120.8994,12.6461],[120.9216,12.581],[120.9221,12.5117],[120.9624,12.4466],[121.0486,12.3598],[121.0835,12.3392],[121.1079,12.3037],[121.1169,12.2534],[121.1554,12.2365],[121.237,12.219],[121.2889,12.2767],[121.3222,12.3037],[121.3571,12.3132],[121.3942,12.3005],[121.4,12.3608],[121.4179,12.3889],[121.4703,12.4],[121.9641,11.9063],[121.9635,11.8973],[121.9159,11.8544],[121.891,11.7909],[121.9408,11.7581],[122.0673,11.7237],[122.1011,11.6809],[122.1032,11.6428],[122.0598,11.3258],[122.0508,11.0972],[122.0207,10.9792],[121.9646,10.8718],[121.9503,10.7575],[121.9725,10.6988],[121.9799,10.6384],[121.9339,10.4934],[121.9381,10.4707],[121.954,10.4442],[121.9884,10.4585],[122.0519,10.5141],[122.1085,10.5755],[122.1974,10.6231],[122.5218,10.6919],[122.6197,10.7622],[122.6483,10.7226],[122.626,10.695],[122.5377,10.6077],[122.5165,10.4924],[122.5382,10.4252],[122.5969,10.4611],[122.6218,10.459],[122.6493,10.4728],[122.681,10.4982],[122.6985,10.5463],[122.8171,10.504],[122.8525,10.3955],[122.8662,10.2839],[122.8658,10.1251],[122.8557,10.087],[122.7129,9.9902],[122.6483,9.9817],[122.5234,9.9791],[122.4715,9.9616],[122.4254,9.896],[122.3996,9.823],[122.4112,9.6939],[122.5625,9.4827],[122.6102,9.443],[122.6647,9.4102],[122.7726,9.3716],[122.8668,9.3197],[122.9478,9.1081],[122.9949,9.0589],[123.0647,9.0536],[123.1308,9.0642],[123.1748,9.0811],[123.4044,8.654],[123.3801,8.6154],[123.3415,8.5704],[123.2928,8.5413],[123.1473,8.5159],[123.0959,8.481],[123.0505,8.4339],[123.0176,8.3985],[122.9985,8.3561],[123.0028,8.2868],[122.9965,8.2207],[122.9113,8.1566],[122.8044,8.1339],[122.6732,8.1334],[122.5896,8.0931],[122.3869,8.046],[122.3371,8.0286],[122.2435,7.945],[122.1318,7.8106],[122.1202,7.7656],[122.1149,7.6597],[122.0472,7.3634],[121.991,7.2787],[121.9244,7.1994],[121.9043,7.075],[121.9641,6.9681],[122.0275,6.9284],[122.0524,6.9231],[122.0524,6.7379],[121.9149,6.676],[121.8323,6.6639],[121.8085,6.6136],[121.8725,6.5628],[121.8799,6.5178],[121.9577,6.4173],[121.2232,6.05],[121.1857,6.04],[121.1592,6.0754],[121.0375,6.0961],[120.8983,6.0072],[120.8766,5.9527],[120.8771,5.9521],[120.1824,5.3446],[120.1632,5.3309],[120.0622,5.2573],[119.9828,5.2282],[119.8273,5.133],[119.8225,5.0832],[119.7945,5.0626],[119.2478,5.1859],[119.2431,5.1896],[119.25,5.1986],[119.2627,5.2457],[119.2663,5.3081],[119.2558,5.3658],[119.2235,5.4129],[119.1785,5.4309],[119.0499,5.415],[119.0028,5.4177],[118.9573,5.4288],[118.7139,5.5584],[118.5949,5.5923],[118.5631,5.6844],[118.5139,5.7288],[118.4562,5.7632],[118.353,5.8061],[118.2996,5.8198],[118.2493,5.8204],[118.1446,5.7542],[118.0313,5.7119],[117.9736,5.7061],[117.9281,5.769],[117.935,5.7876],[118.0726,5.832],[118.116,5.8627],[118.062,5.9833],[118.0038,6.0532],[117.8958,5.9722],[117.8175,5.9405],[117.5011,5.8849],[117.6175,5.9405],[117.6445,6.0019],[117.6497,6.0738],[117.6159,6.1966],[117.6958,6.2723],[117.6937,6.3501],[117.6699,6.4268],[117.6455,6.4739],[117.6095,6.5125],[117.499,6.5713],[117.3804,6.6125],[117.2942,6.6771],[117.255,6.7834],[117.2455,6.8332],[117.2524,6.9194],[117.2301,6.9401],[117.1285,6.9686],[117.0777,6.9168],[117.0185,6.7972],[116.9131,6.6596],[116.8126,6.6078],[116.7883,6.6062],[116.8078,6.6908],[116.8423,6.7723],[116.8496,6.8268],[116.8333,6.9522],[116.7761,6.9903],[116.7703,6.9872],[116.7592,7.0094],[116.8243,7.6899],[116.9719,7.9402],[116.9698,7.8947],[117.0285,7.8074],[117.0798,7.8836],[117.0772,8.0693],[117.0438,8.0619],[117.1968,8.3212],[117.2185,8.3672],[117.3111,8.4397],[117.4127,8.4958],[117.4693,8.5112],[117.5164,8.5382],[117.5397,8.5958],[117.572,8.6419],[117.6799,8.6779],[117.7799,8.7287],[117.8884,8.798],[117.9895,8.8773],[118.0694,8.9837],[118.134,9.1012],[118.2292,9.1679],[118.3498,9.2017],[118.435,9.2562],[118.5044,9.3324],[118.5694,9.4229],[118.7737,9.7669],[118.7552,9.8621],[118.7822,9.9161],[118.8346,9.9494],[118.9488,9.9934],[119.1918,10.0611],[119.2187,10.1008],[119.232,10.1521],[119.2849,10.2516],[119.369,10.3273],[119.4224,10.3543],[119.5404,10.3791],[119.595,10.4072],[119.687,10.5003],[119.6844,10.5516],[119.6161,10.7072],[119.5267,10.9533],[119.5622,11.0453],[119.5325,11.1014],[119.5346,11.157],[119.5601,11.2671],[119.5532,11.3136],[119.5013,11.3464],[119.4966,11.3824],[119.8993,12.1735],[119.9569,12.0693],[120.0104,12.0084],[120.1003,11.9936],[120.1739,12.0196],[120.2432,12.0047],[120.3147,12.0121],[120.3416,12.0772],[120.2606,12.1418],[120.2284,12.2196],[120.2152,12.2312]],[[119.9638,11.6692],[120.039,11.7031],[120.0733,11.7835],[120.0622,11.8211],[120.0706,11.8608],[120.0358,11.9174],[119.9977,11.9322],[119.9564,11.9603],[119.9162,11.9814],[119.8611,11.9539],[119.9326,11.7745],[119.9315,11.7401],[119.9448,11.6909],[119.9638,11.6692]],[[117.0804,7.1152],[117.1418,7.1681],[117.2391,7.1845],[117.2667,7.2211],[117.2809,7.2904],[117.264,7.3518],[117.147,7.3369],[117.0645,7.2607],[117.0603,7.1787],[117.0804,7.1152]]]}}
