{"type":"Feature","properties":{"id":31,"name":"Norwegian Sea","featurecla":"sea","scalerank":2,"wikidataid":"Q47545","source":"Natural Earth 5.2.0-pre ne_10m_geography_marine_polys (public domain)"},"geometry":{"type":"Polygon","coordinates":[[[-6.6446,61.6929],[-7.2981,62.056],[-7.2547,62.0459],[-7.1796,62.0401],[-7.1166,62.047],[-7.0653,62.0734],[-7.0971,62.1004],[-7.187,62.1396],[-7.2352,62.1512],[-7.3368,62.1385],[-7.4225,62.1401],[-7.4008,62.1078],[-13.8534,64.8616],[-13.8529,64.8621],[-13.8296,64.914],[-13.8281,64.9579],[-13.854,64.9928],[-13.7772,65.0134],[-13.6518,65.0167],[-13.5994,65.0357],[-13.5698,65.068],[-13.556,65.0976],[-13.5587,65.1246],[-13.5809,65.1431],[-13.755,65.1923],[-13.7074,65.2151],[-13.6714,65.223],[-13.6492,65.2368],[-13.6397,65.2574],[-13.6413,65.2749],[-13.6534,65.2897],[-13.7227,65.2907],[-13.7714,65.3225],[-13.8048,65.3548],[-13.7831,65.3691],[-13.7079,65.3818],[-13.6677,65.3987],[-13.6545,65.4416],[-13.6159,65.4871],[-13.618,65.5194],[-13.6693,65.549],[-9.1053,70.8205],[-9.0989,70.855],[-9.046,70.8327],[-8.9533,70.8391],[-8.6353,70.9407],[-8.3025,70.9814],[-8.0019,71.0412],[-7.9787,71.1169],[-8.0014,71.1777],[-7.994,71.2174],[16.3731,76.6149],[16.3789,76.6345],[16.462,76.6091],[16.7006,76.5795],[16.9351,76.6059],[17.0319,76.6461],[17.0446,76.616],[27.5994,71.0915],[27.5973,71.0915],[27.3316,70.9968],[27.2353,70.947],[27.2692,70.91],[27.5555,70.8274],[27.5465,70.8041],[27.3094,70.8036],[27.184,70.7438],[27.1475,70.6814],[27.0712,70.6084],[26.9892,70.5115],[26.6659,70.4215],[26.5849,70.4099],[26.5839,70.4538],[26.6014,70.5036],[26.6283,70.5507],[26.6448,70.6364],[26.5579,70.6692],[26.6754,70.7412],[26.7342,70.8534],[26.6611,70.9396],[26.5071,70.9126],[26.2309,70.7825],[25.9881,70.6253],[25.4705,70.3406],[25.4186,70.2353],[25.2118,70.1363],[25.044,70.1088],[24.9826,70.1437],[24.9943,70.2184],[25.1467,70.3242],[25.2091,70.4893],[25.2737,70.5523],[25.4684,70.6718],[25.6658,70.7772],[25.7817,70.8168],[25.7679,70.8534],[25.7118,70.8698],[25.6499,70.8735],[25.57,70.9004],[25.4361,70.9121],[25.3758,70.892],[25.3255,70.8496],[25.2647,70.8433],[25.171,70.8719],[25.0424,70.9285],[24.8318,70.9782],[24.7646,71.0084],[24.6583,71.001],[24.4418,70.8915],[24.2635,70.8264],[24.2683,70.7729],[24.4037,70.7454],[24.4201,70.702],[24.3555,70.6946],[24.2857,70.6623],[24.0386,70.4856],[23.8973,70.4787],[23.6613,70.3998],[23.3793,70.2474],[23.329,70.2072],[23.2861,70.1046],[23.3104,70.0638],[23.4004,70.0199],[23.3539,69.9834],[23.2581,69.9935],[23.1771,70.0289],[23.0464,70.1019],[22.9829,70.2369],[22.9411,70.3051],[22.8517,70.3406],[22.6844,70.375],[22.4215,70.3374],[22.385,70.2776],[22.322,70.2644],[22.2193,70.3094],[22.0542,70.276],[21.9955,70.2935],[21.7801,70.23],[21.5388,70.2575],[21.3557,70.2332],[21.3462,70.2083],[21.4002,70.1744],[21.6076,70.0982],[21.8029,70.066],[21.8923,70.004],[21.9749,69.8347],[21.9315,69.8146],[21.7796,69.8876],[21.5901,69.9379],[21.433,70.013],[21.2536,70.003],[21.1631,69.8897],[21.0319,69.8876],[20.971,69.9162],[20.8403,69.9072],[20.6223,69.9141],[20.5461,69.8511],[20.5329,69.6924],[20.5625,69.6325],[20.6615,69.585],[20.7424,69.5347],[20.7392,69.5204],[20.4868,69.5421],[20.1979,69.3712],[20.1074,69.341],[20.0545,69.3325],[20.0439,69.3558],[20.2773,69.5357],[20.3381,69.6167],[20.3328,69.677],[20.3874,69.8675],[20.3551,69.922],[20.3244,69.9453],[20.2233,69.9273],[20.1466,69.8966],[20.0688,69.8834],[19.9608,69.8247],[19.8645,69.722],[19.737,69.504],[19.6417,69.4241],[19.6396,69.504],[19.6962,69.613],[19.7227,69.7818],[19.6873,69.8045],[19.1973,69.7479],[19.0385,69.6606],[19.0115,69.6236],[19.0067,69.5876],[18.9909,69.5611],[18.8829,69.5236],[18.7665,69.5172],[18.6739,69.5204],[18.6147,69.4907],[18.6242,69.4341],[18.7501,69.3786],[18.9157,69.3357],[18.8591,69.3145],[18.6453,69.3219],[18.4829,69.3648],[18.3787,69.4399],[18.2934,69.4749],[18.2596,69.4706],[18.1876,69.4331],[18.0786,69.3251],[18.0754,69.2325],[18.1172,69.1812],[18.1014,69.1563],[17.7045,69.1002],[17.5462,69.0013],[17.4902,68.8785],[17.3906,68.7991],[17.1314,68.6933],[16.8848,68.6854],[16.6519,68.6256],[16.6313,68.616],[16.5255,68.6515],[16.5472,68.7166],[16.4794,68.8028],[16.4249,68.8415],[16.3286,68.8764],[16.2757,68.8685],[16.2276,68.8536],[16.1508,68.8425],[16.1206,68.7991],[16.1276,68.7462],[16.0688,68.7139],[16.0593,68.6806],[15.9085,68.6504],[15.7725,68.5541],[15.7603,68.561],[15.7905,68.6171],[15.9281,68.733],[15.9233,68.8192],[15.9058,68.9087],[15.8338,68.9605],[15.8116,69.024],[15.9926,69.1124],[16.1149,69.2166],[16.1297,69.2738],[16.0482,69.3018],[15.9656,69.3018],[15.8926,69.278],[15.7418,69.1706],[15.6497,69.1325],[15.483,69.0436],[15.4386,68.9785],[15.4438,68.9193],[15.5291,68.9124],[15.564,68.8737],[15.4894,68.8055],[15.4126,68.616],[15.0951,68.4414],[14.5855,68.4001],[14.4379,68.3414],[14.2575,68.2567],[14.2575,68.1906],[14.2839,68.1869],[13.8813,68.1636],[13.8876,68.1684],[14.0294,68.1874],[14.0966,68.2186],[14.1189,68.2467],[14.0876,68.253],[13.9326,68.2483],[13.8728,68.2652],[13.7839,68.2763],[13.6876,68.2737],[13.5378,68.2488],[13.4288,68.1631],[13.3679,68.1668],[13.3002,68.1604],[13.2558,68.1207],[13.1997,68.0874],[13.2293,67.9953],[13.3521,68.0096],[12.9832,67.881],[12.9716,67.8742],[12.8314,67.8239],[13.2346,66.655],[13.2113,66.6406],[13.1917,66.5369],[13.1044,66.5396],[13.0679,66.4306],[13.1187,66.2305],[13.3521,66.2369],[13.4166,66.2528],[13.4992,66.2517],[13.6812,66.2734],[13.9733,66.32],[14.0342,66.2978],[13.9156,66.2475],[13.7596,66.221],[13.6743,66.1797],[13.387,66.1829],[12.7837,66.1004],[12.7949,66.0691],[12.9758,66.0194],[13.033,65.9564],[12.9832,65.9416],[12.8171,65.9527],[12.689,65.9019],[12.6276,65.8062],[12.3451,65.6299],[12.2731,65.568],[12.2064,65.486],[12.1223,65.3622],[12.1339,65.2791],[12.1995,65.2452],[12.2636,65.2564],[12.334,65.2405],[12.3636,65.1934],[12.4176,65.1839],[12.5118,65.1955],[12.7155,65.2664],[12.8197,65.3172],[12.9155,65.3394],[12.7382,65.2145],[12.5086,65.0992],[12.3065,65.086],[12.2265,65.1452],[12.1599,65.1791],[11.4894,64.9759],[11.3497,64.906],[11.3037,64.8293],[11.2968,64.7547],[11.3926,64.7732],[11.5619,64.8182],[11.6328,64.814],[11.5238,64.7447],[11.3312,64.6859],[11.2253,64.6796],[11.0904,64.6145],[10.9322,64.578],[10.8338,64.4944],[10.5655,64.4181],[10.2364,64.1795],[10.0099,64.0832],[9.9395,63.9816],[9.8643,63.9175],[9.7077,63.8646],[9.6506,63.8218],[8.8102,63.762],[8.8092,63.7715],[8.7647,63.8048],[8.7335,63.8011],[8.7086,63.7742],[8.4515,63.7318],[8.2869,63.6874],[8.3562,63.6646],[8.471,63.6673],[8.7637,63.7006],[8.7806,63.6376],[8.6737,63.6228],[8.5764,63.6011],[8.398,63.535],[8.361,63.499],[8.3864,63.445],[8.48,63.4244],[8.5938,63.4259],[8.6409,63.3921],[8.6356,63.3424],[8.58,63.3133],[8.2716,63.2868],[8.1842,63.2365],[8.1578,63.1614],[8.235,63.082],[8.3387,63.0423],[8.6092,62.8804],[8.6229,62.846],[8.3107,62.9656],[8.2112,62.9952],[8.1006,63.091],[7.8604,63.1127],[7.736,63.1037],[7.6546,63.109],[7.572,63.0995],[7.3889,63.0233],[7.0084,62.9577],[6.9402,62.9307],[6.928,62.9026],[6.7814,62.7899],[6.7349,62.7206],[6.7798,62.7005],[7.0248,62.7291],[7.1106,62.7518],[7.2423,62.7523],[7.4085,62.7116],[8.0456,62.7714],[8.0954,62.7317],[7.8048,62.7211],[7.5381,62.6719],[7.518,62.6454],[7.5275,62.6105],[7.6905,62.5857],[7.6529,62.564],[7.5699,62.5481],[7.4916,62.5428],[7.2836,62.602],[6.9613,62.6269],[6.7444,62.638],[6.6184,62.6211],[6.4396,62.6095],[6.3528,62.6111],[6.2729,62.5841],[6.2374,62.52],[6.1649,62.4825],[6.1184,62.447],[6.1358,62.4073],[6.2618,62.4163],[6.4571,62.4481],[6.6925,62.4682],[6.62,62.4232],[6.5803,62.4073],[6.2089,62.3528],[6.0834,62.3496],[6.0258,62.3756],[5.9797,62.4073],[5.9083,62.4158],[5.7961,62.3846],[5.7183,62.3788],[5.5331,62.311],[5.4844,62.239],[5.4225,62.2073],[5.3579,62.1517],[5.2939,62.1539],[5.241,62.1888],[5.1431,62.1597],[5.0966,62.0269],[5.1595,61.957],[5.2669,61.9358],[5.4733,61.9454],[5.6643,61.9231],[6.1311,61.8522],[6.3962,61.8512],[6.6825,61.8872],[6.7306,61.8697],[6.4666,61.8072],[6.0157,61.7877],[5.7935,61.8268],[5.4654,61.8972],[5.1172,61.8856],[4.9849,61.9004],[4.9299,61.8781],[4.9103,61.8094],[4.9277,61.7109],[4.9965,61.6453],[5.0997,61.6199],[5.1675,61.5432],[5.2675,61.5051],[5.3389,61.4855],[5.2585,61.4553],[5.1722,61.4569],[5.0029,61.4337],[4.9896,61.3775],[5.0214,61.2506],[5.0325,61.2421],[4.9568,61.1627],[4.9733,61.1484],[4.959,61.0844],[4.8701,61.0717],[5.0246,60.9362],[5.0108,60.8585],[5.0489,60.7076],[5.1156,60.6362],[5.2034,60.5907],[-0.7756,60.5907],[-1.0047,60.5489],[-1.0566,60.4134],[-1.0608,60.4034],[-1.0524,60.4446],[-1.118,60.4177],[-1.1577,60.4177],[-1.236,60.4854],[-1.2873,60.4669],[-1.308,60.5372],[-1.3016,60.6076],[-1.3641,60.6097],[-1.4143,60.5986],[-1.4979,60.5298],[-1.5524,60.5177],[-1.5635,60.505],[-6.6446,61.6929]],[[25.5822,70.9608],[25.76,70.9539],[25.7912,70.9624],[25.9997,70.975],[26.1341,70.9957],[26.1468,71.0396],[26.0775,71.0333],[25.9452,71.1047],[25.8536,71.1036],[25.5864,71.1423],[25.4234,71.0973],[25.3155,71.0528],[25.3149,71.0343],[25.4821,71.0195],[25.5822,70.9608]],[[23.6703,70.5972],[23.7169,70.5618],[23.8269,70.5274],[24.0174,70.5676],[24.0783,70.6507],[23.9566,70.6994],[23.8518,70.7142],[23.8365,70.7295],[23.7782,70.7475],[23.6893,70.7227],[23.6634,70.675],[23.6703,70.5972]],[[23.5464,70.6173],[23.248,70.5052],[23.1586,70.5163],[23.0226,70.4872],[22.9411,70.4448],[22.9178,70.4168],[22.9178,70.3845],[23.0062,70.3528],[23.0909,70.3776],[23.1083,70.3591],[23.1004,70.2961],[23.1591,70.2824],[23.2708,70.2967],[23.3454,70.3152],[23.3327,70.3348],[23.5475,70.4083],[23.6412,70.4639],[23.6338,70.5025],[23.6153,70.5491],[23.5787,70.5935],[23.5464,70.6173]],[[23.2803,70.8126],[23.2046,70.8153],[22.9633,70.711],[22.858,70.7284],[22.5707,70.6972],[22.4209,70.7025],[22.3506,70.6575],[22.2325,70.6671],[22.1701,70.6565],[21.9944,70.657],[22.0558,70.6131],[22.1685,70.5623],[22.3585,70.5147],[22.432,70.5094],[22.5575,70.5157],[22.6056,70.5332],[22.6559,70.5591],[22.8289,70.5417],[22.8845,70.5533],[22.9289,70.5734],[23.0681,70.594],[23.3052,70.7216],[23.3872,70.7539],[23.421,70.7846],[23.4406,70.8158],[23.3957,70.8428],[23.2803,70.8126]],[[20.4926,70.2035],[20.4117,70.1548],[20.4053,70.1189],[20.4641,70.0765],[20.5344,70.0808],[20.5979,70.0713],[20.6424,70.057],[20.7255,70.0665],[20.7794,70.0898],[20.8197,70.2057],[20.7858,70.2194],[20.6551,70.2311],[20.4926,70.2035]],[[19.6137,70.2189],[19.7111,70.1654],[19.7465,70.1104],[19.7809,70.0776],[19.8973,70.0686],[20.0058,70.076],[20.0884,70.1019],[20.0841,70.1284],[19.9942,70.149],[19.9105,70.2019],[19.8687,70.212],[19.8185,70.2051],[19.7677,70.2168],[19.6835,70.2734],[19.5989,70.266],[19.6137,70.2189]],[[19.2497,70.1787],[19.2126,70.2474],[19.1327,70.2443],[19.0602,70.1665],[19.0512,70.1347],[19.075,70.0855],[19.0512,70.0379],[18.9686,70.0432],[18.8834,70.0104],[18.8236,69.9601],[18.6866,69.8908],[18.6739,69.8643],[18.6977,69.8247],[18.6739,69.7818],[18.6242,69.813],[18.584,69.8067],[18.5125,69.7686],[18.4061,69.7818],[18.3495,69.768],[18.3151,69.7156],[18.2686,69.7019],[18.232,69.677],[18.2273,69.6358],[18.0834,69.6262],[18.0617,69.6019],[18.1299,69.558],[18.2744,69.5357],[18.4104,69.5527],[18.7845,69.5791],[18.8009,69.6056],[18.8067,69.64],[18.9094,69.7067],[19.0078,69.7596],[19.1311,69.8104],[19.1973,69.7998],[19.3348,69.8204],[19.4423,69.9082],[19.5925,69.9702],[19.6079,70.0194],[19.4994,70.048],[19.446,70.0379],[19.4222,70.0173],[19.3438,70.012],[19.2549,70.0665],[19.2497,70.1787]],[[19.0983,74.3522],[19.2195,74.3908],[19.2745,74.457],[19.2613,74.4792],[19.1829,74.5178],[18.8612,74.5141],[18.7972,74.4855],[18.9173,74.4104],[19.0983,74.3522]],[[17.7839,69.5632],[17.6775,69.5564],[17.6235,69.5389],[17.5028,69.5961],[17.4881,69.587],[17.4833,69.5696],[17.4536,69.5304],[17.3558,69.5273],[17.2521,69.504],[17.2298,69.4775],[17.3732,69.4389],[17.3944,69.4166],[17.361,69.3817],[17.0832,69.3987],[17.0017,69.3621],[16.997,69.3304],[16.9742,69.2849],[16.9975,69.1907],[16.9716,69.1378],[16.8425,69.1124],[16.8155,69.0949],[16.8107,69.0706],[16.9599,69.0695],[17.0769,69.0468],[17.0827,69.0134],[17.161,69.0261],[17.3235,69.1298],[17.4881,69.1971],[17.568,69.1606],[17.7733,69.1722],[17.9505,69.1981],[17.9209,69.2743],[17.9421,69.3288],[18.0209,69.3495],[18.077,69.396],[18.0521,69.4574],[18.004,69.505],[17.9273,69.5066],[17.8627,69.5431],[17.7839,69.5632]],[[15.0375,68.8944],[14.8724,68.9139],[14.838,68.8864],[14.8491,68.8478],[14.802,68.7912],[14.7247,68.8002],[14.6903,68.8145],[14.5538,68.8187],[14.4967,68.7716],[14.3734,68.7113],[14.4046,68.6631],[14.521,68.633],[14.612,68.6382],[14.7433,68.6774],[14.793,68.6684],[14.8041,68.6377],[14.8903,68.6107],[15.0269,68.6065],[15.2222,68.6166],[15.3486,68.6727],[15.3968,68.7838],[15.337,68.8425],[15.2073,68.9431],[15.1756,68.9817],[15.1279,69.0039],[15.102,69.0081],[15.038,69.0008],[15.0375,68.8944]],[[10.8327,64.8431],[11.0624,64.8605],[11.1788,64.8383],[11.2317,64.8658],[11.246,64.9082],[11.1327,64.9764],[11.0211,64.9785],[10.8136,64.923],[10.7396,64.87],[10.8327,64.8431]],[[8.0049,63.3371],[8.1027,63.3376],[8.1408,63.3662],[8.1361,63.4313],[8.0736,63.471],[7.9382,63.4498],[7.8037,63.4138],[7.8154,63.3852],[7.8884,63.3524],[8.0049,63.3371]],[[-6.9584,62.3163],[-7.1722,62.2856],[-7.0134,62.0941],[-6.8097,61.9776],[-6.725,61.9517],[-6.7145,61.9644],[-6.7224,61.9904],[-6.8097,62.0803],[-6.8377,62.0956],[-6.8404,62.1195],[-6.8235,62.139],[-6.769,62.1316],[-6.6965,62.0946],[-6.6557,62.0935],[-6.6309,62.2279],[-6.8039,62.266],[-6.9584,62.3163]]]}}
