{"type":"Feature","properties":{"id":32,"name":"Greenland Sea","featurecla":"sea","scalerank":2,"wikidataid":"Q132868","source":"Natural Earth 5.2.0-pre ne_10m_geography_marine_polys (public domain)"},"geometry":{"type":"Polygon","coordinates":[[[17.9585,80.1497],[17.9167,80.1429],[17.9643,80.1318],[17.6219,79.8841],[17.6193,79.8741],[17.578,79.8846],[17.2192,79.9407],[16.9663,79.9587],[16.9255,79.9434],[16.889,79.9153],[16.8387,79.9047],[16.7869,79.9069],[16.5239,80.0206],[16.3868,80.0524],[16.2456,80.0497],[16.0937,80.0074],[16.0566,79.954],[16.1,79.8846],[15.9556,79.8349],[15.845,79.7338],[15.8259,79.7089],[15.8159,79.682],[15.8407,79.5867],[15.8751,79.5195],[16.0275,79.3422],[16.2535,79.112],[16.344,78.9761],[16.2947,78.9808],[15.8588,79.1597],[15.764,79.1745],[15.6603,79.2348],[15.4438,79.4068],[15.2512,79.5455],[15.0523,79.6751],[14.8316,79.7666],[14.5935,79.7989],[14.3797,79.7259],[14.1786,79.6184],[14.04,79.5857],[14.0199,79.5386],[14.0114,79.4819],[14.0263,79.4295],[14.0559,79.383],[14.0294,79.3444],[13.9574,79.3396],[13.8336,79.3756],[13.7161,79.429],[13.6013,79.4571],[13.4315,79.4708],[13.3838,79.4809],[13.3335,79.5745],[13.215,79.5883],[12.5551,79.5693],[13.0393,79.6851],[13.7775,79.7153],[13.9072,79.7523],[13.9209,79.7619],[13.9257,79.7936],[13.9141,79.8169],[13.6928,79.8608],[13.1076,79.8317],[12.7536,79.7756],[12.6023,79.773],[12.28,79.8159],[12.2191,79.7979],[12.2451,79.7502],[12.2879,79.7132],[12.2054,79.719],[12.1017,79.7375],[11.7021,79.8206],[11.3439,79.7994],[11.2508,79.7846],[11.1851,79.7206],[11.1502,79.7169],[11.0497,79.7603],[10.866,79.7968],[10.8041,79.7989],[10.7465,79.7889],[10.6824,79.7582],[10.6861,79.7338],[10.7544,79.6904],[10.8105,79.6407],[10.7369,79.5814],[10.7248,79.5555],[10.7375,79.5201],[10.8343,79.4629],[10.8883,79.4153],[10.9258,79.3502],[10.9756,79.3047],[11.1074,79.2327],[11.2079,79.1295],[11.3391,79.1089],[11.5211,79.1512],[11.6164,79.2052],[11.5799,79.2835],[11.6794,79.2914],[11.9784,79.2925],[12.0842,79.2676],[12.0159,79.2131],[11.8926,79.1523],[11.9021,79.112],[11.926,79.0771],[11.982,79.0253],[12.0455,78.9829],[12.0874,78.975],[12.253,78.9755],[12.3752,78.9665],[12.4033,78.9533],[12.3234,78.9142],[12.2747,78.9046],[11.5476,78.9829],[11.4561,78.9729],[11.3656,78.9501],[11.6111,78.8829],[11.8609,78.8321],[11.755,78.8115],[11.746,78.7665],[11.7736,78.7162],[11.8657,78.6744],[11.9614,78.6422],[12.1382,78.6056],[12.2577,78.5945],[12.4345,78.4829],[12.6647,78.385],[12.8224,78.3517],[12.8695,78.331],[12.9129,78.3009],[13.1504,78.2373],[13.6548,78.2453],[13.9077,78.267],[14.1104,78.2707],[14.2384,78.3098],[14.3633,78.3601],[14.4993,78.3924],[14.6385,78.4146],[14.5453,78.4617],[14.4316,78.4924],[14.4676,78.5411],[14.5152,78.5808],[14.5051,78.6305],[14.467,78.6755],[14.5776,78.7051],[14.6893,78.721],[14.7438,78.721],[14.7925,78.7056],[14.8385,78.6654],[14.8919,78.6395],[15.0163,78.63],[15.1375,78.6644],[15.2253,78.7321],[15.3227,78.7813],[15.3841,78.7713],[15.3915,78.721],[15.3481,78.6633],[15.265,78.6083],[15.2544,78.5892],[15.2793,78.5543],[15.3597,78.4876],[15.4174,78.4734],[15.6804,78.4712],[15.9439,78.4929],[16.1577,78.5379],[16.4461,78.6385],[16.5302,78.6564],[16.7827,78.6638],[16.6964,78.613],[16.4487,78.5035],[16.5356,78.449],[16.7266,78.4072],[16.8113,78.3972],[16.9917,78.4003],[17.1721,78.4173],[17.0028,78.3696],[16.7768,78.3506],[16.1503,78.3527],[15.8751,78.3389],[15.7841,78.3273],[15.6571,78.2993],[15.6587,78.2649],[15.6979,78.2278],[15.5195,78.2326],[15.3412,78.2209],[14.9946,78.1511],[14.2479,78.0712],[14.3072,78.005],[14.0479,78.0669],[13.9368,78.0855],[13.8241,78.085],[13.7701,78.0744],[13.7177,78.0574],[13.6807,78.0283],[13.714,77.9193],[13.7495,77.8833],[13.7913,77.8537],[13.9627,77.796],[14.0897,77.7711],[14.6041,77.7664],[14.847,77.7786],[15.0967,77.8093],[15.3449,77.8569],[15.5852,77.869],[15.8265,77.8468],[16.0598,77.8473],[16.5398,77.8802],[16.8531,77.9114],[16.9139,77.8981],[16.9689,77.842],[17.0335,77.7976],[16.6192,77.7987],[16.2059,77.7823],[14.9205,77.6886],[14.6951,77.5251],[14.5961,77.5378],[14.4877,77.5711],[14.3776,77.5796],[14.0712,77.5642],[14.0263,77.5452],[13.9956,77.5082],[14.004,77.4452],[14.0506,77.4034],[14.1453,77.3356],[14.2474,77.2822],[14.366,77.2346],[14.4872,77.1991],[14.7385,77.1626],[15.1243,77.0853],[15.5465,76.8864],[16.0048,76.7609],[16.1239,76.7388],[16.2382,76.7017],[16.3455,76.6445],[16.3789,76.6345],[16.3731,76.6149],[-7.994,71.2174],[-8.0014,71.1777],[-8.3437,71.1402],[-8.5211,71.0306],[-8.9645,70.9158],[-9.0989,70.855],[-9.1053,70.8205],[-13.6693,65.549],[-13.6703,65.5495],[-13.7053,65.5506],[-13.7852,65.5331],[-13.8408,65.586],[-13.9355,65.6162],[-14.1667,65.6421],[-14.3022,65.6273],[-14.4736,65.5755],[-14.3281,65.6585],[-14.3181,65.6844],[-14.3508,65.7098],[-14.3689,65.739],[-14.3726,65.7702],[-14.3916,65.7876],[-14.426,65.7898],[-14.7578,65.7559],[-14.8271,65.7644],[-14.8393,65.7807],[-14.7525,65.8337],[-14.6885,65.8972],[-14.6689,65.9596],[-14.6742,65.9898],[-14.698,66.02],[-14.7403,66.0506],[-14.7869,66.0591],[-14.8938,66.0379],[-15.0102,66.0612],[-15.1166,66.1025],[-15.1176,66.1258],[-15.0298,66.1776],[-14.9123,66.2845],[-14.7885,66.3316],[-14.7017,66.3422],[-14.5938,66.374],[-14.5959,66.3814],[-14.6805,66.3761],[-14.8562,66.3814],[-14.97,66.3597],[-15.1626,66.2819],[-15.2409,66.2591],[-15.4283,66.2247],[-15.5431,66.2284],[-15.6473,66.2586],[-15.7029,66.2856],[-15.714,66.3586],[-15.7595,66.3919],[-15.851,66.4327],[-15.9855,66.5147],[-16.0267,66.5237],[-16.0357,66.5258],[-16.2495,66.5227],[-16.4935,66.4814],[-16.5406,66.447],[-16.4278,66.2782],[-16.4374,66.2528],[-16.485,66.1962],[-16.6247,66.1718],[-16.7485,66.1316],[-16.8379,66.1252],[-16.9253,66.1433],[-16.9697,66.1676],[-17.0623,66.1972],[-17.1152,66.2062],[-17.1528,66.203],[-17.3343,66.0887],[-17.4174,66.0258],[-17.4671,65.9998],[-17.5391,65.9781],[-17.5502,65.9644],[-17.5819,65.9713],[-17.6343,65.9993],[-17.8201,66.1141],[-17.9069,66.1433],[-18.1799,66.1607],[-18.2974,66.1575],[-18.318,66.129],[-18.3154,66.093],[-18.1487,65.9051],[-18.099,65.8305],[-18.1032,65.7739],[-18.1185,65.7506],[-18.1418,65.7342],[-18.1635,65.7363],[-18.1836,65.758],[-18.2768,65.8845],[-18.4551,65.9644],[-18.5948,66.0713],[-18.7064,66.1358],[-18.7773,66.1686],[-18.8461,66.184],[-18.9112,66.1813],[-18.9938,66.1602],[-19.0933,66.1215],[-19.1954,66.0977],[-19.3827,66.0755],[-19.4272,66.0379],[-19.4562,65.985],[-19.434,65.8146],[-19.443,65.7876],[-19.4616,65.7723],[-19.4896,65.7681],[-19.5933,65.7792],[-19.6478,65.8009],[-19.7526,65.8676],[-19.8748,65.93],[-20.0262,66.049],[-20.1029,66.0803],[-20.2077,66.0998],[-20.2923,66.0845],[-20.3564,66.0332],[-20.3738,65.9474],[-20.3442,65.8279],[-20.3564,65.7189],[-20.4114,65.6215],[-20.4548,65.5712],[-20.4865,65.567],[-20.5479,65.5797],[-20.6495,65.6543],[-20.6792,65.6633],[-20.7395,65.6585],[-20.8046,65.6363],[-20.9395,65.5654],[-20.9787,65.4712],[-20.9983,65.4447],[-21.021,65.4305],[-21.0475,65.4283],[-21.0755,65.385],[-21.1057,65.3003],[-21.1295,65.2664],[-21.1628,65.304],[-21.23,65.4204],[-21.3126,65.4585],[-21.3655,65.4659],[-21.4221,65.4622],[-21.4322,65.4738],[-21.3962,65.5019],[-21.374,65.5363],[-21.365,65.5781],[-21.3867,65.5924],[-21.4396,65.5792],[-21.4549,65.5844],[-21.4338,65.6098],[-21.466,65.6352],[-21.6105,65.6807],[-21.6586,65.7236],[-21.4565,65.6982],[-21.4126,65.7136],[-21.375,65.7421],[-21.3036,65.8765],[-21.3089,65.8956],[-21.3877,65.939],[-21.4973,65.9548],[-21.5168,65.9676],[-21.4327,65.9903],[-21.3967,66.0094],[-21.4068,66.0258],[-21.6253,66.0898],[-21.8402,66.2004],[-21.9481,66.2411],[-21.9672,66.257],[-22.1703,66.3073],[-22.3206,66.3856],[-22.4259,66.4301],[-22.5593,66.4454],[-22.7239,66.4327],[-22.889,66.4406],[-22.9445,66.4295],[-23.0625,66.3845],[-23.1197,66.357],[-23.117,66.3385],[-22.9721,66.3242],[-22.8212,66.3247],[-22.6863,66.3375],[-22.6725,66.3142],[-22.6461,66.3015],[-22.5323,66.2877],[-22.4847,66.2665],[-22.5096,66.2575],[-22.7556,66.2586],[-22.8615,66.2517],[-22.9318,66.2332],[-22.9477,66.2125],[-22.8694,66.1723],[-22.8064,66.1528],[-22.4455,66.0702],[-22.4334,66.0575],[-22.4244,65.9982],[-22.4275,65.9273],[-22.4418,65.9083],[-22.5514,65.9056],[-22.6159,65.8676],[-22.6201,65.8771],[-22.6043,65.9443],[-22.6096,65.9765],[-22.6217,65.9998],[-22.6598,66.0258],[-22.7233,66.039],[-22.8154,65.9834],[-22.8524,65.9792],[-22.926,65.9951],[-23.0191,65.9824],[-23.0287,65.9972],[-23.0176,66.0337],[-23.0287,66.0639],[-23.0625,66.0861],[-23.3001,66.1665],[-23.3763,66.1819],[-23.4525,66.1808],[-23.5277,66.1644],[-23.551,66.2173],[-28.4717,68.3604],[-28.4833,68.4255],[-28.3648,68.4467],[-28.1267,68.479],[-27.851,68.4933],[-27.2662,68.5843],[-27.081,68.6018],[-26.8154,68.6541],[-26.6535,68.6727],[-26.4831,68.6758],[-26.3413,68.7023],[-26.2291,68.7515],[-26.1386,68.7811],[-25.956,68.8171],[-25.6978,68.8901],[-25.6264,68.9282],[-25.6062,68.9547],[-25.5814,69.0209],[-25.5438,69.0457],[-25.2723,69.0918],[-25.0924,69.1653],[-25.0802,69.1923],[-25.1887,69.2606],[-25.1326,69.2722],[-24.8665,69.2929],[-24.7405,69.3183],[-24.4511,69.4071],[-24.2955,69.4394],[-24.2209,69.4791],[-24.2272,69.5267],[-24.2521,69.5622],[-24.2965,69.5855],[-24.2473,69.5902],[-23.9436,69.558],[-23.8558,69.5654],[-23.7393,69.5886],[-23.7092,69.6273],[-23.7642,69.6812],[-23.8166,69.7178],[-23.8658,69.7368],[-23.8118,69.7442],[-23.5525,69.7405],[-23.2372,69.7913],[-23.0493,69.7929],[-23.0144,69.8051],[-23.0885,69.8829],[-23.0334,69.9009],[-22.8207,69.9231],[-22.726,69.9453],[-22.6149,69.9543],[-22.4349,69.9855],[-22.2873,70.0331],[-22.2354,70.0675],[-22.2063,70.1078],[-22.2693,70.122],[-21.6248,70.4681],[-21.6253,70.4686],[-21.5227,70.5263],[-21.574,70.5904],[-21.6253,70.8047],[-21.6745,70.8565],[-21.6666,70.9158],[-21.6899,71.0925],[-21.6714,71.2058],[-21.6978,71.3375],[-21.7523,71.4783],[-21.9613,71.5079],[-22.1698,71.4524],[-22.2339,71.4497],[-22.2989,71.4323],[-22.3476,71.3735],[-22.4175,71.2486],[-22.4799,71.3836],[-22.4884,71.4566],[-22.5032,71.5005],[-22.4651,71.5249],[-22.3111,71.5645],[-22.0132,71.6889],[-21.9597,71.7445],[-22.2646,71.754],[-22.3704,71.7699],[-22.4969,71.9138],[-22.562,71.9281],[-22.8683,71.9704],[-22.9556,71.9995],[-23.2911,72.081],[-23.5869,72.1398],[-23.7975,72.2006],[-24.2421,72.3112],[-24.4172,72.3482],[-24.5722,72.4202],[-24.667,72.4371],[-24.8442,72.3901],[-25.1178,72.3472],[-25.2035,72.3927],[-25.1279,72.4191],[-24.8368,72.4731],[-24.7008,72.5065],[-24.65,72.5827],[-24.7712,72.8684],[-24.7892,72.8896],[-24.8135,72.9018],[-24.985,72.8891],[-25.2374,72.843],[-25.3575,72.8102],[-25.6877,72.7975],[-26.1,72.7218],[-26.2095,72.6943],[-26.3921,72.6726],[-26.4767,72.6779],[-26.6577,72.716],[-26.2058,72.7954],[-26.0804,72.7938],[-25.8608,72.8467],[-25.2559,72.924],[-25.1707,72.9801],[-24.9924,73.0129],[-24.7887,73.0441],[-24.6299,73.0378],[-24.5474,72.9219],[-24.3585,72.6875],[-24.069,72.4985],[-23.8558,72.4525],[-23.6743,72.3927],[-23.2081,72.3265],[-22.7069,72.2239],[-22.4974,72.1577],[-22.2931,72.1196],[-22.2392,72.2202],[-22.2804,72.3445],[-22.0746,72.399],[-22.0068,72.6356],[-22.0232,72.7208],[-22.0365,72.9187],[-22.1942,72.9653],[-22.4503,72.9859],[-22.8524,73.0838],[-22.9959,73.1716],[-23.244,73.1933],[-23.4557,73.2589],[-23.7097,73.3166],[-23.8992,73.3981],[-24.1325,73.4092],[-24.5871,73.423],[-25.057,73.3965],[-25.2681,73.3621],[-25.3988,73.2759],[-26.0285,73.1986],[-26.2021,73.1933],[-26.4328,73.1716],[-26.7535,73.1214],[-27.0699,73.1372],[-27.19,73.1325],[-27.3482,73.0679],[-27.4133,73.0674],[-27.4832,73.0891],[-27.5324,73.1124],[-27.5615,73.1383],[-27.4726,73.16],[-27.2646,73.1764],[-27.062,73.179],[-26.8635,73.1669],[-26.7286,73.1716],[-26.6577,73.1923],[-26.5418,73.2489],[-26.6037,73.2796],[-27.1694,73.3743],[-27.2705,73.4362],[-26.9768,73.3796],[-26.7656,73.3484],[-26.4069,73.3129],[-26.1688,73.2589],[-26.0624,73.2531],[-25.7401,73.2775],[-25.6655,73.2928],[-25.4501,73.3907],[-25.311,73.4309],[-25.0257,73.486],[-24.7913,73.5114],[-24.7781,73.5399],[-24.9088,73.5802],[-25.2803,73.7394],[-25.4274,73.7939],[-25.5279,73.841],[-25.521,73.8516],[-25.3517,73.8135],[-25.1088,73.7336],[-24.9056,73.6526],[-24.7845,73.6177],[-24.677,73.6024],[-24.5664,73.6056],[-24.4511,73.6283],[-24.3399,73.6722],[-24.1579,73.7643],[-23.7605,73.5431],[-23.2335,73.3976],[-22.9874,73.3462],[-22.3471,73.269],[-22.1852,73.2701],[-21.873,73.3579],[-21.5481,73.4315],[-21.3258,73.4569],[-20.6368,73.4637],[-20.5098,73.4928],[-20.449,73.6532],[-20.3378,73.8199],[-20.3675,73.8484],[-21.0221,73.941],[-21.2983,73.9622],[-21.9878,73.9712],[-22.1349,73.9903],[-22.2704,74.03],[-22.3355,74.0633],[-22.3291,74.0908],[-22.2905,74.1252],[-22.2201,74.1654],[-22.1957,74.2056],[-22.2174,74.2453],[-22.2635,74.2723],[-22.3344,74.2866],[-22.3217,74.3024],[-22.1772,74.33],[-21.9725,74.3898],[-21.9201,74.439],[-21.9825,74.5676],[-21.9428,74.566],[-21.7618,74.4829],[-21.8322,74.3575],[-21.955,74.2443],[-21.5804,74.1633],[-21.1295,74.1109],[-20.6532,74.1374],[-20.2304,74.2046],[-20.2564,74.2829],[-20.0474,74.2823],[-19.6462,74.258],[-19.4668,74.2697],[-19.369,74.2839],[-19.315,74.3067],[-19.2716,74.3427],[-19.2414,74.4004],[-19.225,74.4797],[-19.2869,74.5464],[-19.4272,74.6009],[-19.5377,74.6247],[-19.7997,74.8517],[-19.9849,74.975],[-20.214,75.0195],[-20.4172,74.975],[-20.5315,74.8427],[-20.6109,74.7284],[-20.8617,74.6358],[-21.0385,74.6544],[-21.0385,74.6697],[-20.9707,74.6898],[-20.8898,74.7353],[-20.7951,74.8062],[-20.7855,74.8919],[-20.8612,74.9925],[-20.9279,75.0534],[-20.9856,75.0745],[-21.0565,75.0793],[-21.1406,75.0687],[-21.4576,74.9978],[-21.5978,74.9719],[-21.6952,74.9644],[-21.7841,74.9713],[-21.9042,75.0041],[-22.0979,75.0666],[-22.2328,75.1195],[-21.8608,75.0401],[-21.6491,75.0237],[-21.4094,75.065],[-21.2464,75.1332],[-21.094,75.1491],[-20.9057,75.1571],[-20.485,75.3142],[-20.1987,75.3079],[-20.0267,75.2544],[-19.8934,75.2047],[-19.7986,75.1576],[-19.6764,75.1491],[-19.5261,75.1803],[-19.4261,75.2301],[-19.3753,75.2984],[-19.3663,75.3862],[-19.3996,75.4947],[-19.4314,75.5672],[-19.4621,75.6037],[-19.4801,75.6449],[-19.4859,75.6894],[-19.5092,75.7577],[-19.5658,75.7947],[-19.8071,75.8974],[-19.9579,75.9969],[-19.8627,76.1207],[-20.1034,76.2191],[-20.2791,76.2323],[-20.4352,76.2313],[-20.5638,76.2397],[-20.7834,76.2752],[-20.8877,76.3038],[-21.1856,76.2678],[-21.4168,76.2641],[-21.4883,76.272],[-21.5692,76.2937],[-21.7581,76.4006],[-21.8772,76.5736],[-22.0037,76.5879],[-22.2947,76.6017],[-22.3789,76.6123],[-22.4445,76.625],[-22.6064,76.6805],[-22.6096,76.7043],[-22.5545,76.7292],[-22.3344,76.7938],[-22.1852,76.7943],[-21.9306,76.743],[-21.7491,76.69],[-21.6147,76.688],[-20.9602,76.8424],[-20.9422,76.8869],[-20.4865,76.9208],[-20.0643,76.9277],[-19.8648,76.9144],[-19.5086,76.861],[-19.1562,76.8366],[-18.9811,76.8139],[-18.8652,76.7843],[-18.7403,76.7678],[-18.6059,76.7631],[-18.5101,76.7779],[-18.3958,76.8599],[-18.3371,76.9213],[-18.3027,77.0123],[-18.2926,77.133],[-18.3392,77.2155],[-18.4424,77.2594],[-18.5858,77.2833],[-18.9033,77.2806],[-19.1308,77.233],[-19.3002,77.2224],[-19.4266,77.2462],[-19.5875,77.2944],[-19.8087,77.3325],[-20.232,77.3685],[-20.4638,77.4473],[-20.6808,77.6187],[-20.4394,77.6616],[-20.1622,77.6897],[-19.9532,77.6664],[-19.524,77.5722],[-19.4674,77.5658],[-19.2959,77.5854],[-19.297,77.6214],[-19.3938,77.6785],[-19.4907,77.7188],[-19.7246,77.7669],[-19.9949,77.8034],[-20.3188,77.8622],[-20.5717,77.8918],[-20.8628,77.9119],[-21.1321,77.8473],[-21.3798,77.6976],[-21.5788,77.6516],[-21.7296,77.7087],[-21.7476,77.7907],[-21.6327,77.8976],[-21.5158,77.9918],[-21.3972,78.0738],[-21.3121,78.1738],[-21.2602,78.2929],[-21.1946,78.3797],[-20.9559,78.5548],[-20.9474,78.5961],[-21.1417,78.6427],[-21.1337,78.6586],[-20.6157,78.8041],[-20.3955,78.829],[-20.1997,78.8305],[-20.0505,78.8416],[-19.9727,78.8676],[-19.887,78.911],[-19.8314,78.9591],[-19.806,79.012],[-19.7701,79.0475],[-19.723,79.0649],[-19.262,79.1232],[-19.0747,79.1523],[-18.9922,79.1782],[-18.971,79.2115],[-19.0112,79.2512],[-19.0716,79.2893],[-19.152,79.3253],[-19.2229,79.3417],[-19.2838,79.338],[-19.4139,79.3486],[-19.4314,79.3983],[-19.3991,79.4883],[-19.3541,79.5671],[-19.2959,79.6349],[-19.2838,79.683],[-19.3531,79.7344],[-19.3917,79.7502],[-19.5176,79.7555],[-19.8394,79.7465],[-19.9854,79.7561],[-20.069,79.774],[-20.1384,79.8031],[-20.1812,79.8582],[-20.1976,79.9376],[-20.15,80.0111],[-20.0394,80.0788],[-19.8669,80.1445],[-19.515,80.2413],[-19.4293,80.2577],[-19.206,80.2614],[-19.0292,80.2477],[-18.6927,80.2069],[-18.0709,80.172],[-17.7227,80.1762],[-17.357,80.2005],[-17.1914,80.2037],[-17.011,80.19],[-16.8687,80.1984],[-16.4887,80.2519],[-16.168,80.3297],[-15.9325,80.3953],[-15.9373,80.4275],[-16.4294,80.4842],[-16.5876,80.5112],[-16.7607,80.5736],[-16.3188,80.6498],[-15.9976,80.6419],[-15.5425,80.6503],[-15.1944,80.7212],[-14.5038,80.7631],[-14.4313,80.7763],[-14.2403,80.8324],[-14.2286,80.8705],[-14.3085,80.9133],[-14.49,80.9731],[-14.4525,80.9932],[-14.1974,81.0139],[-13.8042,81.0186],[-13.4513,81.0382],[-13.1264,81.088],[-12.4612,81.2324],[-12.2315,81.3091],[-11.5288,81.424],[-11.4304,81.4568],[-11.4256,81.4806],[-11.5574,81.5028],[-11.841,81.5775],[-12.1929,81.6489],[-12.4342,81.6827],[-12.956,81.7203],[-13.7042,81.7891],[-14.2419,81.814],[-15.2277,81.8219],[-15.4505,81.8367],[-15.5558,81.8336],[-15.9691,81.7854],[-16.1209,81.7764],[-16.267,81.7542],[-16.359,81.7293],[-16.6369,81.6261],[-16.9369,81.5441],[-17.1592,81.451],[-17.2264,81.4303],[-17.456,81.3975],[-17.7169,81.4282],[-17.9693,81.4409],[-18.118,81.4668],[-18.4567,81.4981],[-18.6673,81.4922],[-19.153,81.5123],[-19.2245,81.6399],[-19.6298,81.6399],[-20.0156,81.5642],[-20.7559,81.3118],[-20.8898,81.2764],[-21.1422,81.2261],[-21.4496,81.1785],[-21.9312,81.0504],[-22.0894,81.0202],[-22.8255,80.9128],[-22.9191,80.8721],[-22.9731,80.8329],[-23.1176,80.7784],[-23.2038,80.7895],[-23.1964,80.8472],[-23.0726,80.9266],[-22.5725,81.098],[-22.4154,81.1372],[-21.9608,81.2837],[-21.7238,81.3483],[-21.5041,81.4377],[-21.2306,81.6012],[-21.1464,81.6949],[-21.1237,81.7902],[-21.1179,81.8695],[-21.1306,81.9341],[-21.1676,81.9838],[-21.338,82.0685],[-21.5756,82.0749],[-22.5635,82.0532],[-22.9403,82.0304],[-23.1038,82.0119],[-23.18,81.9897],[-23.2488,81.9473],[-23.3107,81.8854],[-23.3928,81.8272],[-23.4959,81.7732],[-23.6367,81.742],[-24.2929,81.7008],[-24.5892,81.8828],[-25.149,82.0013],[-27.0461,82.0463],[-27.8393,82.0489],[-28.9193,81.996],[-29.5438,81.9399],[-29.811,81.9553],[-29.8872,82.0547],[-29.7729,82.1315],[-29.5792,82.1611],[-23.8621,82.287],[-23.1181,82.3246],[-22.4725,82.3849],[-21.9942,82.4627],[-21.6158,82.5479],[-21.5205,82.5956],[-21.5825,82.6342],[-21.692,82.6823],[-21.9195,82.7162],[-22.5249,82.7892],[-23.407,82.8294],[-23.6944,82.8189],[-23.8335,82.839],[-23.9193,82.885],[-24.1738,82.893],[-24.4701,82.8776],[-24.8453,83.0183],[-25.1231,83.1597],[-26.1407,83.0967],[-27.0022,83.067],[-27.7382,83.0771],[-28.1515,83.0639],[-29.1749,83.102],[-29.9634,83.1104],[-30.3862,83.0935],[-31.5154,82.9914],[-31.8367,82.9776],[-32.033,82.9834],[-31.9927,83.0856],[-31.534,83.0888],[-30.092,83.1575],[-27.5721,83.1924],[-26.1825,83.2216],[-25.9126,83.2375],[-25.7951,83.2607],[-25.8904,83.2787],[17.9585,80.1497]],[[11.3725,78.4389],[11.5862,78.3881],[11.7566,78.3289],[11.9651,78.2246],[12.1164,78.2326],[12.0561,78.3056],[11.9297,78.3749],[11.8847,78.4093],[11.8254,78.4363],[11.6164,78.475],[11.4243,78.5485],[11.2619,78.5416],[11.2502,78.6109],[11.155,78.6406],[11.0782,78.6861],[11.1528,78.7247],[11.1237,78.7533],[10.9608,78.8464],[10.7729,78.8877],[10.5581,78.903],[10.5575,78.8374],[10.6284,78.7538],[10.7888,78.6866],[10.8407,78.6448],[11.1211,78.4633],[11.1994,78.4411],[11.3725,78.4389]],[[-18.2297,75.3719],[-18.4503,75.328],[-18.6355,75.3899],[-18.8562,75.319],[-18.8826,75.1957],[-18.8911,75.0724],[-18.671,75.0015],[-18.3535,75.0105],[-17.5862,74.993],[-17.392,75.0369],[-17.4978,75.1518],[-17.7624,75.1428],[-17.8857,75.2047],[-17.9211,75.3015],[-18.0005,75.4074],[-18.2297,75.3719]],[[-18.662,79.7201],[-18.036,79.7111],[-17.6126,79.8259],[-17.401,79.9407],[-17.4714,80.0286],[-17.9831,80.055],[-18.5472,80.0111],[-18.9969,79.9407],[-19.1382,79.8524],[-19.0324,79.773],[-18.662,79.7201]],[[-18.1482,77.6425],[-17.954,77.6425],[-17.7296,77.7066],[-17.6412,77.7823],[-17.6814,77.8585],[-17.8137,77.8749],[-17.9037,77.8627],[-18.1741,77.7145],[-18.2201,77.6685],[-18.1482,77.6425]],[[-19.0853,76.5805],[-19.0853,76.4302],[-18.6974,76.0159],[-18.5826,76.0424],[-18.662,76.4038],[-18.7324,76.6419],[-18.8826,76.7038],[-19.0589,76.6948],[-19.0853,76.5805]],[[-19.5944,81.9912],[-19.3695,81.9172],[-19.0313,81.8272],[-18.7678,81.8145],[-18.6646,81.8463],[-18.8128,81.9494],[-19.0668,82.0489],[-19.3144,82.123],[-19.4949,82.1166],[-19.6108,82.078],[-19.5944,81.9912]],[[-19.0059,78.4411],[-19.1118,78.4236],[-19.3144,78.3442],[-19.297,78.1855],[-19.2176,78.0442],[-19.1292,77.9383],[-18.9969,77.9738],[-18.8826,78.1151],[-18.953,78.2119],[-18.953,78.3532],[-18.9356,78.4236],[-19.0059,78.4411]]]}}
