{"type":"Feature","properties":{"id":33,"name":"Banda Sea","featurecla":"sea","scalerank":2,"wikidataid":"Q171510","source":"Natural Earth 5.2.0-pre ne_10m_geography_marine_polys (public domain)"},"geometry":{"type":"Polygon","coordinates":[[[123.3743,-1.0149],[123.541,-1.2742],[123.5267,-1.2858],[123.4891,-1.2594],[123.4346,-1.2366],[123.3382,-1.2541],[123.2378,-1.3895],[123.1981,-1.2879],[123.2341,-1.2334],[123.2124,-1.171],[123.1584,-1.1578],[122.9726,-1.189],[122.9081,-1.1821],[122.8324,-1.2832],[122.8107,-1.4318],[122.8584,-1.5483],[122.8906,-1.5874],[122.9843,-1.5107],[123.1049,-1.3398],[123.1504,-1.3044],[123.1827,-1.4927],[123.123,-1.5562],[123.1303,-1.5774],[123.1732,-1.616],[123.2203,-1.5986],[123.2372,-1.5769],[123.2748,-1.4372],[123.3288,-1.443],[123.3669,-1.507],[123.4489,-1.4991],[123.5119,-1.4472],[123.5156,-1.4356],[123.532,-1.4409],[123.6801,-1.7002],[124.3564,-1.7653],[124.3575,-1.7658],[124.33,-1.8589],[124.4178,-2.0049],[124.5204,-2.0071],[124.6389,-1.978],[124.8343,-1.8944],[125.0068,-1.943],[125.1348,-1.8891],[125.3142,-1.8769],[125.3179,-1.8372],[125.3873,-1.843],[125.4259,-1.8822],[125.4327,-1.9383],[125.4793,-1.9399],[125.8386,-1.906],[125.8936,-1.9108],[125.9122,-1.988],[125.8735,-2.0356],[125.8629,-2.0769],[125.9032,-2.2219],[125.9376,-2.2627],[125.9778,-2.4156],[126.0212,-2.4542],[125.9857,-3.0516],[126.8324,-2.9104],[127.7494,-2.8045],[128.1728,-2.84],[128.1955,-2.8686],[128.1135,-2.9347],[127.878,-3.222],[127.8971,-3.2824],[127.9277,-3.3417],[127.9277,-3.3972],[127.9023,-3.4962],[127.9203,-3.5062],[127.9701,-3.4443],[128.0299,-3.3406],[128.0442,-3.3035],[128.0558,-3.2385],[128.0823,-3.1839],[128.132,-3.1575],[128.1807,-3.1718],[128.233,-3.2024],[128.2802,-3.2406],[128.4194,-3.4162],[128.4659,-3.44],[128.5167,-3.449],[128.6389,-3.4332],[128.6771,-3.3967],[128.7511,-3.3004],[128.8019,-3.2654],[128.8628,-3.2347],[128.9252,-3.2295],[128.9581,-3.2411],[128.9639,-3.2718],[128.9522,-3.3041],[128.9676,-3.3263],[129.1078,-3.349],[129.212,-3.3925],[129.3327,-3.4088],[129.4676,-3.4533],[129.5216,-3.4337],[129.5205,-3.3633],[129.5116,-3.3284],[129.5449,-3.3189],[129.6264,-3.3173],[129.8444,-3.3273],[129.9528,-3.3914],[129.9809,-3.439],[130.0196,-3.4745],[130.2699,-3.5792],[130.3629,-3.6253],[130.5805,-3.7486],[130.7609,-3.8364],[130.7482,-3.8629],[131.2419,-4.1449],[131.8066,-4.4275],[133.1141,-5.3122],[133.0088,-5.6213],[132.9379,-5.6826],[132.9215,-5.7853],[132.8987,-5.8462],[132.8294,-5.9795],[131.8066,-7.1082],[131.7976,-7.1135],[131.9225,-7.1045],[131.9823,-7.2019],[131.9695,-7.2516],[131.9267,-7.2252],[131.8843,-7.1675],[131.8229,-7.159],[131.7775,-7.1437],[131.7658,-7.1315],[131.714,-7.1617],[131.7007,-7.14],[131.6436,-7.113],[131.5605,-7.1357],[131.5309,-7.1649],[131.5351,-7.2204],[131.4827,-7.2506],[131.4462,-7.3152],[131.4113,-7.34],[131.3494,-7.4252],[131.297,-7.4379],[131.2599,-7.4707],[131.1975,-7.6168],[131.1901,-7.6718],[131.1377,-7.6851],[131.1366,-7.7818],[131.0869,-7.8649],[131.1234,-7.9221],[131.1139,-7.9972],[131.1446,-7.9972],[131.0472,-8.1047],[131.0874,-8.1248],[131.1763,-8.1306],[131.0435,-8.2121],[130.908,-8.246],[130.862,-8.319],[130.7752,-8.3497],[130.7747,-8.356],[128.9845,-8.2375],[128.1728,-8.2375],[128.0659,-8.2179],[128.0235,-8.2555],[127.8209,-8.1904],[127.8114,-8.1713],[127.7849,-8.1666],[127.2557,-8.3782],[127.2494,-8.3904],[127.215,-8.373],[127.0583,-8.3481],[126.9663,-8.3158],[126.9049,-8.3417],[126.8456,-8.3772],[126.7345,-8.4227],[126.6197,-8.4597],[126.5308,-8.4709],[126.1731,-8.4888],[125.9053,-8.4867],[125.8042,-8.492],[125.3819,-8.5751],[125.3232,-8.5915],[125.1782,-8.6476],[125.1158,-8.7079],[125.0904,-8.7513],[125.0861,-8.7487],[125.1211,-8.3348],[125.1317,-8.3264],[125.1248,-8.2047],[125.0502,-8.1798],[124.9242,-8.1661],[124.7523,-8.1597],[124.6771,-8.1682],[124.5993,-8.2015],[124.5755,-8.1406],[124.5088,-8.1354],[124.4305,-8.183],[124.3935,-8.2528],[124.4263,-8.2957],[124.3554,-8.3856],[124.2866,-8.3296],[124.3046,-8.229],[124.2871,-8.2084],[124.2654,-8.2015],[124.2395,-8.2036],[124.1103,-8.3645],[124.0961,-8.356],[124.0685,-8.3179],[124.0135,-8.3185],[123.9717,-8.3539],[123.9246,-8.2724],[123.896,-8.2391],[123.8452,-8.2131],[123.7759,-8.1904],[123.6008,-8.2915],[123.5733,-8.2915],[123.5299,-8.265],[123.4732,-8.2671],[123.3912,-8.2804],[123.3949,-8.3005],[123.4251,-8.3131],[123.4759,-8.3221],[123.4547,-8.3539],[123.325,-8.4391],[123.2971,-8.3983],[123.3177,-8.3549],[123.3362,-8.2692],[123.2171,-8.2354],[123.1335,-8.2539],[123.0325,-8.338],[123.006,-8.3291],[122.9785,-8.1517],[122.9171,-8.1057],[122.8457,-8.093],[122.8176,-8.1105],[121.0819,-7.3199],[120.7798,-7.0781],[120.7745,-7.1188],[120.6724,-7.1246],[120.6406,-7.1156],[120.6332,-7.0183],[120.7453,-7.0601],[120.7586,-7.0612],[120.7295,-7.0379],[120.3766,-6.5791],[120.4469,-6.3145],[120.4522,-6.2293],[120.4607,-6.2542],[120.4681,-6.406],[120.4871,-6.4648],[120.5284,-6.2986],[120.5491,-5.9689],[120.5343,-5.9039],[120.4803,-5.7827],[120.4824,-5.7504],[120.4824,-5.6091],[120.4305,-5.5911],[120.4168,-5.4901],[120.3908,-5.3927],[120.2792,-5.1461],[120.2813,-5.0927],[120.3099,-4.963],[120.4051,-4.727],[120.42,-4.6174],[120.3845,-4.4153],[120.3623,-4.0856],[120.3829,-3.8523],[120.4353,-3.748],[120.4363,-3.7073],[120.3924,-3.348],[120.3606,-3.2469],[120.3003,-3.1543],[120.2543,-3.0527],[120.2612,-2.9495],[120.3416,-2.8696],[120.5438,-2.7325],[120.6539,-2.6675],[120.765,-2.6415],[120.8793,-2.6458],[120.9904,-2.6701],[121.0523,-2.7516],[121.0666,-2.8808],[121.0703,-3.0104],[121.0544,-3.167],[121.038,-3.2051],[120.9068,-3.4041],[120.8908,-3.4601],[120.892,-3.5205],[120.9142,-3.556],[121.3127,-3.9195],[121.4158,-3.984],[121.5376,-4.0147],[121.618,-4.0925],[121.6116,-4.1565],[121.5836,-4.2105],[121.5566,-4.2444],[121.5412,-4.283],[121.4862,-4.581],[121.5143,-4.681],[121.5889,-4.7598],[121.6455,-4.7858],[121.7482,-4.817],[121.917,-4.8482],[122.0382,-4.8323],[122.073,-4.7915],[122.0498,-4.6751],[122.054,-4.6201],[122.1143,-4.5402],[122.2069,-4.4963],[122.4715,-4.4222],[122.6149,-4.4175],[122.6721,-4.4222],[122.7218,-4.4105],[122.715,-4.3762],[122.7197,-4.3407],[122.8176,-4.3899],[122.8721,-4.392],[122.8975,-4.3492],[122.8996,-4.2296],[122.8943,-4.1661],[122.8774,-4.1089],[122.8477,-4.0645],[122.798,-4.0544],[122.779,-4.0814],[122.7504,-4.1],[122.6895,-4.0846],[122.6499,-4.0206],[122.6064,-3.9846],[122.6102,-3.9237],[122.5784,-3.8824],[122.5292,-3.8528],[122.4345,-3.7401],[122.3853,-3.7115],[122.3292,-3.694],[122.2879,-3.6618],[122.253,-3.6205],[122.2514,-3.5761],[122.2625,-3.5274],[122.3128,-3.3829],[122.3175,-3.2749],[122.399,-3.2009],[122.381,-3.1421],[122.3064,-3.0516],[122.2906,-3.004],[122.3033,-2.9522],[122.2916,-2.9077],[122.0826,-2.7495],[122.0138,-2.6564],[121.972,-2.5426],[121.8481,-2.3314],[121.7699,-2.2409],[121.7259,-2.2082],[121.6217,-2.1738],[121.5751,-2.151],[121.5021,-2.0452],[121.4074,-1.9701],[121.3486,-1.9462],[121.3555,-1.878],[121.3947,-1.8335],[121.5138,-1.888],[121.5725,-1.9055],[121.6508,-1.8954],[121.7185,-1.8626],[121.7799,-1.7668],[121.8587,-1.6933],[122.1577,-1.5938],[122.2509,-1.5551],[122.334,-1.498],[122.5065,-1.3477],[122.6557,-1.1752],[122.7245,-1.0641],[122.8076,-0.9662],[122.8525,-0.9281],[122.9028,-0.9011],[123.0494,-0.8726],[123.1526,-0.9069],[123.2256,-1.0016],[123.2997,-1.026],[123.3716,-1.0059],[123.3743,-1.0149]],[[132.6813,-5.7388],[132.6675,-5.8562],[132.6813,-5.9124],[132.7051,-5.9134],[132.7463,-5.9472],[132.8072,-5.851],[132.8046,-5.7891],[132.7379,-5.6615],[132.7167,-5.6483],[132.6977,-5.6091],[132.6299,-5.607],[132.6813,-5.7388]],[[129.7137,-8.0406],[129.7798,-8.0464],[129.8386,-7.9544],[129.8434,-7.8893],[129.8132,-7.82],[129.6555,-7.7946],[129.6089,-7.8036],[129.5989,-7.8316],[129.592,-7.9173],[129.7137,-8.0406]],[[128.2643,-3.5125],[128.1193,-3.5877],[128.0161,-3.6009],[127.9277,-3.6793],[127.9251,-3.6994],[127.9341,-3.7433],[127.9781,-3.7708],[128.0521,-3.7147],[128.1109,-3.6866],[128.1468,-3.6771],[128.159,-3.6978],[128.1431,-3.7327],[128.1918,-3.7353],[128.25,-3.711],[128.2754,-3.6745],[128.2775,-3.6332],[128.2908,-3.5978],[128.3135,-3.5639],[128.3294,-3.5158],[128.2643,-3.5125]],[[126.2196,-3.148],[126.0884,-3.1056],[126.0502,-3.1284],[126.0264,-3.1707],[126.0339,-3.3559],[126.0566,-3.421],[126.1466,-3.5226],[126.1783,-3.5792],[126.2143,-3.6052],[126.4112,-3.7105],[126.5466,-3.7719],[126.6864,-3.8237],[126.7403,-3.8137],[126.7943,-3.7893],[126.87,-3.783],[126.9408,-3.7644],[127.0853,-3.6708],[127.1552,-3.647],[127.2298,-3.6332],[127.2441,-3.4713],[127.2271,-3.3909],[127.1636,-3.3379],[127.1245,-3.311],[127.0922,-3.2776],[127.0631,-3.2168],[127.0256,-3.166],[126.861,-3.0876],[126.8081,-3.0691],[126.5551,-3.0654],[126.3064,-3.103],[126.2196,-3.148]],[[126.6096,-7.5718],[126.463,-7.6078],[126.3593,-7.6766],[126.2138,-7.7067],[126.0852,-7.6972],[125.9751,-7.6634],[125.8434,-7.8168],[125.8085,-7.8808],[125.7984,-7.9845],[125.8259,-7.9793],[125.9519,-7.911],[126.0402,-7.8861],[126.1085,-7.884],[126.1709,-7.9126],[126.3127,-7.9179],[126.4721,-7.9502],[126.518,-7.8697],[126.5773,-7.8078],[126.6927,-7.7533],[126.8128,-7.738],[126.8144,-7.7168],[126.8012,-7.6681],[126.7266,-7.6623],[126.6096,-7.5718]],[[122.9711,-4.0613],[122.9949,-4.1481],[123.0763,-4.2269],[123.1446,-4.2333],[123.2425,-4.1132],[123.2468,-4.0412],[123.2118,-3.9973],[123.025,-3.9809],[122.969,-4.0301],[122.9711,-4.0613]],[[123.0383,-4.3947],[122.9467,-4.4428],[122.853,-4.6185],[122.8494,-4.8312],[122.8213,-4.9445],[122.8039,-5.0001],[122.7938,-5.0525],[122.7679,-5.1773],[122.7663,-5.2101],[122.7314,-5.262],[122.67,-5.3308],[122.6425,-5.3811],[122.6419,-5.426],[122.5863,-5.489],[122.5848,-5.5446],[122.6451,-5.6636],[122.6843,-5.6663],[122.733,-5.6351],[122.8123,-5.6715],[122.8504,-5.6377],[122.916,-5.5191],[122.9086,-5.4773],[122.9345,-5.4366],[122.969,-5.4059],[122.9859,-5.3937],[123.0436,-5.4192],[123.1208,-5.3932],[123.1875,-5.3329],[123.2018,-5.2731],[123.1499,-5.2239],[123.0514,-5.1567],[123.0245,-5.1625],[122.9811,-5.1858],[122.9716,-5.1387],[122.9864,-4.963],[123.0144,-4.9101],[123.0182,-4.8317],[123.0552,-4.7482],[123.0838,-4.7492],[123.1039,-4.7402],[123.1192,-4.7233],[123.1393,-4.7397],[123.196,-4.8228],[123.2028,-4.7662],[123.1795,-4.5513],[123.069,-4.4338],[123.0748,-4.3868],[123.0383,-4.3947]],[[122.3715,-5.3832],[122.3921,-5.3355],[122.4736,-5.3805],[122.5197,-5.3911],[122.5641,-5.3874],[122.6192,-5.3361],[122.6451,-5.2694],[122.6139,-5.1387],[122.7599,-4.9339],[122.7398,-4.6751],[122.7017,-4.6185],[122.6599,-4.6339],[122.5244,-4.7074],[122.3689,-4.7672],[122.3345,-4.8466],[122.39,-4.9985],[122.3964,-5.0699],[122.3292,-5.1376],[122.2832,-5.3197],[122.307,-5.3811],[122.3715,-5.3832]],[[122.0619,-5.2212],[122.0413,-5.1588],[122.0,-5.1408],[121.9657,-5.0757],[121.9137,-5.0726],[121.8662,-5.0958],[121.8736,-5.1445],[121.8566,-5.1562],[121.8207,-5.2027],[121.8085,-5.2562],[121.8593,-5.3504],[121.9794,-5.4646],[122.0429,-5.4382],[122.0619,-5.2212]]]}}
