{"type":"Feature","properties":{"id":35,"name":"Bay of Biscay","featurecla":"bay","scalerank":2,"wikidataid":"Q41573","source":"Natural Earth 5.2.0-pre ne_10m_geography_marine_polys (public domain)"},"geometry":{"type":"Polygon","coordinates":[[[-7.9993,43.7092],[-5.8826,48.4717],[-4.8243,48.4188],[-4.7592,48.441],[-4.7486,48.4098],[-4.7195,48.3633],[-4.5846,48.3574],[-4.5248,48.3722],[-4.393,48.3675],[-4.3644,48.3569],[-4.302,48.3468],[-4.2411,48.3034],[-4.4036,48.2929],[-4.4978,48.2992],[-4.5306,48.3098],[-4.5772,48.2902],[-4.5443,48.2468],[-4.5121,48.2299],[-4.4348,48.2177],[-4.3295,48.1701],[-4.3777,48.1288],[-4.5126,48.0965],[-4.629,48.086],[-4.6788,48.0394],[-4.4279,47.969],[-4.375,47.8775],[-4.312,47.823],[-4.2263,47.8097],[-4.0707,47.8478],[-3.9009,47.8378],[-3.5077,47.7531],[-3.4437,47.7108],[-3.396,47.7203],[-3.3289,47.7134],[-3.2648,47.6848],[-3.2214,47.6944],[-3.159,47.6949],[-3.0643,47.6214],[-2.9643,47.6012],[-2.8595,47.6145],[-2.787,47.6256],[-2.733,47.6018],[-2.797,47.5372],[-2.7706,47.5139],[-2.6658,47.5261],[-2.5542,47.5272],[-2.4827,47.5118],[-2.4277,47.4711],[-2.4764,47.4129],[-2.5298,47.3816],[-2.5034,47.3118],[-2.4345,47.2911],[-2.3531,47.279],[-1.9752,47.3107],[-1.7424,47.216],[-1.8213,47.2255],[-1.9218,47.2604],[-2.0276,47.2737],[-2.1081,47.2631],[-2.1488,47.2239],[-2.197,47.1631],[-2.1435,47.1266],[-2.0821,47.1118],[-2.0186,47.0377],[-2.0901,46.9207],[-2.0927,46.8652],[-2.0594,46.8101],[-1.9213,46.6847],[-1.7863,46.5149],[-1.3926,46.3503],[-1.3127,46.327],[-1.2387,46.3244],[-1.146,46.3111],[-1.1323,46.2529],[-1.1365,46.2048],[-1.1042,45.9254],[-1.0661,45.8058],[-1.0412,45.7725],[-1.0317,45.7412],[-1.1143,45.7687],[-1.2101,45.7709],[-1.1958,45.7142],[-1.1698,45.6856],[-0.8809,45.538],[-0.791,45.4682],[-0.7333,45.3846],[-0.6412,45.0903],[-0.5825,45.0512],[-0.5486,45.0004],[-0.6338,45.0469],[-0.691,45.0935],[-0.7666,45.3142],[-0.8264,45.3808],[-0.9418,45.457],[-1.0809,45.5322],[-1.1492,45.3428],[-1.1889,45.1612],[-1.245,44.6665],[-1.2201,44.6866],[-1.2005,44.7263],[-1.1529,44.7639],[-1.0767,44.6898],[-1.1709,44.6617],[-1.2455,44.5601],[-1.3461,44.0204],[-1.4847,43.5637],[-1.6313,43.4383],[-1.7943,43.4071],[-1.8287,43.4007],[-1.9911,43.3452],[-2.1964,43.3219],[-2.3372,43.3282],[-2.6071,43.4129],[-2.8748,43.4547],[-2.9479,43.4399],[-3.0458,43.3716],[-3.4177,43.4515],[-3.5236,43.5108],[-3.6046,43.5193],[-3.7739,43.478],[-3.8892,43.4997],[-4.0152,43.4631],[-4.3126,43.415],[-4.5232,43.4155],[-5.1053,43.5018],[-5.3159,43.5531],[-5.6657,43.5822],[-5.8466,43.6452],[-6.08,43.5949],[-6.2239,43.6039],[-6.4758,43.579],[-6.6171,43.5923],[-6.9007,43.5859],[-7.0611,43.5542],[-7.2621,43.5944],[-7.3992,43.696],[-7.5034,43.7399],[-7.5945,43.7272],[-7.6982,43.7648],[-7.8527,43.7071],[-7.9982,43.6949],[-7.9993,43.7092]]]}}
