{"type":"Feature","properties":{"id":36,"name":"Mozambique Channel","featurecla":"channel","scalerank":2,"wikidataid":"Q165100","source":"Natural Earth 5.2.0-pre ne_10m_geography_marine_polys (public domain)"},"geometry":{"type":"Polygon","coordinates":[[[32.9328,-26.5731],[32.9095,-26.5715],[32.9339,-26.2525],[32.9551,-26.0836],[32.9164,-26.0868],[32.8942,-26.1297],[32.8487,-26.2683],[32.8037,-26.2413],[32.7699,-26.2032],[32.7037,-26.1582],[32.6476,-26.0921],[32.5904,-26.0043],[32.6561,-25.9016],[32.7227,-25.8212],[32.7921,-25.6444],[32.9609,-25.4904],[33.3477,-25.2608],[33.8361,-25.0682],[34.6071,-24.821],[34.9924,-24.6506],[35.1559,-24.5417],[35.2548,-24.4305],[35.4379,-24.1712],[35.4898,-24.0654],[35.5422,-23.8246],[35.5226,-23.785],[35.4855,-23.7844],[35.4623,-23.8511],[35.3987,-23.8379],[35.3702,-23.7982],[35.377,-23.7076],[35.4945,-23.1854],[35.5755,-22.9631],[35.5056,-22.7721],[35.4903,-22.6578],[35.5422,-22.3768],[35.54,-22.3027],[35.53,-22.2483],[35.5046,-22.19],[35.494,-22.125],[35.4564,-22.116],[35.4189,-22.1779],[35.4009,-22.3159],[35.4077,-22.4028],[35.3829,-22.4546],[35.3157,-22.3969],[35.3257,-22.2604],[35.3294,-22.0376],[35.2728,-21.7619],[35.2675,-21.6508],[35.1278,-21.3952],[35.1177,-21.1952],[34.9823,-20.8063],[34.877,-20.6708],[34.7648,-20.5618],[34.705,-20.4729],[34.6981,-20.4046],[34.75,-20.0908],[34.7452,-19.9294],[34.7558,-19.822],[34.7135,-19.767],[34.6494,-19.7013],[34.7209,-19.7093],[34.8521,-19.8204],[34.8907,-19.822],[34.9479,-19.8125],[35.3654,-19.4939],[35.6511,-19.1637],[35.8538,-18.9933],[35.9803,-18.9124],[36.1248,-18.8425],[36.183,-18.8716],[36.2359,-18.8616],[36.2629,-18.7197],[36.3274,-18.7933],[36.4036,-18.77],[36.4121,-18.6928],[36.5402,-18.5181],[36.756,-18.3075],[36.8995,-18.1292],[36.919,-18.08],[36.9392,-17.9937],[36.9995,-17.935],[37.0508,-17.9091],[37.2445,-17.7397],[37.5122,-17.5704],[37.8393,-17.3931],[38.0483,-17.3212],[38.0869,-17.2762],[38.1451,-17.2428],[38.3806,-17.1704],[38.6335,-17.0783],[38.6701,-17.0502],[38.7134,-17.0455],[38.7574,-17.055],[38.8849,-17.0417],[38.9558,-17.0047],[39.0844,-16.973],[39.1818,-16.8423],[39.2421,-16.7925],[39.6252,-16.5792],[39.7644,-16.4681],[39.8448,-16.4358],[39.7908,-16.2946],[39.8596,-16.2517],[39.9834,-16.2253],[40.0993,-16.0654],[40.1088,-16.0252],[40.1088,-15.9792],[40.2078,-15.867],[40.3136,-15.7638],[40.5592,-15.4733],[40.6512,-15.2611],[40.6534,-15.1929],[40.6179,-15.1156],[40.6423,-15.0822],[40.6947,-15.0653],[40.6872,-15.0113],[40.7004,-14.9298],[40.7761,-14.8426],[40.8354,-14.7918],[40.8444,-14.7187],[40.8206,-14.6351],[40.8269,-14.569],[40.8121,-14.5356],[40.818,-14.4674],[40.7751,-14.4213],[40.7264,-14.4208],[40.646,-14.5388],[40.6354,-14.452],[40.6401,-14.3901],[40.7132,-14.2906],[40.7158,-14.2144],[40.6496,-14.1991],[40.6026,-14.1674],[40.5957,-14.1229],[40.5904,-13.845],[40.5597,-13.6201],[40.5581,-13.5313],[40.5454,-13.463],[40.583,-13.3741],[40.5518,-13.2937],[40.5698,-13.2233],[40.5645,-13.1153],[40.5735,-13.0577],[40.5687,-12.9846],[40.4369,-12.983],[40.4353,-12.936],[40.4475,-12.9047],[40.5534,-12.8248],[40.5719,-12.7587],[40.5809,-12.6354],[40.5486,-12.5264],[40.4872,-12.492],[40.5232,-12.393],[40.5094,-12.3131],[40.5015,-12.1195],[40.5317,-12.0046],[40.5105,-11.9406],[40.4936,-11.8443],[40.4332,-11.6575],[40.465,-11.4495],[40.4031,-11.3321],[40.4211,-11.2654],[40.4915,-11.1791],[40.5444,-11.0654],[40.5269,-11.0257],[40.5062,-10.9987],[40.5163,-10.9294],[40.5973,-10.8309],[40.4867,-10.7653],[40.5549,-10.7161],[40.6116,-10.6616],[40.6089,-10.6589],[42.4658,-10.9891],[44.6327,-11.2733],[48.8861,-11.7829],[49.2566,-12.0475],[49.256,-12.0803],[49.2068,-12.0798],[49.0359,-12.3158],[48.9317,-12.4391],[48.8994,-12.4587],[48.8041,-12.4401],[48.7861,-12.4708],[48.8538,-12.61],[48.8941,-12.7217],[48.9195,-12.8391],[48.9105,-12.936],[48.7962,-13.2672],[48.6216,-13.4259],[48.5062,-13.4688],[48.4051,-13.5381],[48.3379,-13.6387],[48.2554,-13.7191],[48.1871,-13.7064],[48.086,-13.6223],[48.04,-13.5964],[47.9818,-13.6149],[47.941,-13.6625],[47.8961,-13.7308],[47.8834,-13.8075],[47.9013,-13.8583],[47.9956,-13.9604],[47.9834,-13.9848],[47.9569,-14.0044],[47.9553,-14.0673],[47.7733,-14.37],[47.8114,-14.5446],[47.9643,-14.6727],[47.8701,-14.6457],[47.7739,-14.6367],[47.7161,-14.6801],[47.6701,-14.7431],[47.5923,-14.8643],[47.5246,-14.9923],[47.4786,-15.0092],[47.4293,-14.9955],[47.442,-14.9251],[47.4738,-14.8722],[47.4966,-14.8182],[47.4849,-14.7642],[47.4648,-14.7134],[47.4389,-14.7034],[47.3521,-14.7658],[47.3187,-14.8219],[47.2807,-14.9425],[47.1976,-15.0441],[47.0928,-15.15],[47.0938,-15.195],[47.1071,-15.2437],[47.1351,-15.3019],[47.1335,-15.3616],[47.0992,-15.4341],[47.0605,-15.4564],[47.0277,-15.4521],[47.0325,-15.4225],[46.9933,-15.2431],[46.9425,-15.2193],[46.8822,-15.2294],[46.6748,-15.3817],[46.4753,-15.5135],[46.3853,-15.6003],[46.3313,-15.7136],[46.326,-15.767],[46.3414,-15.8136],[46.4414,-15.8961],[46.3996,-15.9247],[46.3514,-15.9184],[46.3138,-15.9046],[46.1905,-15.7469],[46.1578,-15.7384],[46.0043,-15.7823],[45.8858,-15.7998],[45.7,-15.8136],[45.6614,-15.839],[45.6408,-15.8829],[45.6249,-15.9458],[45.5984,-15.9924],[45.5418,-15.9845],[45.4862,-15.9861],[45.3423,-16.0368],[45.3026,-16.0104],[45.2714,-15.9623],[45.2227,-15.9506],[45.1666,-15.9829],[45.0444,-16.0951],[44.955,-16.1533],[44.9094,-16.1745],[44.5517,-16.2046],[44.4761,-16.2173],[44.4427,-16.2438],[44.4269,-16.2893],[44.4178,-16.4115],[44.4359,-16.6216],[44.4216,-16.7025],[43.9792,-17.3915],[43.9437,-17.5815],[43.9935,-17.6905],[44.0136,-17.8043],[44.0067,-17.9329],[44.04,-18.2885],[44.1088,-18.5033],[44.1787,-18.6187],[44.2332,-18.7409],[44.2459,-18.8631],[44.2342,-19.0325],[44.239,-19.0754],[44.3866,-19.3029],[44.4485,-19.4288],[44.4528,-19.5511],[44.4322,-19.6744],[44.4046,-19.922],[44.3814,-20.0353],[44.348,-20.1453],[44.2396,-20.3797],[44.1173,-20.5459],[44.0633,-20.6559],[43.9109,-20.8661],[43.8559,-21.0766],[43.8003,-21.1793],[43.7035,-21.255],[43.5834,-21.292],[43.5019,-21.3566],[43.4378,-21.6466],[43.4103,-21.6963],[43.3696,-21.7381],[43.3426,-21.7905],[43.332,-21.8514],[43.2907,-21.9323],[43.2664,-22.0492],[43.2569,-22.2763],[43.2648,-22.3837],[43.3294,-22.6917],[43.3574,-22.7906],[43.3976,-22.8864],[43.5696,-23.0806],[43.6146,-23.188],[43.6373,-23.3066],[43.6987,-23.4208],[43.7225,-23.5299],[43.6649,-23.6304],[43.6458,-23.7421],[43.6622,-23.9792],[43.6569,-24.1088],[43.6701,-24.3003],[43.6876,-24.358],[43.8517,-24.5384],[43.9099,-24.6406],[43.9437,-24.7867],[43.9897,-24.8634],[44.0083,-24.9322],[44.0353,-24.9957],[44.0781,-25.0248],[44.2559,-25.1169],[44.3459,-25.2258],[44.4067,-25.2534],[44.474,-25.2714],[44.6956,-25.3],[44.8132,-25.3343],[45.1121,-25.5412],[32.9328,-26.5731]],[[45.1174,-12.9852],[45.1804,-12.9767],[45.1793,-12.9201],[45.2084,-12.8481],[45.2042,-12.8243],[45.2233,-12.7523],[45.1587,-12.7132],[45.1349,-12.7089],[45.0925,-12.6529],[45.0428,-12.7015],[45.0936,-12.7862],[45.0883,-12.8349],[45.0693,-12.8957],[45.0878,-12.9587],[45.1174,-12.9852]],[[44.3792,-12.1655],[44.3343,-12.1729],[44.2925,-12.1649],[44.22,-12.1713],[44.3776,-12.2523],[44.4602,-12.3354],[44.5052,-12.3565],[44.5264,-12.3237],[44.5269,-12.2195],[44.4766,-12.0813],[44.4517,-12.0713],[44.4126,-12.093],[44.4073,-12.12],[44.3792,-12.1655]],[[43.4468,-11.9147],[43.4659,-11.9014],[43.4913,-11.8623],[43.4479,-11.7527],[43.3797,-11.6141],[43.3929,-11.4088],[43.3415,-11.3686],[43.2992,-11.3744],[43.2807,-11.3913],[43.2558,-11.4321],[43.2267,-11.7517],[43.3034,-11.8443],[43.3553,-11.8575],[43.4468,-11.9147]]]}}
