{"type":"Feature","properties":{"id":37,"name":"Gulf of Guinea","featurecla":"gulf","scalerank":2,"wikidataid":"Q41430","source":"Natural Earth 5.2.0-pre ne_10m_geography_marine_polys (public domain)"},"geometry":{"type":"Polygon","coordinates":[[[-7.5178,4.308],[-7.5278,4.3551],[-7.4262,4.3763],[-7.2315,4.4858],[-7.0579,4.5445],[-6.923,4.6382],[-6.8452,4.6715],[-6.5483,4.762],[-6.0615,4.9531],[-5.9138,5.0107],[-5.5646,5.0896],[-5.0619,5.1309],[-5.1047,5.1621],[-5.2656,5.1599],[-5.3677,5.151],[-5.3355,5.1922],[-5.2825,5.2102],[-5.0238,5.2034],[-4.9703,5.1478],[-4.9,5.1383],[-4.6613,5.1727],[-4.0374,5.2303],[-4.0623,5.2568],[-4.1152,5.2616],[-4.6089,5.2362],[-4.5528,5.2801],[-4.357,5.3013],[-4.1199,5.3097],[-3.984,5.2933],[-3.8707,5.2208],[-3.3474,5.1309],[-3.3119,5.161],[-3.2378,5.3356],[-3.1997,5.3547],[-3.1516,5.3483],[-3.1685,5.2028],[-3.0637,5.1579],[-3.0256,5.1504],[-3.0193,5.1309],[-3.0865,5.1282],[-3.2151,5.1473],[-3.2463,5.1139],[-3.114,5.0885],[-3.0817,5.0827],[-2.9648,5.0462],[-2.723,5.0139],[-2.3991,4.9292],[-2.2663,4.8742],[-2.0901,4.7641],[-2.0017,4.7626],[-1.7768,4.8806],[-1.6387,4.9806],[-1.5016,5.0382],[-1.0646,5.1827],[-0.7979,5.2266],[-0.6693,5.3187],[-0.4856,5.3944],[-0.3486,5.5008],[-0.1263,5.568],[0.26,5.7574],[0.6717,5.7595],[0.7489,5.76],[0.9474,5.8098],[5.5717,4.653],[5.5834,4.6578],[5.5876,4.6472],[5.7987,4.4562],[5.9067,4.3879],[5.9707,4.3387],[6.0766,4.2905],[6.1734,4.2773],[6.2057,4.2921],[6.2147,4.3853],[6.2708,4.4323],[6.2755,4.3715],[6.2559,4.3345],[6.2639,4.3096],[6.2999,4.3038],[6.4623,4.3334],[6.4999,4.3318],[6.5544,4.3413],[6.5798,4.4757],[6.6015,4.4551],[6.6174,4.3757],[6.6332,4.3403],[6.6232,4.3207],[8.4446,3.3878],[8.434,3.3322],[8.4451,3.2936],[8.4748,3.2645],[8.6525,3.2169],[8.6912,3.2222],[8.6949,3.1941],[9.8961,2.9449],[9.8855,2.9168],[9.8675,2.7348],[9.822,2.5395],[9.7797,2.068],[9.8072,1.9273],[9.7188,1.7886],[9.6474,1.6177],[9.6321,1.5653],[9.5844,1.5404],[9.4944,1.4352],[9.4341,1.2965],[9.386,1.1394],[9.4452,1.1208],[9.5098,1.115],[9.5992,1.0547],[9.5754,0.9912],[9.6257,0.7795],[9.6251,0.6319],[9.6177,0.5763],[9.6014,0.5679],[9.5569,0.5943],[9.5389,0.6589],[9.4955,0.6647],[9.3299,0.6107],[9.3246,0.552],[9.3987,0.4869],[9.4701,0.362],[9.5463,0.2958],[9.7765,0.1926],[9.9442,0.2197],[10.0014,0.1948],[9.8125,0.1255],[9.7966,0.044],[9.7384,0.0847],[9.5743,0.1487],[9.468,0.1598],[9.4113,0.2006],[9.386,0.2461],[9.3759,0.307],[9.3548,0.3435],[9.3018,0.2885],[9.3251,0.116],[9.3389,-0.0581],[9.2965,-0.3513],[9.1367,-0.5736],[9.0817,-0.6244],[9.0378,-0.6365],[8.9955,-0.6349],[8.9463,-0.6889],[8.8214,-0.7085],[8.7658,-0.6276],[8.7573,-0.6148],[8.7033,-0.591],[8.7102,-0.6069],[6.9835,0.0329],[6.557,0.0329],[6.557,0.0471],[6.6602,0.1207],[6.7502,0.2434],[6.7496,0.3255],[6.6872,0.4043],[6.6258,0.4001],[6.5242,0.3403],[6.4777,0.28],[6.4682,0.2271],[-7.5178,4.308]]]}}
