{"type":"Feature","properties":{"id":39,"name":"Baltic Sea","featurecla":"sea","scalerank":2,"wikidataid":"Q545","source":"Natural Earth 5.2.0-pre ne_10m_geography_marine_polys (public domain)"},"geometry":{"type":"Polygon","coordinates":[[[23.4814,59.0709],[23.4803,59.0699],[23.4676,59.0323],[23.4772,59.026],[22.9199,58.9809],[22.9099,58.991],[22.7252,59.0154],[22.7125,59.0318],[22.7025,59.0746],[22.6496,59.0873],[22.5871,59.081],[22.5045,59.0265],[22.4627,58.9741],[22.0564,58.9434],[22.1616,58.8984],[22.3071,58.8952],[22.4109,58.8635],[22.4786,58.754],[22.4728,58.7122],[22.5214,58.6968],[22.5072,58.6846],[22.4627,58.6026],[22.3283,58.5809],[22.2664,58.5079],[22.2055,58.5216],[22.1685,58.5158],[22.0812,58.4782],[22.0018,58.5105],[21.9246,58.5142],[21.8621,58.4973],[21.9844,58.3867],[21.9648,58.3486],[21.9246,58.3158],[21.8913,58.3047],[21.8547,58.3015],[21.8823,58.2624],[22.0347,58.2131],[22.1045,58.1719],[22.1807,58.156],[22.151,58.1142],[21.9854,57.9951],[21.978,57.9634],[21.9971,57.9311],[22.0219,57.9327],[21.7399,57.5734],[21.7399,57.5729],[21.7288,57.5713],[21.4594,57.3225],[21.4214,57.2358],[21.4049,57.131],[21.351,57.0178],[21.2573,56.9325],[21.0716,56.8236],[21.0314,56.6368],[21.0149,56.2589],[21.0461,56.07],[21.0541,56.0229],[21.0621,55.8134],[21.1583,55.6409],[21.115,55.6165],[21.0879,55.5832],[21.0578,55.4768],[21.0139,55.4017],[20.8996,55.2869],[20.8456,55.2318],[20.6789,55.1027],[20.5202,54.9948],[20.3969,54.9514],[20.1074,54.9566],[19.9746,54.9212],[19.9534,54.8307],[19.9439,54.7503],[19.8587,54.6339],[19.7587,54.545],[19.5602,54.4349],[19.4073,54.3862],[18.976,54.3492],[18.8363,54.3698],[18.6697,54.4307],[18.5871,54.5127],[18.4363,54.745],[18.5014,54.7413],[18.6781,54.6651],[18.7999,54.6333],[18.7591,54.6847],[18.5353,54.7693],[18.3236,54.8381],[18.0855,54.836],[17.8431,54.817],[17.2621,54.7296],[17.007,54.6519],[16.8853,54.5963],[16.5599,54.554],[16.3757,54.437],[16.2921,54.3619],[16.2392,54.3333],[16.1863,54.2904],[16.0429,54.2661],[15.9,54.2539],[15.2883,54.1402],[14.7157,54.0184],[14.384,53.9248],[14.2495,53.9322],[14.2115,53.9502],[14.0389,54.0343],[13.8278,54.1274],[13.8204,54.0931],[13.8272,54.0597],[13.8045,54.0433],[13.7241,54.1534],[13.4478,54.1407],[13.1473,54.2825],[13.0287,54.4111],[12.8981,54.4227],[12.779,54.4455],[12.5752,54.4672],[12.4637,54.3991],[12.0564,54.8461],[12.0689,54.909],[12.0731,54.9768],[12.0657,55.0699],[12.09,55.1879],[12.3223,55.2371],[12.4133,55.2863],[12.4091,55.3017],[12.8853,55.4038],[12.8859,55.4112],[13.3214,55.3466],[13.8061,55.4287],[14.0802,55.3921],[14.1738,55.3964],[14.3416,55.5276],[14.2765,55.6366],[14.203,55.7292],[14.2151,55.8324],[14.2617,55.8874],[14.4019,55.9769],[14.4734,56.0145],[14.5586,56.0489],[14.6554,56.0197],[14.7549,56.033],[14.7142,56.134],[14.7819,56.1621],[15.0512,56.1722],[15.3264,56.151],[15.5095,56.1833],[15.6264,56.1854],[15.7222,56.1642],[15.8265,56.1251],[15.9201,56.1674],[15.9968,56.2224],[16.1508,56.5008],[16.2165,56.5902],[16.3487,56.7093],[16.408,56.8087],[16.4577,56.9267],[16.5281,57.068],[16.5075,57.1416],[16.4794,57.1876],[16.4763,57.2649],[16.6308,57.43],[16.6525,57.5009],[16.6043,57.5681],[16.5837,57.6417],[16.5864,57.7607],[16.5557,57.812],[16.5969,57.9131],[16.6948,57.9173],[16.7001,58.1607],[16.77,58.2142],[16.7165,58.3031],[16.6519,58.4343],[16.8245,58.4597],[16.924,58.4926],[16.7885,58.5852],[16.6832,58.5994],[16.4778,58.6127],[16.3911,58.6021],[16.3181,58.6285],[16.2143,58.6365],[16.3159,58.6634],[16.6393,58.6513],[16.9779,58.6539],[17.1028,58.7111],[17.3478,58.7804],[17.4568,58.8582],[17.6695,58.9164],[17.7653,58.9651],[17.8288,58.9545],[17.9749,59.0027],[18.0982,59.0624],[18.2855,59.1095],[18.322,59.1323],[18.3733,59.1799],[18.4141,59.2905],[18.4987,59.2921],[18.6178,59.327],[18.5601,59.3943],[18.5088,59.408],[18.4591,59.3969],[18.3955,59.3689],[18.3363,59.3752],[18.2707,59.3673],[18.2103,59.3313],[18.1326,59.3165],[17.9797,59.3292],[17.9685,59.3609],[18.1638,59.4302],[18.2167,59.4207],[18.2765,59.4376],[18.3379,59.4768],[18.4024,59.4906],[18.5781,59.5657],[18.64,59.6011],[18.7189,59.6572],[18.8956,59.7329],[18.9708,59.7573],[19.0676,59.743],[19.8878,59.7959],[20.2053,59.8223],[20.7874,59.6636],[21.5547,59.743],[22.3749,59.8223],[22.9305,59.8223],[22.94,59.8091],[23.4814,59.0709]],[[18.9004,57.9152],[18.8411,57.9004],[18.8051,57.8332],[18.722,57.8639],[18.5374,57.8306],[18.4051,57.757],[18.2834,57.6549],[18.2051,57.611],[18.1363,57.5565],[18.1288,57.449],[18.1522,57.339],[18.105,57.2718],[18.1638,57.212],[18.2098,57.1331],[18.2855,57.0834],[18.2067,57.0103],[18.1463,56.9204],[18.249,56.9315],[18.34,56.9781],[18.3871,57.0876],[18.4776,57.1633],[18.5384,57.1971],[18.6998,57.2427],[18.7427,57.3236],[18.785,57.3612],[18.8437,57.3866],[18.9078,57.3982],[18.7908,57.4829],[18.8141,57.7062],[18.8782,57.7295],[18.9454,57.7417],[18.9935,57.812],[19.0766,57.8359],[18.9565,57.8999],[18.9004,57.9152]],[[17.0256,57.3453],[16.9959,57.3178],[16.961,57.25],[16.9017,57.1744],[16.8647,57.0908],[16.7276,56.9019],[16.6303,56.877],[16.4123,56.569],[16.3943,56.4838],[16.4011,56.3108],[16.4318,56.2436],[16.4773,56.2404],[16.5286,56.2907],[16.7779,56.805],[16.8382,56.8405],[16.8838,56.9849],[17.0536,57.2082],[17.0584,57.2294],[17.0504,57.2802],[17.1176,57.3199],[17.0891,57.3321],[17.0256,57.3453]],[[14.8856,55.0329],[15.0507,55.0048],[15.0877,55.0217],[15.1369,55.0874],[15.1327,55.1445],[14.7655,55.2969],[14.7136,55.2382],[14.684,55.1022],[14.8856,55.0329]],[[13.1563,54.3968],[13.1621,54.3645],[13.1901,54.3254],[13.3642,54.246],[13.4145,54.2497],[13.4823,54.3375],[13.595,54.3381],[13.7072,54.2809],[13.7341,54.3153],[13.7093,54.3825],[13.6018,54.4254],[13.5806,54.464],[13.6034,54.4884],[13.6706,54.5354],[13.6574,54.5598],[13.6363,54.5772],[13.4912,54.6153],[13.45,54.6497],[13.423,54.6995],[13.3367,54.6974],[13.2399,54.6386],[13.2314,54.5825],[13.1769,54.5444],[13.1811,54.509],[13.1563,54.3968]],[[12.2742,55.0641],[12.2588,55.0212],[12.2202,54.9937],[12.162,54.9746],[12.1435,54.9588],[12.1191,54.9143],[12.1847,54.8926],[12.3578,54.9619],[12.5112,54.9508],[12.5493,54.9657],[12.5133,54.9974],[12.4694,55.0175],[12.4171,55.0313],[12.3101,55.0408],[12.2742,55.0641]]]}}
