{"type":"Feature","properties":{"id":40,"name":"Barents Sea","featurecla":"sea","scalerank":2,"wikidataid":"Q45823","source":"Natural Earth 5.2.0-pre ne_10m_geography_marine_polys (public domain)"},"geometry":{"type":"Polygon","coordinates":[[[63.8086,81.5976],[64.9199,81.2801],[65.1358,81.1504],[65.0278,81.1695],[64.8019,81.1975],[64.5754,81.1986],[64.3103,81.1753],[64.2558,81.1446],[64.2103,81.1065],[64.1658,81.0356],[64.0954,80.9985],[63.8557,80.9811],[63.615,80.9811],[63.116,80.9668],[62.8191,80.8938],[62.5926,80.853],[62.5201,80.8218],[62.7604,80.7625],[63.0022,80.7128],[63.1874,80.6975],[63.3737,80.7001],[64.5484,80.7556],[64.9977,80.8191],[65.4374,80.9308],[65.3718,80.9678],[65.3602,81.0081],[65.3628,81.0144],[65.4491,80.9626],[68.9199,76.7668],[68.9119,76.7604],[68.8733,76.7895],[68.6992,76.8705],[68.4859,76.9335],[68.0171,76.9906],[67.652,77.0118],[67.535,77.0075],[67.2636,76.9636],[66.8286,76.924],[66.3455,76.8213],[66.0629,76.7461],[65.9586,76.688],[65.8629,76.6133],[65.7554,76.5795],[65.6369,76.5784],[65.5284,76.5678],[65.3099,76.5181],[65.1972,76.4996],[65.0728,76.4969],[64.9501,76.4842],[64.7077,76.426],[64.4637,76.3784],[63.5261,76.3096],[62.9715,76.2366],[62.782,76.245],[62.4709,76.2307],[62.237,76.2419],[61.7872,76.2911],[61.5692,76.2985],[61.2015,76.2821],[61.157,76.2736],[61.0342,76.2329],[61.0369,76.1688],[61.0538,76.1196],[60.9977,76.0895],[60.9422,76.0715],[60.8014,76.0688],[60.7305,76.1043],[60.6062,76.1085],[60.2791,76.0963],[60.1182,76.0667],[60.0362,75.9836],[59.7817,75.9461],[59.3467,75.9069],[59.1102,75.8736],[58.9948,75.872],[58.881,75.855],[58.653,75.7767],[58.4185,75.7196],[58.0582,75.6629],[58.0725,75.619],[58.0936,75.5926],[57.7835,75.5068],[57.7084,75.4545],[57.6317,75.3565],[57.6068,75.3412],[57.302,75.3735],[57.0877,75.3841],[56.9893,75.3751],[56.8443,75.3513],[56.8094,75.3285],[56.8295,75.2777],[56.876,75.2444],[56.5702,75.0978],[56.4855,75.0962],[56.3892,75.138],[56.2886,75.1645],[56.1622,75.1867],[56.0357,75.1941],[55.9209,75.1682],[55.8103,75.1248],[55.8214,75.0904],[55.8632,75.0586],[55.9982,75.0036],[56.34,75.0137],[56.4284,74.9729],[56.4988,74.957],[56.2177,74.8972],[55.9135,74.7962],[55.6595,74.6565],[55.5822,74.6279],[55.6103,74.5903],[55.6616,74.5559],[55.7516,74.5411],[55.9474,74.5422],[56.1373,74.4961],[56.0786,74.4813],[55.4166,74.4363],[55.3409,74.4194],[55.0229,74.1866],[54.9202,74.1289],[54.8313,74.0956],[54.7334,74.0342],[54.6429,73.9596],[54.6059,73.9511],[54.3863,73.9357],[54.1741,73.886],[53.9635,73.8225],[53.8513,73.8008],[53.763,73.7659],[53.8386,73.6971],[54.2048,73.542],[54.1312,73.4812],[54.2149,73.4166],[54.1461,73.2785],[54.091,73.2764],[53.8656,73.2992],[53.7534,73.2933],[53.6338,73.26],[53.5121,73.2383],[53.3576,73.2245],[53.2513,73.1827],[53.1978,73.1478],[53.1888,73.1039],[53.2369,73.0113],[53.2475,72.9732],[53.3698,72.9166],[53.2534,72.9039],[53.1348,72.9134],[53.0242,72.9134],[52.9131,72.9002],[52.8121,72.8753],[52.5792,72.7912],[52.5506,72.7684],[52.5284,72.7372],[52.6051,72.7039],[52.6829,72.6822],[52.9168,72.6689],[52.839,72.6192],[52.8232,72.5911],[52.8639,72.5499],[52.7485,72.4832],[52.7136,72.4371],[52.7057,72.3911],[52.6617,72.3371],[52.622,72.3011],[52.5861,72.2842],[52.4617,72.2525],[52.4067,72.1969],[52.3321,72.154],[52.2522,72.1297],[52.0685,72.1313],[51.8854,72.153],[51.8056,72.1424],[51.6532,72.0995],[51.5828,72.071],[51.4822,71.9799],[51.4436,71.9344],[51.4288,71.8254],[51.4389,71.7768],[51.5114,71.6482],[51.5902,71.5709],[51.6918,71.5254],[51.8124,71.4915],[51.9378,71.4746],[52.1802,71.4905],[52.4188,71.537],[52.6787,71.5058],[52.9088,71.4952],[53.364,71.5418],[53.4116,71.5302],[53.3327,71.4772],[53.3189,71.3989],[53.41,71.3402],[53.5153,71.3423],[53.6222,71.3328],[53.591,71.2968],[53.8863,71.1962],[54.1556,71.1253],[54.0942,71.1052],[53.9222,71.1375],[53.8344,71.1269],[53.8572,71.0703],[53.6703,71.0867],[53.5878,71.0523],[53.5926,71.0005],[53.6158,70.9507],[53.6137,70.9147],[53.4677,70.9004],[53.3835,70.8735],[53.7222,70.8147],[54.1995,70.765],[54.3328,70.7449],[54.5175,70.6935],[54.6011,70.6803],[54.608,70.7131],[54.6451,70.7417],[54.8673,70.6782],[55.0515,70.6666],[55.2372,70.666],[55.6875,70.692],[55.7066,70.675],[55.7066,70.6417],[55.797,70.6158],[55.9071,70.6263],[55.9415,70.6491],[56.087,70.6184],[56.1145,70.6459],[56.1426,70.6581],[56.4347,70.5629],[56.4998,70.5665],[56.5612,70.5935],[56.4173,70.665],[56.3347,70.6766],[56.2601,70.7147],[56.3855,70.7343],[56.5099,70.729],[56.5686,70.6972],[56.6215,70.6555],[56.649,70.6464],[57.1459,70.5893],[57.247,70.6052],[57.2634,70.6358],[57.447,70.6613],[57.6195,70.7269],[57.62,70.7248],[58.4768,70.2708],[58.4731,70.267],[58.5678,70.1559],[58.6053,70.1294],[58.6339,70.0882],[58.68,70.0511],[58.9525,69.8929],[59.0038,69.8834],[59.0827,69.9109],[59.144,69.922],[59.2684,69.8982],[59.3816,69.8903],[59.5028,69.8664],[59.5811,69.7908],[59.5779,69.7384],[59.6372,69.7209],[59.7246,69.7061],[59.8129,69.6955],[59.9198,69.6971],[60.0261,69.7172],[60.2161,69.6876],[60.2648,69.6998],[60.2765,69.6527],[60.1706,69.5907],[60.3373,69.4569],[60.6643,69.1103],[60.8585,69.1457],[60.9337,68.987],[60.8151,68.8954],[60.6379,68.787],[60.4892,68.7287],[60.16,68.6996],[59.896,68.7065],[59.8653,68.6049],[59.9415,68.5107],[59.923,68.4716],[59.8976,68.4218],[59.859,68.3959],[59.8277,68.3806],[59.7256,68.3515],[59.6044,68.3509],[59.3107,68.4001],[59.0991,68.4446],[59.1123,68.6166],[59.2224,68.6912],[59.2985,68.7086],[59.3705,68.7383],[59.2202,68.8494],[59.1102,68.8965],[59.0599,68.9727],[59.0573,69.006],[58.9191,69.0039],[58.354,68.9161],[58.237,68.834],[58.173,68.8896],[57.4444,68.6414],[57.1269,68.5541],[56.9094,68.5668],[56.6205,68.6192],[56.2754,68.624],[56.0436,68.6488],[55.9246,68.6372],[55.6753,68.5758],[55.4182,68.5679],[55.1509,68.48],[54.9229,68.3737],[54.8615,68.2017],[54.7181,68.1842],[54.5615,68.2731],[54.4762,68.2943],[54.3937,68.2753],[54.099,68.2589],[53.9677,68.2271],[53.9137,68.2313],[53.5153,68.2599],[53.4031,68.2567],[53.2608,68.2673],[53.2936,68.3118],[53.3428,68.343],[53.5666,68.3673],[53.6899,68.4028],[53.8296,68.3827],[53.9307,68.4356],[53.9175,68.5372],[53.7587,68.634],[53.8339,68.7092],[53.891,68.8018],[53.9291,68.8118],[53.9704,68.8441],[53.9196,68.8711],[53.7984,68.8848],[53.7979,68.9076],[53.8746,68.9266],[54.3762,68.9648],[54.4911,68.9923],[54.1858,69.0034],[53.8021,68.996],[53.4126,68.9124],[52.6834,68.7314],[52.3442,68.6081],[52.4353,68.6102],[52.5501,68.5922],[52.6475,68.5059],[52.7226,68.4843],[52.6697,68.4266],[52.475,68.3821],[52.3966,68.352],[52.322,68.3398],[52.2591,68.3509],[52.1834,68.3742],[52.2273,68.4187],[52.2855,68.4594],[52.1289,68.5319],[52.0559,68.5414],[51.9945,68.5388],[51.6166,68.4763],[51.3362,68.4022],[51.0785,68.3631],[50.8388,68.3499],[50.6996,68.3176],[50.4139,68.2186],[50.2334,68.1752],[49.9312,68.0652],[49.1555,67.8704],[48.9539,67.854],[48.8406,67.8699],[48.7544,67.8958],[48.6957,67.8742],[48.7628,67.827],[48.8777,67.7313],[48.8332,67.6815],[48.6539,67.6953],[48.2786,67.6503],[47.8749,67.5842],[47.8828,67.5154],[47.9082,67.4545],[47.8394,67.3556],[47.768,67.2756],[47.7093,67.045],[47.6558,66.9761],[47.4966,66.9296],[46.6906,66.8253],[46.5525,66.819],[46.4922,66.7999],[46.4488,66.819],[46.298,66.8428],[46.0837,66.8433],[45.9863,66.8534],[45.8852,66.891],[45.7524,66.9894],[45.5625,67.1857],[45.1391,67.2847],[44.9396,67.3508],[44.902,67.4133],[44.9396,67.4773],[45.3741,67.6889],[45.5286,67.7577],[46.1742,67.818],[46.4287,67.8239],[46.6906,67.8488],[46.6837,67.9705],[46.4298,68.1186],[46.1583,68.2911],[45.8921,68.4795],[45.5196,68.5467],[45.0783,68.5779],[44.1755,68.5419],[44.048,68.5488],[43.4723,68.68],[43.4135,68.6816],[43.333,68.6732],[43.277,68.633],[38.9907,68.3155],[38.977,68.2753],[38.8315,68.325],[38.7055,68.3446],[38.6568,68.3218],[38.4303,68.3557],[38.3578,68.4149],[37.7308,68.6922],[36.6185,69.0034],[35.858,69.1917],[35.2897,69.2754],[35.2331,69.2659],[35.176,69.2309],[35.0098,69.2214],[34.8637,69.2283],[34.3526,69.3029],[34.2293,69.3129],[33.6842,69.3103],[33.6271,69.2891],[33.4355,69.1304],[33.3334,69.0981],[33.1413,69.0685],[33.1964,69.1166],[33.3276,69.1521],[33.4128,69.2675],[33.4181,69.315],[33.4636,69.378],[33.4546,69.4283],[33.3847,69.4442],[33.2556,69.4278],[32.9788,69.3674],[32.9418,69.3833],[33.0212,69.4458],[33.0,69.4701],[32.8836,69.4611],[32.637,69.4897],[32.3777,69.4791],[32.3306,69.5543],[32.1613,69.5966],[32.0915,69.6325],[32.1767,69.6738],[32.7545,69.6056],[32.9148,69.6019],[32.9948,69.6262],[33.0127,69.6707],[33.008,69.722],[32.9418,69.7516],[32.5656,69.8067],[32.3915,69.8686],[31.9845,69.9538],[31.9692,69.9141],[32.0306,69.8352],[31.9978,69.8098],[31.8793,69.8321],[31.7888,69.8156],[31.666,69.7209],[31.5469,69.6971],[31.4527,69.6897],[31.0495,69.7691],[30.7145,69.7956],[30.5944,69.7897],[30.4844,69.795],[30.4283,69.7225],[30.397,69.7326],[30.3489,69.8347],[30.2378,69.8622],[30.1801,69.8411],[30.1552,69.7458],[30.088,69.7178],[29.9901,69.7368],[29.7922,69.7278],[29.6949,69.7447],[29.6361,69.7802],[29.6208,69.8183],[29.6213,69.8739],[29.6467,69.9437],[29.6012,69.9765],[28.8043,70.0924],[28.781,70.1453],[29.9261,70.0967],[30.2632,70.1247],[30.469,70.1977],[30.9442,70.2744],[30.9606,70.3438],[30.9262,70.4009],[30.596,70.5237],[30.4219,70.547],[30.2129,70.5432],[30.2028,70.5623],[30.2378,70.6221],[30.0653,70.7031],[29.9594,70.6946],[29.7965,70.6427],[29.7372,70.647],[29.7218,70.6687],[29.6393,70.7052],[29.3975,70.7343],[29.3212,70.7613],[29.2186,70.8301],[29.1022,70.8607],[28.8318,70.8639],[28.7497,70.8417],[28.6096,70.7597],[28.4846,70.6189],[28.4376,70.5014],[28.31,70.4432],[28.2799,70.4036],[28.1931,70.2485],[28.1661,70.2877],[28.1661,70.3602],[28.191,70.4401],[28.2026,70.5771],[28.2719,70.6681],[28.2158,70.7041],[27.9989,70.6644],[27.8983,70.6777],[27.9512,70.7173],[28.2719,70.7978],[28.327,70.8253],[28.3825,70.8692],[28.392,70.975],[28.1418,71.0428],[27.8152,71.0592],[27.7337,71.0809],[27.5994,71.0915],[17.0446,76.616],[20.9811,77.424],[20.9853,77.451],[21.0499,77.441],[21.8563,77.4944],[22.0569,77.5013],[22.2548,77.5288],[22.3971,77.57],[22.4484,77.5711],[22.6204,77.5494],[22.6855,77.5537],[22.7326,77.5394],[22.6792,77.5002],[22.4426,77.4293],[22.4866,77.36],[22.4691,77.3309],[22.4268,77.3161],[22.5537,77.2669],[22.8019,77.2759],[22.8993,77.3113],[22.9967,77.361],[23.1015,77.3848],[23.3808,77.3801],[23.5052,77.4013],[23.7359,77.4621],[23.8412,77.4976],[23.955,77.5579],[24.0619,77.6304],[24.1296,77.6584],[24.9017,77.7569],[24.5715,77.8346],[24.2381,77.8987],[23.883,77.8648],[23.6841,77.8754],[23.3305,77.958],[23.1168,77.9913],[23.1517,78.0881],[23.3644,78.1204],[23.4517,78.1495],[23.3517,78.1865],[23.1194,78.2384],[22.9887,78.2521],[22.7347,78.24],[22.4495,78.2151],[22.2998,78.2284],[22.2072,78.4077],[22.0431,78.5771],[21.7457,78.5718],[21.6081,78.5956],[21.4547,78.5977],[21.0467,78.557],[20.3625,78.5146],[20.2424,78.4818],[20.1852,78.6247],[20.1847,78.6363],[20.3868,78.6432],[20.725,78.6723],[21.0964,78.676],[21.2441,78.6993],[21.3891,78.7406],[21.3525,78.7718],[21.3123,78.7956],[21.0895,78.8528],[20.7202,78.9067],[20.5006,78.9813],[20.7673,79.0591],[20.6112,79.1068],[20.4583,79.129],[20.163,79.1459],[20.1143,79.1248],[20.1137,79.0766],[19.8936,79.056],[19.7508,79.147],[19.4904,79.1756],[19.0893,79.157],[18.9792,79.1793],[18.8803,79.2343],[18.7723,79.2602],[18.6776,79.2618],[18.7199,79.2814],[18.8073,79.3031],[18.8231,79.3364],[18.8321,79.3846],[18.8152,79.4269],[18.785,79.4608],[18.7485,79.4883],[18.5813,79.5714],[18.3972,79.6052],[18.3331,79.6105],[18.2722,79.6005],[17.8611,79.437],[17.6685,79.3862],[17.7151,79.4306],[17.7341,79.4814],[17.6875,79.5333],[17.7325,79.5693],[17.8595,79.6349],[17.9564,79.7042],[17.8347,79.8],[17.6849,79.8571],[17.6193,79.8741],[17.6219,79.8841],[17.9643,80.1318],[18.1294,80.0937],[18.3437,80.0598],[18.8559,80.0365],[18.7263,79.9963],[18.5945,79.9667],[18.2554,79.9291],[18.285,79.8873],[18.3246,79.8598],[18.4278,79.8243],[18.7252,79.7608],[18.9422,79.7365],[19.3999,79.7264],[19.6381,79.7285],[19.8989,79.7444],[20.1233,79.7783],[20.4609,79.7746],[20.7842,79.7486],[20.6868,79.7074],[20.5646,79.6904],[20.4937,79.6328],[20.1873,79.6322],[20.0148,79.6402],[19.8211,79.6338],[19.7465,79.6179],[19.6745,79.591],[19.9,79.5338],[20.1281,79.4899],[20.3995,79.4634],[20.7609,79.4417],[20.8054,79.4094],[20.8609,79.3978],[21.9114,79.3809],[22.8654,79.4121],[22.6955,79.329],[22.7892,79.2645],[22.9035,79.2306],[23.7587,79.2057],[23.9476,79.1941],[24.1328,79.2152],[24.2566,79.2634],[24.3836,79.3015],[24.7503,79.3645],[24.8429,79.3671],[25.1451,79.3391],[25.2393,79.3449],[25.6409,79.4031],[25.7266,79.4396],[25.9018,79.5613],[26.006,79.6169],[26.2209,79.6772],[27.0797,79.8656],[27.1988,79.9063],[27.1485,80.0593],[27.0358,80.1159],[44.9703,80.6451],[44.974,80.6244],[44.9052,80.6112],[45.1492,80.5985],[45.3894,80.5604],[45.6408,80.5371],[45.9689,80.5694],[46.0234,80.5408],[46.0599,80.4837],[46.1413,80.4466],[46.3784,80.4567],[46.5139,80.4757],[46.624,80.5408],[46.6774,80.5614],[47.0108,80.562],[47.1452,80.6091],[47.1981,80.6149],[47.3039,80.6064],[47.414,80.6747],[47.5124,80.6879],[47.6003,80.7419],[47.705,80.7652],[47.7775,80.7562],[48.0442,80.6683],[48.4078,80.644],[48.4025,80.5688],[48.3062,80.5614],[48.2083,80.544],[47.8961,80.5291],[47.6558,80.5006],[47.4029,80.4445],[46.6446,80.3006],[46.7383,80.2577],[46.8457,80.2371],[46.9912,80.1825],[47.2484,80.1805],[47.3431,80.1884],[47.4442,80.2302],[47.6426,80.2455],[47.8929,80.2392],[47.9776,80.2127],[47.723,80.1513],[47.6325,80.1122],[47.7373,80.0815],[47.94,80.0884],[48.0257,80.0995],[48.0961,80.1222],[48.167,80.1328],[48.3861,80.0958],[48.4665,80.11],[48.5327,80.1582],[48.5544,80.1831],[48.5819,80.1953],[48.7973,80.1614],[48.892,80.1556],[48.9777,80.1624],[49.0105,80.2074],[48.9909,80.2423],[48.9597,80.2656],[48.9221,80.2768],[48.6887,80.2905],[48.6771,80.3],[48.811,80.3535],[48.8962,80.3694],[49.5857,80.3768],[49.7942,80.4254],[49.7498,80.472],[49.846,80.4974],[50.2794,80.5276],[50.961,80.5403],[51.1462,80.6038],[51.7034,80.6879],[51.5912,80.7408],[51.4547,80.7445],[50.9176,80.8906],[50.8012,80.9144],[50.4313,80.9107],[50.2778,80.9271],[50.1244,80.9239],[49.8264,80.8953],[50.3832,81.4277],[55.8182,81.8621],[57.9878,81.8621],[58.0005,81.8002],[57.9852,81.797],[57.945,81.7478],[57.9095,81.7219],[57.9206,81.7103],[57.9651,81.6954],[58.2952,81.715],[59.3563,81.7589],[59.3568,81.7812],[59.4086,81.8256],[59.3584,81.8352],[59.3636,81.8621],[62.3799,81.8092],[63.0493,81.7103],[62.7948,81.7187],[62.2841,81.7065],[62.1063,81.6796],[62.5153,81.6589],[62.5313,81.6468],[62.5731,81.633],[62.8847,81.6087],[63.5287,81.5965],[63.6509,81.6092],[63.6764,81.6171],[63.8086,81.5976]],[[60.8205,80.8266],[60.4812,80.8043],[60.2781,80.8017],[60.2346,80.8377],[60.0944,80.8488],[59.7161,80.8366],[59.5923,80.8165],[59.5494,80.7837],[59.4949,80.7662],[59.3864,80.7128],[59.3065,80.6175],[59.288,80.5726],[59.3044,80.5218],[59.3462,80.5048],[59.6499,80.4313],[59.9002,80.4461],[60.2786,80.4942],[60.7225,80.4344],[61.0511,80.4186],[61.285,80.5048],[61.5973,80.535],[61.6814,80.5863],[61.7692,80.6011],[62.0756,80.617],[62.1148,80.6837],[62.192,80.7302],[62.2275,80.7943],[62.1677,80.8345],[62.1031,80.8668],[61.8507,80.8858],[61.5973,80.8927],[61.3131,80.8625],[60.8205,80.8266]],[[60.8268,80.9297],[61.1406,80.9504],[61.4718,81.0112],[61.5676,81.0504],[61.4576,81.1038],[60.5866,81.0874],[60.1473,81.0165],[60.0785,80.9991],[60.0579,80.9848],[60.3209,80.9557],[60.8268,80.9297]],[[59.0017,80.054],[58.9461,80.0423],[58.9191,79.9847],[59.1007,79.964],[59.1694,79.9481],[59.2028,79.9328],[59.3308,79.9233],[59.6891,79.9561],[59.9108,79.9942],[59.8018,80.0826],[59.5446,80.119],[59.0017,80.054]],[[59.0969,81.2922],[59.3128,81.3055],[59.3748,81.325],[59.2811,81.3663],[59.0747,81.3975],[58.8805,81.3917],[58.6344,81.3605],[58.6101,81.3372],[58.7191,81.3134],[59.0969,81.2922]],[[58.4804,80.4646],[57.5222,80.4752],[57.075,80.4937],[57.011,80.4683],[57.0835,80.445],[57.1861,80.3963],[57.2115,80.3683],[57.2142,80.3281],[57.2814,80.1937],[57.3322,80.1582],[57.3925,80.1392],[57.8,80.1042],[57.9561,80.1233],[58.1629,80.1963],[58.2555,80.2016],[58.2857,80.2482],[58.2841,80.2979],[58.3979,80.3186],[59.2557,80.3434],[59.116,80.3884],[58.9715,80.4159],[58.4804,80.4646]],[[57.656,81.0313],[57.4105,81.0467],[57.211,81.017],[57.4052,80.9149],[57.7497,80.889],[57.938,80.7932],[58.2857,80.7652],[58.6419,80.7678],[58.8599,80.7795],[58.9308,80.8318],[58.9027,80.8975],[58.8154,80.9335],[58.7615,80.9911],[58.6223,81.0414],[58.5075,81.062],[58.19,81.0948],[58.1021,81.1144],[58.0497,81.1187],[57.656,81.0313]],[[57.365,81.5351],[57.0914,81.5415],[56.9729,81.5108],[56.7188,81.4235],[56.4045,81.3869],[56.1569,81.3033],[55.7817,81.3293],[55.4658,81.3113],[55.5727,81.2282],[55.7166,81.1885],[56.1918,81.224],[56.3638,81.1785],[56.5125,81.1753],[56.6691,81.198],[56.822,81.2377],[57.1596,81.1785],[57.4513,81.1356],[57.7698,81.17],[57.9127,81.1975],[58.0153,81.2547],[57.9122,81.3033],[57.8587,81.3679],[58.372,81.3869],[58.5641,81.4182],[58.436,81.4642],[58.0164,81.4838],[57.8624,81.5065],[57.81,81.5462],[57.7169,81.5647],[57.4565,81.5431],[57.365,81.5351]],[[57.6941,80.7921],[57.5676,80.8197],[56.9094,80.9128],[56.4723,80.998],[56.1701,81.0292],[55.4705,81.0197],[54.7192,81.116],[54.634,81.1133],[54.417,80.9864],[54.3673,80.9038],[54.2408,80.9017],[54.0455,80.8721],[54.0667,80.8139],[54.3762,80.7869],[54.5329,80.7832],[54.6234,80.7652],[54.6683,80.7387],[55.1171,80.7519],[55.5404,80.7032],[55.7124,80.6371],[55.8833,80.6286],[56.3157,80.6329],[56.8147,80.6636],[57.5803,80.7556],[57.6941,80.7921]],[[56.6548,80.3302],[56.0246,80.3413],[55.9897,80.3201],[56.0124,80.2037],[55.942,80.1635],[55.724,80.1048],[55.8119,80.0873],[56.2008,80.0767],[56.9871,80.0714],[57.0803,80.0947],[57.0729,80.1392],[57.1189,80.1942],[57.1226,80.317],[57.0787,80.3508],[56.9448,80.3662],[56.7072,80.363],[56.6548,80.3302]],[[54.4371,80.4985],[54.4069,80.5403],[54.2053,80.562],[54.1768,80.5742],[53.8773,80.6054],[53.8587,80.563],[53.9016,80.5424],[53.9,80.5154],[53.8497,80.5038],[53.8121,80.4762],[54.2757,80.4212],[54.4154,80.4731],[54.4371,80.4985]],[[52.8565,80.173],[53.5216,80.1852],[53.6529,80.2228],[53.7778,80.2281],[53.8518,80.2683],[53.4862,80.3233],[53.346,80.3662],[53.329,80.4022],[53.1856,80.4127],[52.8539,80.4022],[52.7162,80.3477],[52.6808,80.3186],[52.5766,80.2969],[52.2702,80.2762],[52.2135,80.2635],[52.3437,80.2132],[52.5506,80.2016],[52.6073,80.191],[52.6358,80.1789],[52.8565,80.173]],[[53.0739,71.2381],[52.9941,71.2915],[52.9036,71.3651],[52.7766,71.4],[52.7321,71.4037],[52.7205,71.3899],[52.7295,71.355],[52.6173,71.3836],[52.5125,71.3852],[52.2966,71.3571],[52.24,71.3248],[52.2495,71.2852],[52.2892,71.2703],[52.4252,71.2391],[52.5464,71.2502],[52.7385,71.1809],[52.7887,71.1148],[52.8353,71.0856],[52.9496,71.0534],[53.0047,71.0116],[53.0226,70.9687],[53.1211,70.9819],[53.1057,70.9994],[53.0481,71.0311],[53.0713,71.065],[53.2052,71.1597],[53.1925,71.2153],[53.1412,71.2418],[53.0739,71.2381]],[[50.9361,80.0942],[50.6758,80.0487],[50.4726,80.0355],[50.0916,79.9804],[50.4541,79.9243],[51.0763,79.9317],[51.4314,79.9206],[51.4351,79.9317],[51.4092,79.9444],[51.3267,79.9725],[51.2431,79.991],[51.2378,80.0106],[51.2542,80.0487],[50.9361,80.0942]],[[50.716,81.1705],[50.5917,81.1695],[50.5218,81.1584],[50.5059,81.1441],[50.4652,81.1261],[50.3683,81.1224],[50.3773,81.1028],[50.4117,81.0843],[50.5181,81.0456],[50.616,81.0414],[50.7536,81.0472],[50.789,81.0721],[50.9462,81.1081],[50.8785,81.1509],[50.716,81.1705]],[[50.072,80.1095],[50.3191,80.1725],[50.3101,80.1857],[50.2509,80.2196],[49.8836,80.2302],[49.5561,80.1587],[49.5883,80.136],[49.9709,80.0609],[50.0519,80.0741],[50.072,80.1095]],[[48.6316,69.4363],[48.4136,69.3458],[48.3199,69.269],[48.2961,69.1838],[48.2802,69.0965],[48.2786,69.0404],[48.2946,68.9843],[48.3157,68.9425],[48.439,68.8049],[48.6671,68.733],[48.9105,68.743],[49.1803,68.7785],[49.6265,68.86],[49.8397,68.9737],[49.9207,69.0531],[50.0937,69.1256],[50.1408,69.0981],[50.1646,69.0378],[50.2207,69.0489],[50.2832,69.0891],[50.2651,69.1854],[50.1673,69.2569],[49.9964,69.3092],[49.2253,69.5114],[48.9533,69.5092],[48.8449,69.495],[48.6316,69.4363]],[[32.5259,80.119],[33.5567,80.1979],[33.6292,80.2175],[33.3842,80.2423],[33.0985,80.2286],[33.0191,80.218],[31.4818,80.1079],[31.5776,80.0815],[32.5259,80.119]],[[28.038,78.829],[28.4947,78.8871],[28.881,78.8803],[29.3107,78.8522],[29.697,78.9046],[29.6451,78.9216],[29.3456,78.9057],[29.0471,78.912],[28.845,78.9708],[28.5111,78.9671],[28.4148,78.9613],[28.3741,78.9268],[28.1211,78.9083],[27.8893,78.8522],[28.038,78.829]],[[26.7294,78.6464],[26.876,78.649],[27.0077,78.6977],[26.7887,78.7242],[26.586,78.8115],[26.4558,78.8104],[26.4077,78.7845],[26.4596,78.7205],[26.7294,78.6464]]]}}
