{"type":"Feature","properties":{"id":41,"name":"North Sea","featurecla":"sea","scalerank":2,"wikidataid":"Q1693","source":"Natural Earth 5.2.0-pre ne_10m_geography_marine_polys (public domain)"},"geometry":{"type":"Polygon","coordinates":[[[-2.9405,58.7397],[-2.9389,58.7386],[-2.9293,58.7418],[-2.9261,58.7534],[-2.8886,58.79],[-2.6912,58.946],[-2.4515,59.2582],[-1.6498,59.4974],[-1.4,59.7472],[-1.3069,59.8827],[-1.2995,59.8784],[-1.2836,59.8869],[-1.2455,59.971],[-1.1995,60.0065],[-1.1794,60.1139],[-1.1656,60.1245],[-1.1529,60.1774],[-1.1339,60.207],[-1.0656,60.3817],[-1.0608,60.4034],[-1.0566,60.4134],[-1.0047,60.5489],[-0.7756,60.5907],[5.2034,60.5907],[5.2442,60.5695],[5.4474,60.6172],[5.5892,60.6944],[5.6485,60.6881],[5.5464,60.6246],[5.168,60.4849],[5.1373,60.4457],[5.1833,60.3086],[5.286,60.206],[5.4172,60.1541],[5.5739,60.1583],[5.6575,60.1541],[5.6887,60.1234],[5.4945,60.0705],[5.3764,60.0673],[5.2653,60.0864],[5.2056,60.088],[5.1743,60.0457],[5.2193,59.979],[5.1871,59.907],[5.1193,59.8335],[5.105,59.7319],[5.1108,59.6678],[5.1458,59.6387],[5.186,59.6424],[5.2346,59.6916],[5.2637,59.7096],[5.3532,59.7599],[5.4945,59.8255],[5.5569,59.9075],[5.6988,60.0102],[5.8009,60.0261],[5.8765,60.07],[5.9046,60.1504],[5.9676,60.2055],[6.102,60.2901],[6.1533,60.3462],[6.347,60.4192],[6.8063,60.5007],[6.9957,60.5118],[6.9497,60.478],[6.7872,60.4542],[6.72,60.4182],[6.6608,60.3674],[6.5269,60.1531],[6.5264,60.2134],[6.5734,60.3605],[6.5179,60.4076],[6.3485,60.3531],[6.1406,60.2335],[6.1051,60.1652],[6.112,60.1319],[6.0702,60.0837],[5.9967,60.0314],[5.7834,59.9128],[5.7305,59.8631],[5.7633,59.8081],[5.8342,59.7948],[5.9665,59.8134],[6.0591,59.8155],[6.212,59.8319],[6.2168,59.8181],[5.9908,59.7445],[5.867,59.734],[5.7723,59.661],[5.5797,59.6869],[5.5299,59.7133],[5.4723,59.7133],[5.4035,59.6556],[5.305,59.6424],[5.2421,59.5641],[5.1849,59.4535],[5.1314,59.2265],[5.1733,59.1625],[5.3495,59.1662],[5.5622,58.9799],[5.5554,58.9752],[5.5225,58.8227],[5.5172,58.7264],[5.586,58.6206],[5.7067,58.5238],[5.9766,58.4322],[6.0549,58.3751],[6.3893,58.2682],[6.4914,58.2592],[6.6174,58.2666],[6.6597,58.2629],[6.6766,58.2338],[6.6925,58.2243],[6.6057,58.1761],[6.5549,58.1232],[6.5904,58.0973],[6.7317,58.0681],[6.7666,58.0814],[6.7708,58.1322],[6.8026,58.1544],[6.8772,58.1507],[6.9121,58.1428],[6.8952,58.1205],[6.8904,58.1026],[6.9031,58.0703],[7.0047,58.0242],[7.1254,58.039],[8.279,56.841],[8.2662,56.8151],[8.2684,56.7542],[8.3467,56.7119],[8.4684,56.6648],[8.6033,56.7103],[8.7722,56.7251],[8.8759,56.887],[8.9928,57.0162],[9.1103,57.0437],[9.2547,57.0119],[9.2098,56.8082],[9.1965,56.7018],[9.1405,56.7505],[9.0669,56.7939],[8.9944,56.7749],[8.888,56.7352],[8.7361,56.6272],[8.7182,56.5441],[8.6716,56.4955],[8.6076,56.5145],[8.553,56.5606],[8.4732,56.5653],[8.2816,56.6166],[8.2319,56.6183],[8.1641,56.6071],[8.1297,56.3214],[8.1212,56.1399],[8.2022,55.9822],[8.1816,55.9012],[8.1324,55.5996],[8.3451,55.5102],[8.616,55.4181],[8.651,55.3287],[8.67,55.1556],[8.5732,55.1345],[8.6383,55.0456],[8.6615,54.9857],[8.6822,54.7921],[8.7896,54.6958],[8.8811,54.5942],[8.9574,54.5381],[8.952,54.4677],[8.8309,54.4275],[8.6483,54.3979],[8.6256,54.3539],[8.6451,54.2952],[8.7361,54.2952],[8.7806,54.3132],[8.8515,54.2994],[8.9066,54.2608],[8.9034,54.0005],[8.9203,53.9655],[8.978,53.9264],[9.0695,53.9009],[9.2166,53.8914],[9.3119,53.8592],[9.6315,53.6004],[9.7839,53.5549],[9.6733,53.5655],[9.5854,53.6004],[9.3219,53.8137],[9.2055,53.856],[8.8975,53.8359],[8.6187,53.875],[8.5758,53.8385],[8.5282,53.7809],[8.5065,53.6708],[8.5388,53.557],[8.4954,53.394],[8.4927,53.5142],[8.4515,53.5517],[8.334,53.6062],[8.3017,53.584],[8.279,53.511],[8.2451,53.4454],[8.2006,53.4327],[8.1086,53.4676],[8.1673,53.5432],[8.0091,53.6909],[7.6291,53.6972],[7.2852,53.6814],[7.2063,53.6544],[7.1068,53.557],[7.0746,53.4776],[7.0534,53.376],[7.1518,53.3268],[7.1973,53.2824],[7.0582,53.3004],[6.9682,53.3273],[6.9121,53.3755],[6.8164,53.4411],[6.5634,53.4342],[6.3533,53.4152],[6.085,53.4078],[5.9263,53.4591],[5.7321,53.4427],[5.6749,53.4533],[5.5675,53.4416],[5.5828,53.4379],[5.3256,53.3856],[5.2325,53.3776],[5.0833,53.3088],[5.1087,53.3078],[4.9235,53.2347],[4.8812,53.1802],[4.8865,53.1834],[4.8859,53.0707],[4.787,52.9998],[4.7632,53.0077],[4.7129,52.8723],[4.6785,52.8098],[4.5621,52.4426],[4.4827,52.3092],[4.3764,52.197],[4.2086,52.0589],[4.1319,52.0118],[4.0848,51.9939],[4.026,51.9277],[3.979,51.8478],[3.9467,51.8107],[4.1345,51.6732],[4.1578,51.6335],[4.1827,51.6102],[4.0049,51.5959],[4.0806,51.5509],[4.1753,51.5192],[4.2393,51.5038],[4.2742,51.4716],[4.206,51.4568],[4.1414,51.4557],[3.8858,51.5742],[3.744,51.5959],[3.5488,51.589],[3.4995,51.5769],[3.4487,51.5409],[3.5207,51.4864],[3.5868,51.4541],[3.6937,51.4499],[3.8218,51.4097],[4.0065,51.443],[4.1387,51.4017],[4.2261,51.3864],[4.1118,51.3604],[4.0112,51.3959],[3.8832,51.3546],[3.7165,51.3689],[3.5895,51.3996],[3.426,51.3932],[3.3503,51.3779],[3.2254,51.3514],[2.9603,51.2652],[2.5248,51.0969],[2.4454,51.0668],[1.9125,50.9905],[1.7676,50.9355],[1.712,50.9064],[1.6845,50.9588],[1.376,51.1646],[1.3977,51.1821],[1.4157,51.3107],[1.4151,51.3631],[1.3733,51.3747],[1.2569,51.3753],[1.0151,51.3599],[0.8891,51.3594],[0.6864,51.3864],[0.6457,51.4049],[0.6002,51.4679],[0.5283,51.4843],[0.4245,51.4657],[0.5071,51.5012],[0.5933,51.5197],[0.6976,51.5229],[0.7992,51.5377],[0.8907,51.5716],[0.9273,51.6467],[0.8981,51.6896],[0.7521,51.7298],[0.9553,51.8076],[1.1014,51.7854],[1.1886,51.8034],[1.2744,51.8452],[1.2739,51.9023],[1.2278,51.9489],[1.2326,51.9711],[1.276,51.9738],[1.3167,51.9568],[1.4135,51.9949],[1.5591,52.087],[1.5914,52.1198],[1.6146,52.1616],[1.6474,52.2785],[1.7003,52.369],[1.7464,52.469],[1.7432,52.5786],[1.7162,52.677],[1.657,52.7537],[1.3823,52.8934],[1.2712,52.9247],[1.0558,52.959],[0.9484,52.9532],[0.8267,52.9712],[0.7045,52.977],[0.559,52.967],[0.5156,52.9384],[0.4314,52.858],[0.3817,52.8252],[0.3303,52.8114],[0.2795,52.8088],[0.0456,52.9056],[0.1245,52.9718],[0.2081,53.0299],[0.298,53.0813],[0.3557,53.1601],[0.2711,53.3353],[0.1282,53.4681],[-0.2935,53.6925],[-0.4851,53.6946],[-0.6597,53.7242],[-0.5677,53.7253],[-0.4613,53.7163],[-0.2703,53.7369],[-0.174,53.6856],[-0.0739,53.6438],[-0.0195,53.6375],[0.0361,53.6406],[0.0769,53.6295],[0.1155,53.6094],[0.0107,53.7427],[-0.1083,53.865],[-0.1687,53.9417],[-0.2057,54.0216],[-0.1565,54.0809],[-0.0845,54.1179],[-0.2327,54.1899],[-0.3703,54.2793],[-0.5179,54.3952],[-0.6714,54.5037],[-0.7592,54.5413],[-1.1545,54.6545],[-1.2323,54.7037],[-1.2916,54.7741],[-1.4228,55.0265],[-1.5228,55.2593],[-1.6101,55.498],[-1.6556,55.5705],[-1.7286,55.6186],[-1.8302,55.6716],[-2.0171,55.8081],[-2.1472,55.9028],[-2.5991,56.0271],[-2.8367,56.0261],[-3.0151,55.9584],[-3.0489,55.952],[-3.6077,56.016],[-3.704,56.043],[-3.7892,56.0954],[-3.695,56.0631],[-3.4802,56.033],[-3.3622,56.0277],[-3.268,56.0452],[-3.178,56.0801],[-2.9796,56.1939],[-2.7674,56.2023],[-2.6743,56.2536],[-2.6526,56.3182],[-2.8849,56.3976],[-3.087,56.3891],[-3.1981,56.3658],[-3.3098,56.3637],[-3.2146,56.3838],[-3.1236,56.4251],[-3.0473,56.4494],[-2.7753,56.4828],[-2.6811,56.5145],[-2.5928,56.5616],[-2.5012,56.6368],[-2.4266,56.731],[-2.2605,56.8632],[-2.0895,57.1024],[-2.0626,57.1532],[-2.0456,57.2088],[-2.0202,57.2591],[-1.9345,57.3522],[-1.8345,57.4199],[-1.7805,57.4739],[-1.7779,57.494],[-1.8673,57.6126],[-1.9615,57.6766],[-2.0742,57.7025],[-2.2441,57.6808],[-2.8563,57.6924],[-2.9468,57.6893],[-3.0362,57.6723],[-3.0839,57.6734],[-3.2944,57.7099],[-3.4029,57.7083],[-3.6284,57.6623],[-3.8681,57.6004],[-3.9887,57.5813],[-4.1348,57.5776],[-4.0782,57.6771],[-3.8882,57.7872],[-3.857,57.8184],[-3.9067,57.8395],[-4.0358,57.8523],[-4.0194,57.9142],[-3.9898,57.9592],[-3.7749,58.0523],[-3.4109,58.2396],[-3.2124,58.3211],[-3.1368,58.3782],[-3.113,58.4089],[-3.1013,58.4338],[-3.1098,58.5153],[-3.0569,58.5889],[-3.0463,58.6153],[-3.0516,58.6307],[-2.9405,58.7397]]]}}
