{"type":"Feature","properties":{"id":42,"name":"Bristol Channel","featurecla":"channel","scalerank":4,"wikidataid":"Q188203","source":"Natural Earth 5.2.0-pre ne_10m_geography_marine_polys (public domain)"},"geometry":{"type":"Polygon","coordinates":[[[-6.4033,51.6801],[-6.3589,51.6996],[-5.1682,51.7494],[-5.1682,51.7409],[-5.1248,51.706],[-4.9021,51.6261],[-4.7174,51.6838],[-4.601,51.7377],[-4.5317,51.7483],[-4.3861,51.7409],[-4.3274,51.7002],[-4.2761,51.6827],[-4.0909,51.6599],[-4.1739,51.6271],[-4.2348,51.5689],[-4.1152,51.5663],[-3.9983,51.5821],[-3.9438,51.5975],[-3.8908,51.5917],[-3.7628,51.5398],[-3.5622,51.4139],[-3.2929,51.3906],[-3.259,51.3985],[-3.0801,51.4959],[-2.9785,51.5388],[-2.742,51.5811],[-2.5393,51.6954],[-2.433,51.7409],[-2.5901,51.6086],[-2.687,51.5372],[-2.7907,51.4747],[-2.8812,51.4054],[-3.042,51.2488],[-3.1362,51.2049],[-3.2558,51.1943],[-3.3749,51.1969],[-3.6077,51.2287],[-3.8421,51.2308],[-4.1586,51.2012],[-4.1882,51.1885],[-4.2967,51.0271],[-4.5232,50.9773],[-4.5459,50.9006],[-4.5602,50.8207],[-4.583,50.7762],[-4.8613,50.582],[-4.8936,50.5339],[-4.9566,50.5233],[-5.0042,50.4953],[-5.0434,50.4513],[-5.1418,50.3735],[-5.3423,50.246],[-5.5704,50.1968],[-5.6561,50.1317],[-5.6556,50.1132],[-5.7064,50.1121],[-6.4033,51.6801]]]}}
