{"type":"Feature","properties":{"id":43,"name":"Inner Seas","featurecla":"sea","scalerank":4,"wikidataid":"Q1971856","source":"Natural Earth 5.2.0-pre ne_10m_geography_marine_polys (public domain)"},"geometry":{"type":"Polygon","coordinates":[[[-5.0195,58.5645],[-5.0666,58.52],[-5.0761,58.4894],[-5.0788,58.4195],[-5.0899,58.3846],[-5.0804,58.3449],[-5.0317,58.2984],[-5.0084,58.2629],[-5.0598,58.2502],[-5.2693,58.2513],[-5.3381,58.2385],[-5.3561,58.2121],[-5.3471,58.1766],[-5.3513,58.1438],[-5.4132,58.0697],[-5.3936,58.0438],[-5.1767,57.9062],[-5.1571,57.8814],[-5.2899,57.9046],[-5.319,57.9036],[-5.3492,57.8782],[-5.6085,57.8814],[-5.6657,57.8237],[-5.6948,57.7782],[-5.745,57.6681],[-5.7424,57.6438],[-5.7149,57.6009],[-5.6789,57.5718],[-5.5815,57.5469],[-5.6884,57.5236],[-5.7567,57.4993],[-5.8022,57.4681],[-5.818,57.4363],[-5.7948,57.3786],[-5.6561,57.3342],[-5.6313,57.294],[-5.5619,57.2326],[-5.5916,57.1024],[-5.736,56.9606],[-5.8503,56.9183],[-5.8614,56.9029],[-5.7307,56.8532],[-5.8779,56.7796],[-6.0345,56.7638],[-6.1329,56.7182],[-6.134,56.7066],[-6.0578,56.6923],[-5.9689,56.6897],[-5.9366,56.6055],[-5.8646,56.5616],[-5.7731,56.541],[-5.6524,56.532],[-5.564,56.5659],[-5.2175,56.7511],[-5.1883,56.7579],[-5.2423,56.687],[-5.3127,56.6188],[-5.3296,56.5558],[-5.3921,56.5151],[-5.4333,56.4224],[-5.4879,56.3499],[-5.535,56.251],[-5.5551,56.1351],[-5.6095,56.0552],[-5.6228,55.8134],[-5.6022,55.797],[-5.5741,55.7917],[-5.5069,55.8076],[-5.5043,55.8023],[-5.6048,55.7208],[-5.6508,55.6742],[-5.6815,55.6239],[-5.7519,55.4435],[-5.7678,55.3948],[-5.7683,55.3625],[-5.7307,55.334],[-5.6466,55.3271],[-5.6185,55.3313],[-5.5889,55.3514],[-5.5566,55.3895],[-5.3857,55.77],[-5.373,55.8277],[-5.4185,55.952],[-5.4191,55.9753],[-5.4106,55.9954],[-5.3836,56.0192],[-5.2825,56.0901],[-5.0841,56.1976],[-4.9968,56.2335],[-5.1762,56.1171],[-5.2227,56.0658],[-5.2471,56.0002],[-5.2455,55.9293],[-5.228,55.8864],[-5.2148,55.889],[-5.1957,55.9287],[-5.1349,55.9335],[-5.1148,55.9446],[-5.0931,55.9875],[-4.9703,56.0081],[-4.9269,56.0282],[-4.856,56.1145],[-4.819,56.1504],[-4.8005,56.1584],[-4.8412,56.0806],[-4.8439,56.051],[-4.6708,55.9674],[-4.584,55.9388],[-4.8068,55.9404],[-4.8258,55.9298],[-4.8719,55.8737],[-4.8894,55.7811],[-4.892,55.6991],[-4.7243,55.5985],[-4.6846,55.5541],[-4.6766,55.5012],[-4.7211,55.4207],[-4.7846,55.3594],[-4.965,55.1493],[-5.056,54.9879],[-5.1169,55.0122],[-5.1725,54.9857],[-5.1704,54.918],[-5.1354,54.8577],[-5.0815,54.8069],[-5.5069,54.5836],[-5.5281,54.6196],[-5.5826,54.6635],[-5.7387,54.673],[-5.8032,54.663],[-5.8784,54.6413],[-5.8789,54.6841],[-5.7651,54.7249],[-5.7106,54.7571],[-5.717,54.8175],[-5.8694,54.9164],[-5.9858,55.0297],[-6.0355,55.1445],[-6.1292,55.2175],[-6.234,55.217],[-6.3753,55.2419],[-6.4753,55.2408],[-6.6986,55.1937],[-6.8251,55.1805],[-6.8891,55.189],[-6.9473,55.1826],[-7.0309,55.0805],[-7.1007,55.0482],[-7.1785,55.0567],[-7.2188,55.0921],[-7.1727,55.1371],[-7.0563,55.1784],[-6.9616,55.2376],[-7.06,55.2678],[-7.1552,55.3054],[-7.2468,55.353],[-7.3087,55.3657],[-7.3658,55.3604],[-7.3018,55.299],[-7.4585,55.2816],[-7.5178,55.2482],[-7.5315,55.1937],[-7.5019,55.1445],[-7.4839,55.0905],[-7.4786,55.0471],[-7.5844,54.9942],[-7.6585,54.9709],[-7.5897,55.0249],[-7.6342,55.0551],[-7.5855,55.0842],[-7.5564,55.1223],[-7.5701,55.1715],[-7.6135,55.1995],[-7.6299,55.244],[-7.667,55.2567],[-7.7627,55.2482],[-7.7506,55.1858],[-7.803,55.2001],[-7.9585,55.1921],[-8.0061,55.1953],[-8.1379,55.1598],[-8.2448,55.1493],[-8.2464,55.1657],[-7.5347,56.959],[-7.505,56.9516],[-7.4167,56.9654],[-7.3987,56.9833],[-7.4066,57.0003],[-7.4526,57.0178],[-7.3526,57.1178],[-7.3473,57.1151],[-7.2923,57.1098],[-7.25,57.1151],[-7.2473,57.1262],[-7.2669,57.3718],[-7.2966,57.3839],[-7.3357,57.3829],[-7.3119,57.5337],[-7.1828,57.5332],[-7.0928,57.6268],[-7.1664,57.6634],[-7.0325,57.7761],[-7.0129,57.7618],[-6.9833,57.7501],[-6.9568,57.7501],[-6.9102,57.7734],[-6.8536,57.8263],[-6.7965,57.8274],[-6.6832,57.911],[-6.5779,57.9412],[-6.425,58.0211],[-6.4022,58.0412],[-6.4033,58.0761],[-6.4367,58.092],[-6.5547,58.093],[-6.4192,58.1412],[-6.3758,58.1846],[-6.326,58.1888],[-6.1985,58.3634],[-6.1943,58.4349],[-6.2192,58.4888],[-6.2345,58.5005],[-5.0195,58.5645]],[[-5.2518,55.7171],[-5.318,55.7091],[-5.3455,55.6906],[-5.3709,55.6668],[-5.3926,55.6181],[-5.3317,55.4811],[-5.2772,55.4567],[-5.2317,55.4482],[-5.1053,55.4488],[-5.0947,55.4943],[-5.1053,55.5742],[-5.1603,55.6668],[-5.1857,55.6911],[-5.2518,55.7171]],[[-5.9874,57.0442],[-5.9493,57.0453],[-5.9138,57.0627],[-5.7953,57.1464],[-5.6963,57.1982],[-5.6688,57.2268],[-5.6725,57.2527],[-5.7059,57.2691],[-5.8805,57.2633],[-6.0678,57.2834],[-6.0932,57.3019],[-6.1355,57.3141],[-6.1408,57.3538],[-6.1636,57.4088],[-6.1461,57.4607],[-6.1446,57.5051],[-6.1663,57.5856],[-6.2467,57.6512],[-6.3059,57.6718],[-6.3578,57.667],[-6.3784,57.6035],[-6.6166,57.5628],[-6.6155,57.5527],[-6.5838,57.5205],[-6.5832,57.5072],[-6.606,57.4908],[-6.6435,57.4829],[-6.7044,57.4956],[-6.7526,57.4591],[-6.761,57.4422],[-6.7414,57.4125],[-6.6753,57.3628],[-6.4425,57.3273],[-6.3626,57.2374],[-6.3229,57.2025],[-6.2663,57.1844],[-6.1625,57.1823],[-6.0345,57.2014],[-6.0149,57.0522],[-5.9874,57.0442]],[[-5.9911,55.8039],[-5.9699,55.8144],[-5.7974,56.0055],[-5.7249,56.1187],[-5.7625,56.1203],[-5.7995,56.1086],[-5.9392,56.0452],[-5.9726,56.0044],[-5.9705,55.9922],[-5.9117,55.9748],[-6.0414,55.9256],[-6.0721,55.8933],[-6.0705,55.8478],[-6.0604,55.8229],[-6.0414,55.807],[-5.9911,55.8039]],[[-5.9466,56.5346],[-6.0297,56.6098],[-6.1027,56.6458],[-6.1382,56.65],[-6.1821,56.6431],[-6.2864,56.6119],[-6.3065,56.5987],[-6.3197,56.5695],[-6.3107,56.5521],[-6.1387,56.4907],[-6.1848,56.3568],[-6.2986,56.3394],[-6.326,56.3209],[-6.3134,56.2939],[-6.1763,56.2886],[-5.7778,56.3441],[-5.7609,56.4907],[-5.836,56.5224],[-5.9466,56.5346]],[[-6.0927,55.8023],[-6.1287,55.9309],[-6.2155,55.9044],[-6.3112,55.8568],[-6.3441,55.8737],[-6.3747,55.8711],[-6.4133,55.8547],[-6.4451,55.8324],[-6.4631,55.8081],[-6.4663,55.7689],[-6.4959,55.7118],[-6.4911,55.6975],[-6.452,55.7044],[-6.334,55.7742],[-6.3017,55.7806],[-6.2864,55.7726],[-6.3022,55.7282],[-6.2699,55.6705],[-6.307,55.6192],[-6.3049,55.607],[-6.253,55.607],[-6.0885,55.6573],[-6.0551,55.6954],[-6.0578,55.7224],[-6.0927,55.8023]]]}}
