{"type":"Feature","properties":{"id":44,"name":"Irish Sea","featurecla":"sea","scalerank":2,"wikidataid":"Q41735","source":"Natural Earth 5.2.0-pre ne_10m_geography_marine_polys (public domain)"},"geometry":{"type":"Polygon","coordinates":[[[-6.6234,52.1759],[-6.6192,52.1992],[-6.561,52.1886],[-6.4377,52.2029],[-6.325,52.2468],[-6.4631,52.3452],[-6.4001,52.3669],[-6.3456,52.4018],[-6.217,52.5431],[-6.199,52.6632],[-6.1694,52.7379],[-6.1308,52.8072],[-6.0715,52.8654],[-6.0276,52.9273],[-6.0451,53.0913],[-6.0721,53.1665],[-6.1345,53.3014],[-6.1514,53.3665],[-6.1292,53.3909],[-6.1387,53.4602],[-6.1308,53.4988],[-6.1419,53.5777],[-6.1948,53.6406],[-6.2292,53.7459],[-6.2699,53.8401],[-6.3218,53.8819],[-6.3477,53.9412],[-6.3451,53.9872],[-6.3075,54.011],[-6.2308,54.0036],[-6.1567,54.0174],[-6.1758,54.0534],[-6.2181,54.0888],[-6.1197,54.0587],[-6.0191,54.0512],[-5.9376,54.0888],[-5.8763,54.156],[-5.8546,54.201],[-5.826,54.2359],[-5.708,54.246],[-5.6069,54.2725],[-5.5577,54.3709],[-5.6318,54.3724],[-5.6561,54.382],[-5.6461,54.4778],[-5.6709,54.5497],[-5.6159,54.5365],[-5.5683,54.5127],[-5.5259,54.4603],[-5.4842,54.4418],[-5.4704,54.5],[-5.49,54.554],[-5.5069,54.5836],[-5.0815,54.8069],[-5.0322,54.7614],[-4.9111,54.6894],[-4.8894,54.7725],[-4.8518,54.8254],[-4.8179,54.8461],[-4.6475,54.7889],[-4.5174,54.7582],[-4.4099,54.7868],[-4.3036,54.8355],[-4.2533,54.8466],[-4.2083,54.8371],[-4.1739,54.8011],[-4.1332,54.7794],[-4.0755,54.7873],[-3.958,54.781],[-3.8987,54.8053],[-3.8416,54.8429],[-3.7834,54.8699],[-3.7194,54.8762],[-3.6585,54.8926],[-3.5506,54.9477],[-3.4342,54.9635],[-3.0812,54.9619],[-3.0362,54.953],[-3.268,54.9064],[-3.4648,54.773],[-3.5918,54.5645],[-3.5696,54.4677],[-3.4103,54.3058],[-3.3214,54.229],[-3.1659,54.128],[-3.1098,54.1264],[-3.0547,54.1534],[-2.9934,54.1703],[-2.8674,54.1772],[-2.8463,54.1354],[-2.8621,54.0438],[-2.8997,53.9608],[-3.0267,53.9057],[-3.0452,53.8438],[-3.032,53.7734],[-2.9844,53.747],[-2.9251,53.7327],[-2.9955,53.6623],[-3.0595,53.5861],[-3.0648,53.5131],[-2.9701,53.3893],[-2.9129,53.3501],[-2.8452,53.3321],[-2.7939,53.3305],[-2.7494,53.3104],[-2.8642,53.2924],[-2.9188,53.3051],[-3.0648,53.4268],[-3.1654,53.3945],[-3.0976,53.2602],[-3.3262,53.3469],[-3.4278,53.3406],[-3.5294,53.3104],[-3.6458,53.2977],[-3.7644,53.3078],[-3.8093,53.3025],[-4.111,53.2189],[-4.2686,53.1443],[-4.3284,53.1051],[-4.3623,53.0559],[-4.4052,53.0136],[-4.5258,52.958],[-4.6385,52.8913],[-4.6814,52.8442],[-4.683,52.8061],[-4.5835,52.8151],[-4.4718,52.8622],[-4.3565,52.8971],[-4.229,52.913],[-4.1014,52.9157],[-4.1147,52.8659],[-4.1173,52.8199],[-4.0676,52.7606],[-4.039,52.704],[-4.0707,52.659],[-4.0787,52.6077],[-4.0485,52.5574],[-3.9802,52.5415],[-4.0506,52.4754],[-4.0998,52.3934],[-4.1496,52.3262],[-4.2179,52.2775],[-4.383,52.1976],[-4.5613,52.151],[-4.8783,52.042],[-5.0878,51.9959],[-5.1836,51.9494],[-5.2624,51.8801],[-5.2005,51.8616],[-5.1672,51.8081],[-5.1682,51.7494],[-6.3589,51.6996],[-6.4033,51.6801],[-6.6234,52.1759]],[[-4.0496,53.3056],[-4.1549,53.303],[-4.1967,53.3215],[-4.3152,53.4173],[-4.4618,53.4194],[-4.5676,53.3866],[-4.5533,53.2607],[-4.4718,53.1765],[-4.4189,53.1781],[-4.3729,53.1342],[-4.2787,53.1723],[-4.2004,53.2178],[-4.0845,53.2644],[-4.0496,53.3056]],[[-4.4121,54.1851],[-4.3925,54.2253],[-4.338,54.2693],[-4.3771,54.3925],[-4.3957,54.4031],[-4.4248,54.4074],[-4.5089,54.3767],[-4.6147,54.2672],[-4.6989,54.2248],[-4.7454,54.119],[-4.7851,54.0729],[-4.7655,54.0692],[-4.6962,54.0814],[-4.6142,54.0587],[-4.4121,54.1851]]]}}
