{"type":"Feature","properties":{"id":45,"name":"Java Sea","featurecla":"sea","scalerank":2,"wikidataid":"Q49364","source":"Natural Earth 5.2.0-pre ne_10m_geography_marine_polys (public domain)"},"geometry":{"type":"Polygon","coordinates":[[[105.1947,-6.6611],[105.2529,-6.6405],[105.2773,-6.5616],[105.2604,-6.524],[105.2254,-6.5288],[105.1921,-6.5457],[105.1302,-6.6061],[104.6074,-5.9091],[104.6079,-5.9049],[104.6312,-5.9081],[104.6841,-5.8928],[104.6757,-5.816],[104.6179,-5.6414],[104.6217,-5.5715],[104.6397,-5.5202],[104.9302,-5.6811],[105.0228,-5.7266],[105.0815,-5.7456],[105.1281,-5.7229],[105.3038,-5.5699],[105.3493,-5.5493],[105.5228,-5.6726],[105.5557,-5.7123],[105.5779,-5.7605],[105.6186,-5.7996],[105.6768,-5.8176],[105.7483,-5.8181],[105.8028,-5.7165],[105.816,-5.6769],[105.8875,-5.0096],[105.8795,-4.7937],[105.8906,-4.6598],[105.8864,-4.5539],[105.8313,-4.1629],[105.8403,-4.1216],[105.9277,-3.8814],[105.9303,-3.8333],[105.8954,-3.7798],[105.8515,-3.7306],[105.8441,-3.6136],[105.8848,-3.4512],[105.9017,-3.4099],[106.0335,-3.2607],[106.0584,-3.2173],[106.088,-3.2194],[106.5315,-3.1019],[106.5563,-3.0575],[106.6108,-3.0712],[106.6674,-3.0718],[106.6574,-3.0014],[106.6214,-2.9405],[106.8251,-2.5738],[107.7824,-2.5225],[107.8231,-2.5336],[107.6665,-2.5664],[107.6416,-2.7315],[107.5982,-2.7998],[107.6051,-2.8633],[107.5633,-2.9199],[107.584,-2.9405],[107.5913,-2.9765],[107.5951,-3.0585],[107.6369,-3.1247],[107.6147,-3.2094],[107.6596,-3.2056],[107.8216,-3.1607],[107.8369,-3.0966],[107.858,-3.0866],[107.9411,-3.1294],[107.9671,-3.1665],[107.9771,-3.2215],[108.0555,-3.2268],[108.0835,-3.195],[108.1671,-3.1426],[108.192,-3.103],[108.2073,-2.9977],[108.2719,-2.8675],[108.2761,-2.8749],[110.2166,-2.9104],[110.2319,-2.9098],[110.2324,-2.9252],[110.2562,-2.9659],[110.3023,-2.9855],[110.351,-2.9469],[110.3774,-2.9337],[110.5743,-2.8913],[110.668,-3.0051],[110.7034,-3.021],[110.7356,-2.9887],[110.8114,-2.9384],[110.8992,-2.9088],[110.8521,-2.9463],[110.8299,-2.995],[110.8685,-3.0485],[110.9299,-3.0712],[111.0442,-3.0559],[111.259,-2.9564],[111.3675,-2.9337],[111.495,-2.9734],[111.6252,-2.9755],[111.6585,-2.9257],[111.6945,-2.8897],[111.7601,-2.9389],[111.8093,-3.0082],[111.8231,-3.0569],[111.8358,-3.3078],[111.8342,-3.4199],[111.822,-3.5327],[111.858,-3.5517],[111.9073,-3.5528],[111.9549,-3.5295],[112.1268,-3.3813],[112.2851,-3.321],[112.4438,-3.3713],[112.6004,-3.4004],[112.7582,-3.3221],[112.9714,-3.1871],[113.0339,-2.9337],[113.3434,-3.2464],[113.3672,-3.2236],[113.409,-3.2289],[113.526,-3.1839],[113.5662,-3.1776],[113.6101,-3.1956],[113.6302,-3.2458],[113.6371,-3.3321],[113.6334,-3.4199],[113.7053,-3.4554],[113.7958,-3.4565],[113.9588,-3.3946],[114.0821,-3.2787],[114.1091,-3.285],[114.1276,-3.3273],[114.1779,-3.3543],[114.2361,-3.3612],[114.2927,-3.3062],[114.3446,-3.2353],[114.3017,-3.3649],[114.3044,-3.4099],[114.3446,-3.4443],[114.397,-3.4713],[114.4462,-3.4819],[114.5255,-3.3765],[114.5361,-3.4946],[114.606,-3.7031],[114.625,-4.1116],[114.6526,-4.1518],[114.6933,-4.1698],[115.2585,-3.9068],[115.9559,-3.5951],[115.9876,-3.5422],[116.03,-3.584],[116.0225,-3.6125],[116.0183,-3.6999],[116.0771,-3.8173],[116.0586,-4.0068],[116.0935,-4.0539],[116.1802,-3.9772],[119.3616,-5.3202],[119.3764,-5.4249],[119.4648,-5.5234],[118.8245,-6.5087],[117.0074,-7.0908],[115.4378,-6.9675],[115.3929,-6.9606],[115.4241,-6.9405],[115.5458,-6.9384],[115.5241,-6.9019],[115.4791,-6.8701],[115.4146,-6.8399],[115.3537,-6.8384],[115.2405,-6.8611],[115.2219,-6.9051],[115.2209,-6.9341],[115.2082,-6.932],[114.3848,-7.7729],[114.3827,-7.7713],[114.0705,-7.6332],[114.0371,-7.6321],[113.8763,-7.6771],[113.7477,-7.703],[113.4979,-7.7237],[113.2482,-7.7184],[113.0138,-7.6575],[112.7946,-7.5522],[112.783,-7.4316],[112.7941,-7.3046],[112.7518,-7.2649],[112.6486,-7.2215],[112.6259,-7.1781],[112.5867,-7.0506],[112.5391,-6.9262],[112.4338,-6.9029],[112.3126,-6.8945],[112.1369,-6.9051],[112.0871,-6.8934],[111.9898,-6.8061],[111.7374,-6.7733],[111.6881,-6.7416],[111.6437,-6.6987],[111.5405,-6.6484],[111.4844,-6.6521],[111.3866,-6.6929],[111.3421,-6.6997],[111.1818,-6.6865],[111.1542,-6.669],[111.0008,-6.4648],[110.9722,-6.4357],[110.8346,-6.4241],[110.7844,-6.4426],[110.7367,-6.4722],[110.7008,-6.5182],[110.6737,-6.5696],[110.6341,-6.6902],[110.5838,-6.8056],[110.5208,-6.8971],[110.4261,-6.9474],[110.3727,-6.9479],[110.3214,-6.9384],[110.261,-6.9124],[110.1986,-6.895],[110.0673,-6.8987],[109.9361,-6.9156],[109.8213,-6.9024],[109.5868,-6.8426],[109.5006,-6.8103],[109.4037,-6.86],[109.2942,-6.8669],[109.0185,-6.8172],[108.8995,-6.8082],[108.7799,-6.8082],[108.6777,-6.7907],[108.6036,-6.7294],[108.5381,-6.5161],[108.5158,-6.4711],[108.419,-6.3828],[108.3301,-6.2859],[108.2952,-6.2647],[108.2544,-6.2663],[108.1973,-6.2891],[108.1375,-6.2965],[108.0089,-6.2769],[107.884,-6.2335],[107.776,-6.2187],[107.6665,-6.2155],[107.5628,-6.1827],[107.475,-6.1219],[107.3739,-6.0076],[107.3321,-5.9779],[107.1622,-5.9573],[107.0463,-5.9044],[107.0114,-6.0086],[106.9315,-6.0732],[106.8781,-6.0917],[106.8251,-6.0981],[106.6759,-6.0383],[106.5685,-6.0219],[106.459,-6.0176],[106.3499,-5.9843],[106.1658,-5.9647],[106.0748,-5.9139],[106.0288,-5.9346],[105.9361,-6.0171],[105.8684,-6.1166],[105.7869,-6.4568],[105.7573,-6.4801],[105.7059,-6.4981],[105.6551,-6.4695],[105.6081,-6.6166],[105.5811,-6.6712],[105.4837,-6.7818],[105.4599,-6.787],[105.4049,-6.768],[105.3869,-6.7505],[105.371,-6.6643],[105.3355,-6.6743],[105.2768,-6.7267],[105.1947,-6.6611]],[[112.8682,-6.8997],[112.7688,-7.0013],[112.7259,-7.0728],[112.7639,-7.1395],[113.0407,-7.212],[113.127,-7.2241],[113.1418,-7.2077],[113.1661,-7.2072],[113.1984,-7.2183],[113.4709,-7.2183],[113.5466,-7.1935],[113.6556,-7.112],[113.8254,-7.1199],[113.8445,-7.1056],[113.8853,-7.049],[114.0832,-6.9892],[114.0736,-6.9601],[113.9747,-6.8728],[113.0672,-6.8801],[112.8682,-6.8997]]]}}
