{"type":"Feature","properties":{"id":46,"name":"Andaman Sea","featurecla":"sea","scalerank":2,"wikidataid":"Q47632","source":"Natural Earth 5.2.0-pre ne_10m_geography_marine_polys (public domain)"},"geometry":{"type":"Polygon","coordinates":[[[95.2279,5.5828],[95.003,5.768],[94.077,6.2617],[93.5303,6.8438],[93.0451,7.6862],[92.4281,9.1763],[92.2,10.3543],[92.2778,11.6592],[92.5599,13.2467],[92.9303,14.3934],[93.742,15.8221],[94.231,16.2439],[94.214,16.1264],[94.2241,16.0163],[94.2992,16.0073],[94.4416,16.0941],[94.4956,16.1862],[94.5876,16.2889],[94.6379,16.309],[94.6654,16.336],[94.6792,16.4254],[94.7035,16.5122],[94.7167,16.4524],[94.7199,16.3989],[94.6765,16.2423],[94.6808,16.1333],[94.6517,16.065],[94.6616,15.9041],[94.7982,15.9708],[94.848,16.0327],[94.8601,16.1026],[94.8929,16.183],[94.8977,16.1407],[94.8824,16.0878],[94.8924,16.038],[94.8913,15.9793],[94.9427,15.8184],[95.0782,15.8391],[95.1771,15.8258],[95.2258,15.8766],[95.3332,16.0333],[95.347,16.0978],[95.365,15.9856],[95.3078,15.8803],[95.3014,15.756],[95.3486,15.7295],[95.3893,15.7227],[95.5083,15.8052],[97.8092,14.9448],[97.8124,14.859],[97.869,14.7389],[97.9367,14.7638],[98.0188,14.6527],[97.9293,14.6955],[97.9097,14.6527],[97.9764,14.4617],[97.9986,14.3352],[98.1002,14.1616],[98.0727,13.9865],[98.0981,13.8981],[98.1108,13.7129],[98.1494,13.6478],[98.2002,13.9801],[98.2389,13.9346],[98.2484,13.8404],[98.2452,13.7335],[98.4214,13.4838],[98.487,13.2932],[98.5759,13.162],[98.595,12.9858],[98.6373,12.8482],[98.6358,12.7704],[98.6633,12.6625],[98.6648,12.5397],[98.6247,12.4408],[98.6786,12.3487],[98.6193,12.3],[98.6003,12.2455],[98.6304,12.2254],[98.6961,12.2254],[98.6638,12.127],[98.6866,12.0471],[98.6897,11.9566],[98.6448,11.9105],[98.6389,11.8692],[98.6252,11.8015],[98.6363,11.7386],[98.6934,11.7185],[98.8045,11.7793],[98.84,11.7391],[98.876,11.7195],[98.7908,11.665],[98.7416,11.5914],[98.7464,11.5211],[98.7331,11.4353],[98.7299,11.33],[98.7448,11.2406],[98.6828,11.1332],[98.6755,10.9871],[98.5987,10.8644],[98.5357,10.7406],[98.5008,10.7189],[98.4648,10.676],[98.523,10.3532],[98.4971,10.1823],[98.5215,10.1071],[98.5627,10.0352],[98.658,10.1791],[98.7024,10.1902],[98.5617,9.8373],[98.4929,9.5616],[98.4431,9.4928],[98.3712,9.2906],[98.3262,8.9689],[98.242,8.7678],[98.2272,8.5435],[98.2383,8.4233],[98.3056,8.2265],[98.3135,8.2207],[98.323,8.1646],[98.3219,8.1661],[98.3013,8.136],[98.2621,7.9259],[98.296,7.7762],[98.3008,7.7777],[98.3013,7.7756],[95.4507,5.6267],[95.3962,5.6288],[95.2798,5.5928],[95.2353,5.569],[95.2279,5.5828]],[[98.3998,11.7147],[98.3966,11.6835],[98.4346,11.5671],[98.4648,11.5671],[98.5283,11.5385],[98.5537,11.7449],[98.5236,11.8047],[98.3765,11.7915],[98.3998,11.7147]],[[98.314,12.336],[98.3346,12.336],[98.3807,12.3535],[98.4596,12.4736],[98.468,12.5715],[98.4362,12.5704],[98.414,12.5979],[98.3966,12.6471],[98.3124,12.6783],[98.3024,12.6117],[98.3315,12.5117],[98.314,12.336]],[[93.8288,6.7485],[93.8902,6.8311],[93.9293,6.9734],[93.859,7.2068],[93.8225,7.2364],[93.6843,7.1835],[93.6562,7.1364],[93.6579,7.0163],[93.7091,7.0009],[93.8288,6.7485]],[[92.807,12.8789],[92.753,12.8207],[92.7398,12.7794],[92.7593,12.6694],[92.7318,12.6154],[92.7207,12.5413],[92.7191,12.3572],[92.734,12.336],[92.7779,12.3027],[92.7885,12.2259],[92.7694,12.2153],[92.6948,12.2148],[92.6763,12.1926],[92.6408,12.1122],[92.6318,12.0137],[92.6075,11.9497],[92.5667,11.9306],[92.5339,11.8735],[92.5599,11.8333],[92.5757,11.7185],[92.6683,11.5385],[92.7006,11.5126],[92.7228,11.5359],[92.7646,11.6391],[92.7668,11.7645],[92.7975,11.8745],[92.7969,11.9174],[92.7641,11.9402],[92.7477,11.9926],[92.7864,12.0349],[92.799,12.0793],[92.8673,12.1815],[92.8795,12.228],[92.8636,12.436],[92.9329,12.4529],[92.9901,12.5387],[92.9652,12.8503],[92.8864,12.9424],[92.9102,12.9752],[92.9515,13.0625],[93.0049,13.0895],[93.043,13.1546],[93.0663,13.2218],[93.0737,13.252],[93.016,13.3361],[93.0768,13.4007],[93.0668,13.4366],[93.0621,13.5457],[93.0292,13.5441],[92.9244,13.4859],[92.8573,13.3583],[92.8599,13.2308],[92.8091,13.0398],[92.8308,13.0027],[92.807,12.8789]],[[92.5101,10.8977],[92.4477,10.8654],[92.3709,10.7935],[92.3529,10.7511],[92.3773,10.6506],[92.3694,10.5474],[92.4725,10.5209],[92.5027,10.5548],[92.5741,10.704],[92.554,10.7998],[92.5101,10.8977]]]}}
