{"type":"Feature","properties":{"id":47,"name":"Yellow Sea","featurecla":"sea","scalerank":2,"wikidataid":"Q37960","source":"Natural Earth 5.2.0-pre ne_10m_geography_marine_polys (public domain)"},"geometry":{"type":"Polygon","coordinates":[[[126.5149,34.3075],[126.3604,33.4661],[126.3376,33.4603],[126.1995,33.3682],[126.1657,33.3122],[126.1789,33.2825],[126.1868,33.2735],[126.1799,33.2672],[121.8053,31.9792],[121.7814,31.958],[121.7507,31.9929],[121.6741,32.0511],[121.4904,32.121],[121.4508,32.1533],[121.4037,32.2062],[121.401,32.3718],[121.3418,32.4253],[121.2931,32.4576],[120.9899,32.5671],[120.8533,32.6613],[120.8528,32.7639],[120.8973,32.8433],[120.8713,33.0164],[120.7343,33.2365],[120.6157,33.4905],[120.5046,33.6381],[120.4999,33.7164],[120.4258,33.8662],[120.3226,34.1689],[120.2665,34.2742],[120.2014,34.3255],[119.9638,34.4477],[119.7696,34.4964],[119.5828,34.5822],[119.4266,34.7139],[119.3516,34.7494],[119.2008,34.7483],[119.1653,34.8489],[119.2155,35.0118],[119.3526,35.114],[119.4299,35.3013],[119.5267,35.3584],[119.6082,35.4701],[119.7199,35.5886],[119.8103,35.6177],[119.8665,35.6437],[119.9114,35.6934],[119.9787,35.74],[120.0273,35.7992],[120.0548,35.8611],[120.2188,35.9347],[120.285,35.9844],[120.2649,36.0072],[120.1813,36.0172],[120.094,36.1189],[120.1167,36.1501],[120.1834,36.2024],[120.2702,36.2263],[120.3279,36.2284],[120.3437,36.1892],[120.33,36.1098],[120.348,36.0792],[120.3929,36.0538],[120.5194,36.1088],[120.638,36.13],[120.6808,36.1686],[120.6824,36.3406],[120.7115,36.4131],[120.776,36.4565],[120.847,36.4263],[120.8956,36.4443],[120.9052,36.4856],[120.8824,36.539],[120.7967,36.6073],[120.811,36.6327],[120.8788,36.6353],[120.9899,36.5977],[121.0539,36.6115],[121.1439,36.6602],[121.4132,36.7385],[121.6699,36.8364],[121.9328,36.9597],[122.0498,36.9708],[122.1625,36.9586],[122.2032,36.9274],[122.2197,36.8798],[122.2424,36.8496],[122.2742,36.8337],[122.3408,36.8322],[122.4573,36.9152],[122.5197,36.947],[122.5234,37.0025],[122.4874,37.0221],[122.4467,37.0682],[122.5154,37.138],[122.5874,37.1809],[122.5731,37.318],[122.6668,37.4026],[122.6022,37.4264],[122.4932,37.4079],[122.3376,37.4053],[122.1694,37.4561],[122.1096,37.5222],[122.0567,37.5291],[122.0101,37.4957],[121.9651,37.4455],[121.8164,37.4566],[121.6402,37.4603],[121.5053,37.5148],[121.3883,37.5788],[121.2195,37.6],[121.0491,37.7254],[120.8788,37.7873],[120.8956,37.8344],[121.1597,38.7155],[121.1634,38.7319],[121.2073,38.7435],[121.2365,38.7668],[121.3201,38.8081],[121.5169,38.8308],[121.6497,38.8652],[121.6704,38.8917],[121.6328,38.9547],[121.6773,39.0033],[121.745,39.0097],[121.8053,38.9912],[121.8646,38.9965],[121.9227,39.0367],[121.9826,39.0531],[122.0477,39.0938],[122.1207,39.152],[122.2249,39.2674],[122.335,39.3664],[122.8398,39.6008],[122.961,39.6198],[123.0325,39.6738],[123.2267,39.6865],[123.269,39.7267],[123.3484,39.7627],[123.4902,39.768],[123.5806,39.786],[123.6113,39.841],[123.651,39.8818],[123.7601,39.8225],[124.1055,39.841],[124.2675,39.9241],[124.3501,40.0114],[124.3749,39.9961],[124.3485,39.9066],[124.4041,39.8653],[124.5575,39.7908],[124.6078,39.7172],[124.6385,39.615],[124.6993,39.6325],[124.7321,39.6521],[124.739,39.7415],[124.775,39.7579],[124.8681,39.7018],[125.0999,39.5902],[125.1803,39.5833],[125.3608,39.5267],[125.3735,39.4277],[125.4132,39.3261],[125.4095,39.2886],[125.1576,38.8716],[125.1687,38.8054],[125.2988,38.743],[125.4243,38.7467],[125.4889,38.7276],[125.5544,38.6864],[125.492,38.6763],[125.4152,38.6806],[125.3094,38.6652],[125.0671,38.5567],[124.974,38.48],[124.8808,38.3419],[124.883,38.2948],[124.8745,38.2334],[124.6909,38.1291],[124.7798,38.1016],[124.9073,38.1128],[124.9951,38.0778],[125.1629,38.0937],[125.2068,38.0815],[125.2465,38.0567],[125.193,38.0376],[124.9888,37.9313],[125.0269,37.9228],[125.102,37.882],[125.3105,37.8434],[125.365,37.7482],[125.3576,37.7249],[125.4068,37.719],[125.4492,37.7302],[125.5815,37.8148],[125.6762,37.9175],[125.6952,37.9625],[125.7693,37.9852],[125.9418,37.8736],[126.0502,37.8699],[126.1164,37.7429],[126.1609,37.7635],[126.2032,37.8286],[126.3699,37.8783],[126.5726,37.7968],[126.6233,37.7899],[126.634,37.782],[126.6207,37.7556],[126.5779,37.745],[126.5636,37.7164],[126.58,37.654],[126.6075,37.6174],[126.6567,37.5513],[126.6503,37.4471],[126.6964,37.4106],[126.7906,37.2946],[126.7467,37.1936],[126.7763,37.1581],[126.7874,37.1026],[126.8689,36.9756],[126.9599,36.9576],[126.9769,36.9396],[126.9578,36.9062],[126.879,36.8618],[126.8721,36.8242],[126.8387,36.8459],[126.7842,36.9486],[126.6869,36.9602],[126.5779,37.0195],[126.4868,37.0073],[126.4286,36.9692],[126.3514,36.9581],[126.217,36.8708],[126.1603,36.7718],[126.181,36.6914],[126.2307,36.6893],[126.389,36.6512],[126.4329,36.6782],[126.4879,36.6941],[126.5064,36.5856],[126.5482,36.4776],[126.5519,36.4295],[126.5439,36.3411],[126.5572,36.2358],[126.5403,36.166],[126.5969,36.1051],[126.6821,36.0379],[126.6937,36.0141],[126.6636,35.9744],[126.6477,35.9225],[126.7197,35.8977],[126.753,35.8717],[126.7176,35.7691],[126.6017,35.714],[126.5419,35.6696],[126.4884,35.6468],[126.4863,35.6061],[126.5652,35.5897],[126.6144,35.5712],[126.5821,35.5347],[126.4927,35.5013],[126.4603,35.4558],[126.3958,35.3145],[126.3604,35.2166],[126.291,35.1542],[126.3276,35.0452],[126.3979,34.933],[126.4206,34.8235],[126.4784,34.8102],[126.5477,34.8367],[126.5932,34.8245],[126.5387,34.7785],[126.4731,34.7563],[126.5048,34.7377],[126.5244,34.698],[126.4254,34.6943],[126.3011,34.7197],[126.2646,34.6732],[126.3323,34.5896],[126.4816,34.4938],[126.5064,34.4282],[126.5085,34.3504],[126.5297,34.317],[126.5149,34.3075]],[[126.2477,34.5631],[126.227,34.5329],[126.1228,34.444],[126.1085,34.3985],[126.1339,34.3895],[126.1699,34.3551],[126.2339,34.3705],[126.3355,34.4266],[126.38,34.498],[126.3439,34.5451],[126.2477,34.5631]]]}}
