{"type":"Feature","properties":{"id":48,"name":"East China Sea","featurecla":"sea","scalerank":2,"wikidataid":"Q45341","source":"Natural Earth 5.2.0-pre ne_10m_geography_marine_polys (public domain)"},"geometry":{"type":"Polygon","coordinates":[[[127.0086,25.2768],[125.3153,24.1126],[123.9749,23.6538],[123.0928,23.9359],[122.1757,24.7476],[121.9641,24.9942],[121.9265,24.9836],[121.9053,25.0566],[121.853,25.1043],[121.7333,25.154],[121.6873,25.1815],[121.6428,25.2323],[121.5936,25.2752],[121.5169,25.2768],[121.4497,25.2492],[121.3656,25.1593],[121.0952,25.0651],[121.0851,25.0593],[121.0819,25.0651],[119.2637,25.2709],[119.2436,25.3069],[119.1696,25.3556],[119.1462,25.4143],[119.1801,25.4498],[119.2632,25.4678],[119.3437,25.4461],[119.4219,25.4598],[119.4992,25.4085],[119.5929,25.3678],[119.6225,25.3911],[119.6193,25.4376],[119.5394,25.5911],[119.5526,25.6985],[119.6167,25.8229],[119.6484,25.9186],[119.6188,26.0038],[119.5008,26.0091],[119.4177,25.9541],[119.332,25.9488],[119.2637,25.9747],[119.1394,26.1218],[119.232,26.1044],[119.313,26.0626],[119.3695,26.0541],[119.4632,26.0546],[119.5669,26.1271],[119.6929,26.2367],[119.7971,26.3002],[119.8812,26.334],[119.8764,26.3711],[119.8405,26.4139],[119.831,26.4505],[119.785,26.5468],[119.7262,26.6092],[119.6383,26.6214],[119.6235,26.6759],[119.5897,26.7304],[119.5881,26.7849],[119.6516,26.7473],[119.7103,26.7288],[119.7664,26.7748],[119.7886,26.8314],[119.8241,26.8463],[119.8151,26.7976],[119.8215,26.7367],[119.8421,26.6891],[119.8797,26.6828],[119.8823,26.6103],[119.9681,26.5864],[120.0431,26.6341],[120.0866,26.6716],[120.0971,26.7806],[120.1384,26.886],[120.2787,27.0971],[120.3845,27.1553],[120.4686,27.2564],[120.5401,27.3183],[120.6078,27.4125],[120.6289,27.4823],[120.5877,27.5807],[120.665,27.6395],[120.6612,27.6876],[120.6851,27.7448],[120.8327,27.8914],[120.8327,27.9379],[120.7634,27.9776],[120.7475,28.0099],[120.8131,28.0136],[120.8925,28.0041],[120.9586,28.0369],[121.0354,28.157],[121.0983,28.2904],[121.146,28.3269],[121.2169,28.3459],[121.2724,28.2221],[121.3545,28.23],[121.51,28.3242],[121.61,28.2919],[121.6021,28.3666],[121.5381,28.5211],[121.4751,28.6412],[121.519,28.7137],[121.5905,28.7349],[121.6302,28.7677],[121.6624,28.8513],[121.5402,28.9317],[121.6407,28.9158],[121.6794,28.9529],[121.6651,29.0106],[121.5206,29.1185],[121.4476,29.1312],[121.4873,29.1931],[121.5339,29.2365],[121.6561,29.236],[121.7175,29.2566],[121.791,29.2259],[121.8535,29.1291],[121.9175,29.1349],[121.9683,29.4905],[121.9413,29.6059],[121.8878,29.6276],[121.8217,29.6048],[121.6905,29.5111],[121.5063,29.4847],[121.5746,29.5371],[121.6767,29.5836],[121.9059,29.78],[122.0831,29.8705],[122.0175,29.8879],[122.0027,29.889],[122.0149,30.0228],[122.0238,30.0133],[122.1577,30.0012],[122.2816,29.944],[122.2958,29.9636],[122.3223,30.0313],[122.2841,30.0678],[122.1106,30.1398],[121.999,30.1425],[121.863,30.9108],[121.8778,30.9171],[121.8689,30.9467],[121.9494,31.4564],[121.8708,31.6921],[121.855,31.703],[121.8662,31.7035],[121.8561,31.8162],[121.8323,31.8998],[121.7814,31.958],[121.8053,31.9792],[126.1799,33.2672],[126.1868,33.2735],[126.2291,33.2254],[126.2402,33.2148],[126.282,33.2016],[126.327,33.2238],[126.5816,33.2381],[126.5964,33.2418],[127.0795,32.9317],[127.8203,32.6851],[128.4199,32.5084],[128.6972,32.4496],[129.0194,32.5084],[129.6571,32.9952],[129.6624,32.9952],[129.6677,32.9296],[129.6899,32.875],[129.7856,32.7814],[129.8269,32.7253],[129.8079,32.6454],[129.7688,32.5708],[129.8524,32.6216],[129.9508,32.7216],[130.054,32.7708],[130.1519,32.7481],[130.1931,32.7062],[130.2455,32.6772],[130.2979,32.675],[130.3402,32.702],[130.3609,32.756],[130.3535,32.8105],[130.3265,32.8528],[130.2799,32.8666],[130.2222,32.847],[130.1751,32.8513],[130.1677,32.9317],[130.173,33.0132],[130.127,33.1047],[130.1767,33.1444],[130.2376,33.1777],[130.2873,33.155],[130.3815,33.0926],[130.4402,32.9513],[130.5471,32.8317],[130.5694,32.7343],[130.4979,32.657],[130.563,32.6264],[130.6403,32.6195],[130.5604,32.456],[130.4619,32.3052],[130.3948,32.2189],[130.3191,32.1437],[130.2143,32.1152],[130.1947,32.0908],[130.1958,31.9501],[130.2111,31.849],[130.1878,31.7691],[130.2243,31.73],[130.2688,31.6961],[130.3223,31.6014],[130.3064,31.4876],[130.2942,31.4505],[130.2609,31.4368],[130.1471,31.4087],[130.2006,31.2918],[130.2508,31.2733],[130.3106,31.2669],[130.589,31.1786],[130.6218,31.2177],[130.6445,31.2674],[130.5656,31.3527],[130.5403,31.4029],[130.5281,31.4595],[130.5561,31.5633],[130.6133,31.6654],[130.6551,31.7183],[130.7144,31.7178],[130.7763,31.7061],[130.7969,31.6712],[130.7964,31.6241],[130.78,31.604],[130.7493,31.5982],[130.7043,31.5776],[130.7091,31.5262],[130.7742,31.3833],[130.79,31.269],[130.7583,31.1558],[130.7355,31.1219],[130.7043,31.0939],[130.6842,31.0595],[130.6858,31.015],[130.6995,31.0214],[130.7128,30.9918],[130.6069,30.6034],[130.8541,30.2155],[130.6778,29.7921],[129.5841,28.5576],[129.4475,28.3909],[129.3226,28.3597],[129.2506,28.3136],[129.2481,28.2824],[129.2168,28.2628],[129.1644,28.2496],[129.275,28.2009],[129.2856,28.1925],[129.2639,28.166],[129.2576,28.1761],[129.1925,28.1925],[129.2248,28.1184],[128.9845,27.8247],[128.9516,27.9104],[128.9077,27.8982],[128.8829,27.8427],[128.8999,27.7279],[128.9062,27.7252],[128.4903,27.1818],[128.258,26.8785],[128.2548,26.8817],[128.2469,26.8643],[128.1479,26.7351],[128.1215,26.7113],[128.1007,26.6732],[128.0955,26.6669],[128.0468,26.6431],[128.0294,26.6468],[127.9944,26.6796],[127.9071,26.6933],[127.895,26.6748],[127.8907,26.6309],[127.9458,26.5939],[127.9262,26.5557],[127.8203,26.4663],[127.796,26.4483],[127.7288,26.434],[127.7272,26.3081],[127.6547,26.1991],[127.65,26.1546],[127.6531,26.0948],[127.6563,26.0948],[127.0086,25.2768]],[[130.508,30.2414],[130.6228,30.2631],[130.6731,30.3668],[130.6434,30.389],[130.4974,30.4658],[130.3879,30.388],[130.4456,30.2647],[130.508,30.2414]],[[130.0037,32.194],[130.0825,32.2295],[130.1995,32.3406],[130.1968,32.4914],[130.1677,32.5412],[130.0095,32.5216],[130.0211,32.4687],[129.9793,32.3464],[130.0154,32.3136],[130.0175,32.2919],[129.9603,32.2438],[129.9931,32.2284],[130.0037,32.194]]]}}
