{"type":"Feature","properties":{"id":49,"name":"Chukchi Sea","featurecla":"sea","scalerank":2,"wikidataid":"Q159252","source":"Natural Earth 5.2.0-pre ne_10m_geography_marine_polys (public domain)"},"geometry":{"type":"MultiPolygon","coordinates":[[[[178.7923,70.8221],[178.8617,70.8264],[179.1527,70.8804],[179.6475,70.8989],[179.8814,70.9756],[179.9999,70.993],[179.9999,68.9833],[179.8681,69.0129],[179.2728,69.2595],[178.9506,69.296],[178.9251,69.3262],[178.9071,69.3621],[178.8484,69.387],[178.4425,69.4532],[177.9335,69.4955],[177.3943,69.6114],[176.9243,69.6458],[176.4106,69.7686],[176.1073,69.8601],[175.9216,69.8956],[175.7512,69.904],[175.6226,69.8919],[175.6216,69.903],[178.6494,70.9994],[178.7923,70.8221]]],[[[-156.4702,71.4085],[-156.4702,71.4079],[-156.7835,71.319],[-156.9734,71.2301],[-157.1952,71.0931],[-157.3248,71.0396],[-157.6058,70.9412],[-157.9096,70.8602],[-157.9984,70.8454],[-158.4842,70.8412],[-158.5107,70.82],[-158.6208,70.7989],[-158.9965,70.8015],[-159.0753,70.7719],[-159.251,70.7486],[-159.3039,70.7523],[-159.3399,70.7814],[-159.2621,70.8137],[-159.1832,70.8322],[-159.1917,70.8597],[-159.2319,70.8766],[-159.3145,70.8787],[-159.6807,70.7867],[-160.0818,70.6348],[-159.9617,70.6343],[-159.7463,70.5306],[-159.387,70.5247],[-159.6833,70.4771],[-159.8151,70.4972],[-159.8426,70.4528],[-159.8574,70.3893],[-159.8553,70.3242],[-159.8659,70.2787],[-159.9077,70.3316],[-160.095,70.3332],[-160.0056,70.4475],[-160.1067,70.4723],[-159.9632,70.5681],[-160.0458,70.5856],[-160.1172,70.5914],[-160.6342,70.4464],[-160.6474,70.4205],[-160.9962,70.3046],[-161.6391,70.2348],[-161.7682,70.1966],[-161.9974,70.1654],[-162.0741,70.1617],[-162.0423,70.1765],[-161.9122,70.2057],[-161.8185,70.2485],[-161.7608,70.2575],[-161.7799,70.2776],[-161.8127,70.2898],[-161.8809,70.3316],[-161.9778,70.2877],[-162.0709,70.2273],[-162.3503,70.094],[-162.952,69.758],[-163.0938,69.6109],[-163.1308,69.4542],[-163.1615,69.3881],[-163.1869,69.3807],[-163.2054,69.3923],[-163.2504,69.3452],[-163.5356,69.1701],[-163.868,69.0367],[-164.15,68.9611],[-164.3024,68.9367],[-164.8898,68.9023],[-165.0438,68.8822],[-165.5094,68.8674],[-166.209,68.8854],[-166.182,68.797],[-166.2831,68.5732],[-166.3804,68.425],[-166.4471,68.3901],[-166.5704,68.361],[-166.6477,68.3737],[-166.5461,68.4245],[-166.644,68.4081],[-166.7863,68.3594],[-166.5747,68.3202],[-166.409,68.3081],[-166.236,68.2779],[-165.9598,68.1557],[-165.3862,68.0456],[-164.1251,67.6069],[-163.9426,67.4778],[-163.7997,67.2709],[-163.7574,67.2307],[-163.7621,67.2259],[-164.0807,66.61],[-164.4606,66.5883],[-164.6739,66.5549],[-165.0639,66.438],[-165.1983,66.4401],[-165.4496,66.41],[-165.7761,66.3189],[-165.8121,66.2882],[-165.8402,66.2448],[-165.5602,66.167],[-165.5899,66.1454],[-165.6301,66.1311],[-165.7238,66.1126],[-166.009,66.1215],[-166.0577,66.1274],[-166.2148,66.1702],[-166.399,66.1443],[-166.5402,66.1009],[-166.7477,66.0517],[-166.8943,65.9591],[-166.9974,65.9051],[-167.0742,65.8771],[-167.4017,65.8591],[-167.4054,65.8591],[-167.5801,65.7585],[-167.9145,65.6813],[-167.9272,65.7141],[-167.9304,65.748],[-168.0097,65.7194],[-168.0838,65.6617],[-169.7333,66.0559],[-169.729,66.058],[-169.7777,66.1433],[-169.8888,66.1634],[-170.2439,66.1692],[-170.192,66.2014],[-170.2116,66.2364],[-170.2471,66.2718],[-170.301,66.294],[-170.3614,66.2978],[-170.4831,66.2782],[-170.6043,66.2491],[-170.5429,66.2909],[-170.473,66.32],[-170.5095,66.3438],[-170.5556,66.357],[-170.9265,66.5295],[-171.1493,66.5925],[-171.3604,66.6766],[-171.5694,66.8185],[-171.7954,66.9317],[-172.0314,66.9735],[-172.2738,66.9656],[-172.4473,66.9915],[-172.6209,67.0269],[-173.0077,67.0651],[-173.0019,67.0338],[-172.5828,66.9777],[-172.5204,66.9523],[-172.5495,66.9306],[-172.6405,66.9248],[-172.9627,66.9423],[-173.0585,66.956],[-173.1469,66.9989],[-173.1929,66.9936],[-173.2284,66.9687],[-173.2162,66.9111],[-173.1755,66.8645],[-173.2591,66.8402],[-173.3474,66.8513],[-173.3432,66.9095],[-173.3237,66.955],[-173.2241,67.0349],[-173.1675,67.0523],[-173.158,67.0693],[-173.494,67.1053],[-173.5866,67.1328],[-173.6798,67.1449],[-173.884,67.1063],[-174.4476,67.1031],[-174.5502,67.0904],[-174.5545,67.0629],[-174.519,67.0492],[-174.4307,67.0375],[-174.3418,67.0396],[-174.2835,67.0015],[-174.1544,66.982],[-174.0862,66.9428],[-174.0412,66.8756],[-174.019,66.8274],[-174.0057,66.7788],[-174.0608,66.6899],[-174.1396,66.6528],[-174.2317,66.6317],[-174.1962,66.5809],[-174.1021,66.5406],[-173.9211,66.5216],[-173.8427,66.4883],[-173.774,66.4348],[-173.8322,66.366],[-173.8999,66.3104],[-173.9555,66.2867],[-173.9946,66.2459],[-174.0253,66.2295],[-174.065,66.2295],[-174.0179,66.3824],[-174.0846,66.4729],[-174.2058,66.4523],[-174.2571,66.4285],[-174.3661,66.3486],[-174.3942,66.3443],[-174.4185,66.3718],[-174.4539,66.4301],[-174.4777,66.492],[-174.5037,66.538],[-174.6127,66.5856],[-174.6746,66.6036],[-174.864,66.6131],[-174.9249,66.6232],[-174.8699,66.7248],[-174.7714,66.7846],[-174.7836,66.9169],[-174.8286,66.9613],[-174.8852,67.0005],[-174.9381,67.0931],[-174.9302,67.2037],[-174.8699,67.2682],[-174.8498,67.3487],[-174.918,67.4074],[-175.0027,67.4376],[-175.0657,67.4133],[-175.1228,67.3767],[-175.1551,67.3656],[-175.3747,67.3571],[-175.2323,67.4466],[-175.2398,67.5212],[-175.2657,67.5667],[-175.3096,67.6022],[-175.3451,67.6784],[-176.9072,68.1192],[-177.1717,68.1747],[-177.2972,68.2223],[-177.4077,68.2451],[-177.521,68.2366],[-177.5893,68.2244],[-177.6395,68.2414],[-177.5935,68.2811],[-177.5274,68.2943],[-177.6834,68.3625],[-178.2497,68.5414],[-178.373,68.5658],[-178.2846,68.5187],[-177.8618,68.3784],[-177.7967,68.3382],[-177.9226,68.2864],[-178.056,68.2647],[-178.0189,68.3229],[-178.0486,68.3885],[-178.0973,68.425],[-178.2444,68.4668],[-178.474,68.5017],[-178.6926,68.5462],[-178.7365,68.5933],[-178.7513,68.6605],[-178.6137,68.6033],[-178.5386,68.5859],[-178.6894,68.6753],[-178.8741,68.7542],[-179.2794,68.8251],[-179.3562,68.8531],[-179.471,68.9124],[-179.5144,68.9171],[-179.5953,68.9065],[-179.7985,68.9404],[-180.0,68.9833],[-180.0,70.993],[-179.734,70.9719],[-179.5069,70.9232],[-179.4159,70.919],[-179.1567,70.9396],[-178.528,71.0147],[-178.0628,71.0417],[-177.8216,71.0677],[-177.5236,71.1666],[-177.5035,71.2084],[-156.4702,71.4085]]]]}}
