{"type":"Feature","properties":{"id":50,"name":"Bahía de Campeche","featurecla":"bay","scalerank":2,"wikidataid":"Q61304","source":"Natural Earth 5.2.0-pre ne_10m_geography_marine_polys (public domain)"},"geometry":{"type":"Polygon","coordinates":[[[-90.353,21.0095],[-90.435,20.7577],[-90.4582,20.7137],[-90.4842,20.5566],[-90.4784,20.3798],[-90.4863,20.2243],[-90.4826,20.0258],[-90.4916,19.947],[-90.507,19.9121],[-90.6504,19.7962],[-90.6932,19.73],[-90.7392,19.3522],[-90.9551,19.1516],[-91.0589,19.0982],[-91.1361,19.0373],[-91.4367,18.8897],[-91.4578,18.8648],[-91.469,18.8331],[-91.4457,18.8326],[-91.343,18.9008],[-91.334,18.877],[-91.3679,18.8061],[-91.3563,18.7765],[-91.3081,18.7733],[-91.279,18.7209],[-91.2753,18.6246],[-91.4404,18.542],[-91.534,18.4563],[-91.5997,18.4473],[-91.8029,18.4706],[-91.9135,18.5283],[-91.9426,18.5632],[-91.8807,18.5997],[-91.8801,18.6378],[-91.9738,18.7161],[-92.1034,18.7045],[-92.213,18.6849],[-92.441,18.6754],[-92.7099,18.6119],[-92.7289,18.5743],[-92.7691,18.5241],[-92.885,18.4685],[-93.1274,18.4235],[-93.2279,18.4436],[-93.5523,18.4304],[-93.7645,18.3579],[-93.873,18.3045],[-94.1889,18.1955],[-94.3921,18.1658],[-94.4598,18.1669],[-94.5461,18.1748],[-94.6815,18.3484],[-94.798,18.5145],[-95.0149,18.5706],[-95.1816,18.7008],[-95.5616,18.7193],[-95.697,18.7749],[-95.7198,18.7685],[-95.6547,18.7236],[-95.5785,18.6902],[-95.6266,18.6907],[-95.8208,18.7548],[-95.9203,18.8193],[-95.9282,18.85],[-95.8102,18.804],[-95.778,18.8056],[-95.9129,18.8971],[-95.9849,19.0537],[-96.0733,19.1056],[-96.124,19.1993],[-96.2897,19.3437],[-96.3156,19.4729],[-96.3685,19.567],[-96.4558,19.8697],[-96.7088,20.1883],[-97.1215,20.6148],[-97.1861,20.7169],[-97.1951,20.8],[-90.353,21.0095]]]}}
