{"type":"Feature","properties":{"id":51,"name":"Arafura Sea","featurecla":"sea","scalerank":2,"wikidataid":"Q128880","source":"Natural Earth 5.2.0-pre ne_10m_geography_marine_polys (public domain)"},"geometry":{"type":"Polygon","coordinates":[[[131.7658,-7.1315],[131.7775,-7.1437],[131.8229,-7.159],[131.8843,-7.1675],[131.9267,-7.2252],[131.9695,-7.2516],[131.9823,-7.2019],[131.9225,-7.1045],[131.7976,-7.1135],[131.8066,-7.1082],[132.8294,-5.9795],[132.8987,-5.8462],[132.8448,-5.988],[132.9263,-5.9023],[132.9712,-5.7356],[133.1194,-5.5758],[133.1729,-5.3483],[133.1581,-5.3355],[133.5194,-4.2635],[133.503,-4.2576],[133.3332,-4.1698],[133.321,-4.1111],[133.4644,-4.1999],[133.5311,-4.2285],[133.5353,-4.2158],[133.4089,-3.774],[133.4152,-3.7322],[133.5094,-3.6157],[133.5422,-3.5163],[133.5184,-3.412],[133.5994,-3.4162],[133.6534,-3.3644],[133.6608,-3.1855],[133.6719,-3.1321],[133.7004,-3.0876],[133.7671,-3.0443],[133.8417,-3.0549],[133.7814,-3.149],[133.6973,-3.248],[133.6834,-3.3094],[133.6782,-3.4792],[133.7231,-3.5782],[133.8084,-3.6502],[133.8608,-3.6803],[133.9042,-3.72],[133.9333,-3.7755],[133.974,-3.8179],[134.037,-3.8221],[134.1,-3.7999],[134.1471,-3.7967],[134.1804,-3.8253],[134.2026,-3.8872],[134.2662,-3.946],[134.391,-3.9099],[134.4672,-3.9486],[134.5471,-3.9793],[134.6032,-3.9761],[134.7075,-3.93],[134.7598,-3.9221],[134.8863,-3.9385],[134.7064,-3.955],[134.6868,-4.011],[134.6794,-4.0793],[134.754,-4.1952],[135.1953,-4.4508],[135.2731,-4.4534],[135.3541,-4.4418],[135.4504,-4.4428],[135.7166,-4.4783],[135.9796,-4.5307],[136.0976,-4.5846],[136.2108,-4.6508],[136.3939,-4.7011],[136.6188,-4.8185],[136.8569,-4.8931],[136.9167,-4.8953],[136.9744,-4.9075],[137.03,-4.9286],[137.0892,-4.9243],[137.1438,-4.9508],[137.1961,-4.9905],[137.2379,-4.9757],[137.2797,-4.9455],[137.3067,-5.0143],[137.7592,-5.2562],[137.7951,-5.3117],[137.8401,-5.3504],[137.8867,-5.3488],[137.9222,-5.37],[137.9851,-5.4276],[138.0608,-5.4652],[138.0755,-5.5456],[138.0629,-5.6287],[138.0661,-5.6758],[138.0873,-5.7091],[138.1275,-5.7165],[138.1666,-5.7123],[138.2523,-5.688],[138.3396,-5.6758],[138.2433,-5.7245],[138.1994,-5.807],[138.2825,-5.8388],[138.3745,-5.8435],[138.3137,-5.8874],[138.2962,-5.9488],[138.3682,-6.1187],[138.4386,-6.3436],[138.5217,-6.4537],[138.6423,-6.5606],[138.6979,-6.6256],[138.7264,-6.731],[138.8085,-6.7902],[138.8646,-6.8585],[138.6836,-6.8865],[138.6,-6.9108],[138.6016,-6.9363],[138.7201,-7.0696],[138.8455,-7.1363],[139.0492,-7.2003],[139.1128,-7.2019],[139.1768,-7.1903],[139.0624,-7.2273],[139.0181,-7.2257],[138.9191,-7.2035],[138.8646,-7.2014],[138.7984,-7.2157],[138.7482,-7.2516],[138.7937,-7.2987],[138.853,-7.3395],[138.8858,-7.3733],[138.9381,-7.4723],[138.9831,-7.5083],[139.0488,-7.5284],[139.0879,-7.5871],[139.0736,-7.6395],[139.0455,-7.6914],[139.0032,-7.8375],[138.936,-7.9131],[138.9054,-8.0412],[138.8852,-8.0946],[138.8561,-8.1449],[138.8646,-8.1925],[138.8905,-8.238],[138.9334,-8.2623],[139.0831,-8.1428],[139.1932,-8.0861],[139.2487,-7.9824],[139.2583,-8.0464],[139.2789,-8.1068],[139.3191,-8.1661],[139.3858,-8.1893],[139.5186,-8.1729],[139.6493,-8.1253],[139.7906,-8.1063],[139.9345,-8.101],[140.0334,-8.0227],[140.1171,-7.9237],[140.0372,-8.084],[139.9927,-8.1396],[139.9832,-8.1666],[140.0028,-8.1957],[140.1018,-8.3005],[140.4896,-8.6206],[140.5812,-8.7286],[140.6616,-8.8465],[140.7865,-8.9736],[140.9246,-9.0852],[141.1331,-9.2212],[141.185,-9.217],[141.1871,-9.2434],[142.156,-10.9489],[142.1676,-10.95],[142.1391,-11.2733],[142.0407,-11.6315],[141.9517,-11.8961],[141.9676,-11.9761],[141.9613,-12.0544],[141.9131,-12.0194],[141.8708,-11.9755],[141.8057,-12.0803],[141.7427,-12.2263],[136.8548,-12.2263],[136.8362,-12.2189],[136.7193,-12.2263],[136.6098,-12.1337],[136.5405,-11.9575],[136.4431,-11.9517],[136.2701,-12.1316],[136.2499,-12.1729],[136.2918,-12.1962],[136.3288,-12.3057],[136.2606,-12.4338],[136.1928,-12.4354],[136.0817,-12.4227],[136.0314,-12.3311],[136.0087,-12.1914],[135.9378,-12.1523],[135.8573,-12.1787],[135.7907,-12.2274],[135.7441,-12.2417],[135.7044,-12.21],[135.7022,-12.1517],[135.8044,-12.0549],[135.8896,-11.993],[135.896,-11.9697],[135.8341,-11.9506],[135.8436,-11.9057],[135.9224,-11.8258],[135.8854,-11.8216],[135.7885,-11.9072],[135.6853,-11.956],[135.5488,-12.0607],[135.3525,-12.129],[135.218,-12.2216],[135.0297,-12.1935],[134.8545,-12.1025],[134.8165,-12.0549],[134.7302,-11.9845],[134.5381,-12.0607],[134.4175,-12.0528],[134.3513,-12.0258],[134.237,-12.0078],[134.1396,-11.94],[133.9042,-11.8321],[133.6544,-11.8115],[133.5332,-11.8162],[133.4433,-11.7602],[133.356,-11.7284],[133.185,-11.7056],[133.1141,-11.6215],[133.0247,-11.4527],[132.9612,-11.4072],[132.8569,-11.3913],[132.7469,-11.4691],[132.6828,-11.5056],[132.5575,-11.367],[132.3341,-11.2236],[132.2627,-11.204],[132.2251,-11.2389],[132.1976,-11.305],[132.1553,-11.3109],[132.1056,-11.2813],[132.0187,-11.1966],[131.9616,-11.1807],[131.8605,-11.2421],[131.8314,-11.1939],[130.7794,-8.3565],[130.7747,-8.356],[130.7752,-8.3497],[130.862,-8.319],[130.908,-8.246],[131.0435,-8.2121],[131.1763,-8.1306],[131.0874,-8.1248],[131.0472,-8.1047],[131.1446,-7.9972],[131.1848,-7.9978],[131.3091,-8.011],[131.3256,-7.9994],[131.3435,-7.9814],[131.3478,-7.948],[131.3769,-7.8692],[131.4737,-7.7766],[131.4986,-7.7305],[131.58,-7.6824],[131.6245,-7.6263],[131.6912,-7.439],[131.6441,-7.267],[131.7362,-7.1971],[131.714,-7.1617],[131.7658,-7.1315]],[[137.8718,-8.3798],[137.9829,-8.382],[138.2962,-8.4052],[138.5355,-8.2734],[138.6116,-8.1983],[138.7857,-8.0591],[138.8932,-7.8824],[138.989,-7.6962],[138.9625,-7.5882],[138.8995,-7.5115],[138.8021,-7.4146],[138.7699,-7.3903],[138.5439,-7.3797],[138.2952,-7.4385],[138.1851,-7.495],[138.0819,-7.5665],[138.0073,-7.6417],[137.8327,-7.9322],[137.6851,-8.2623],[137.6501,-8.3862],[137.6877,-8.4116],[137.8718,-8.3798]],[[138.8455,-8.4015],[138.8953,-8.3888],[138.8974,-8.3375],[138.7963,-8.1735],[138.763,-8.1735],[138.6767,-8.1994],[138.6212,-8.2687],[138.5635,-8.3089],[138.5672,-8.3301],[138.5942,-8.3714],[138.8455,-8.4015]],[[134.6376,-6.3653],[134.6614,-6.3372],[134.6842,-6.3282],[134.7143,-6.2949],[134.7445,-6.2023],[134.7556,-6.1706],[134.7583,-6.1002],[134.7519,-6.0499],[134.7122,-5.9499],[134.755,-5.8827],[134.7382,-5.8165],[134.7392,-5.7456],[134.7472,-5.707],[134.7006,-5.6028],[134.6456,-5.5811],[134.6577,-5.5392],[134.6461,-5.4922],[134.6164,-5.4387],[134.5709,-5.4271],[134.5063,-5.4387],[134.4904,-5.525],[134.4561,-5.5578],[134.3413,-5.7128],[134.247,-5.6821],[134.2053,-5.707],[134.2258,-5.7446],[134.3428,-5.833],[134.2984,-5.9705],[134.3021,-6.0097],[134.2254,-6.0086],[134.1529,-6.0197],[134.155,-6.0631],[134.1756,-6.0901],[134.2645,-6.1716],[134.2804,-6.2007],[134.3561,-6.2706],[134.4413,-6.3346],[134.6376,-6.3653]],[[134.4127,-6.6796],[134.5043,-6.5912],[134.5207,-6.5129],[134.537,-6.4426],[134.4148,-6.387],[134.318,-6.3161],[134.2344,-6.2266],[134.1682,-6.1764],[134.1147,-6.1907],[134.111,-6.2552],[134.1243,-6.4267],[134.1947,-6.46],[134.1847,-6.4796],[134.1544,-6.4812],[134.1068,-6.4716],[134.0592,-6.7696],[134.091,-6.8336],[134.2,-6.9087],[134.3227,-6.8489],[134.3561,-6.8151],[134.4127,-6.6796]]]}}
