{"type":"Feature","properties":{"id":52,"name":"Timor Sea","featurecla":"sea","scalerank":2,"wikidataid":"Q131418","source":"Natural Earth 5.2.0-pre ne_10m_geography_marine_polys (public domain)"},"geometry":{"type":"Polygon","coordinates":[[[122.9166,-10.9182],[122.9033,-10.9093],[122.9489,-10.9093],[123.0054,-10.8764],[123.215,-10.8061],[123.3108,-10.6986],[123.4182,-10.6515],[123.4129,-10.6225],[123.3843,-10.569],[123.6685,-10.3192],[123.7473,-10.3473],[123.8574,-10.3436],[123.9712,-10.2949],[124.176,-10.1833],[124.3268,-10.17],[124.4273,-10.1488],[124.5083,-10.0864],[124.6019,-9.9927],[124.7083,-9.9139],[124.8417,-9.7599],[124.9628,-9.6657],[124.9978,-9.5652],[125.2105,-9.4038],[125.4079,-9.2757],[125.7354,-9.1609],[125.8402,-9.1302],[125.8947,-9.1323],[125.946,-9.1238],[126.0731,-9.0434],[126.1641,-8.9968],[126.2646,-8.9725],[126.3826,-8.9577],[126.4868,-8.9127],[126.5683,-8.8328],[126.6657,-8.782],[126.7927,-8.755],[126.9149,-8.7153],[127.1144,-8.5836],[127.2959,-8.4248],[127.2573,-8.3946],[127.2494,-8.3904],[127.2557,-8.3782],[127.7849,-8.1666],[127.8114,-8.1713],[127.8209,-8.1904],[128.0235,-8.2555],[128.0659,-8.2179],[128.1728,-8.2375],[128.9845,-8.2375],[130.7747,-8.356],[130.7794,-8.3565],[131.8314,-11.1939],[131.8605,-11.2421],[131.8118,-11.2712],[131.8224,-11.3024],[131.9447,-11.3485],[132.0727,-11.4749],[132.1336,-11.5008],[132.2781,-11.4675],[132.4754,-11.4913],[132.6744,-11.649],[132.6448,-11.7273],[132.6299,-11.8358],[132.6352,-11.9549],[132.6305,-12.0353],[132.7125,-12.1237],[132.6765,-12.1301],[132.5839,-12.1105],[132.5103,-12.1348],[132.4416,-12.1766],[132.4109,-12.2951],[132.3723,-12.239],[132.2532,-12.1861],[132.1822,-12.2268],[132.0643,-12.2809],[131.9568,-12.2591],[131.8881,-12.2322],[131.7262,-12.2782],[131.4383,-12.2771],[131.3419,-12.21],[131.3139,-12.0956],[131.2917,-12.0676],[131.2652,-12.1189],[131.2197,-12.1777],[131.0456,-12.1898],[131.0197,-12.2136],[131.0303,-12.2713],[131.0234,-12.3428],[130.9567,-12.348],[130.8736,-12.3671],[130.8826,-12.4549],[130.898,-12.5237],[130.8673,-12.5576],[130.7768,-12.4952],[130.736,-12.428],[130.6726,-12.4068],[130.6228,-12.4311],[130.6096,-12.4914],[130.6175,-12.647],[130.572,-12.6645],[130.454,-12.6587],[130.4,-12.6878],[130.318,-12.883],[130.1683,-12.9577],[130.1455,-13.0593],[130.1349,-13.1455],[130.2598,-13.3021],[130.1995,-13.3826],[130.136,-13.4482],[130.0725,-13.4762],[129.9381,-13.5017],[129.8391,-13.5731],[129.8185,-13.6106],[127.0377,-13.808],[127.006,-13.7768],[126.9033,-13.744],[126.8985,-13.7456],[122.9166,-10.9182]],[[130.4228,-11.4458],[130.5122,-11.6178],[130.645,-11.7422],[130.9509,-11.9263],[131.2922,-11.7109],[131.3827,-11.5823],[131.4584,-11.5877],[131.4679,-11.5093],[131.5388,-11.4368],[131.5224,-11.4151],[131.4731,-11.3823],[131.4367,-11.313],[131.3202,-11.2469],[131.2684,-11.1897],[131.2171,-11.2426],[131.1409,-11.2632],[131.0229,-11.3342],[130.9874,-11.34],[130.9128,-11.3093],[130.7525,-11.3844],[130.6185,-11.376],[130.5599,-11.3061],[130.5191,-11.2797],[130.4265,-11.1833],[130.4026,-11.1807],[130.3847,-11.1923],[130.3688,-11.2151],[130.4048,-11.305],[130.4228,-11.4458]],[[130.3392,-11.3368],[130.2947,-11.3368],[130.2514,-11.3606],[130.1529,-11.4776],[130.1873,-11.5411],[130.1974,-11.658],[130.1392,-11.6972],[130.0719,-11.6808],[130.0434,-11.7871],[130.0767,-11.8252],[130.1312,-11.8247],[130.3175,-11.7718],[130.5027,-11.8358],[130.6064,-11.8167],[130.6027,-11.7734],[130.58,-11.7369],[130.5418,-11.703],[130.4593,-11.6792],[130.4328,-11.5924],[130.3858,-11.5098],[130.3768,-11.4199],[130.3392,-11.3368]]]}}
