{"type":"Feature","properties":{"id":53,"name":"Gulf of Thailand","featurecla":"gulf","scalerank":2,"wikidataid":"Q131217","source":"Natural Earth 5.2.0-pre ne_10m_geography_marine_polys (public domain)"},"geometry":{"type":"Polygon","coordinates":[[[104.7487,8.608],[102.4024,6.1913],[102.3489,6.158],[102.3399,6.1723],[102.2738,6.2035],[102.1012,6.2421],[101.7991,6.4744],[101.6144,6.7538],[101.498,6.8655],[101.4007,6.8993],[101.3022,6.9083],[101.1546,6.875],[101.0181,6.8607],[100.7926,6.9946],[100.7016,7.0819],[100.5862,7.1761],[100.49,7.1613],[100.4238,7.1877],[100.3714,7.2803],[100.2047,7.5005],[100.1608,7.5994],[100.1582,7.728],[100.2566,7.7751],[100.3174,7.7158],[100.3243,7.6444],[100.2799,7.5846],[100.2836,7.5518],[100.3428,7.5528],[100.3804,7.5417],[100.4106,7.4645],[100.4392,7.2808],[100.545,7.2269],[100.5037,7.3375],[100.4534,7.4423],[100.2793,8.2683],[100.2285,8.4249],[100.1634,8.5085],[100.1587,8.4736],[100.1539,8.4429],[100.1296,8.4281],[100.056,8.5112],[99.9894,8.589],[99.9608,8.6715],[99.9047,9.1128],[99.8777,9.1948],[99.8354,9.2885],[99.7237,9.3144],[99.3941,9.2139],[99.3353,9.2255],[99.2538,9.2652],[99.2649,9.3531],[99.2882,9.4145],[99.1914,9.6272],[99.1607,9.7341],[99.1692,9.9341],[99.1945,10.1754],[99.1903,10.2659],[99.1649,10.3199],[99.2374,10.3881],[99.285,10.5691],[99.4867,10.8898],[99.5142,11.1004],[99.5612,11.2152],[99.6274,11.4629],[99.7253,11.6618],[99.7988,11.7486],[99.8369,11.9365],[99.9301,12.0476],[99.9888,12.1709],[100.0058,12.3545],[99.964,12.69],[99.9819,12.7715],[100.0899,13.0456],[100.0513,13.171],[99.9904,13.2435],[100.0174,13.353],[100.1222,13.4393],[100.2354,13.4843],[100.5365,13.5144],[100.6032,13.5684],[100.6561,13.5213],[100.9064,13.4626],[100.9625,13.4319],[100.9472,13.3578],[100.9265,13.3028],[100.9461,13.1874],[100.9037,13.035],[100.8964,12.8181],[100.8635,12.7143],[100.898,12.654],[100.954,12.6212],[101.09,12.6736],[101.4451,12.6191],[101.7234,12.6895],[101.8356,12.6403],[101.8891,12.5932],[101.9446,12.5635],[102.0346,12.5318],[102.1341,12.4429],[102.2293,12.3318],[102.2484,12.3614],[102.259,12.3942],[102.3431,12.2524],[102.4341,12.1794],[102.5405,12.109],[102.5749,12.1577],[102.5944,12.2032],[102.6547,12.1487],[102.7627,12.0127],[102.7918,11.8888],[102.8839,11.773],[102.9125,11.7036],[102.9342,11.7068],[102.9326,11.7417],[102.9485,11.7735],[103.004,11.7105],[103.0104,11.5888],[103.1257,11.4607],[103.1072,11.3676],[103.0913,11.211],[103.1067,11.0739],[103.1527,10.9136],[103.2723,10.9094],[103.3538,10.9215],[103.4115,10.9766],[103.4665,11.084],[103.5327,11.1464],[103.5951,11.1078],[103.6544,11.0586],[103.7221,10.8903],[103.6808,10.7585],[103.5919,10.721],[103.5406,10.6686],[103.5321,10.6045],[103.5871,10.5522],[103.6618,10.5088],[103.8406,10.5808],[103.8703,10.6553],[103.902,10.6437],[103.9369,10.5866],[104.2624,10.5411],[104.4264,10.4114],[104.5164,10.34],[104.5942,10.2669],[104.6127,10.2077],[104.6635,10.1701],[104.7476,10.1992],[104.8021,10.2029],[104.873,10.1146],[104.9656,10.1008],[105.0281,10.0674],[105.0847,9.9955],[105.0948,9.9452],[105.0926,9.9008],[104.9873,9.8685],[104.9032,9.8161],[104.845,9.606],[104.8148,9.1853],[104.8185,8.8017],[104.8963,8.7467],[104.7704,8.5974],[104.7487,8.608]],[[104.0756,10.2246],[104.083,10.341],[104.064,10.3908],[104.0279,10.4283],[103.9856,10.4268],[103.8983,10.3685],[103.8496,10.3712],[103.8682,10.3352],[103.9523,10.2431],[104.0184,10.0293],[104.0486,10.0611],[104.0369,10.1108],[104.0756,10.2246]]]}}
