{"type":"Feature","properties":{"id":54,"name":"Laccadive Sea","featurecla":"sea","scalerank":2,"wikidataid":"Q544914","source":"Natural Earth 5.2.0-pre ne_10m_geography_marine_polys (public domain)"},"geometry":{"type":"Polygon","coordinates":[[[80.2128,6.05],[73.123,-0.6805],[72.5399,0.97],[72.3282,4.6393],[71.8345,9.4018],[71.3757,12.4],[71.6578,13.0001],[72.4695,13.5642],[74.3391,14.5521],[74.3459,14.5564],[74.3825,14.495],[74.3972,14.4077],[74.4671,14.2167],[74.4666,14.169],[74.4983,14.0462],[74.6084,13.8494],[74.6708,13.6679],[74.6814,13.5838],[74.6825,13.507],[74.7704,13.0773],[74.8031,12.9768],[74.8682,12.8445],[74.9455,12.5646],[75.1968,12.0576],[75.2297,12.0232],[75.3149,11.9587],[75.4228,11.8121],[75.5244,11.7031],[75.6461,11.4682],[75.7239,11.3618],[75.8445,11.0575],[75.9223,10.7839],[76.0959,10.4024],[76.1234,10.3273],[76.2017,10.2008],[76.1927,10.1637],[76.1954,10.086],[76.2229,10.0241],[76.2488,10.0177],[76.3467,9.9219],[76.4589,9.5362],[76.4198,9.5203],[76.3758,9.5399],[76.3721,9.7076],[76.343,9.8272],[76.2848,9.9098],[76.2425,9.9272],[76.2922,9.6764],[76.3245,9.452],[76.4033,9.2366],[76.4192,9.2076],[76.4526,9.189],[76.4716,9.161],[76.4827,9.0906],[76.5536,8.9028],[76.6171,8.8472],[76.9669,8.4074],[77.0659,8.3159],[77.3014,8.1455],[79.8159,7.3158],[79.8593,6.8295],[79.9472,6.5845],[80.0075,6.3643],[80.0953,6.1532],[80.2154,6.0532],[80.2128,6.05]]]}}
