{"type":"Feature","properties":{"id":55,"name":"Bellingshausen Sea","featurecla":"sea","scalerank":2,"wikidataid":"Q183455","source":"Natural Earth 5.2.0-pre ne_10m_geography_marine_polys (public domain)"},"geometry":{"type":"Polygon","coordinates":[[[-71.8692,-68.9409],[-71.9903,-68.971],[-72.0581,-69.0012],[-72.1089,-69.0599],[-72.138,-69.1144],[-72.1353,-69.1769],[-72.1142,-69.2255],[-72.0808,-69.2673],[-71.9634,-69.3287],[-71.8337,-69.3668],[-71.7427,-69.4229],[-71.7184,-69.524],[-71.7665,-69.6494],[-71.8522,-69.8071],[-71.8676,-69.8473],[-71.8792,-69.9092],[-71.8538,-69.9695],[-71.8099,-70.005],[-71.7284,-70.0537],[-71.6961,-70.068],[-71.1204,-70.1965],[-71.0235,-70.2013],[-70.9262,-70.1923],[-70.7198,-70.1394],[-70.3277,-70.1595],[-70.234,-70.1807],[-70.1181,-70.2341],[-69.8832,-70.305],[-69.6186,-70.3982],[-69.6599,-70.4124],[-69.7022,-70.4146],[-69.9753,-70.36],[-70.0906,-70.3505],[-70.3282,-70.3611],[-70.5621,-70.404],[-71.0611,-70.5373],[-71.1902,-70.6596],[-71.1728,-70.713],[-71.0495,-70.7622],[-70.9172,-70.7861],[-70.6605,-70.8178],[-70.2986,-70.8363],[-70.1965,-70.8506],[-70.0938,-70.8823],[-69.9933,-70.8972],[-69.9329,-70.8802],[-69.8758,-70.876],[-69.8303,-70.9136],[-69.8223,-70.9734],[-69.8229,-71.0337],[-69.835,-71.0925],[-69.87,-71.1258],[-69.9165,-71.1337],[-70.2679,-70.9649],[-70.3229,-70.9511],[-70.3806,-70.9464],[-70.741,-70.9924],[-71.1939,-70.985],[-71.3077,-71.011],[-71.5046,-71.1115],[-71.7184,-71.1454],[-72.3565,-71.075],[-72.7105,-71.0729],[-73.0603,-71.1268],[-72.9947,-71.1866],[-72.9053,-71.2231],[-72.4301,-71.275],[-72.2115,-71.3348],[-72.6216,-71.3883],[-72.8211,-71.3835],[-73.0196,-71.3687],[-73.3974,-71.321],[-73.4741,-71.3247],[-73.6043,-71.3507],[-73.617,-71.3967],[-73.5921,-71.448],[-73.3799,-71.5279],[-73.427,-71.5586],[-73.4789,-71.5787],[-73.5456,-71.5729],[-73.7244,-71.5168],[-73.9371,-71.438],[-74.0409,-71.4105],[-74.1874,-71.3829],[-74.2361,-71.3883],[-74.3081,-71.3999],[-74.3748,-71.4152],[-74.4256,-71.457],[-74.4203,-71.5073],[-74.3801,-71.5792],[-74.3732,-71.6179],[-74.3917,-71.638],[-74.4187,-71.6433],[-74.4875,-71.6417],[-74.6362,-71.6174],[-74.8632,-71.5433],[-75.0997,-71.5555],[-75.2923,-71.6147],[-75.3352,-71.6454],[-75.3532,-71.6798],[-75.3246,-71.7259],[-75.331,-71.7523],[-75.3733,-71.7804],[-75.3828,-71.828],[-75.6908,-72.8726],[-75.731,-72.8794],[-75.7019,-72.9112],[-75.6003,-72.9524],[-75.4394,-72.9943],[-75.2436,-73.0096],[-75.2765,-73.0504],[-75.4172,-73.0514],[-75.4675,-73.1012],[-75.5056,-73.1091],[-75.7744,-73.054],[-75.8977,-73.0562],[-76.0178,-73.0853],[-76.0623,-73.1086],[-76.0962,-73.1504],[-76.0903,-73.2028],[-76.0533,-73.2546],[-76.003,-73.2879],[-75.9009,-73.3324],[-74.5748,-73.6113],[-74.5621,-73.7113],[-74.5938,-73.715],[-74.8552,-73.6578],[-75.0436,-73.6451],[-75.2929,-73.6388],[-75.595,-73.7113],[-75.9162,-73.7367],[-76.2914,-73.8055],[-76.7549,-73.7896],[-76.8872,-73.8203],[-77.0492,-73.8441],[-77.1349,-73.8177],[-77.0328,-73.7187],[-76.7645,-73.5663],[-76.8507,-73.4605],[-77.1354,-73.4959],[-77.4439,-73.488],[-77.8456,-73.5149],[-78.144,-73.5472],[-78.4081,-73.5557],[-78.7864,-73.507],[-78.9637,-73.3123],[-79.522,-73.0895],[-79.8082,-73.0281],[-80.1517,-73.0001],[-80.4422,-72.9445],[-80.5877,-72.9779],[-80.6142,-73.0837],[-80.439,-73.225],[-80.3797,-73.308],[-80.3364,-73.4144],[-81.0243,-73.2356],[-81.1767,-73.2488],[-81.2624,-73.315],[-81.2359,-73.4737],[-81.1634,-73.6325],[-81.309,-73.7383],[-81.6064,-73.7954],[-82.1837,-73.8568],[-82.8155,-73.7324],[-83.042,-73.707],[-83.5648,-73.706],[-83.796,-73.6451],[-84.2141,-73.5726],[-84.5713,-73.5567],[-84.9814,-73.5022],[-85.2608,-73.4133],[-85.582,-73.2588],[-85.8016,-73.1922],[-85.981,-73.2086],[-86.6022,-73.3536],[-86.7911,-73.3636],[-87.0377,-73.3541],[-87.4012,-73.1922],[-87.6087,-73.1948],[-87.9363,-73.2409],[-88.2051,-73.2197],[-88.4194,-73.2292],[-88.5607,-73.1207],[-88.3315,-72.9345],[-88.1945,-72.8588],[-88.194,-72.7873],[-88.5268,-72.7022],[-88.7797,-72.6831],[-89.1274,-72.6932],[-89.2295,-72.826],[-89.3412,-72.8895],[-89.5222,-72.871],[-89.8174,-72.8625],[-90.0355,-72.9604],[-90.1524,-72.9445],[-90.2953,-72.9779],[-90.2736,-73.1186],[-90.4307,-73.243],[-90.9207,-73.3191],[-91.1684,-73.307],[-92.241,-73.1784],[-92.8284,-73.1646],[-93.7057,-73.2149],[-93.9846,-73.2869],[-94.246,-73.3128],[-94.5863,-73.2493],[-95.0297,-73.2387],[-95.2366,-73.2202],[-95.5293,-73.2414],[-95.5917,-72.4122],[-95.5753,-72.41],[-95.5309,-72.2487],[-95.6097,-72.1751],[-71.8692,-68.9409]],[[-71.3405,-70.3177],[-71.3548,-70.2976],[-71.4316,-70.2674],[-71.648,-70.2955],[-71.6951,-70.2653],[-71.7951,-70.2886],[-71.7818,-70.3188],[-71.6845,-70.4421],[-71.5511,-70.4389],[-71.4379,-70.3913],[-71.3405,-70.3177]],[[-72.202,-69.7399],[-71.9856,-69.6986],[-72.3311,-69.4917],[-72.4645,-69.452],[-72.7264,-69.4129],[-72.8571,-69.433],[-72.937,-69.4689],[-72.9571,-69.5293],[-72.7767,-69.6452],[-72.3444,-69.7071],[-72.202,-69.7399]],[[-74.806,-71.012],[-74.5049,-70.9734],[-74.2049,-70.9241],[-73.6943,-70.7945],[-73.5503,-70.7236],[-73.7064,-70.6352],[-73.8795,-70.5781],[-73.9578,-70.5612],[-74.0382,-70.5532],[-74.1128,-70.5765],[-74.1144,-70.6553],[-74.225,-70.6146],[-74.4012,-70.576],[-74.4563,-70.5865],[-74.4684,-70.7268],[-74.5272,-70.7696],[-74.5896,-70.7919],[-74.7907,-70.631],[-74.8987,-70.5908],[-74.9537,-70.5903],[-75.0076,-70.6088],[-75.0378,-70.6506],[-75.06,-70.7056],[-75.1267,-70.7516],[-75.2098,-70.7728],[-76.0348,-70.8358],[-76.2491,-70.8638],[-76.3777,-70.894],[-76.5004,-70.9416],[-76.5116,-70.9908],[-76.4216,-71.0903],[-76.3639,-71.1168],[-76.2713,-71.1327],[-76.176,-71.1327],[-74.806,-71.012]],[[-74.987,-69.7277],[-75.1362,-69.7404],[-75.1791,-69.7351],[-75.2643,-69.7494],[-75.314,-69.8166],[-75.34,-69.8404],[-75.6813,-69.8817],[-75.7596,-69.9161],[-75.813,-69.9838],[-75.804,-70.0383],[-75.7644,-70.0849],[-75.7268,-70.096],[-75.2685,-70.1495],[-74.8489,-70.1791],[-74.6716,-70.132],[-74.5785,-69.9981],[-74.46,-69.9716],[-74.4383,-69.9494],[-74.4652,-69.9171],[-74.5499,-69.8611],[-74.8103,-69.7526],[-74.987,-69.7277]],[[-91.5515,-72.7535],[-91.3822,-72.8678],[-91.3568,-72.9096],[-91.4504,-72.9678],[-91.5108,-73.1953],[-91.3441,-73.207],[-91.1605,-73.1821],[-90.9985,-73.1366],[-90.8932,-73.0842],[-90.7757,-72.9932],[-90.7509,-72.9165],[-90.7763,-72.854],[-90.8954,-72.8239],[-90.78,-72.7318],[-90.7636,-72.681],[-90.807,-72.6106],[-90.9472,-72.5561],[-91.3033,-72.5471],[-91.6124,-72.5937],[-91.6701,-72.6238],[-91.5515,-72.7535]],[[-95.2197,-72.6699],[-95.0271,-72.6651],[-94.4259,-72.6127],[-94.4339,-72.5889],[-94.5138,-72.4915],[-94.5381,-72.4757],[-94.5662,-72.4683],[-94.753,-72.517],[-95.2155,-72.5995],[-95.2731,-72.6471],[-95.2197,-72.6699]]]}}
