{"type":"Feature","properties":{"id":56,"name":"Amundsen Sea","featurecla":"sea","scalerank":2,"wikidataid":"Q72154","source":"Natural Earth 5.2.0-pre ne_10m_geography_marine_polys (public domain)"},"geometry":{"type":"Polygon","coordinates":[[[-102.2364,-72.0095],[-102.2883,-72.0322],[-102.3137,-72.0809],[-102.2756,-72.1238],[-102.4846,-72.7355],[-102.8561,-72.7164],[-103.1101,-72.7212],[-103.2165,-72.772],[-103.3752,-72.8191],[-103.3075,-72.9456],[-103.0762,-73.1847],[-102.909,-73.2853],[-102.6751,-73.3207],[-101.8158,-73.3112],[-101.5739,-73.3297],[-101.1892,-73.3181],[-100.4362,-73.353],[-100.0208,-73.4028],[-99.5282,-73.4948],[-99.2001,-73.5711],[-98.8964,-73.6113],[-99.162,-73.6409],[-99.3435,-73.634],[-99.5409,-73.6451],[-99.6562,-73.6944],[-99.7811,-73.7203],[-100.7177,-73.7578],[-100.9855,-73.7573],[-101.1305,-73.7351],[-101.3109,-73.6954],[-101.5872,-73.6668],[-101.8285,-73.6557],[-102.0364,-73.6309],[-102.4105,-73.6165],[-102.7995,-73.6457],[-102.863,-73.7838],[-102.7667,-73.8838],[-102.4407,-73.9256],[-102.1052,-73.9579],[-101.7152,-74.024],[-101.5866,-74.0965],[-101.3427,-74.35],[-101.2517,-74.486],[-101.0231,-74.505],[-100.8818,-74.541],[-100.5309,-74.4886],[-100.2383,-74.4844],[-100.1187,-74.5151],[-100.0129,-74.6622],[-100.2648,-74.8231],[-100.4733,-74.8723],[-100.3129,-74.9146],[-100.1642,-74.9379],[-99.8489,-74.9215],[-99.652,-74.949],[-99.208,-75.0786],[-98.727,-75.1406],[-98.5577,-75.1898],[-98.6455,-75.2771],[-98.7524,-75.3173],[-98.9805,-75.3273],[-99.5314,-75.3088],[-100.0827,-75.3702],[-100.4632,-75.3533],[-100.7061,-75.3982],[-101.0395,-75.4221],[-101.3035,-75.366],[-101.6279,-75.2215],[-101.7083,-75.1274],[-102.7714,-75.1173],[-103.1212,-75.0951],[-103.4249,-75.1014],[-103.9012,-75.1527],[-104.1595,-75.121],[-104.6177,-75.1564],[-104.9019,-75.1152],[-105.3993,-75.1977],[-106.619,-75.3438],[-106.9323,-75.3094],[-107.2667,-75.3342],[-107.8049,-75.3216],[-108.2547,-75.2527],[-108.8224,-75.2067],[-109.2722,-75.185],[-109.9898,-75.1993],[-111.1042,-75.1908],[-111.3588,-75.22],[-111.463,-75.1337],[-110.9677,-74.9511],[-110.5322,-74.8363],[-110.3004,-74.7109],[-110.23,-74.5362],[-110.3073,-74.3669],[-110.5338,-74.2886],[-110.7703,-74.269],[-111.0201,-74.2304],[-111.1804,-74.1881],[-111.4667,-74.2007],[-111.6302,-74.1817],[-111.8064,-74.2695],[-111.7223,-74.3865],[-111.6958,-74.504],[-111.789,-74.5717],[-111.7387,-74.6532],[-111.5842,-74.7511],[-111.6964,-74.7924],[-111.8683,-74.8014],[-112.17,-74.8321],[-113.0918,-74.8919],[-113.5934,-74.9437],[-113.7527,-74.9522],[-113.9321,-74.9818],[-114.1104,-74.9818],[-114.0972,-74.9093],[-113.985,-74.8432],[-113.9035,-74.6442],[-113.7829,-74.6183],[-113.5971,-74.559],[-113.3331,-74.4542],[-113.4543,-74.3944],[-113.641,-74.4066],[-113.7532,-74.3669],[-113.7135,-74.2278],[-113.5749,-74.2082],[-113.4892,-74.1584],[-113.5088,-74.0891],[-114.3459,-73.925],[-114.6237,-73.9028],[-102.2364,-72.0095]],[[-104.6595,-73.2123],[-104.5378,-73.1662],[-104.9722,-72.9408],[-105.0844,-72.9657],[-105.1315,-72.9916],[-105.1236,-73.0265],[-105.0527,-73.126],[-104.8812,-73.2006],[-104.6595,-73.2123]]]}}
