{"type":"Feature","properties":{"id":57,"name":"Davis Strait","featurecla":"strait","scalerank":2,"wikidataid":"Q189262","source":"Natural Earth 5.2.0-pre ne_10m_geography_marine_polys (public domain)"},"geometry":{"type":"Polygon","coordinates":[[[-45.4114,60.1663],[-64.428,60.3245],[-64.4069,60.3669],[-64.5,60.4304],[-64.5328,60.4415],[-64.6466,60.5145],[-64.727,60.5118],[-64.7275,60.5224],[-64.8683,61.3559],[-64.8567,61.3543],[-64.8328,61.3659],[-64.7878,61.4135],[-64.7323,61.4384],[-64.6963,61.4718],[-64.691,61.5395],[-64.6698,61.5929],[-64.7561,61.6374],[-64.7895,61.6623],[-64.9355,61.6824],[-64.9477,61.7379],[-64.9276,61.7326],[-64.8969,61.7332],[-64.8471,61.7617],[-64.8455,61.7797],[-64.8651,61.7982],[-64.9233,61.8236],[-64.926,61.8258],[-65.0593,62.6428],[-65.0503,62.646],[-65.0466,62.7015],[-65.163,62.9328],[-65.1329,62.9524],[-64.9233,62.8894],[-64.8688,62.8799],[-64.7519,62.8873],[-64.6836,62.9026],[-64.6725,62.9222],[-64.718,62.946],[-64.7672,62.992],[-64.8201,63.0598],[-64.8947,63.1254],[-65.0493,63.2344],[-65.0688,63.2635],[-65.0582,63.2831],[-65.0165,63.2926],[-65.0048,63.3333],[-65.0313,63.4403],[-65.0895,63.6059],[-65.1339,63.689],[-65.1837,63.7451],[-65.1916,63.7641],[-64.9895,63.6435],[-64.9334,63.5995],[-64.8863,63.5487],[-64.6958,63.2688],[-64.6645,63.2455],[-64.5868,63.2434],[-64.5143,63.264],[-64.4979,63.3577],[-64.4984,63.463],[-64.5503,63.5726],[-64.5614,63.68],[-64.482,63.6868],[-64.4111,63.7064],[-64.4333,63.7276],[-63.6311,64.9394],[-63.6068,64.9283],[-63.4856,65.0214],[-63.402,65.1182],[-63.3633,65.2299],[-63.3644,65.5432],[-63.3374,65.6167],[-63.5094,65.6363],[-63.6512,65.6612],[-63.6517,65.6744],[-63.421,65.7088],[-63.4099,65.7559],[-63.4644,65.8353],[-63.4586,65.8533],[-63.2406,65.6956],[-63.1691,65.6575],[-62.9691,65.6225],[-62.8172,65.6479],[-62.7717,65.6321],[-62.659,65.64],[-62.6103,65.7236],[-62.4855,65.8046],[-62.3823,65.8331],[-62.3881,65.8681],[-62.4103,65.9056],[-62.4484,65.9453],[-62.4976,65.9739],[-62.6241,66.0162],[-62.5902,66.0342],[-62.468,66.0173],[-62.2442,66.0056],[-62.1388,66.0115],[-61.9917,66.0353],[-62.024,66.0676],[-62.242,66.148],[-62.5336,66.2268],[-62.496,66.2708],[-62.4198,66.2888],[-62.4055,66.3157],[-62.5532,66.4068],[-62.5098,66.4173],[-62.3743,66.411],[-62.277,66.3914],[-62.1584,66.338],[-61.9563,66.3094],[-61.8626,66.3126],[-61.571,66.3729],[-61.5763,66.4126],[-61.6525,66.5031],[-62.0891,66.6258],[-62.1235,66.6433],[-62.0145,66.674],[-61.9044,66.6782],[-61.724,66.638],[-61.5277,66.5581],[-61.453,66.5666],[-61.307,66.6089],[-61.2996,66.6486],[-61.3536,66.6893],[-61.5149,66.7783],[-61.824,66.9317],[-61.9685,67.019],[-62.1235,67.0465],[-62.3796,66.9052],[-62.6029,66.9285],[-62.7104,66.9539],[-62.768,66.9322],[-62.8331,66.9328],[-62.9622,66.9492],[-63.1437,66.9243],[-63.4692,66.8624],[-63.6364,66.8206],[-63.7015,66.8221],[-63.3067,66.9947],[-63.2586,67.0248],[-63.2358,67.0687],[-63.1945,67.1169],[-63.1617,67.1746],[-63.04,67.2349],[-63.3157,67.3365],[-63.521,67.3582],[-63.5914,67.3778],[-63.6766,67.345],[-63.8242,67.3159],[-63.8364,67.264],[-64.0634,67.2661],[-64.1888,67.2571],[-64.3566,67.2561],[-64.3762,67.3011],[-64.5894,67.3153],[-64.7,67.3508],[-64.5804,67.355],[-64.4693,67.3418],[-64.3031,67.3534],[-64.0079,67.3471],[-64.0777,67.4958],[-63.8502,67.5662],[-64.0195,67.6551],[-64.156,67.6228],[-64.3963,67.7397],[-64.5275,67.8128],[-64.6376,67.8403],[-64.8297,67.7842],[-65.0212,67.7874],[-65.0715,67.8239],[-65.026,67.8921],[-64.9561,67.9392],[-64.8625,67.9652],[-64.8355,67.99],[-64.9223,68.0318],[-64.9768,68.0435],[-65.0646,68.026],[-65.3001,67.9398],[-65.4154,67.8794],[-65.4424,67.8323],[-65.4133,67.7239],[-65.3869,67.6805],[-65.4011,67.6746],[-65.5409,67.7657],[-65.552,67.7995],[-65.4911,67.9355],[-65.5091,67.9683],[-65.5694,67.9821],[-65.7017,67.9869],[-65.7589,67.9572],[-65.8642,67.9228],[-65.9748,67.9572],[-65.9441,68.0313],[-65.9425,68.071],[-65.9859,68.0684],[-66.2251,67.9588],[-66.3431,67.8535],[-66.3923,67.8318],[-66.4442,67.8339],[-66.5267,67.8514],[-66.5299,67.8604],[-66.414,67.9043],[-66.2748,68.0408],[-66.2663,68.1228],[-66.2124,68.2805],[-66.5309,68.2504],[-66.6309,68.2107],[-66.6055,68.1102],[-66.6627,68.0345],[-66.6844,68.0292],[-66.7024,68.1207],[-66.7288,68.1292],[-66.8998,68.0631],[-66.923,68.0657],[-66.9051,68.0985],[-66.8341,68.18],[-66.831,68.2154],[-66.9003,68.2636],[-67.0331,68.3261],[-66.9971,68.3742],[-66.7622,68.4245],[-66.714,68.4456],[-66.7426,68.4578],[-66.8543,68.4716],[-67.1114,68.4615],[-67.2024,68.4657],[-67.3204,68.488],[-67.4554,68.498],[-67.567,68.534],[-67.6559,68.551],[-67.766,68.5472],[-67.875,68.5229],[-67.9385,68.524],[-68.038,68.551],[-68.1481,68.616],[-68.1523,68.6811],[-68.2105,68.7028],[-68.3333,68.7324],[-68.5407,68.7494],[-68.8714,68.76],[-69.3191,68.8568],[-69.3429,68.8695],[-69.3297,68.8758],[-69.2191,68.8727],[-68.7254,68.8102],[-68.6667,68.8113],[-68.5428,68.8425],[-68.4502,68.851],[-68.3243,68.8441],[-68.0158,68.7949],[-67.883,68.7838],[-67.7951,68.8631],[-67.7512,68.9341],[-67.7517,69.0388],[-67.8327,69.0658],[-68.1211,69.1325],[-68.3042,69.1664],[-68.4153,69.1722],[-68.9937,69.0796],[-69.0408,69.0981],[-68.619,69.2061],[-68.4063,69.232],[-68.1983,69.2029],[-67.9385,69.2479],[-67.765,69.2002],[-67.6073,69.1732],[-67.484,69.1669],[-67.3316,69.1849],[-67.2083,69.1706],[-66.8029,69.1526],[-66.7071,69.1685],[-66.6791,69.1912],[-66.6764,69.2584],[-66.6854,69.286],[-66.7167,69.3119],[-66.7706,69.3368],[-67.0527,69.4214],[-67.2368,69.4601],[-67.3612,69.4728],[-67.7247,69.4791],[-67.8247,69.4749],[-67.9084,69.4601],[-68.0581,69.4759],[-68.5132,69.5775],[-68.7852,69.5643],[-69.0752,69.5183],[-69.2508,69.5119],[-69.2276,69.5474],[-69.1244,69.5744],[-68.837,69.6236],[-68.6698,69.6437],[-68.3719,69.6442],[-68.2899,69.6648],[-68.2481,69.7008],[-68.1893,69.7305],[-68.1142,69.7543],[-68.0205,69.7702],[-67.8062,69.7776],[-67.3368,69.7209],[-67.2591,69.7215],[-67.2215,69.731],[-67.1929,69.7569],[-67.1728,69.7993],[-67.1961,69.8606],[-67.294,69.9707],[-54.821,69.9199],[-54.8411,69.9019],[-54.9189,69.7135],[-54.866,69.6648],[-54.8041,69.6304],[-54.7342,69.6104],[-54.4972,69.577],[-54.1331,69.5654],[-53.9939,69.5532],[-53.9214,69.5336],[-53.8251,69.5405],[-53.7833,69.5061],[-53.7225,69.4907],[-53.6584,69.4653],[-53.8897,69.4368],[-54.0474,69.4373],[-54.158,69.4278],[-54.1828,69.4034],[-54.1209,69.3643],[-54.0511,69.3373],[-53.9018,69.3018],[-53.7934,69.2643],[-53.7542,69.26],[-53.5785,69.2569],[-53.3203,69.2955],[-53.042,68.6076],[-53.2134,68.4128],[-53.3372,68.352],[-53.3832,68.2975],[-53.2896,68.2932],[-53.1726,68.3028],[-52.78,68.3096],[-52.7467,68.2784],[-52.6985,68.2615],[-52.3784,68.2186],[-52.1984,68.2207],[-51.8042,68.252],[-51.6322,68.2731],[-51.4751,68.3652],[-51.4782,68.3837],[-51.456,68.3933],[-51.2936,68.4165],[-51.21,68.4197],[-51.1692,68.3853],[-51.2073,68.3255],[-51.3327,68.2419],[-51.3936,68.2176],[-51.4148,68.198],[-51.4327,68.143],[-51.4566,68.116],[-51.5185,68.0773],[-51.5968,68.0546],[-51.7799,68.0567],[-52.0588,68.0752],[-52.436,68.1456],[-52.8901,68.2043],[-53.0409,68.2181],[-53.1515,68.2075],[-53.2113,68.117],[-53.3531,67.9705],[-53.578,67.8366],[-53.6166,67.7667],[-53.6161,67.7154],[-53.6431,67.6683],[-53.7351,67.5492],[-53.6034,67.5365],[-53.4187,67.5746],[-52.9795,67.7577],[-52.8985,67.7731],[-52.6731,67.7948],[-52.5461,67.818],[-52.345,67.8371],[-52.1043,67.7789],[-51.9439,67.7651],[-51.7651,67.7376],[-51.4232,67.7545],[-51.3216,67.7863],[-50.9687,67.8064],[-50.8872,67.7837],[-51.0322,67.7445],[-51.1682,67.7339],[-51.1708,67.6937],[-50.6401,67.5588],[-50.6136,67.5281],[-50.7051,67.509],[-51.1814,67.6365],[-51.4507,67.6678],[-51.6651,67.6466],[-51.909,67.6635],[-52.3836,67.7524],[-52.5122,67.7614],[-52.6662,67.7498],[-52.9694,67.6873],[-53.2234,67.5852],[-53.4139,67.5249],[-53.5478,67.4984],[-53.7986,67.418],[-53.8055,67.327],[-53.8844,67.1354],[-53.687,66.9862],[-53.56,66.946],[-53.4436,66.9248],[-53.3732,66.9317],[-53.2272,66.9195],[-52.9065,66.9068],[-52.5599,66.9089],[-52.4297,66.8973],[-52.3868,66.8809],[-52.4313,66.8597],[-52.4911,66.8502],[-52.6033,66.8528],[-53.0382,66.8269],[-53.1144,66.7539],[-53.2229,66.7216],[-53.4187,66.6486],[-53.4356,66.6221],[-53.4759,66.584],[-53.5706,66.5131],[-53.6346,66.4136],[-53.6224,66.3438],[-53.6478,66.2734],[-53.6145,66.1544],[-53.5388,66.1395],[-53.4129,66.1602],[-53.1562,66.1776],[-53.0356,66.2014],[-52.9218,66.2411],[-52.8144,66.2967],[-52.6757,66.3554],[-52.4212,66.4465],[-51.8233,66.6978],[-51.6476,66.7539],[-51.4021,66.8539],[-51.2809,66.891],[-51.2248,66.8814],[-51.2586,66.8412],[-51.5169,66.7322],[-51.6762,66.6835],[-51.8222,66.6518],[-51.891,66.6232],[-51.9323,66.5877],[-52.0561,66.5073],[-52.1577,66.4703],[-52.2926,66.4374],[-52.5107,66.3623],[-53.0181,66.1708],[-53.3568,66.0734],[-53.3922,66.0485],[-53.3446,66.0342],[-53.2721,65.9871],[-53.2435,65.9792],[-53.1065,65.9771],[-53.2335,65.7707],[-53.1991,65.594],[-53.1531,65.5744],[-52.9948,65.5659],[-52.761,65.5908],[-52.5514,65.4611],[-52.3482,65.4611],[-52.0355,65.5696],[-51.9243,65.6167],[-51.7799,65.7035],[-51.7232,65.7236],[-51.3936,65.7792],[-51.1465,65.7855],[-51.092,65.776],[-51.0904,65.7511],[-51.2528,65.7464],[-51.619,65.713],[-51.7212,65.6702],[-51.9709,65.531],[-52.1794,65.4421],[-52.4614,65.3627],[-52.5064,65.3484],[-52.5376,65.3289],[-52.4996,65.2749],[-52.4503,65.2214],[-52.4477,65.205],[-52.2588,65.1548],[-52.2355,65.0606],[-52.1238,64.7955],[-52.0889,64.6817],[-52.0968,64.597],[-52.0931,64.416],[-52.063,64.3462],[-51.9984,64.2568],[-51.9227,64.2187],[-51.8349,64.2319],[-51.7582,64.2801],[-51.6767,64.3769],[-51.4703,64.552],[-51.401,64.623],[-51.3634,64.7018],[-51.2555,64.7579],[-51.1391,64.7859],[-51.1708,64.7076],[-51.2205,64.6282],[-50.9893,64.6647],[-50.8909,64.6954],[-50.7803,64.7462],[-50.7215,64.7976],[-50.7649,64.8627],[-50.8522,65.0235],[-50.9136,65.0971],[-50.9607,65.2013],[-50.9237,65.1966],[-50.8544,65.114],[-50.812,65.0521],[-50.6813,64.9277],[-50.6776,64.8854],[-50.648,64.8531],[-50.5168,64.7664],[-50.2987,64.7785],[-50.2199,64.7536],[-50.1215,64.7039],[-50.0929,64.5848],[-50.0156,64.5076],[-50.0088,64.4473],[-50.158,64.4896],[-50.2691,64.615],[-50.3554,64.6827],[-50.4919,64.6933],[-50.6845,64.678],[-50.8491,64.6446],[-50.8575,64.6166],[-50.8348,64.5589],[-50.9068,64.5674],[-51.1099,64.5727],[-51.2317,64.5605],[-51.4037,64.4631],[-51.5338,64.3144],[-51.7079,64.2049],[-51.682,64.1647],[-51.5851,64.1033],[-51.5423,64.0969],[-51.4872,64.1033],[-51.3909,64.125],[-51.3465,64.1229],[-51.0724,64.1589],[-50.721,64.2234],[-50.4834,64.3044],[-50.4369,64.3128],[-50.4585,64.2658],[-50.4924,64.2292],[-50.4866,64.2091],[-50.3961,64.2033],[-50.2606,64.2144],[-50.3421,64.1705],[-50.585,64.1626],[-50.6993,64.1493],[-50.8978,64.1054],[-51.2798,64.053],[-51.5476,64.0059],[-51.4513,63.9049],[-51.538,63.7583],[-51.4687,63.6424],[-51.1877,63.4365],[-51.0131,63.2577],[-50.8904,63.1672],[-50.8041,63.091],[-50.7438,63.0513],[-50.6035,63.0],[-50.5718,62.9709],[-50.5014,62.9449],[-50.4083,62.8486],[-50.3903,62.8222],[-50.3384,62.8285],[-50.0924,62.9767],[-49.7928,63.0444],[-50.076,62.9037],[-50.2035,62.809],[-50.2987,62.7222],[-50.2559,62.6798],[-50.2596,62.5782],[-50.2807,62.5306],[-50.3194,62.4729],[-50.285,62.4661],[-50.1792,62.411],[-50.0701,62.3645],[-49.9431,62.3242],[-49.8061,62.2867],[-49.6854,62.2734],[-49.5537,62.2327],[-49.668,62.1507],[-49.6833,62.0925],[-49.6643,62.0168],[-49.6235,61.9988],[-49.3484,62.0104],[-49.278,62.0459],[-49.2023,62.0993],[-49.1203,62.1126],[-49.0081,62.1084],[-48.8287,62.0798],[-49.0398,62.0395],[-49.0705,62.0158],[-49.1298,61.9935],[-49.3134,61.9385],[-49.3801,61.8903],[-49.3626,61.8384],[-49.3044,61.7723],[-49.3113,61.748],[-49.2653,61.7099],[-49.1933,61.6855],[-49.2224,61.6321],[-49.2891,61.5898],[-49.2049,61.5485],[-49.0494,61.5242],[-48.9875,61.4289],[-48.9647,61.3522],[-48.9218,61.2776],[-48.597,61.2474],[-48.5578,61.2342],[-48.4948,61.2246],[-48.4281,61.1876],[-48.425,61.1717],[-48.3779,61.1384],[-48.3863,61.0045],[-48.1937,61.013],[-48.1461,60.9997],[-47.8588,61.0156],[-47.7704,60.9976],[-47.9059,60.9458],[-48.2053,60.8558],[-48.2419,60.8066],[-48.181,60.769],[-48.1075,60.7425],[-48.0138,60.7219],[-47.8281,60.7246],[-47.7302,60.7293],[-47.7889,60.8002],[-47.7963,60.8288],[-47.7074,60.8272],[-47.5788,60.8473],[-47.4645,60.8426],[-47.3698,60.8002],[-47.2243,60.7828],[-47.1248,60.8114],[-46.9798,60.8203],[-46.8745,60.8167],[-46.8057,60.8606],[-46.7179,60.905],[-46.5824,60.9622],[-46.2967,61.0225],[-46.012,61.0966],[-45.9702,61.1294],[-45.9755,61.176],[-45.9421,61.2056],[-45.8701,61.2183],[-45.8495,61.1813],[-45.8797,61.0939],[-45.9337,61.0283],[-46.0188,60.9717],[-46.1421,60.7764],[-46.0464,60.6156],[-45.9765,60.5997],[-45.9342,60.5796],[-45.695,60.542],[-45.5902,60.5187],[-45.4288,60.4685],[-45.3807,60.4452],[-45.2833,60.4547],[-45.0827,60.5071],[-44.7568,60.6648],[-44.7425,60.6553],[-44.8536,60.532],[-44.9748,60.4573],[-45.0822,60.4161],[-45.2023,60.3827],[-45.368,60.3727],[-45.3621,60.296],[-45.3791,60.2028],[-45.4114,60.1663]],[[-46.3813,60.6605],[-46.2665,60.7812],[-46.2543,60.8415],[-46.2189,60.8892],[-46.2051,60.9436],[-46.394,60.9087],[-46.7898,60.7796],[-46.7882,60.7584],[-46.666,60.7659],[-46.5533,60.741],[-46.4961,60.6865],[-46.3813,60.6605]],[[-64.6572,62.3835],[-64.5465,62.3914],[-64.4783,62.4179],[-64.418,62.4872],[-64.4651,62.5359],[-64.5153,62.5518],[-64.6318,62.5481],[-64.8238,62.5587],[-64.8487,62.5433],[-64.8498,62.5253],[-64.827,62.5052],[-64.8418,62.4941],[-64.9307,62.4851],[-64.9566,62.4581],[-64.9011,62.4211],[-64.8371,62.4063],[-64.6572,62.3835]],[[-67.9401,69.5347],[-67.9147,69.541],[-67.8448,69.5918],[-67.7544,69.6315],[-67.829,69.6749],[-67.9089,69.6818],[-67.9893,69.6786],[-68.093,69.6569],[-68.2216,69.6167],[-68.2026,69.5802],[-67.9401,69.5347]]]}}
