{"type":"Feature","properties":{"id":58,"name":"Kara Sea","featurecla":"sea","scalerank":2,"wikidataid":"Q33629","source":"Natural Earth 5.2.0-pre ne_10m_geography_marine_polys (public domain)"},"geometry":{"type":"Polygon","coordinates":[[[91.5544,81.1917],[95.1596,81.2806],[95.1596,81.2711],[95.0607,81.188],[94.8379,81.1393],[94.6114,81.1144],[94.3754,81.1076],[94.14,81.0895],[93.8891,81.0583],[93.6367,81.0382],[93.4975,81.0393],[93.3589,81.0319],[93.0652,80.9885],[92.9388,80.926],[92.7646,80.8932],[92.7101,80.8721],[92.6101,80.8102],[92.5927,80.781],[92.7731,80.7689],[93.2626,80.7911],[92.9811,80.7027],[92.8266,80.6186],[92.5778,80.5334],[92.2466,80.499],[91.8968,80.4773],[91.6878,80.4186],[91.5237,80.3588],[91.6375,80.2699],[91.8915,80.2492],[92.0921,80.2233],[92.2016,80.1794],[93.0023,80.1021],[93.6547,80.0095],[93.8722,80.0101],[94.3283,80.0762],[94.5649,80.1259],[94.6612,80.1228],[94.9612,80.1503],[95.856,80.1767],[97.1752,80.2408],[97.2631,80.2635],[97.2694,80.2392],[97.4457,80.1635],[97.1207,80.1529],[96.4164,80.1042],[96.2773,80.11],[96.1624,80.0968],[95.8576,80.11],[95.4978,80.1058],[95.3909,80.073],[95.338,80.0423],[95.2813,80.0307],[94.9871,80.0968],[94.9469,80.0894],[94.8152,80.0349],[94.7194,80.0111],[94.3474,79.9418],[94.2569,79.8296],[94.0383,79.7561],[93.8473,79.7015],[93.4044,79.6317],[93.071,79.4952],[93.2721,79.4581],[93.4785,79.4629],[93.7584,79.4512],[94.2188,79.4026],[94.3135,79.3073],[94.4823,79.2184],[94.6199,79.1925],[94.6316,79.1406],[94.6522,79.1274],[94.7908,79.0866],[95.0205,79.0528],[95.1332,79.0496],[95.4369,79.0994],[95.5312,79.0983],[95.7026,79.012],[95.7963,79.0015],[96.3471,79.0157],[96.4302,79.0031],[96.808,78.9851],[96.871,78.9639],[96.9329,78.9337],[97.2483,78.8681],[97.5557,78.8263],[97.6885,78.8274],[97.905,78.8104],[98.0542,78.821],[98.2822,78.7951],[98.4109,78.7877],[98.8194,78.8184],[99.4395,78.8342],[99.5406,78.8528],[99.9295,78.9613],[99.8999,79.0062],[99.8147,79.0957],[99.7507,79.1078],[99.5173,79.1301],[99.3173,79.2274],[99.0416,79.293],[99.1046,79.3052],[99.1671,79.3063],[99.3877,79.2745],[99.5375,79.2766],[99.6809,79.3232],[99.7216,79.3851],[99.7062,79.4634],[102.3145,79.4634],[102.3156,79.4311],[102.2822,79.4301],[102.2251,79.4132],[102.1806,79.3735],[102.1775,79.3126],[102.251,79.256],[102.1283,79.2523],[102.0055,79.2639],[101.9118,79.3115],[101.824,79.3703],[101.7615,79.3719],[101.6435,79.3613],[101.5906,79.3507],[101.5552,79.3126],[101.543,79.2544],[101.3106,79.2327],[101.1964,79.2046],[101.1487,79.157],[101.0525,79.1232],[101.0683,79.0962],[101.0308,79.0231],[100.9657,79.0068],[100.9011,78.9803],[100.8646,78.9258],[100.8561,78.8977],[100.898,78.8126],[100.9556,78.7887],[100.8757,78.7834],[100.6196,78.7972],[100.5159,78.7877],[100.4164,78.7533],[100.2841,78.6792],[100.2624,78.6316],[100.2571,78.5739],[100.2148,78.5358],[100.1629,78.504],[100.1237,78.4707],[100.0576,78.3802],[100.019,78.3389],[99.6777,78.2336],[99.5454,78.1786],[99.4385,78.0839],[99.2871,78.0378],[99.3919,78.0008],[99.5004,77.9759],[99.8449,77.9569],[100.0047,77.9691],[100.0068,77.9442],[100.9127,76.998],[100.9577,76.9562],[100.9058,76.9007],[100.9202,76.8223],[101.008,76.7816],[101.0995,76.7038],[101.0064,76.6149],[100.9281,76.5567],[101.0027,76.5308],[101.2128,76.5355],[101.6837,76.4853],[101.5975,76.4392],[101.3106,76.4789],[101.0609,76.4773],[100.844,76.5249],[100.3222,76.4789],[99.9359,76.49],[99.5761,76.4715],[98.8697,76.5096],[98.8056,76.4805],[98.9696,76.4308],[99.094,76.3842],[99.4607,76.2752],[99.6168,76.2403],[99.8253,76.136],[99.8512,75.9302],[99.7375,75.8804],[99.6094,75.8111],[99.5406,75.7984],[99.4422,75.8032],[99.6025,75.8519],[99.6893,75.9561],[99.7703,76.0286],[99.6634,76.0778],[99.6158,76.0826],[99.5628,76.1096],[99.1872,76.1778],[98.9845,76.2074],[98.7712,76.2239],[98.6622,76.2429],[98.342,76.1805],[98.1944,76.1662],[98.0198,76.1339],[97.9182,76.0889],[97.67,76.0778],[97.6377,76.0291],[97.4991,75.9804],[97.3509,76.0333],[97.2054,76.0185],[96.8794,75.9312],[96.4969,75.891],[96.5376,75.9217],[96.6006,75.99],[96.5085,76.0053],[95.9349,75.9259],[95.7439,75.8725],[95.6534,75.8921],[95.9862,76.0095],[96.0756,76.082],[95.9201,76.1133],[95.5787,76.1371],[95.3592,76.1397],[95.0385,76.1138],[94.5754,76.1519],[94.5067,76.108],[94.3881,76.1027],[94.1024,76.1238],[93.8431,76.1011],[93.6484,76.054],[93.3594,76.1006],[93.2594,76.099],[93.1049,76.026],[92.9716,76.0751],[92.8589,75.9794],[92.8906,75.9101],[92.9863,75.9027],[93.0689,75.9127],[93.1165,75.9445],[93.1779,75.9587],[93.406,75.9011],[93.4753,75.9328],[93.5743,75.9561],[93.687,75.9217],[94.1564,75.9593],[94.0754,75.9127],[93.5499,75.854],[92.6027,75.7788],[92.4075,75.7497],[91.8455,75.7238],[91.4793,75.6497],[91.0047,75.6497],[90.185,75.591],[89.5949,75.4582],[89.3102,75.4703],[88.7329,75.3692],[88.5038,75.2904],[87.6714,75.1295],[87.1708,75.192],[87.0062,75.1698],[86.9216,75.1126],[86.9391,75.0682],[87.1407,75.0724],[87.2873,75.0523],[87.4677,75.0131],[87.4196,74.9412],[87.0416,74.7787],[86.8628,74.7179],[86.6517,74.6824],[86.2014,74.8163],[86.1194,74.7576],[86.0591,74.7284],[85.8807,74.7401],[85.7913,74.6454],[86.1162,74.6284],[86.4258,74.5856],[86.6999,74.5226],[86.8941,74.4496],[87.1062,74.4035],[87.2295,74.3638],[86.8978,74.3252],[86.6649,74.4141],[86.5385,74.4443],[86.3956,74.4501],[86.1829,74.4231],[86.0013,74.3162],[86.1776,74.2792],[86.5713,74.2437],[86.6972,74.1956],[87.2094,73.8786],[87.3375,73.8463],[87.5031,73.8325],[87.5714,73.8108],[87.3693,73.7558],[87.2947,73.7045],[87.12,73.6151],[86.376,73.569],[86.1548,73.5346],[86.0924,73.5193],[85.9987,73.486],[85.9389,73.4563],[85.9098,73.3902],[85.9706,73.3468],[86.1215,73.3066],[86.7152,73.1256],[86.6771,73.1065],[86.5141,73.1404],[86.3077,73.196],[86.0982,73.2727],[85.8183,73.3272],[85.8024,73.3716],[85.7929,73.4383],[85.8003,73.459],[85.8272,73.4928],[86.0939,73.5786],[86.366,73.6198],[86.6977,73.7167],[87.0296,73.8241],[86.9613,73.8606],[86.893,73.8871],[86.5914,73.8945],[85.9791,73.8569],[85.6113,73.8214],[85.4484,73.7347],[85.2007,73.7214],[85.0774,73.7193],[84.7377,73.7627],[84.4176,73.722],[83.6672,73.6865],[83.5444,73.6664],[81.8173,73.659],[81.4691,73.6405],[80.5832,73.5685],[80.562,73.515],[80.5959,73.4738],[80.4583,73.4135],[80.398,73.3568],[80.2657,73.3426],[79.1899,73.1309],[78.9619,73.0139],[78.657,72.8922],[78.6333,72.851],[78.638,72.8472],[78.5724,72.8134],[78.3433,72.5134],[78.3411,72.5123],[78.2792,72.553],[77.7485,72.6313],[77.5786,72.6308],[77.378,72.5652],[77.2606,72.4864],[77.1495,72.4393],[76.9034,72.3657],[76.8711,72.317],[76.906,72.2974],[77.1458,72.2821],[77.6326,72.2911],[77.7808,72.3086],[78.0073,72.3927],[78.1543,72.417],[78.1771,72.4239],[78.1136,72.3901],[78.1136,72.3562],[77.9681,72.3287],[77.7331,72.2292],[77.6252,72.2017],[77.4717,72.1921],[77.44,72.1567],[77.4109,72.108],[77.4929,72.0715],[77.7808,72.1144],[78.0163,72.0921],[78.1406,72.0445],[78.2322,71.9524],[78.1866,71.9069],[77.7776,71.8365],[77.5506,71.8424],[77.0611,72.0043],[76.8717,72.0329],[76.4219,72.0059],[76.124,71.9265],[76.0324,71.9106],[76.1038,71.8291],[76.2155,71.6831],[76.3123,71.5952],[76.4335,71.5524],[76.8711,71.4465],[77.1135,71.4095],[77.4812,71.3116],[77.7067,71.3005],[77.9083,71.3243],[78.2126,71.2661],[78.3867,71.0872],[78.4914,71.0253],[78.5877,70.9941],[78.7238,70.9761],[78.8036,70.9735],[78.8889,70.9973],[79.0841,71.002],[79.0153,70.9502],[78.9423,70.9338],[78.5258,70.9115],[78.3205,70.9306],[78.0681,70.9862],[77.5897,71.1677],[76.9955,71.1809],[76.9288,71.128],[76.742,71.2021],[76.1102,71.2185],[75.7334,71.2661],[75.3323,71.3418],[75.2979,71.3783],[75.2804,71.4301],[75.417,71.4947],[75.4688,71.5344],[75.5032,71.6545],[75.2476,71.8132],[75.2741,71.9588],[75.3948,71.9831],[75.5503,72.171],[75.6445,72.2324],[75.6943,72.2535],[75.7414,72.2964],[75.6911,72.3498],[75.6445,72.3821],[75.5916,72.4573],[75.6032,72.5123],[75.6032,72.5811],[75.4746,72.6848],[75.3693,72.7965],[75.1524,72.8526],[74.9423,72.8536],[74.8651,72.8383],[74.7867,72.8118],[74.7576,72.8293],[74.6867,72.8859],[74.6761,72.8875],[74.6973,72.9076],[74.6603,72.9293],[74.6471,72.969],[74.7423,73.0324],[74.9613,73.0626],[74.7253,73.1081],[74.5999,73.1219],[74.4089,73.1304],[74.1983,73.1092],[74.1422,73.0743],[74.1004,73.0214],[74.1808,72.9753],[74.3094,72.9409],[74.1036,72.9711],[72.7658,72.7293],[72.7595,72.7076],[72.6341,72.7446],[72.4463,72.7901],[72.1012,72.8287],[71.9297,72.8197],[71.617,72.9023],[71.5001,72.9139],[70.6555,72.8906],[70.1724,72.9012],[69.8877,72.8827],[69.7385,72.8848],[69.6448,72.8975],[69.6586,72.9319],[69.7089,72.9563],[69.694,72.9774],[69.612,72.9822],[69.3914,72.9557],[69.0389,72.67],[68.8299,72.3916],[68.6077,72.0128],[68.4695,71.8524],[68.269,71.6826],[67.9594,71.5481],[67.5419,71.4122],[67.2742,71.3476],[66.9175,71.2825],[66.7683,71.1402],[66.6397,71.0814],[66.6926,71.0417],[66.8471,71.064],[66.7587,70.9624],[66.6661,70.9004],[66.6751,70.8645],[66.7021,70.8184],[66.8228,70.7973],[67.1434,70.8375],[67.2117,70.7983],[67.2848,70.7385],[67.2466,70.4999],[67.1567,70.2951],[67.1466,70.22],[67.1974,70.1718],[67.2392,70.1083],[67.1445,70.0305],[67.0689,70.0056],[66.9265,70.0141],[66.8323,69.8421],[66.8027,69.74],[66.8043,69.659],[66.8402,69.6093],[66.8969,69.5537],[66.9339,69.5966],[66.9641,69.6553],[67.0646,69.6934],[67.6239,69.5844],[67.7742,69.5299],[68.006,69.4802],[68.0732,69.4209],[68.1176,69.2362],[68.3552,69.0674],[68.5426,68.9668],[68.6595,68.9272],[68.7627,68.9177],[68.9246,68.9563],[69.1405,68.9505],[69.0241,68.8182],[68.8294,68.5673],[68.504,68.3483],[68.3711,68.3144],[68.1568,68.4038],[67.7308,68.5139],[67.6398,68.5795],[67.1493,68.7542],[67.0027,68.8737],[66.7566,68.8923],[66.4164,68.9478],[66.0846,69.0362],[65.8126,69.0769],[65.7359,69.1325],[65.5279,69.1732],[65.3268,69.2013],[65.0316,69.2701],[64.8961,69.2479],[64.9284,69.3251],[64.5923,69.4357],[64.1902,69.5347],[63.3615,69.6754],[62.6312,69.7432],[61.7703,69.7633],[61.0157,69.8516],[60.9093,69.8469],[60.813,69.821],[60.5585,69.6924],[60.2765,69.6527],[60.2648,69.6998],[60.3273,69.7151],[60.4405,69.7257],[60.477,69.794],[60.4807,69.8855],[60.4506,69.9347],[60.3924,69.9622],[60.1722,70.0231],[59.9558,70.1083],[59.6362,70.1972],[59.5293,70.249],[59.4261,70.311],[59.3097,70.3618],[59.0885,70.4369],[59.0483,70.4607],[59.0054,70.465],[58.7943,70.4332],[58.6778,70.3596],[58.6154,70.3506],[58.5201,70.3183],[58.4768,70.2708],[57.62,70.7248],[57.6195,70.7269],[57.6254,70.729],[57.5565,70.766],[57.4835,70.7925],[57.0655,70.8761],[56.8951,70.9269],[56.4543,71.1073],[56.0431,71.3455],[55.8193,71.5074],[55.6134,71.69],[55.5468,71.7836],[55.4711,71.8694],[55.2981,71.9355],[55.3748,72.0149],[55.4034,72.1069],[55.4949,72.1821],[55.5182,72.2207],[55.3991,72.3138],[55.3907,72.3779],[55.3594,72.4086],[55.3557,72.4652],[55.4171,72.5012],[55.4034,72.5493],[55.4415,72.5753],[55.6166,72.5991],[55.7013,72.6716],[55.7187,72.7213],[55.7235,72.7663],[55.8198,72.7896],[56.0838,72.7896],[56.1215,72.8065],[56.1707,72.8483],[56.1929,72.9049],[56.1669,72.9832],[56.1892,73.033],[56.3347,73.1134],[56.3977,73.1394],[56.4294,73.2013],[56.4003,73.2103],[56.4892,73.2992],[56.6342,73.3044],[56.9639,73.3664],[57.1343,73.5045],[57.4597,73.6103],[57.5428,73.6579],[57.4645,73.7458],[57.2909,73.8146],[57.3131,73.8378],[57.4486,73.8257],[57.6036,73.7754],[57.6576,73.768],[57.756,73.769],[57.8449,73.8051],[57.8725,73.8505],[57.8534,73.8977],[57.7783,73.9739],[57.7672,74.0141],[58.4413,74.1289],[58.6181,74.2273],[58.6651,74.2892],[58.6455,74.3279],[58.5619,74.422],[58.5021,74.4644],[58.5344,74.4988],[58.9281,74.4628],[59.0403,74.4855],[59.1012,74.5078],[59.1461,74.5517],[59.1572,74.611],[59.1822,74.666],[59.2403,74.693],[59.5959,74.6136],[59.6743,74.6104],[59.7526,74.6369],[59.7716,74.6644],[59.7346,74.6956],[59.7473,74.7459],[59.9823,74.7448],[60.0801,74.756],[60.2225,74.7967],[60.3008,74.8369],[60.4389,74.8756],[60.5014,74.9047],[60.4548,74.9459],[60.241,74.9708],[60.277,75.0073],[60.4754,75.0549],[60.5336,75.0592],[60.6553,75.0549],[60.7194,75.0687],[60.8294,75.111],[60.9358,75.1639],[61.1475,75.2227],[61.2485,75.2809],[61.356,75.3148],[61.4867,75.3111],[61.6163,75.3195],[62.0661,75.428],[63.0461,75.5756],[63.3165,75.6032],[63.6594,75.6688],[63.7795,75.6725],[64.2627,75.7196],[64.7448,75.7884],[65.2014,75.8397],[65.6189,75.9048],[66.2825,75.9836],[66.6577,76.0471],[66.8932,76.0725],[67.127,76.108],[67.3652,76.1614],[67.7652,76.2376],[68.1653,76.2847],[68.2224,76.3133],[68.5584,76.4493],[68.8998,76.5731],[68.8579,76.6107],[68.8908,76.6599],[68.9416,76.7075],[68.9119,76.7604],[68.9199,76.7668],[65.4491,80.9626],[65.3628,81.0144],[65.3819,81.0567],[65.3607,81.0684],[89.8701,81.1478],[89.9193,81.1488],[89.9759,81.1133],[91.2226,81.0636],[91.5672,81.1414],[91.4777,81.1838],[91.3899,81.1874],[91.5544,81.1917]],[[96.7403,76.2577],[96.7392,76.2069],[96.7545,76.1958],[96.7979,76.1884],[96.8541,76.199],[96.9742,76.2366],[97.053,76.3027],[97.0451,76.3154],[96.99,76.3435],[96.8778,76.3551],[96.835,76.3451],[96.8329,76.3244],[96.7403,76.2577]],[[96.4868,76.2339],[96.5895,76.2212],[96.6138,76.2636],[96.5323,76.2784],[96.2709,76.3054],[96.1508,76.272],[95.7862,76.2937],[95.5946,76.2498],[95.3798,76.289],[95.3221,76.2614],[95.311,76.2149],[95.6787,76.1937],[95.8444,76.1604],[96.109,76.1556],[96.3005,76.1217],[96.3534,76.1773],[96.3508,76.2122],[96.4868,76.2339]],[[95.8539,77.0975],[95.4205,77.0563],[95.2702,77.0187],[95.3639,77.0113],[95.6809,77.0213],[95.7661,76.9906],[95.8544,76.9747],[96.0915,77.0028],[96.21,76.9922],[96.2534,77.007],[96.2852,77.0266],[96.4244,77.0711],[96.5614,77.1298],[96.5619,77.1541],[96.5286,77.2055],[95.8539,77.0975]],[[92.4408,79.6756],[92.6837,79.6851],[92.926,79.7047],[93.1552,79.7375],[93.3822,79.7841],[93.6033,79.8169],[93.8029,79.9047],[93.4817,79.9413],[92.5927,79.9963],[92.1736,80.0455],[91.7518,80.0524],[91.4259,80.0492],[91.2296,80.0307],[91.0702,79.9815],[91.1258,79.9047],[91.3761,79.8354],[91.6835,79.7904],[92.1535,79.6846],[92.4408,79.6756]],[[89.2996,77.1838],[89.5145,77.1891],[89.6658,77.2547],[89.6796,77.2801],[89.6161,77.3113],[89.2817,77.3012],[89.2007,77.2721],[89.1415,77.2266],[89.1795,77.2097],[89.2996,77.1838]],[[86.9269,74.8306],[87.0116,74.8618],[87.1243,74.9401],[87.0523,74.9825],[87.0004,74.992],[86.7369,74.9629],[86.6533,74.9814],[86.6056,74.993],[86.5046,74.966],[86.3305,74.939],[86.2585,74.8935],[86.3903,74.8507],[86.6919,74.8486],[86.9269,74.8306]],[[83.4105,74.0395],[83.4502,74.0516],[83.4958,74.0485],[83.5492,74.0717],[83.6185,74.0892],[83.5137,74.1226],[83.1497,74.1517],[82.9031,74.1289],[82.8179,74.0919],[83.1592,74.0754],[83.4105,74.0395]],[[81.9268,75.41],[81.8421,75.4068],[81.7119,75.4513],[81.5008,75.3677],[81.532,75.3396],[81.5791,75.3312],[81.6548,75.2888],[81.6976,75.2804],[81.8606,75.3163],[81.9051,75.2629],[81.9786,75.247],[82.0501,75.3412],[82.1792,75.3391],[82.2215,75.3508],[82.2088,75.3867],[82.1723,75.4195],[82.1655,75.5158],[82.0221,75.5137],[81.9125,75.4978],[81.9099,75.4597],[81.9268,75.41]],[[79.0984,80.8123],[80.0266,80.8482],[80.3446,80.8678],[80.3732,80.8827],[80.4276,80.9276],[80.2795,80.9498],[79.8064,80.9753],[79.2175,80.9604],[79.11,80.9234],[78.9777,80.8482],[79.0068,80.835],[79.0984,80.8123]],[[76.8103,79.4894],[77.5892,79.502],[77.5495,79.5243],[77.3601,79.5571],[76.4674,79.6433],[76.3726,79.6153],[76.2488,79.6513],[76.1483,79.6645],[76.0515,79.6449],[76.0721,79.6259],[76.1536,79.5788],[76.4578,79.5455],[76.6367,79.5444],[76.6494,79.4936],[76.8103,79.4894]],[[76.6594,73.4394],[76.7563,73.4458],[76.2504,73.5553],[76.1398,73.5542],[76.0832,73.5235],[76.2346,73.4764],[76.6594,73.4394]],[[75.3752,73.4775],[75.3445,73.4325],[75.5037,73.4569],[75.8271,73.459],[75.9011,73.4817],[76.0515,73.5495],[76.0393,73.56],[75.9303,73.5738],[75.5699,73.5405],[75.3752,73.4775]],[[70.9402,73.5145],[70.3502,73.4775],[70.1497,73.4447],[69.9957,73.3595],[70.019,73.2245],[69.9856,73.169],[69.9306,73.1266],[69.92,73.0843],[70.0406,73.0372],[70.1184,73.0563],[70.2983,73.0446],[70.3804,73.0483],[70.6741,73.0949],[70.8868,73.1198],[71.3556,73.1626],[71.626,73.1737],[71.6302,73.2245],[71.5895,73.2833],[71.445,73.342],[71.3514,73.3722],[71.2318,73.4479],[71.1413,73.478],[71.0233,73.5045],[70.9402,73.5145]]]}}
