{"type":"Feature","properties":{"id":59,"name":"Laptev Sea","featurecla":"sea","scalerank":2,"wikidataid":"Q7988","source":"Natural Earth 5.2.0-pre ne_10m_geography_marine_polys (public domain)"},"geometry":{"type":"Polygon","coordinates":[[[96.1968,81.2673],[138.8445,76.253],[138.8428,76.199],[138.8138,76.1995],[138.4307,76.1302],[138.2074,76.1148],[138.0963,76.0805],[138.0385,76.0471],[137.9772,76.0276],[137.7745,76.0159],[137.6253,75.9884],[137.5607,75.9551],[137.5014,75.9095],[137.5935,75.8233],[137.7068,75.7598],[137.3586,75.7815],[137.2686,75.7492],[137.2152,75.5545],[137.2897,75.3486],[137.166,75.3465],[136.9823,75.3656],[136.9474,75.3254],[136.9622,75.2703],[136.9135,75.2613],[136.2446,73.9918],[136.0367,74.0903],[135.6281,74.2199],[135.3869,74.2532],[135.4023,74.2019],[135.4488,74.1797],[135.6335,74.1215],[135.7144,74.0596],[136.0515,73.9289],[136.0965,73.9003],[132.6887,71.9493],[132.6617,71.9186],[132.6537,71.926],[132.5622,71.8953],[132.3256,71.7265],[132.2278,71.6429],[132.0986,71.4841],[132.0033,71.3502],[131.9907,71.2931],[132.0352,71.2439],[131.9066,71.2026],[131.769,71.1015],[131.5621,70.901],[131.4324,70.8285],[131.2684,70.7655],[131.1573,70.7422],[131.0218,70.7459],[130.898,70.8036],[130.8318,70.9359],[130.7572,70.9624],[130.6683,70.8883],[130.5371,70.8925],[130.2815,70.9476],[130.0259,71.0656],[129.7619,71.1195],[129.3899,71.4047],[129.2248,71.509],[129.1343,71.5931],[128.9226,71.6016],[128.8432,71.6635],[128.9491,71.7074],[129.2343,71.745],[129.4608,71.7392],[129.292,71.8503],[129.2105,71.917],[129.1216,71.9535],[129.1544,71.8789],[129.1168,71.8244],[129.04,71.7826],[128.9115,71.7551],[128.359,72.0884],[128.0267,72.2498],[127.8415,72.308],[127.7261,72.4133],[127.8034,72.434],[128.1971,72.3096],[128.4749,72.2456],[128.9348,72.0794],[129.2835,72.0921],[129.4104,72.1662],[129.4116,72.3154],[129.2814,72.4377],[129.1168,72.4858],[128.5495,72.4959],[128.4182,72.5351],[128.5083,72.5472],[128.6337,72.5504],[128.8151,72.5859],[129.1179,72.6769],[129.2506,72.7054],[129.229,72.7758],[129.0173,72.8727],[128.6739,72.8859],[128.5987,72.8954],[128.7353,72.943],[128.8538,72.9727],[129.0539,73.0452],[129.1004,73.1124],[129.0591,73.1076],[128.9136,73.1108],[128.8718,73.1394],[128.8888,73.1902],[128.7305,73.2335],[128.5871,73.2627],[128.258,73.2674],[128.2643,73.3007],[128.2812,73.3304],[128.1416,73.3526],[128.0256,73.3907],[127.9971,73.4256],[127.9552,73.4458],[127.7405,73.4817],[127.0313,73.5473],[126.9552,73.5283],[126.8387,73.4341],[126.5525,73.3351],[126.3355,73.3886],[126.2926,73.3944],[126.2572,73.4198],[126.3091,73.4637],[126.345,73.5061],[126.2958,73.5368],[126.2545,73.5484],[126.1074,73.5177],[125.8879,73.4981],[125.7942,73.4685],[125.5984,73.4473],[125.6169,73.5209],[124.7961,73.7119],[124.5411,73.7511],[124.3881,73.7548],[124.0188,73.7125],[123.9336,73.6891],[123.7966,73.6267],[123.4913,73.6664],[123.4161,73.6367],[123.3309,73.5569],[118.9367,73.4748],[118.9367,73.4812],[118.9113,73.5182],[118.871,73.5378],[118.4504,73.5897],[117.3084,73.5992],[116.4957,73.6759],[115.3378,73.7024],[114.8161,73.6071],[114.0604,73.5849],[113.8567,73.5336],[113.5101,73.505],[113.5392,73.4336],[113.7112,73.3785],[113.7953,73.3674],[113.8863,73.3457],[113.8292,73.3267],[113.7651,73.3182],[113.6392,73.2738],[113.5588,73.2325],[113.5815,73.142],[113.5429,73.0541],[113.4175,72.9324],[113.3117,72.8785],[113.2153,72.806],[113.2979,72.7388],[113.3916,72.7112],[113.6302,72.6769],[113.7116,72.6541],[113.6646,72.6345],[113.3122,72.6573],[113.1862,72.7303],[113.1582,72.7695],[113.128,72.8309],[113.2476,72.897],[113.3693,72.942],[113.4747,73.0478],[113.4873,73.1452],[113.491,73.3462],[113.2767,73.3912],[113.1572,73.4595],[113.3646,73.5828],[113.4164,73.6473],[113.327,73.7077],[113.1815,73.8373],[113.0328,73.914],[112.9349,73.9458],[112.8397,73.9617],[112.8423,73.9781],[112.7745,74.0913],[112.7751,74.0956],[112.7825,74.095],[112.8116,74.103],[112.9777,74.1966],[113.1904,74.2395],[113.2588,74.2728],[113.299,74.3173],[113.3529,74.3527],[113.3873,74.4004],[113.4196,74.4083],[113.6117,75.2909],[113.6112,75.292],[113.6138,75.2931],[113.726,75.4507],[113.5588,75.5021],[113.3561,75.5344],[113.2429,75.6116],[113.1614,75.6206],[112.9555,75.5719],[112.7296,75.7375],[112.4528,75.8302],[112.466,75.8439],[112.4967,75.8497],[112.629,75.8354],[113.1265,75.6989],[113.3916,75.6778],[113.4688,75.6566],[113.517,75.6217],[113.4858,75.564],[113.5678,75.5682],[113.6196,75.5926],[113.7487,75.7047],[113.871,75.8561],[113.8572,75.9212],[113.5641,75.8915],[113.4275,76.1122],[113.3656,76.1789],[113.2725,76.2519],[113.0863,76.2582],[112.9878,76.2397],[113.0661,76.2154],[113.1503,76.1747],[113.0942,76.1328],[113.0466,76.1143],[112.819,76.0588],[112.656,76.0535],[112.7216,76.0773],[112.7984,76.1297],[112.7428,76.1868],[112.6841,76.2191],[112.6195,76.3837],[112.4131,76.4085],[112.2973,76.4345],[112.1427,76.4239],[111.9427,76.3805],[112.0168,76.4207],[112.0941,76.4805],[111.9385,76.5535],[111.7861,76.6033],[111.6004,76.6223],[111.3924,76.6869],[111.1151,76.7229],[110.4716,76.7583],[109.981,76.7118],[109.3694,76.7493],[108.6386,76.7202],[108.3523,76.7197],[108.1814,76.7377],[108.0279,76.7186],[107.9501,76.6604],[107.9025,76.57],[107.7221,76.5223],[107.6242,76.5101],[107.1579,76.5239],[106.8251,76.48],[106.6833,76.5149],[106.4134,76.5123],[106.3849,76.5895],[106.5452,76.5863],[106.6388,76.5736],[106.941,76.7303],[107.1902,76.8218],[107.43,76.9266],[107.2787,76.9912],[106.9416,77.0345],[106.7838,77.0319],[106.705,77.0139],[106.3388,77.0478],[106.1451,77.0451],[105.8224,76.9975],[105.7123,77.0012],[105.6456,77.1007],[105.3202,77.0922],[104.2026,77.1018],[104.3237,77.1325],[104.9117,77.1748],[105.3848,77.2377],[105.734,77.352],[106.0594,77.3907],[105.9832,77.4478],[105.8943,77.4891],[105.8155,77.5044],[105.8245,77.5494],[105.4011,78.5548],[105.3366,78.5749],[105.3424,78.594],[105.3101,78.6659],[105.2561,78.7332],[105.2048,78.7797],[105.1461,78.8189],[105.0148,78.8433],[104.881,78.8549],[104.6333,78.8353],[104.4518,78.8803],[104.4772,78.9231],[104.4492,78.9639],[104.4042,78.9771],[104.0909,79.0131],[104.0041,79.0623],[103.9258,79.1232],[103.8009,79.1491],[103.6729,79.1502],[103.4331,79.1263],[103.1993,79.0713],[103.0754,79.0565],[102.9506,79.056],[102.8448,79.0142],[102.7479,78.9496],[102.5871,78.8713],[102.4124,78.8353],[102.4479,78.8766],[102.7458,79.1062],[102.787,79.1766],[102.885,79.2539],[102.9395,79.2713],[103.0527,79.2824],[103.0977,79.2994],[103.0416,79.3317],[102.7897,79.392],[102.405,79.4332],[102.3156,79.4311],[102.3145,79.4634],[99.7062,79.4634],[99.7211,79.492],[99.7491,79.5153],[99.7714,79.5677],[99.7814,79.6285],[99.8057,79.6529],[99.8391,79.6687],[99.9158,79.7386],[100.0613,79.7772],[99.9465,79.8492],[99.8184,79.8984],[99.7263,79.9201],[99.5364,79.9413],[99.4729,79.9704],[99.3708,79.9862],[99.2951,80.0164],[98.8659,80.0455],[98.5966,80.0524],[98.5321,80.0434],[98.4716,80.009],[98.4992,79.9529],[98.3531,79.8841],[98.2733,79.8741],[98.0648,79.901],[97.8706,79.8529],[97.7245,79.7815],[97.6514,79.7608],[97.5912,79.7751],[97.6271,79.8502],[97.76,79.8957],[97.8081,79.9561],[97.9066,80.0037],[98.0177,80.0228],[97.9034,80.0952],[97.6743,80.1582],[97.5869,80.1683],[97.4457,80.1635],[97.2694,80.2392],[97.2631,80.2635],[97.2985,80.2725],[97.4171,80.3233],[97.2869,80.3424],[97.2504,80.363],[97.1149,80.4964],[97.0726,80.5196],[97.0255,80.5355],[97.1133,80.6138],[97.2213,80.6524],[97.6652,80.6779],[97.7473,80.6985],[97.8563,80.698],[97.87,80.7631],[97.8319,80.7985],[97.7028,80.8266],[97.4139,80.8419],[96.7551,80.9578],[96.6932,80.9943],[96.563,81.0303],[96.5265,81.0758],[96.4709,81.0991],[96.1868,81.1838],[96.1968,81.2673]],[[135.5234,75.4957],[135.4732,75.4635],[135.452,75.3894],[135.7462,75.382],[135.9489,75.4095],[136.0203,75.4386],[135.9653,75.4862],[135.9833,75.5217],[136.169,75.6058],[136.1272,75.6254],[135.905,75.6942],[135.8494,75.7291],[135.788,75.7984],[135.6985,75.845],[135.6139,75.7661],[135.5785,75.7101],[135.5615,75.6365],[135.5927,75.5767],[135.5234,75.4957]],[[112.3941,76.644],[112.2813,76.6181],[112.011,76.6329],[111.9692,76.626],[112.0025,76.6027],[112.1539,76.5493],[112.2967,76.5382],[112.3946,76.4837],[112.5317,76.4498],[112.5751,76.4525],[112.5867,76.4831],[112.6142,76.499],[112.6608,76.5096],[112.6327,76.553],[112.4782,76.6208],[112.3941,76.644]],[[107.5083,78.1892],[106.5833,78.1675],[106.4156,78.14],[107.0019,78.0955],[107.3437,78.0987],[107.4818,78.0579],[107.6062,78.0828],[107.6956,78.131],[107.5733,78.1855],[107.5083,78.1892]],[[107.4866,77.3473],[107.3664,77.3468],[107.2696,77.2891],[107.3024,77.2415],[107.4146,77.2425],[107.6791,77.2684],[107.6644,77.2996],[107.6295,77.3198],[107.5935,77.3298],[107.4866,77.3473]],[[106.4568,78.34],[106.3505,78.2728],[106.0584,78.2649],[106.0234,78.2199],[106.151,78.1987],[106.2705,78.2061],[106.4727,78.2453],[106.505,78.2617],[106.6791,78.2649],[106.7188,78.2649],[106.7198,78.294],[106.6912,78.3167],[106.6404,78.3363],[106.4568,78.34]]]}}
