{"type":"Feature","properties":{"id":61,"name":"Great Australian Bight","featurecla":"gulf","scalerank":3,"wikidataid":"Q186733","source":"Natural Earth 5.2.0-pre ne_10m_geography_marine_polys (public domain)"},"geometry":{"type":"Polygon","coordinates":[[[145.9062,-43.3942],[118.0472,-35.0604],[118.036,-35.0075],[118.036,-35.007],[118.1356,-34.9869],[118.5202,-34.7371],[118.8954,-34.4799],[119.0811,-34.4593],[119.2478,-34.4567],[119.4505,-34.3683],[119.6352,-34.101],[119.7294,-34.0412],[119.8543,-33.9746],[120.2093,-33.9354],[120.4184,-33.9629],[120.5306,-33.9195],[120.8147,-33.8714],[121.4053,-33.8269],[121.7297,-33.8624],[121.9466,-33.8565],[122.0609,-33.8746],[122.1509,-33.992],[122.7774,-33.891],[122.9557,-33.8836],[123.0674,-33.9005],[123.2076,-33.9883],[123.3653,-33.9053],[123.5066,-33.9164],[123.6505,-33.8364],[123.8685,-33.5962],[123.9675,-33.4464],[124.1263,-33.1295],[124.2437,-33.0152],[124.3734,-32.9586],[124.5247,-32.9401],[124.7586,-32.8829],[125.2666,-32.6146],[125.4634,-32.5564],[125.5677,-32.5061],[125.9175,-32.2971],[126.1365,-32.2569],[126.7795,-32.3108],[127.0843,-32.2971],[127.3198,-32.2638],[127.678,-32.1511],[128.0675,-32.0664],[128.5458,-31.8875],[128.9464,-31.7029],[129.1877,-31.66],[130.1296,-31.579],[130.7832,-31.6039],[130.9483,-31.5658],[131.0292,-31.5319],[131.1434,-31.496],[131.2848,-31.5208],[131.3933,-31.5484],[131.7213,-31.6965],[132.2145,-32.0071],[132.3235,-32.0198],[132.6485,-31.9494],[132.7574,-31.9563],[133.212,-32.1839],[133.4004,-32.1886],[133.5512,-32.1828],[133.6655,-32.2071],[133.7867,-32.269],[133.9301,-32.4119],[134.2344,-32.5485],[134.2492,-32.6585],[134.227,-32.7305],[134.1587,-32.7331],[134.1005,-32.7485],[134.1735,-32.9792],[134.301,-33.165],[134.608,-33.1903],[134.7191,-33.2554],[134.7911,-33.3285],[134.8466,-33.4449],[134.889,-33.6264],[135.0419,-33.7777],[135.1853,-33.9068],[135.2192,-33.9597],[135.2863,-34.1423],[135.3118,-34.1952],[135.3678,-34.3757],[135.4499,-34.581],[135.4271,-34.6022],[135.379,-34.5974],[135.2927,-34.5455],[135.217,-34.4874],[135.1758,-34.4969],[135.1297,-34.5365],[135.1228,-34.5857],[135.1911,-34.5725],[135.2308,-34.58],[135.3239,-34.6429],[135.4118,-34.7154],[135.4811,-34.7582],[135.6478,-34.9398],[135.669,-34.9265],[136.5431,-35.8848],[136.5405,-35.8902],[136.5892,-35.9351],[136.7553,-36.033],[136.9125,-36.0468],[137.0257,-36.024],[137.148,-36.0388],[137.2093,-35.9822],[137.3823,-36.0209],[137.4485,-36.0749],[137.5903,-36.0272],[137.6221,-35.9383],[137.6708,-35.8981],[137.8353,-35.8679],[138.0121,-35.9076],[138.0666,-35.9008],[138.1237,-35.8526],[138.0539,-35.7642],[138.2185,-35.6181],[138.3894,-35.6446],[138.5217,-35.6425],[138.7297,-35.551],[138.7709,-35.5382],[138.8752,-35.5366],[138.9154,-35.489],[139.0175,-35.443],[139.0937,-35.3896],[139.1927,-35.3472],[139.2826,-35.3753],[139.325,-35.4266],[139.2921,-35.4858],[139.2895,-35.6113],[139.2308,-35.5975],[139.1778,-35.5229],[139.1122,-35.5425],[139.0667,-35.5986],[138.9688,-35.5806],[138.9852,-35.6176],[139.0376,-35.6891],[139.2451,-35.8272],[139.4657,-36.0103],[139.5488,-36.0965],[139.7287,-36.3712],[139.8573,-36.6622],[139.8467,-36.7479],[139.7837,-36.9024],[139.7382,-37.0596],[139.7424,-37.1416],[139.7843,-37.2459],[139.8747,-37.3522],[140.2124,-37.6422],[140.3902,-37.8968],[140.6273,-38.0285],[141.0109,-38.0766],[141.2141,-38.1719],[141.4242,-38.3635],[141.4919,-38.3799],[141.594,-38.3878],[141.7253,-38.2714],[141.9248,-38.2836],[142.1877,-38.3995],[142.3444,-38.3719],[142.456,-38.3862],[142.6121,-38.4519],[142.8402,-38.581],[143.0826,-38.6461],[143.2265,-38.7429],[143.3387,-38.7577],[143.5387,-38.8207],[143.5535,-38.8154],[143.9499,-39.5837],[143.9488,-39.5837],[143.9393,-39.6584],[143.8795,-39.7002],[143.8621,-39.7382],[143.8652,-39.824],[143.8387,-39.9039],[143.8874,-39.9838],[143.8758,-40.0642],[143.8985,-40.1203],[143.9282,-40.1161],[143.9869,-40.0954],[144.7076,-40.6357],[144.7187,-40.6722],[144.7098,-40.7828],[144.6462,-40.9808],[144.6627,-41.0791],[144.6976,-41.1908],[144.7642,-41.3416],[144.7659,-41.3903],[144.778,-41.4189],[144.9156,-41.6438],[145.0553,-41.8269],[145.2384,-42.0195],[145.259,-42.1074],[145.2347,-42.1968],[145.2945,-42.1909],[145.331,-42.147],[145.3395,-42.1909],[145.3601,-42.2274],[145.5167,-42.3545],[145.5273,-42.3883],[145.4681,-42.4931],[145.4347,-42.4063],[145.3728,-42.3386],[145.1987,-42.2306],[145.2368,-42.4555],[145.268,-42.5444],[145.4876,-42.9265],[145.5178,-42.9513],[145.5675,-42.9678],[145.6099,-42.9985],[145.6818,-43.0762],[145.8025,-43.244],[145.8734,-43.2921],[145.9755,-43.2773],[146.1253,-43.3112],[146.1766,-43.3016],[146.2079,-43.316],[146.2264,-43.3551],[146.1089,-43.3546],[145.9945,-43.3763],[145.9819,-43.4086],[145.9887,-43.417],[145.9062,-43.3942]]]}}
