{"type":"Feature","properties":{"id":62,"name":"Gulf of Aden","featurecla":"gulf","scalerank":3,"wikidataid":"Q41837","source":"Natural Earth 5.2.0-pre ne_10m_geography_marine_polys (public domain)"},"geometry":{"type":"Polygon","coordinates":[[[51.2674,15.1871],[51.2674,11.8306],[51.2547,11.8306],[51.1912,11.8423],[50.7922,11.9836],[50.6361,11.9439],[50.5282,11.8232],[50.4663,11.7274],[50.1101,11.5295],[49.6423,11.4507],[49.3883,11.3427],[49.0618,11.2708],[48.9385,11.2586],[48.9031,11.2549],[48.6745,11.3226],[48.5724,11.3205],[48.439,11.2903],[48.0194,11.1395],[47.7125,11.112],[47.4738,11.175],[47.405,11.1739],[47.2304,11.0998],[46.9732,10.9252],[46.5652,10.7458],[46.4605,10.7342],[46.2541,10.7813],[46.0244,10.7935],[45.8165,10.8358],[45.6958,10.804],[45.3376,10.6495],[44.9428,10.4368],[44.3866,10.4304],[44.2792,10.4717],[44.1581,10.5506],[43.8527,10.7845],[43.631,11.0353],[43.441,11.3464],[43.1616,11.566],[43.0426,11.5883],[42.9113,11.5867],[42.7896,11.5618],[42.6526,11.5094],[42.5838,11.4967],[42.5399,11.5041],[42.5219,11.5724],[42.6399,11.5602],[42.7991,11.7396],[43.0478,11.829],[43.2722,11.9698],[43.3368,12.0269],[43.3802,12.0915],[43.4098,12.1899],[43.3537,12.3672],[43.3003,12.4614],[43.4892,12.6995],[43.6342,12.7445],[43.8352,12.6747],[43.93,12.6164],[44.0056,12.6074],[44.1114,12.6387],[44.2602,12.6445],[44.3586,12.6694],[44.6179,12.817],[44.7555,12.7636],[44.8899,12.7842],[45.0386,12.8159],[45.1095,12.9387],[45.164,12.9985],[45.3936,13.0673],[45.5339,13.2335],[45.6572,13.3387],[45.9197,13.3943],[46.2033,13.424],[46.5023,13.4155],[46.6636,13.433],[46.7891,13.4658],[46.9759,13.5472],[47.2426,13.6092],[47.4076,13.6615],[47.6336,13.8584],[47.8553,13.9568],[47.9162,14.0129],[47.9897,14.0479],[48.2776,13.9976],[48.4491,14.006],[48.5935,14.0462],[48.6681,14.0499],[48.7798,14.124],[48.9285,14.2675],[49.0047,14.3553],[49.048,14.4564],[49.1031,14.5003],[49.3497,14.6379],[49.5486,14.7225],[49.9064,14.8284],[50.1667,14.8511],[50.3387,14.9273],[50.5271,15.0384],[51.015,15.1406],[51.261,15.2094],[51.2674,15.1871]]]}}
