{"type":"Feature","properties":{"id":63,"name":"Gulf of Oman","featurecla":"gulf","scalerank":3,"wikidataid":"Q79948","source":"Natural Earth 5.2.0-pre ne_10m_geography_marine_polys (public domain)"},"geometry":{"type":"Polygon","coordinates":[[[61.4009,25.0826],[59.8399,22.4632],[59.8309,22.4616],[59.8235,22.5092],[59.6954,22.5462],[59.5351,22.5785],[59.4293,22.6611],[59.3107,22.7934],[59.1948,22.9717],[59.0298,23.1304],[58.9831,23.2347],[58.9117,23.3342],[58.8302,23.3977],[58.7731,23.5173],[58.5779,23.6432],[58.5,23.6459],[58.3932,23.6184],[58.3244,23.6236],[58.1206,23.7168],[57.8253,23.7591],[57.611,23.8036],[57.22,23.9226],[57.1232,23.9808],[56.9125,24.1502],[56.7739,24.3348],[56.6406,24.4703],[56.4898,24.7164],[56.3881,24.9794],[56.3728,25.0185],[56.3633,25.5694],[56.2976,25.6509],[56.3072,25.7091],[56.3294,25.7519],[56.3739,25.8043],[56.4162,26.1086],[56.4178,26.2081],[56.4252,26.2785],[57.1655,26.0991],[57.2036,26.1001],[57.2057,26.0372],[57.2607,25.9186],[57.3348,25.7916],[57.7327,25.725],[57.7962,25.653],[57.9365,25.6916],[58.0222,25.6408],[58.2026,25.5916],[58.3143,25.581],[58.5307,25.5927],[58.7979,25.5546],[59.0461,25.4175],[59.2271,25.4276],[59.4562,25.4815],[59.616,25.4032],[59.8182,25.4011],[59.897,25.3619],[60.0246,25.3842],[60.4003,25.3117],[60.5103,25.4371],[60.5876,25.4133],[60.6151,25.3297],[60.6638,25.282],[61.1089,25.1841],[61.2432,25.1418],[61.4057,25.1037],[61.4009,25.0826]]]}}
