{"type":"Feature","properties":{"id":64,"name":"Tyrrhenian Sea","featurecla":"sea","scalerank":3,"wikidataid":"Q38882","source":"Natural Earth 5.2.0-pre ne_10m_geography_marine_polys (public domain)"},"geometry":{"type":"Polygon","coordinates":[[[12.453,37.7296],[8.906,38.9192],[8.9023,38.9256],[8.9669,38.9636],[9.0224,39.043],[9.0563,39.2393],[9.1018,39.2113],[9.1494,39.197],[9.2071,39.2139],[9.2643,39.2166],[9.3881,39.1674],[9.4865,39.1393],[9.5627,39.1658],[9.5839,39.2536],[9.6172,39.3542],[9.686,39.9246],[9.7066,40.0172],[9.7008,40.0918],[9.6595,40.159],[9.6432,40.2686],[9.7543,40.4004],[9.7828,40.4416],[9.8051,40.4998],[9.7945,40.5564],[9.6818,40.8178],[9.6321,40.8819],[9.5738,40.9147],[9.5537,40.9322],[9.5897,40.9925],[9.6209,41.0046],[9.6156,41.0173],[9.5754,41.0306],[9.5389,41.0539],[9.5003,41.1063],[9.4553,41.1501],[9.351,41.1957],[9.2828,41.2015],[9.2283,41.2571],[9.2024,41.2486],[9.1981,41.2618],[9.187,41.3867],[9.2537,41.4603],[9.3309,41.6269],[9.3743,41.6788],[9.395,41.7312],[9.4008,41.9265],[9.4283,41.9725],[9.5506,42.1297],[9.5563,42.1609],[9.5262,42.5524],[9.5093,42.5858],[9.4733,42.6154],[9.4542,42.6588],[9.4802,42.8054],[9.4786,42.8604],[9.4611,42.9451],[9.4632,42.9811],[9.4151,43.0213],[9.3839,43.0192],[9.3839,43.0213],[9.7649,44.0929],[10.0474,44.0198],[10.1882,43.9473],[10.2459,43.8521],[10.3205,43.5129],[10.4475,43.3711],[10.521,43.2039],[10.5322,43.1404],[10.5173,43.0652],[10.5147,42.9673],[10.5903,42.9536],[10.6449,42.9573],[10.7084,42.9361],[10.7369,42.9001],[10.765,42.8446],[10.8031,42.8043],[10.938,42.7387],[11.1677,42.535],[11.1846,42.4567],[11.1417,42.444],[11.1031,42.4165],[11.1412,42.39],[11.1889,42.3932],[11.2497,42.4159],[11.2962,42.4234],[11.4984,42.363],[11.6376,42.2873],[11.8069,42.082],[12.0752,41.9407],[12.2059,41.8127],[12.6308,41.4698],[12.8494,41.4089],[13.024,41.301],[13.0409,41.2661],[13.0885,41.2438],[13.1833,41.2777],[13.2468,41.2888],[13.3621,41.2787],[13.5548,41.2322],[13.6696,41.2544],[13.7336,41.2354],[13.8595,41.13],[14.0474,40.8702],[14.0442,40.812],[14.076,40.794],[14.1024,40.8274],[14.1474,40.8205],[14.3088,40.8125],[14.4279,40.7591],[14.4607,40.729],[14.34,40.5988],[14.3829,40.5998],[14.4596,40.6326],[14.557,40.6263],[14.6115,40.6448],[14.766,40.6686],[14.8395,40.63],[14.9068,40.5559],[14.9475,40.4691],[14.9861,40.3776],[14.929,40.3093],[14.9269,40.2649],[14.9507,40.2389],[15.2947,40.0701],[15.3909,40.0521],[15.5852,40.0527],[15.6926,39.9902],[15.7635,39.8701],[15.8545,39.6267],[16.0239,39.3536],[16.0715,39.1393],[16.1074,39.024],[16.2101,38.9409],[16.1969,38.7594],[16.0656,38.7366],[15.9725,38.7128],[15.927,38.6715],[15.8789,38.6139],[15.9048,38.4837],[15.8222,38.3027],[15.7,38.2625],[15.6904,38.2477],[15.6793,38.2546],[15.6518,38.2731],[15.6344,38.2678],[15.5682,38.2959],[15.4989,38.2911],[15.3407,38.2175],[15.2798,38.2302],[15.2243,38.2112],[15.1761,38.1683],[15.119,38.153],[14.9819,38.1678],[14.8459,38.1715],[14.7898,38.1673],[14.7374,38.1509],[14.6369,38.0852],[14.5057,38.0456],[14.4162,38.0424],[14.2876,38.017],[14.05,38.0408],[13.9368,38.0244],[13.7886,37.981],[13.7346,37.9842],[13.6817,38.0006],[13.4912,38.1032],[13.4336,38.1101],[13.3833,38.127],[13.3516,38.1805],[13.2912,38.1916],[13.16,38.1905],[13.0568,38.1307],[13.0488,38.0842],[12.9557,38.0413],[12.9028,38.035],[12.8509,38.0635],[12.7346,38.1831],[12.7023,38.1419],[12.6642,38.108],[12.6017,38.0847],[12.5477,38.0529],[12.4869,37.9387],[12.4356,37.8196],[12.4546,37.7736],[12.4747,37.7444],[12.453,37.7296]]]}}
