{"type":"Feature","properties":{"id":65,"name":"White Sea","featurecla":"sea","scalerank":3,"wikidataid":"Q44133","source":"Natural Earth 5.2.0-pre ne_10m_geography_marine_polys (public domain)"},"geometry":{"type":"Polygon","coordinates":[[[38.9907,68.3155],[43.277,68.633],[43.333,68.6732],[43.358,68.6356],[43.404,68.6086],[44.1692,68.3271],[44.2046,68.2536],[44.2263,68.1546],[44.2141,68.1128],[44.2316,68.071],[44.2252,67.9959],[44.0363,67.6704],[43.8564,67.4392],[43.7955,67.3296],[43.7823,67.2545],[43.8553,67.1889],[44.0744,67.1672],[44.2919,67.0994],[44.4041,67.0042],[44.4295,66.9375],[44.4369,66.7946],[44.4888,66.6719],[44.3162,66.4819],[44.2205,66.4073],[44.0972,66.2353],[44.1453,66.1126],[44.1326,66.0644],[44.1046,66.0088],[44.0168,66.0496],[43.9443,66.0988],[43.8437,66.1422],[43.7368,66.1586],[43.6241,66.1469],[43.5421,66.1237],[43.5506,66.1734],[43.6532,66.2512],[43.6035,66.2914],[43.5511,66.321],[43.2331,66.4157],[43.006,66.4211],[42.8066,66.4115],[42.6023,66.4226],[42.4509,66.4824],[42.3139,66.5147],[42.2107,66.5195],[42.0837,66.466],[41.781,66.2591],[41.4757,66.1237],[41.0762,66.021],[40.7745,65.9877],[40.6914,65.9633],[40.5126,65.8437],[40.3279,65.7516],[39.8168,65.5982],[39.7813,65.5347],[39.749,65.4479],[39.7982,65.35],[39.8967,65.2548],[40.1427,65.0632],[40.2813,64.9981],[40.3756,64.8965],[40.4449,64.7785],[40.4078,64.7547],[40.2036,64.7838],[40.0581,64.7706],[39.8485,64.6907],[39.8332,64.6563],[39.758,64.5769],[39.5675,64.5706],[39.0537,64.714],[38.6129,64.7865],[38.5409,64.7912],[38.442,64.8272],[38.4118,64.8568],[38.2282,64.851],[38.1155,64.8547],[38.0096,64.8785],[37.5281,65.1082],[37.1408,65.1944],[37.0503,65.196],[36.8831,65.1722],[36.7857,64.987],[36.6529,64.9357],[36.5343,64.9389],[36.528,64.8473],[36.5788,64.7912],[36.6243,64.7505],[36.7693,64.6854],[37.0402,64.4891],[37.1836,64.4086],[37.2894,64.3779],[37.4297,64.3737],[37.7408,64.397],[37.8435,64.3663],[37.9536,64.3203],[37.9774,64.207],[38.062,64.0911],[38.071,64.026],[37.9678,63.9493],[37.6355,63.8932],[37.4424,63.8133],[37.3725,63.8165],[36.9751,63.9096],[36.7137,63.9451],[36.365,64.0028],[36.3021,64.0345],[36.1465,64.189],[35.802,64.3356],[35.6469,64.3784],[35.4321,64.3467],[35.2839,64.3626],[35.0352,64.4404],[34.8696,64.56],[34.8585,64.7065],[34.9055,64.7388],[34.9521,64.7558],[34.8325,64.8002],[34.8273,64.9129],[34.8034,64.986],[34.6711,65.168],[34.5356,65.278],[34.4066,65.3955],[34.5441,65.4569],[34.6156,65.5098],[34.7156,65.6643],[34.7347,65.7162],[34.777,65.7681],[34.7934,65.8162],[34.7865,65.8644],[34.6918,65.9517],[34.3997,66.1284],[34.1129,66.2253],[33.5668,66.321],[33.416,66.3157],[33.3604,66.3295],[33.4768,66.347],[33.5932,66.3845],[33.6562,66.4427],[33.5176,66.4713],[33.4054,66.4845],[33.2175,66.5317],[33.1831,66.574],[33.2244,66.6036],[33.1805,66.6798],[32.9286,66.7041],[32.8625,66.7216],[32.8571,66.747],[32.6863,66.8296],[32.4635,66.9164],[32.501,67.0037],[32.3407,67.0677],[32.2015,67.1132],[31.983,67.1296],[31.8951,67.1614],[32.4,67.1529],[32.9302,67.0867],[32.8852,67.0613],[32.8476,67.0216],[33.0022,66.9084],[33.1503,66.8439],[33.4821,66.7645],[33.5228,66.7645],[33.5953,66.7846],[33.7594,66.7507],[33.8938,66.7068],[34.1462,66.7031],[34.4515,66.6512],[34.4309,66.6295],[34.396,66.6131],[34.4827,66.5502],[34.6103,66.5597],[34.8246,66.611],[35.3638,66.4285],[35.5136,66.3957],[36.3735,66.3025],[36.7698,66.2935],[36.9836,66.2723],[37.2948,66.2253],[37.6281,66.1295],[37.9007,66.0956],[38.3975,66.0644],[38.6536,66.0691],[39.2892,66.1321],[40.1036,66.2999],[40.5216,66.4465],[41.1889,66.8264],[41.2757,66.9142],[41.3545,67.1217],[41.3587,67.2095],[41.2619,67.2185],[41.1339,67.2672],[41.1339,67.3862],[41.0608,67.4445],[40.9666,67.7133],[40.7661,67.7429],[40.6566,67.7741],[40.5258,67.7895],[40.3808,67.8318],[40.2068,67.9419],[40.0358,68.0154],[39.8956,68.1144],[39.8093,68.1509],[39.7464,68.162],[39.7897,68.1123],[39.8231,68.0588],[39.5691,68.0715],[38.977,68.2753],[38.9907,68.3155]],[[35.6088,65.1569],[35.5856,65.1669],[35.5289,65.1511],[35.5585,65.0934],[35.6215,65.059],[35.6803,65.0574],[35.7787,64.9764],[35.8422,65.0013],[35.8274,65.0368],[35.8586,65.078],[35.8485,65.1426],[35.8162,65.1823],[35.729,65.1976],[35.6088,65.1569]]]}}
