{"type":"Feature","properties":{"id":66,"name":"Sea of Azov","featurecla":"sea","scalerank":5,"wikidataid":"Q35000","source":"Natural Earth 5.2.0-pre ne_10m_geography_marine_polys (public domain)"},"geometry":{"type":"Polygon","coordinates":[[[36.7,45.3782],[36.6174,45.392],[36.5751,45.3936],[36.4269,45.4332],[36.2904,45.4565],[36.1708,45.4534],[36.0772,45.4243],[36.0131,45.3719],[35.8337,45.4015],[35.7512,45.3893],[35.558,45.311],[35.4575,45.3163],[35.3739,45.3539],[35.2601,45.447],[35.023,45.701],[34.9066,45.8788],[34.8574,45.9873],[34.8436,46.0735],[34.8495,46.1899],[34.9696,46.2423],[35.0638,46.2672],[35.2305,46.4408],[35.2918,46.3709],[35.2908,46.3143],[35.2802,46.2794],[35.2178,46.2323],[35.0146,46.1058],[35.0553,46.1042],[35.1326,46.1259],[35.2045,46.1693],[35.2569,46.2037],[35.4004,46.3815],[35.8268,46.6244],[36.0248,46.6667],[36.1946,46.6456],[36.2793,46.6588],[36.4322,46.7323],[36.5587,46.7625],[36.6889,46.7641],[36.7947,46.7144],[36.9322,46.8249],[37.0476,46.8763],[37.2185,46.9176],[37.3397,46.917],[37.5435,47.0747],[37.8287,47.0959],[38.1785,47.08],[38.2144,47.0916],[38.4849,47.1753],[38.5775,47.2393],[38.7621,47.2615],[38.7362,47.2356],[38.6446,47.2123],[38.5526,47.1504],[38.668,47.144],[38.9283,47.1758],[39.0235,47.2721],[39.1955,47.2689],[39.2447,47.1996],[39.2934,47.1059],[39.2892,47.071],[39.2707,47.044],[39.1267,47.0234],[38.8013,46.9059],[38.6309,46.8731],[38.4388,46.8133],[38.488,46.7323],[38.5007,46.6636],[38.3435,46.6784],[38.2298,46.7011],[38.1594,46.6905],[37.9678,46.6181],[37.8673,46.6339],[37.7668,46.636],[37.8096,46.5323],[37.9139,46.4064],[37.9774,46.3831],[38.0779,46.3942],[38.315,46.2418],[38.4923,46.0905],[38.4002,46.0799],[38.3118,46.0952],[38.1837,46.0947],[38.1329,46.0026],[38.0795,45.9349],[38.07,45.9698],[38.0737,46.0169],[38.0144,46.0476],[37.9329,46.0016],[37.8408,45.7994],[37.6694,45.6539],[37.6123,45.5645],[37.6101,45.4994],[37.6345,45.4862],[37.672,45.4883],[37.6731,45.4295],[37.6472,45.3772],[37.2641,45.311],[37.2138,45.2724],[37.1037,45.3031],[36.9778,45.3835],[36.8661,45.4269],[36.7937,45.4099],[36.7206,45.3719],[36.7,45.3782]]]}}
