{"type":"Feature","properties":{"id":67,"name":"James Bay","featurecla":"bay","scalerank":3,"wikidataid":"Q223810","source":"Natural Earth 5.2.0-pre ne_10m_geography_marine_polys (public domain)"},"geometry":{"type":"Polygon","coordinates":[[[-82.1884,54.8392],[-79.6521,54.7005],[-79.6654,54.6974],[-79.7125,54.672],[-79.7141,54.655],[-79.6707,54.6471],[-79.6315,54.6291],[-79.5982,54.6016],[-79.5209,54.4915],[-79.4759,54.3947],[-79.4304,54.3365],[-79.3563,54.2635],[-79.2955,54.2169],[-79.2161,54.1857],[-79.1468,54.1693],[-79.1389,54.1571],[-79.1791,54.1169],[-79.242,54.0989],[-79.0674,54.0518],[-79.0097,54.0237],[-78.996,54.0026],[-79.0732,53.9512],[-79.0753,53.9322],[-79.032,53.8809],[-78.9441,53.8401],[-78.9457,53.8317],[-79.0034,53.8364],[-79.0404,53.8179],[-79.0817,53.7422],[-79.1129,53.7173],[-79.1002,53.6565],[-79.0431,53.5607],[-78.9923,53.4104],[-78.9473,53.2062],[-78.8981,53.0432],[-78.8542,52.976],[-78.7399,52.8993],[-78.7219,52.8564],[-78.7536,52.8125],[-78.7658,52.7601],[-78.7441,52.6553],[-78.724,52.6278],[-78.6007,52.5352],[-78.5573,52.4918],[-78.5293,52.3992],[-78.5261,52.3108],[-78.5129,52.2913],[-78.4483,52.2616],[-78.4917,52.2521],[-78.5372,52.2135],[-78.5933,52.1399],[-78.7018,52.0325],[-78.8282,51.9632],[-78.8711,51.9134],[-78.8912,51.8452],[-78.9277,51.7986],[-78.9817,51.7748],[-78.978,51.734],[-78.7764,51.5658],[-78.7361,51.5266],[-78.7314,51.4975],[-78.8272,51.4298],[-78.8579,51.3837],[-78.8976,51.2715],[-78.9034,51.2001],[-78.9367,51.2594],[-78.9843,51.3864],[-79.005,51.4255],[-79.0404,51.4636],[-79.0907,51.5017],[-79.1526,51.5261],[-79.2262,51.5372],[-79.2643,51.552],[-79.2971,51.6229],[-79.3389,51.6282],[-79.4976,51.57],[-79.5278,51.5377],[-79.5474,51.4938],[-79.5855,51.4525],[-79.6431,51.4133],[-79.6886,51.3467],[-79.7231,51.2514],[-79.7374,51.1863],[-79.7315,51.1504],[-79.7146,51.1176],[-79.6363,51.0493],[-79.4526,50.9175],[-79.3807,50.8344],[-79.3479,50.7625],[-79.4564,50.8757],[-79.6516,51.008],[-79.8363,51.1731],[-79.9606,51.235],[-80.1035,51.2827],[-80.2655,51.3165],[-80.3681,51.3297],[-80.4782,51.3075],[-80.6771,51.1911],[-80.7951,51.1318],[-80.8512,51.1249],[-80.6729,51.2646],[-80.4956,51.3446],[-80.4433,51.3885],[-80.4475,51.4324],[-80.4956,51.525],[-80.5882,51.6673],[-80.6581,51.7584],[-80.7057,51.7986],[-80.9687,51.9722],[-81.1269,52.0452],[-81.2852,52.0891],[-81.3979,52.142],[-81.4661,52.2045],[-81.5497,52.2367],[-81.6482,52.2389],[-81.8143,52.2171],[-81.8281,52.224],[-81.7762,52.2537],[-81.6614,52.2939],[-81.6117,52.324],[-81.5714,52.3675],[-81.5995,52.4325],[-81.7423,52.5638],[-81.8593,52.6516],[-82.0202,52.8114],[-82.108,52.8775],[-82.2027,52.9215],[-82.2604,52.9612],[-82.2916,53.0305],[-82.2916,53.0659],[-82.2599,53.1596],[-82.2191,53.2115],[-82.1593,53.2644],[-82.1461,53.3644],[-82.1805,53.5131],[-82.1906,53.611],[-82.1498,53.7396],[-82.1413,53.8179],[-82.1625,53.8856],[-82.2398,54.0449],[-82.2636,54.0729],[-82.3943,54.1804],[-82.4239,54.2444],[-82.4181,54.3561],[-82.3705,54.4836],[-82.2191,54.8132],[-82.2228,54.8334],[-82.1884,54.8392]],[[-79.4257,51.9446],[-79.3844,51.952],[-79.3516,51.9685],[-79.3288,51.9923],[-79.3167,52.024],[-79.2701,52.0711],[-79.2712,52.087],[-79.3346,52.0981],[-79.6437,52.0103],[-79.5971,51.978],[-79.5204,51.9531],[-79.4257,51.9446]],[[-80.8026,52.7341],[-80.7317,52.7474],[-80.7094,52.7876],[-80.7105,52.8315],[-80.7655,52.9231],[-80.9005,53.0374],[-81.1354,53.2056],[-81.3354,53.2242],[-81.8471,53.1861],[-81.9016,53.1654],[-81.9514,53.1321],[-82.0392,53.0501],[-82.0048,53.0104],[-81.8392,52.958],[-81.3524,52.8521],[-81.0968,52.7797],[-81.01,52.7606],[-80.8026,52.7341]]]}}
