{"type":"Feature","properties":{"id":68,"name":"Gulf of Carpentaria","featurecla":"gulf","scalerank":3,"wikidataid":"Q180844","source":"Natural Earth 5.2.0-pre ne_10m_geography_marine_polys (public domain)"},"geometry":{"type":"Polygon","coordinates":[[[141.7427,-12.2263],[141.6887,-12.3512],[141.6776,-12.4914],[141.7469,-12.5296],[141.7946,-12.5666],[141.8523,-12.5788],[141.8782,-12.6132],[141.893,-12.6814],[141.9295,-12.7396],[141.9205,-12.8031],[141.8761,-12.7783],[141.7824,-12.7788],[141.7347,-12.8333],[141.6136,-12.9433],[141.6453,-13.2593],[141.5888,-13.4249],[141.5342,-13.554],[141.4723,-13.7975],[141.4808,-13.9265],[141.5353,-14.0186],[141.5945,-14.153],[141.5591,-14.3377],[141.5231,-14.47],[141.6035,-14.8526],[141.6252,-15.0569],[141.4517,-15.6051],[141.393,-15.9046],[141.412,-16.0697],[141.3559,-16.221],[141.2914,-16.4634],[141.2194,-16.646],[140.9659,-17.0148],[140.9156,-17.1926],[140.8305,-17.4143],[140.6484,-17.5439],[140.5114,-17.6243],[140.2097,-17.7043],[140.0356,-17.7027],[139.9462,-17.6535],[139.8943,-17.6111],[139.6895,-17.5408],[139.4403,-17.3804],[139.2482,-17.3286],[139.154,-17.1677],[139.1445,-17.101],[139.1107,-17.0143],[139.0095,-16.8994],[138.8201,-16.8608],[138.6259,-16.7777],[138.5058,-16.7894],[138.2449,-16.7185],[138.0713,-16.6168],[137.9126,-16.4766],[137.7036,-16.2332],[137.5263,-16.167],[137.2993,-16.0665],[137.1691,-15.9824],[137.0898,-15.9411],[137.0019,-15.8781],[136.9225,-15.8924],[136.7844,-15.894],[136.6982,-15.8347],[136.6865,-15.7887],[136.7003,-15.7516],[136.7051,-15.6855],[136.6744,-15.6755],[136.6442,-15.6755],[136.6188,-15.6935],[136.5839,-15.7067],[136.4616,-15.6553],[136.2912,-15.5702],[136.2595,-15.495],[136.2055,-15.4035],[135.9695,-15.2701],[135.8325,-15.1601],[135.5308,-15.0002],[135.4531,-14.923],[135.4282,-14.8558],[135.4054,-14.7584],[135.4732,-14.6568],[135.5388,-14.5848],[135.7446,-14.2864],[135.8065,-14.234],[135.8833,-14.153],[135.9547,-13.935],[135.9896,-13.8102],[135.9293,-13.6218],[135.9271,-13.3043],[136.1658,-13.181],[136.2325,-13.1651],[136.2939,-13.1381],[136.3643,-13.1762],[136.4119,-13.236],[136.4611,-13.2254],[136.5945,-13.0037],[136.5728,-12.9116],[136.5177,-12.8328],[136.5368,-12.7841],[136.9474,-12.3496],[136.8977,-12.2438],[136.8548,-12.2263],[141.7427,-12.2263]],[[139.1599,-16.7417],[139.2392,-16.7185],[139.2832,-16.7195],[139.3541,-16.6968],[139.3916,-16.6486],[139.4308,-16.6613],[139.5081,-16.5729],[139.5599,-16.5295],[139.6974,-16.5147],[139.6044,-16.4031],[139.5879,-16.3951],[139.4589,-16.4385],[139.2926,-16.4671],[139.2286,-16.5274],[139.1625,-16.6259],[139.1477,-16.7137],[139.1599,-16.7417]],[[136.4246,-13.8646],[136.4113,-14.0112],[136.4278,-14.1266],[136.3923,-14.1753],[136.3357,-14.2118],[136.3632,-14.2287],[136.4606,-14.2345],[136.6495,-14.2806],[136.7633,-14.2732],[136.8945,-14.2933],[136.9315,-14.2462],[136.9506,-14.1842],[136.9336,-14.179],[136.8855,-14.197],[136.787,-14.1578],[136.75,-14.1155],[136.7453,-14.0726],[136.7881,-13.9456],[136.8151,-13.9075],[136.8432,-13.8964],[136.9056,-13.8271],[136.8908,-13.7869],[136.8706,-13.7636],[136.8452,-13.7509],[136.8045,-13.8424],[136.758,-13.8456],[136.7146,-13.8038],[136.6961,-13.726],[136.7019,-13.6815],[136.6558,-13.6758],[136.5828,-13.7212],[136.5336,-13.7937],[136.4246,-13.8646]]]}}
