{"type":"Feature","properties":{"id":69,"name":"Golfo de California","featurecla":"gulf","scalerank":3,"wikidataid":"Q132811","source":"Natural Earth 5.2.0-pre ne_10m_geography_marine_polys (public domain)"},"geometry":{"type":"Polygon","coordinates":[[[-106.9804,23.82],[-109.4469,23.2654],[-109.4151,23.4056],[-109.4209,23.4802],[-109.5098,23.5977],[-109.6765,23.6617],[-109.7104,23.8036],[-109.776,23.865],[-109.8115,23.939],[-109.893,24.0332],[-109.9824,24.1094],[-110.0226,24.1745],[-110.2629,24.3444],[-110.3036,24.3396],[-110.3253,24.3057],[-110.3211,24.2592],[-110.2967,24.1951],[-110.32,24.1396],[-110.3676,24.1004],[-110.4094,24.1311],[-110.3999,24.165],[-110.4216,24.1835],[-110.547,24.2142],[-110.6592,24.3417],[-110.7343,24.5899],[-110.729,24.6714],[-110.6772,24.7883],[-110.6867,24.8677],[-110.7555,24.9947],[-110.8942,25.1445],[-111.0137,25.4202],[-111.0344,25.527],[-111.1497,25.5725],[-111.2915,25.7901],[-111.3302,25.9313],[-111.3323,26.1255],[-111.4048,26.2652],[-111.4185,26.3499],[-111.4646,26.4086],[-111.4704,26.5065],[-111.5461,26.579],[-111.5699,26.7076],[-111.7953,26.8796],[-111.8218,26.8653],[-111.817,26.7563],[-111.7784,26.6875],[-111.6995,26.5811],[-111.7234,26.5642],[-111.7541,26.5727],[-111.8625,26.6785],[-111.8832,26.8399],[-112.0091,26.9669],[-112.0155,27.0098],[-112.0038,27.0791],[-112.098,27.1458],[-112.1917,27.1865],[-112.2827,27.3474],[-112.3292,27.5236],[-112.5526,27.6575],[-112.7341,27.8257],[-112.7584,27.9004],[-112.7494,27.9951],[-112.8081,28.0924],[-112.7954,28.2073],[-112.8685,28.2919],[-112.8653,28.3507],[-112.8706,28.4242],[-112.9568,28.456],[-113.0336,28.4724],[-113.0939,28.5115],[-113.2055,28.7989],[-113.259,28.819],[-113.3209,28.8132],[-113.3352,28.8391],[-113.3288,28.873],[-113.3818,28.9465],[-113.4998,28.9269],[-113.5384,29.0233],[-113.5453,29.1021],[-113.7554,29.3672],[-113.8289,29.4392],[-114.0617,29.6096],[-114.1792,29.7345],[-114.3724,29.8302],[-114.4036,29.8964],[-114.5507,30.0223],[-114.6301,30.1562],[-114.6496,30.2382],[-114.6332,30.507],[-114.6856,30.6213],[-114.7036,30.7653],[-114.7613,30.9589],[-114.8449,31.0807],[-114.8819,31.1563],[-114.8481,31.5379],[-114.7899,31.6469],[-114.8396,31.7987],[-114.8952,31.8506],[-114.9338,31.9009],[-114.7412,31.8067],[-114.6978,31.7776],[-114.6089,31.7622],[-114.5486,31.7336],[-114.2639,31.5543],[-114.149,31.5072],[-114.0808,31.5104],[-114.0025,31.5252],[-113.9776,31.5929],[-113.948,31.6294],[-113.7596,31.558],[-113.6998,31.5236],[-113.6331,31.4675],[-113.6236,31.3458],[-113.4807,31.2934],[-113.2315,31.2558],[-113.186,31.2362],[-113.0838,31.2071],[-113.0468,31.1791],[-113.0431,31.087],[-113.0727,31.0611],[-113.1082,31.0775],[-113.1187,31.0478],[-113.105,31.0272],[-113.087,30.9383],[-113.1103,30.7933],[-113.0579,30.651],[-112.9515,30.5102],[-112.8246,30.3001],[-112.7595,30.1255],[-112.7383,29.9853],[-112.697,29.917],[-112.6531,29.8699],[-112.5727,29.7196],[-112.4145,29.5365],[-112.3885,29.4603],[-112.3933,29.4196],[-112.3785,29.3476],[-112.3012,29.3228],[-112.2234,29.2693],[-112.1922,29.118],[-112.162,29.019],[-112.0451,28.8957],[-111.9408,28.8232],[-111.9186,28.7978],[-111.907,28.7523],[-111.8324,28.6481],[-111.7472,28.5639],[-111.6799,28.4703],[-111.4715,28.384],[-111.2826,28.1152],[-111.1211,27.967],[-110.9862,27.9258],[-110.9206,27.8887],[-110.8486,27.9178],[-110.7592,27.9152],[-110.5301,27.8644],[-110.5782,27.7956],[-110.6153,27.6538],[-110.5925,27.5442],[-110.5608,27.4501],[-110.5195,27.3955],[-110.4777,27.3225],[-110.3772,27.2331],[-110.2771,27.1622],[-109.9437,27.0791],[-109.9258,27.0288],[-109.9215,26.978],[-109.8908,26.8833],[-109.8284,26.7701],[-109.7548,26.7029],[-109.676,26.697],[-109.4828,26.7103],[-109.2765,26.5341],[-109.2431,26.4499],[-109.2405,26.4044],[-109.2161,26.3552],[-109.1463,26.306],[-109.1167,26.2525],[-109.159,26.2584],[-109.1998,26.3054],[-109.2707,26.243],[-109.3543,26.1383],[-109.4257,26.0324],[-109.385,25.7271],[-109.3045,25.6329],[-109.2537,25.6085],[-109.1966,25.5927],[-109.0839,25.6149],[-109.0082,25.6419],[-108.9352,25.69],[-108.8865,25.7334],[-108.8849,25.6958],[-108.9727,25.5884],[-109.0685,25.5514],[-109.0632,25.5165],[-109.0288,25.4805],[-108.8934,25.5117],[-108.8436,25.5435],[-108.787,25.5382],[-108.751,25.4244],[-108.6965,25.3831],[-108.4663,25.2651],[-108.3737,25.1942],[-108.0927,25.0937],[-108.0515,25.0672],[-108.0356,25.0354],[-108.0795,25.018],[-108.1398,25.0185],[-108.1922,25.0307],[-108.2435,25.0736],[-108.2806,25.0815],[-108.2076,24.9746],[-108.015,24.7836],[-108.0086,24.6936],[-107.9509,24.6148],[-107.8165,24.5391],[-107.7096,24.5248],[-107.6736,24.5036],[-107.6022,24.4899],[-107.5488,24.5047],[-107.5117,24.4894],[-107.489,24.4237],[-107.4937,24.3692],[-107.527,24.3602],[-107.7265,24.4719],[-107.7652,24.4719],[-107.0847,24.0163],[-106.9355,23.8813],[-106.9222,23.8644],[-106.9804,23.82]],[[-112.2848,29.2402],[-112.4234,29.2037],[-112.47,29.1677],[-112.5309,28.8941],[-112.5139,28.8476],[-112.3552,28.773],[-112.2784,28.7693],[-112.2033,29.0053],[-112.2488,29.1259],[-112.2636,29.2069],[-112.2848,29.2402]],[[-113.2024,29.3016],[-113.3738,29.3392],[-113.3759,29.4175],[-113.4161,29.4857],[-113.5077,29.5598],[-113.5871,29.5731],[-113.5945,29.4625],[-113.5807,29.4132],[-113.4966,29.3074],[-113.2648,29.0968],[-113.1627,29.0349],[-113.1558,29.0524],[-113.178,29.1317],[-113.2024,29.3016]]]}}
