{"type":"Feature","properties":{"id":70,"name":"Hudson Strait","featurecla":"strait","scalerank":3,"wikidataid":"Q207702","source":"Natural Earth 5.2.0-pre ne_10m_geography_marine_polys (public domain)"},"geometry":{"type":"Polygon","coordinates":[[[-80.9714,63.4471],[-80.9788,63.4731],[-80.9534,63.4805],[-80.7115,63.5964],[-80.5041,63.6736],[-80.302,63.762],[-80.2914,63.7726],[-80.2834,63.7646],[-78.1673,64.6108],[-78.0451,64.4991],[-77.9847,64.461],[-77.7911,64.3668],[-77.7604,64.3599],[-77.6276,64.3636],[-77.5265,64.3435],[-77.4027,64.3002],[-77.2825,64.2806],[-77.1656,64.2848],[-77.0238,64.271],[-76.856,64.2377],[-76.7237,64.2419],[-76.6264,64.2838],[-76.5618,64.3017],[-76.4946,64.2927],[-76.4068,64.3033],[-76.1178,64.3764],[-76.0316,64.388],[-75.8152,64.3848],[-75.7665,64.3917],[-75.7151,64.5245],[-75.4876,64.5409],[-75.3283,64.4907],[-75.2151,64.4695],[-75.0675,64.4568],[-74.8939,64.4658],[-74.6949,64.4965],[-74.6399,64.5573],[-74.7298,64.6473],[-74.823,64.7171],[-74.9193,64.7653],[-74.9161,64.7918],[-74.8134,64.7965],[-74.7478,64.8071],[-74.7193,64.8251],[-74.6811,64.8309],[-74.6341,64.824],[-74.5928,64.7859],[-74.5563,64.7171],[-74.5123,64.67],[-74.461,64.6446],[-74.416,64.6335],[-74.2049,64.6282],[-74.1303,64.6076],[-74.098,64.47],[-74.0985,64.4436],[-74.0647,64.4245],[-74.0255,64.4229],[-73.9811,64.4377],[-73.9504,64.4658],[-73.9102,64.578],[-73.8678,64.5854],[-73.7927,64.5663],[-73.7286,64.5684],[-73.6271,64.6023],[-73.4133,64.5743],[-73.2715,64.5827],[-73.2783,64.5605],[-73.4434,64.4235],[-73.4546,64.3991],[-73.3773,64.3795],[-73.2704,64.3335],[-73.1741,64.2816],[-72.9132,64.1171],[-72.7296,64.0303],[-72.6782,64.0202],[-72.6391,63.989],[-72.5862,63.9006],[-72.4983,63.8234],[-72.4502,63.8181],[-72.2264,63.8916],[-72.1745,63.8932],[-72.1592,63.8901],[-72.1724,63.8715],[-72.2136,63.8387],[-72.2888,63.7572],[-72.2904,63.7281],[-72.2232,63.7091],[-71.8374,63.7249],[-71.7252,63.7059],[-71.6268,63.6625],[-71.5654,63.6265],[-71.5421,63.599],[-71.5136,63.5863],[-71.3807,63.5805],[-71.3876,63.5551],[-71.4559,63.5122],[-71.6141,63.444],[-71.6967,63.4302],[-71.8194,63.4355],[-71.9729,63.4297],[-71.9924,63.4164],[-71.8554,63.355],[-71.6173,63.1873],[-71.5014,63.1265],[-71.3474,63.0661],[-71.2537,63.0423],[-70.9929,63.119],[-70.9463,63.1206],[-71.096,63.0196],[-71.1056,63.0021],[-71.0019,62.9783],[-70.8013,62.9106],[-70.5711,62.8693],[-70.3441,62.7915],[-70.2361,62.7635],[-70.071,62.7571],[-69.9621,62.7761],[-69.7996,62.7904],[-69.6049,62.7677],[-69.5451,62.7444],[-69.3662,62.5719],[-69.1254,62.4243],[-69.0826,62.4052],[-68.7243,62.319],[-68.6338,62.2814],[-68.5359,62.2555],[-68.3788,62.2353],[-67.44,62.1512],[-67.3691,62.1343],[-67.322,62.1052],[-67.1813,62.0729],[-66.8029,62.0125],[-66.5516,61.9258],[-66.4246,61.8908],[-66.3235,61.8702],[-66.2568,61.8681],[-66.124,61.893],[-66.0589,61.9136],[-66.0563,61.9676],[-66.1166,62.0538],[-66.133,62.1025],[-66.0272,62.1374],[-66.0044,62.1581],[-65.9801,62.2089],[-65.9859,62.2126],[-65.5022,62.8296],[-65.4996,62.8354],[-65.3964,62.7883],[-65.2657,62.7153],[-65.1805,62.6497],[-65.1085,62.6264],[-65.0593,62.6428],[-64.926,61.8258],[-64.9466,61.8432],[-64.9604,61.8718],[-64.981,61.8808],[-65.008,61.8702],[-65.0307,61.8792],[-65.0683,61.9258],[-65.1255,61.9422],[-65.1742,61.9432],[-65.2107,61.9284],[-65.2355,61.8977],[-65.2302,61.8639],[-65.1657,61.7977],[-64.9477,61.7379],[-64.9355,61.6824],[-64.9545,61.685],[-65.1297,61.6855],[-65.3318,61.6681],[-65.4324,61.6495],[-65.4266,61.6109],[-65.3938,61.5628],[-65.0916,61.4532],[-65.0546,61.4321],[-64.954,61.4104],[-64.8799,61.3569],[-64.8683,61.3559],[-64.7275,60.5224],[-64.727,60.5118],[-64.7826,60.5097],[-64.8365,60.5013],[-64.8339,60.4484],[-64.8096,60.4108],[-64.8249,60.3245],[-64.845,60.3081],[-64.8847,60.2885],[-67.8353,60.4124],[-67.8189,60.4494],[-67.8475,60.4886],[-67.9142,60.5399],[-67.9782,60.5706],[-68.0877,60.5881],[-68.1417,60.5621],[-68.2047,60.4902],[-69.4117,60.8394],[-69.4048,60.8468],[-69.3985,60.8828],[-69.4144,60.9225],[-69.472,61.0109],[-69.5032,61.0405],[-69.5572,61.0595],[-69.6239,61.0495],[-69.6504,61.014],[-69.6773,60.9495],[-69.7086,60.9145],[-69.8006,60.9066],[-69.9091,60.86],[-69.9922,60.8563],[-70.0954,60.8802],[-70.1457,60.9219],[-70.1441,60.9812],[-70.1578,61.0209],[-70.1875,61.0405],[-70.279,61.0685],[-70.3838,61.0638],[-70.541,61.0426],[-70.723,61.0553],[-71.0352,61.1257],[-71.1754,61.1463],[-71.3485,61.149],[-71.4225,61.159],[-71.5517,61.2135],[-71.7432,61.3373],[-71.7321,61.3723],[-71.6464,61.3987],[-71.6453,61.413],[-71.7935,61.421],[-71.8543,61.44],[-71.8411,61.4659],[-71.7559,61.5268],[-71.6564,61.5511],[-71.6194,61.5728],[-71.6046,61.5924],[-71.6384,61.6173],[-71.866,61.6887],[-71.9221,61.6771],[-71.9644,61.6363],[-72.0231,61.612],[-72.2158,61.5871],[-72.247,61.6019],[-72.0819,61.6416],[-72.0427,61.6649],[-72.0401,61.6802],[-72.0814,61.7284],[-72.1263,61.7533],[-72.1787,61.802],[-72.2264,61.8316],[-72.3607,61.8877],[-72.5058,61.9226],[-72.574,61.9073],[-72.6608,61.8633],[-72.7275,61.8384],[-72.7714,61.8406],[-72.6661,61.9554],[-72.6322,62.0274],[-72.6333,62.0528],[-72.646,62.0766],[-72.6709,62.1136],[-72.6867,62.1247],[-72.7349,62.1311],[-72.882,62.1253],[-72.9926,62.1803],[-73.0492,62.1983],[-73.1952,62.2793],[-73.299,62.3253],[-73.4286,62.3687],[-73.6302,62.4544],[-73.7048,62.4729],[-73.7641,62.4687],[-73.8779,62.4343],[-74.0467,62.3703],[-74.2054,62.3216],[-74.4293,62.2719],[-74.6457,62.211],[-74.6901,62.1835],[-74.6129,62.1253],[-74.6325,62.1157],[-74.9076,62.2301],[-75.023,62.2644],[-75.114,62.2708],[-75.341,62.3121],[-75.4093,62.3073],[-75.4887,62.2867],[-75.7898,62.1798],[-75.8093,62.1935],[-75.6755,62.2496],[-75.8167,62.3158],[-76.6163,62.4655],[-76.8793,62.5253],[-77.2053,62.5502],[-77.3725,62.5724],[-77.6037,62.5311],[-77.9001,62.4264],[-78.0684,62.3555],[-78.1086,62.3179],[-78.1287,62.2893],[-80.9714,63.4471]],[[-70.6743,62.8068],[-70.8346,62.8402],[-71.0135,62.8651],[-71.1347,62.8778],[-71.2204,62.874],[-71.1368,62.8158],[-70.986,62.7878],[-70.851,62.7042],[-70.8378,62.6481],[-70.7659,62.5968],[-70.6865,62.573],[-70.5415,62.5523],[-70.4065,62.5449],[-70.3372,62.5486],[-70.2885,62.5613],[-70.269,62.5782],[-70.2917,62.6158],[-70.3669,62.6661],[-70.4425,62.7338],[-70.6743,62.8068]],[[-74.5642,62.7333],[-74.6198,62.7264],[-74.6267,62.7127],[-74.4997,62.6687],[-74.2536,62.6222],[-74.0536,62.6095],[-74.0006,62.6185],[-73.9879,62.6359],[-74.0171,62.6629],[-74.1091,62.6804],[-74.3949,62.6957],[-74.5007,62.7264],[-74.5642,62.7333]],[[-76.9217,63.4064],[-76.783,63.3842],[-76.6777,63.3942],[-76.6523,63.5037],[-76.7634,63.5736],[-77.1338,63.6821],[-77.3645,63.5884],[-77.0571,63.4498],[-76.9217,63.4064]],[[-77.6545,63.3958],[-77.7038,63.4307],[-77.7921,63.4276],[-77.8768,63.4704],[-77.9339,63.4789],[-78.235,63.4895],[-78.4171,63.4699],[-78.5076,63.4514],[-78.5367,63.4239],[-78.4689,63.3577],[-78.2562,63.2397],[-78.0244,63.1386],[-77.9424,63.1143],[-77.7916,63.1296],[-77.6577,63.1646],[-77.5937,63.1884],[-77.5328,63.2339],[-77.5275,63.2688],[-77.5386,63.2868],[-77.6545,63.3958]]]}}
