{"type":"Feature","properties":{"id":71,"name":"Gulf of Finland","featurecla":"gulf","scalerank":4,"wikidataid":"Q14686","source":"Natural Earth 5.2.0-pre ne_10m_geography_marine_polys (public domain)"},"geometry":{"type":"Polygon","coordinates":[[[22.94,59.8091],[22.9638,59.8266],[23.021,59.816],[23.1814,59.8451],[23.3269,59.9255],[23.4634,59.9864],[23.5925,59.9684],[23.7216,59.9657],[24.0254,60.0091],[24.3429,60.0425],[24.4455,60.0213],[24.518,60.0462],[24.6005,60.1144],[24.8487,60.1583],[24.9577,60.1573],[25.1557,60.1943],[25.2678,60.2483],[25.4557,60.261],[25.5483,60.3023],[25.6562,60.333],[25.7155,60.2674],[25.7578,60.2674],[25.8457,60.3145],[25.9457,60.3468],[26.0357,60.3415],[26.0404,60.3716],[26.006,60.425],[25.9558,60.4743],[26.0362,60.4748],[26.2045,60.4065],[26.3775,60.424],[26.4563,60.4669],[26.496,60.5521],[26.5696,60.6246],[26.6066,60.6277],[26.6019,60.5954],[26.5511,60.5463],[26.5199,60.4716],[26.5347,60.4129],[26.6072,60.4378],[26.7214,60.4552],[26.9512,60.4716],[27.0755,60.5251],[27.2051,60.5436],[27.2416,60.5388],[27.4623,60.4647],[27.5253,60.4907],[27.6692,60.4992],[27.7618,60.533],[27.7978,60.5362],[28.1793,60.5711],[28.5127,60.6775],[28.5778,60.6526],[28.6508,60.6108],[28.6402,60.5431],[28.6222,60.4917],[28.4915,60.5399],[28.5222,60.4827],[28.6434,60.3753],[28.8127,60.3314],[29.0694,60.1917],[29.3705,60.1758],[29.5694,60.2018],[29.7213,60.1954],[29.8721,60.1208],[29.9769,60.0266],[30.06,60.0028],[30.1727,59.9573],[30.1568,59.9044],[30.1224,59.8737],[29.67,59.9557],[29.1472,59.9996],[29.0789,59.961],[29.0133,59.9017],[28.9815,59.8546],[28.9472,59.8287],[28.8667,59.8118],[28.7476,59.8065],[28.6037,59.8181],[28.518,59.8493],[28.454,59.8144],[28.4238,59.734],[28.3344,59.6927],[28.2127,59.7244],[28.1312,59.7864],[28.0582,59.7816],[28.0137,59.725],[28.0465,59.6472],[28.064,59.5541],[28.002,59.4699],[27.8925,59.4144],[27.3358,59.4504],[26.9749,59.4509],[26.8522,59.472],[26.6252,59.5541],[26.4606,59.5541],[25.7939,59.6345],[25.6155,59.6276],[25.5092,59.6393],[25.5076,59.598],[25.5208,59.5593],[25.4435,59.5213],[24.8773,59.5223],[24.5836,59.4556],[24.3805,59.4725],[24.1757,59.3757],[24.0534,59.3726],[24.0836,59.2921],[23.7825,59.2752],[23.6407,59.2424],[23.4946,59.1958],[23.5168,59.1075],[23.4814,59.0709],[22.94,59.8091]]]}}
