{"type":"Feature","properties":{"id":72,"name":"English Channel","featurecla":"channel","scalerank":3,"wikidataid":"Q34640","source":"Natural Earth 5.2.0-pre ne_10m_geography_marine_polys (public domain)"},"geometry":{"type":"Polygon","coordinates":[[[-6.5705,49.7417],[-5.7064,50.1121],[-5.6556,50.1132],[-5.6551,50.0772],[-5.6223,50.0507],[-5.5514,50.0836],[-5.4339,50.1042],[-5.3227,50.083],[-5.2254,50.0217],[-5.1185,50.0386],[-5.0487,50.1344],[-5.0095,50.1608],[-4.8174,50.2561],[-4.728,50.2905],[-4.5068,50.3413],[-4.3792,50.3582],[-4.2972,50.3593],[-4.2173,50.3783],[-4.1946,50.3931],[-4.1723,50.391],[-4.1035,50.3487],[-3.9004,50.2857],[-3.7935,50.2291],[-3.6797,50.2402],[-3.5844,50.3217],[-3.5257,50.4281],[-3.4855,50.5482],[-3.4045,50.6323],[-2.9992,50.7164],[-2.9008,50.7223],[-2.7769,50.7053],[-2.6589,50.6699],[-2.5478,50.6164],[-2.4335,50.5995],[-2.3949,50.6307],[-2.3499,50.6376],[-2.0361,50.6032],[-1.998,50.608],[-1.962,50.6276],[-2.0065,50.673],[-2.0313,50.7254],[-1.8662,50.7154],[-1.6879,50.735],[-1.6006,50.7328],[-1.517,50.7477],[-1.3344,50.8207],[-1.4164,50.8969],[-1.2852,50.8572],[-1.1328,50.8445],[-1.0005,50.8154],[-0.8714,50.7731],[-0.7851,50.7656],[-0.4507,50.8101],[-0.2041,50.8143],[0.2049,50.763],[0.2997,50.7757],[0.4145,50.8191],[0.5325,50.8535],[0.6843,50.8858],[0.7722,50.9339],[0.96,50.926],[0.9786,50.9715],[1.0442,51.0472],[1.3654,51.1557],[1.376,51.1646],[1.6845,50.9588],[1.712,50.9064],[1.6723,50.8852],[1.6093,50.8196],[1.5797,50.7392],[1.5517,50.2942],[1.5929,50.2524],[1.5485,50.2307],[1.5141,50.2053],[1.4072,50.0883],[1.2458,49.9983],[0.9241,49.91],[0.6161,49.8629],[0.1869,49.7031],[0.1266,49.6015],[0.1091,49.5576],[0.1292,49.5083],[0.2774,49.4634],[0.4394,49.4734],[0.4171,49.4486],[0.1361,49.4015],[-0.011,49.33],[-0.1634,49.2967],[-0.5211,49.3544],[-0.7656,49.3596],[-0.9592,49.393],[-1.1386,49.3877],[-1.1947,49.4448],[-1.2323,49.4946],[-1.2651,49.5983],[-1.2588,49.6803],[-1.3656,49.7073],[-1.5884,49.6676],[-1.7054,49.6808],[-1.8562,49.684],[-1.8752,49.6316],[-1.8699,49.5951],[-1.8133,49.4904],[-1.6905,49.3131],[-1.5831,49.2025],[-1.5657,48.8056],[-1.4805,48.6977],[-1.3762,48.6527],[-1.4376,48.6416],[-1.8244,48.6305],[-1.8519,48.6691],[-1.9059,48.6971],[-1.9731,48.6352],[-2.0038,48.5823],[-2.0795,48.6453],[-2.4462,48.6485],[-2.6923,48.5368],[-2.7928,48.6008],[-3.0034,48.7908],[-3.2315,48.8411],[-3.4717,48.813],[-3.5458,48.7654],[-3.7146,48.7104],[-3.8559,48.6945],[-4.0591,48.7077],[-4.5311,48.6199],[-4.7206,48.54],[-4.7624,48.45],[-4.7592,48.441],[-4.8243,48.4188],[-5.8826,48.4717],[-6.5705,49.7417]],[[-1.3127,50.7736],[-1.3857,50.7334],[-1.5159,50.7032],[-1.5635,50.6662],[-1.5154,50.6699],[-1.3064,50.5884],[-1.2513,50.5889],[-1.1963,50.5995],[-1.1757,50.6154],[-1.1492,50.6556],[-1.0656,50.69],[-1.1444,50.735],[-1.3127,50.7736]]]}}
