{"type":"Feature","properties":{"id":73,"name":"Gulf of Honduras","featurecla":"gulf","scalerank":3,"wikidataid":"Q795608","source":"Natural Earth 5.2.0-pre ne_10m_geography_marine_polys (public domain)"},"geometry":{"type":"Polygon","coordinates":[[[-86.907,15.7623],[-87.2859,15.8343],[-87.3775,15.8264],[-87.487,15.7904],[-87.5452,15.8322],[-87.6182,15.91],[-87.7018,15.9105],[-87.8749,15.8793],[-87.9071,15.8629],[-88.0103,15.7861],[-88.0548,15.765],[-88.131,15.701],[-88.2284,15.729],[-88.594,15.9502],[-88.5982,15.9275],[-88.5718,15.901],[-88.5363,15.8497],[-88.6035,15.7639],[-88.7088,15.8068],[-88.7983,15.8623],[-88.8401,15.8692],[-88.8941,15.8904],[-88.9115,15.956],[-88.8792,16.0169],[-88.6951,16.2476],[-88.5623,16.2905],[-88.4612,16.4339],[-88.4046,16.4883],[-88.3135,16.6328],[-88.2617,16.963],[-88.294,17.1922],[-88.2887,17.3128],[-86.907,15.7623]]]}}
