{"type":"Feature","properties":{"id":74,"name":"Golfe du Lion","featurecla":"gulf","scalerank":4,"wikidataid":"Q210118","source":"Natural Earth 5.2.0-pre ne_10m_geography_marine_polys (public domain)"},"geometry":{"type":"Polygon","coordinates":[[[3.2633,41.9624],[3.2471,41.9614],[3.2381,42.082],[3.2249,42.1111],[3.1751,42.136],[3.1503,42.1625],[3.1667,42.2566],[3.2185,42.2604],[3.3069,42.2889],[3.2878,42.344],[3.2397,42.3678],[3.2117,42.4313],[3.1979,42.4614],[3.091,42.5911],[3.0428,42.8377],[3.0518,42.915],[3.163,43.0806],[3.2587,43.1933],[3.7848,43.4616],[3.8614,43.5161],[3.9107,43.5632],[4.0525,43.5933],[4.0752,43.5817],[4.1128,43.5632],[4.1626,43.5039],[4.2245,43.4796],[4.3764,43.4563],[4.4097,43.4473],[4.6287,43.387],[4.7118,43.3732],[4.7891,43.379],[4.787,43.4013],[4.8082,43.4049],[4.8436,43.3938],[4.8737,43.4118],[4.9119,43.4272],[4.9759,43.4272],[5.06,43.4446],[5.0605,43.4065],[5.0733,43.3668],[5.1203,43.3489],[5.1997,43.3525],[5.3204,43.3452],[5.4057,43.23],[3.2633,41.9624]]]}}
