{"type":"Feature","properties":{"id":75,"name":"Gulf of Bothnia","featurecla":"gulf","scalerank":3,"wikidataid":"Q122574","source":"Natural Earth 5.2.0-pre ne_10m_geography_marine_polys (public domain)"},"geometry":{"type":"Polygon","coordinates":[[[22.9305,59.8223],[22.3749,59.8223],[21.5547,59.743],[20.7874,59.6636],[20.2053,59.8223],[19.8878,59.7959],[19.0676,59.743],[18.9708,59.7573],[18.9903,59.8276],[18.9332,59.9425],[18.8845,59.98],[18.8528,60.0261],[18.7872,60.0795],[18.6014,60.1192],[18.5353,60.1531],[18.5575,60.2536],[18.3998,60.3372],[18.2505,60.3616],[18.1627,60.4081],[18.0114,60.5113],[17.9558,60.5896],[17.8717,60.5801],[17.742,60.5394],[17.6611,60.5351],[17.6309,60.5854],[17.5928,60.6277],[17.5552,60.6426],[17.4568,60.642],[17.36,60.641],[17.251,60.7007],[17.261,60.7632],[17.279,60.8124],[17.2028,60.9516],[17.2129,60.986],[17.1859,61.1463],[17.1796,61.2495],[17.1636,61.2781],[17.1997,61.3119],[17.1779,61.3574],[17.1383,61.3818],[17.1642,61.4585],[17.1467,61.5046],[17.1309,61.5755],[17.2155,61.6564],[17.1964,61.7247],[17.3346,61.6919],[17.4653,61.6845],[17.4171,61.7406],[17.3981,61.7818],[17.3743,61.8665],[17.4118,61.966],[17.4468,62.0226],[17.5103,62.166],[17.5626,62.2126],[17.6336,62.2332],[17.5351,62.2639],[17.4293,62.3348],[17.3732,62.4264],[17.3785,62.4629],[17.4102,62.5084],[17.5087,62.4825],[17.5706,62.4513],[17.6462,62.4507],[17.7177,62.501],[17.8347,62.5026],[17.9468,62.5782],[18.0373,62.6005],[18.0066,62.6264],[17.9304,62.6407],[17.9029,62.6597],[17.941,62.6798],[17.9743,62.7211],[17.933,62.7862],[17.8955,62.8306],[17.8796,62.873],[17.9066,62.8868],[17.9511,62.8338],[18.0934,62.836],[18.078,62.8121],[18.0744,62.7904],[18.1701,62.7894],[18.2151,62.8121],[18.2479,62.8492],[18.4633,62.8957],[18.4829,62.9286],[18.4871,62.9587],[18.5019,62.9889],[18.313,62.9963],[18.3442,63.0323],[18.4077,63.0375],[18.5305,63.0635],[18.5776,63.1265],[18.6067,63.1783],[18.667,63.1767],[18.7596,63.1984],[18.8194,63.1974],[18.8591,63.2064],[18.8501,63.2244],[18.7924,63.2381],[18.8168,63.2577],[19.0343,63.2376],[19.2364,63.3471],[19.2883,63.4286],[19.3544,63.4773],[19.4947,63.4244],[19.4909,63.4604],[19.502,63.509],[19.5899,63.4873],[19.656,63.4582],[19.7222,63.4635],[19.7815,63.5382],[19.9138,63.6106],[20.2048,63.6625],[20.3714,63.7228],[20.4535,63.7736],[20.6778,63.8265],[20.7625,63.8678],[21.0186,64.1779],[21.2557,64.2991],[21.4652,64.3795],[21.4944,64.416],[21.5198,64.4631],[21.3938,64.5441],[21.3314,64.6293],[21.279,64.7245],[21.2049,64.7743],[21.1382,64.8087],[21.1959,64.8769],[21.2938,64.9415],[21.425,65.0124],[21.5738,65.1257],[21.5806,65.1606],[21.5462,65.2071],[21.5065,65.2452],[21.4377,65.2828],[21.4102,65.3172],[21.4467,65.3209],[21.5669,65.2548],[21.6092,65.2617],[21.6129,65.2992],[21.596,65.3167],[21.5452,65.3309],[21.5235,65.3585],[21.5325,65.3865],[21.5658,65.4082],[21.6806,65.4035],[21.8796,65.4241],[21.9135,65.4373],[21.95,65.4701],[21.9029,65.5083],[21.9203,65.5326],[22.0865,65.5305],[22.1474,65.5527],[22.133,65.5702],[22.096,65.5839],[22.086,65.6109],[22.2537,65.5977],[22.2664,65.6215],[22.2749,65.7252],[22.2876,65.7506],[22.3357,65.7913],[22.3664,65.8427],[22.4008,65.8622],[22.4654,65.8527],[22.5384,65.7945],[22.6204,65.8067],[22.7463,65.8707],[22.9194,65.7866],[23.1025,65.7353],[23.1544,65.7501],[23.221,65.7861],[23.4184,65.8046],[23.592,65.8051],[23.6915,65.8284],[23.8904,65.7823],[24.1556,65.8051],[24.2376,65.8125],[24.4042,65.7802],[24.5328,65.822],[24.5916,65.8585],[24.6281,65.8591],[24.6233,65.8316],[24.5815,65.7569],[24.6746,65.6707],[24.7641,65.6564],[24.8392,65.6601],[25.2419,65.5463],[25.3477,65.4791],[25.308,65.3527],[25.298,65.2431],[25.2557,65.1431],[25.3403,65.0987],[25.3626,65.0653],[25.3726,65.0092],[25.271,64.9844],[25.2282,64.951],[25.2806,64.9166],[25.2879,64.8605],[25.2144,64.8537],[25.1345,64.8754],[24.9424,64.8838],[24.7477,64.8521],[24.6577,64.8066],[24.5577,64.8007],[24.5302,64.7388],[24.4408,64.6801],[24.2783,64.5155],[24.0222,64.3859],[23.9248,64.2742],[23.8613,64.2584],[23.6529,64.134],[23.5988,64.0409],[23.4941,64.0345],[23.2485,63.8964],[23.1337,63.8652],[23.0146,63.8218],[22.7564,63.6831],[22.532,63.6477],[22.5278,63.5799],[22.3982,63.4911],[22.3188,63.5043],[22.3125,63.4725],[22.3458,63.4424],[22.2733,63.4545],[22.2431,63.4381],[22.2854,63.3773],[22.3161,63.3455],[22.3199,63.3106],[22.1204,63.2439],[21.896,63.2101],[21.8002,63.2376],[21.5452,63.2043],[21.5494,63.1556],[21.5684,63.1138],[21.651,63.0392],[21.4737,63.0333],[21.4573,62.9502],[21.1959,62.7904],[21.1441,62.7402],[21.1181,62.6894],[21.1039,62.6227],[21.1425,62.5147],[21.1658,62.4142],[21.3234,62.3428],[21.3435,62.2777],[21.3536,62.2237],[21.3017,62.1126],[21.2563,61.9898],[21.3848,61.9147],[21.4706,61.8115],[21.5457,61.703],[21.552,61.667],[21.606,61.5914],[21.5923,61.5681],[21.5224,61.567],[21.498,61.5522],[21.5266,61.5231],[21.5526,61.5093],[21.5653,61.4845],[21.5065,61.4845],[21.5018,61.4548],[21.5214,61.4109],[21.5134,61.2812],[21.479,61.1707],[21.451,61.1273],[21.378,61.059],[21.3605,60.9674],[21.379,60.85],[21.4039,60.7674],[21.4118,60.697],[21.4108,60.6367],[21.4361,60.5965],[21.5277,60.5706],[21.6134,60.5309],[21.7272,60.5828],[21.8055,60.5939],[21.8542,60.5055],[21.9341,60.5002],[22.2579,60.4007],[22.5204,60.3764],[22.5601,60.3848],[22.585,60.3806],[22.576,60.3589],[22.5125,60.2811],[22.5167,60.2626],[22.5882,60.2557],[22.5897,60.2282],[22.5643,60.2055],[22.513,60.1991],[22.4696,60.2012],[22.4426,60.1568],[22.4712,60.1467],[22.4384,60.0901],[22.4384,60.0721],[22.4627,60.0293],[22.6463,60.0282],[22.6971,60.0377],[22.7501,60.0573],[22.7935,60.0769],[22.8188,60.1012],[22.8443,60.1864],[22.867,60.216],[22.9114,60.2097],[22.994,60.0986],[23.0803,60.0472],[23.1485,60.0414],[23.1983,60.0218],[23.1887,59.9721],[23.1157,59.9128],[23.0099,59.8689],[22.9638,59.8266],[22.94,59.8091],[22.9305,59.8223]],[[24.7858,65.0865],[24.6513,65.0738],[24.5768,65.0431],[24.5783,64.9785],[24.699,64.9579],[24.8482,64.9913],[24.8916,65.0262],[24.9974,65.0389],[24.9704,65.0553],[24.7858,65.0865]],[[22.1082,60.315],[22.077,60.2864],[22.1405,60.2647],[22.1881,60.2367],[22.2093,60.197],[22.2585,60.1658],[22.3606,60.1658],[22.3463,60.2028],[22.3056,60.2288],[22.313,60.27],[22.4156,60.3033],[22.3548,60.3557],[22.3019,60.3478],[22.1749,60.3706],[22.1257,60.3557],[22.1082,60.315]],[[20.0323,60.1526],[20.0423,60.1806],[20.073,60.1933],[20.1254,60.2007],[20.155,60.1922],[20.1947,60.1938],[20.2587,60.261],[20.2397,60.2832],[20.1841,60.2938],[20.1677,60.3145],[20.0873,60.3536],[20.0338,60.3594],[20.0201,60.351],[19.9894,60.351],[19.9444,60.3573],[19.8883,60.406],[19.8233,60.3901],[19.7878,60.3541],[19.8122,60.3314],[19.8545,60.3187],[19.8714,60.3018],[19.8672,60.2679],[19.8476,60.2208],[19.7851,60.2134],[19.7788,60.2854],[19.7364,60.2822],[19.6867,60.2679],[19.6724,60.233],[19.746,60.0991],[19.8,60.0816],[20.0338,60.0933],[20.0323,60.1526]]]}}
