{"type":"Feature","properties":{"id":76,"name":"Adriatic Sea","featurecla":"sea","scalerank":3,"wikidataid":"Q13924","source":"Natural Earth 5.2.0-pre ne_10m_geography_marine_polys (public domain)"},"geometry":{"type":"Polygon","coordinates":[[[19.991,39.7563],[19.9412,39.7654],[19.9312,39.7611],[19.9259,39.7738],[19.8915,39.7971],[19.8386,39.8204],[19.7074,39.7981],[19.6465,39.7669],[19.6481,39.7447],[19.6269,39.7431],[18.3691,39.8013],[18.3437,39.8214],[18.3934,39.9035],[18.4225,39.9871],[18.486,40.105],[18.4607,40.221],[18.3284,40.3707],[18.0362,40.5649],[17.9547,40.6554],[17.4743,40.8406],[17.2753,40.9755],[17.1033,41.0623],[16.5519,41.2322],[16.0127,41.4354],[15.9006,41.5121],[15.9138,41.6211],[16.0339,41.7005],[16.1513,41.7587],[16.1889,41.8143],[16.1646,41.8963],[16.0614,41.928],[15.964,41.9397],[15.4052,41.9132],[15.1687,41.9339],[14.866,42.0524],[14.5406,42.2445],[14.1829,42.5064],[14.0103,42.6895],[13.9246,42.8514],[13.8045,43.1806],[13.6934,43.3901],[13.5643,43.5711],[13.5082,43.6119],[13.2954,43.6859],[12.907,43.9214],[12.6911,43.995],[12.4869,44.1341],[12.3964,44.2241],[12.3049,44.4294],[12.2482,44.7226],[12.2789,44.8321],[12.3191,44.8332],[12.3848,44.7982],[12.4636,44.8454],[12.498,44.8993],[12.5234,44.9681],[12.3927,45.0401],[12.2863,45.2078],[12.2255,45.2417],[12.2487,45.3687],[12.2742,45.4459],[12.3535,45.492],[12.4917,45.5465],[12.5361,45.5449],[12.4324,45.4682],[12.4975,45.4618],[12.6118,45.4973],[12.761,45.5444],[12.9028,45.611],[13.0303,45.6375],[13.1203,45.6978],[13.1568,45.7465],[13.2066,45.7714],[13.4653,45.71],[13.5579,45.7709],[13.6283,45.7709],[13.7833,45.6274],[13.6373,45.5359],[13.578,45.5169],[13.5172,45.4819],[13.6034,45.2316],[13.6135,45.1634],[13.6294,45.1083],[13.7426,44.9914],[13.8606,44.8374],[13.8998,44.8295],[13.9659,44.8358],[14.0421,44.9274],[14.0908,44.9977],[14.2363,45.1597],[14.2686,45.2824],[14.3125,45.338],[14.3861,45.3422],[14.5506,45.2978],[14.6321,45.2226],[14.8544,45.0808],[14.9068,44.9713],[14.8851,44.8184],[14.8951,44.7067],[14.9814,44.603],[15.2698,44.3834],[15.3814,44.3284],[15.4709,44.2717],[15.3698,44.2892],[15.2841,44.2887],[15.2311,44.2712],[15.1846,44.2728],[15.1232,44.2569],[15.1856,44.1722],[15.4994,43.9087],[15.6555,43.8114],[15.8206,43.7357],[15.9413,43.6568],[15.9492,43.6071],[15.9429,43.569],[15.9857,43.5198],[16.0461,43.5055],[16.1312,43.5065],[16.2689,43.5314],[16.3937,43.5436],[16.6001,43.4642],[16.9033,43.3922],[17.1293,43.2113],[17.3298,43.115],[17.5373,42.962],[17.6674,42.8969],[17.7235,42.8509],[17.2198,43.0261],[17.1266,43.0255],[17.0457,43.0149],[17.2584,42.9684],[17.5849,42.8372],[17.8241,42.7975],[18.1606,42.634],[18.3331,42.5281],[18.5172,42.4329],[18.5538,42.4286],[18.5914,42.444],[18.6459,42.4429],[18.6332,42.4234],[18.6188,42.3985],[18.6332,42.3778],[18.894,42.2493],[19.1221,42.0603],[19.1867,41.9487],[19.3423,41.8693],[19.4682,41.8561],[19.5777,41.7873],[19.5756,41.6402],[19.546,41.5968],[19.4973,41.5629],[19.4407,41.4248],[19.4534,41.3211],[19.4798,41.2364],[19.456,41.1063],[19.4613,40.9332],[19.3841,40.7909],[19.3375,40.6639],[19.3444,40.6221],[19.4391,40.4702],[19.4592,40.4056],[19.4407,40.3755],[19.3946,40.3935],[19.3586,40.4088],[19.3221,40.4072],[19.3602,40.348],[19.3983,40.285],[19.4846,40.2098],[19.8518,40.0437],[19.9651,39.8722],[19.9958,39.8008],[19.9984,39.7569],[19.991,39.7563]],[[16.5212,43.2293],[16.3762,43.2139],[16.4059,43.1975],[16.5498,43.1441],[16.6795,43.1229],[17.1239,43.1155],[17.1938,43.1256],[17.061,43.1441],[16.6975,43.1748],[16.6562,43.2139],[16.5212,43.2293]],[[16.4487,43.387],[16.4281,43.3436],[16.4234,43.3171],[16.49,43.2864],[16.6276,43.2679],[16.7853,43.2705],[16.8737,43.2981],[16.8911,43.3145],[16.8345,43.351],[16.6017,43.3817],[16.4487,43.387]],[[14.7417,44.6972],[14.7607,44.6649],[14.8845,44.5448],[14.9126,44.486],[14.9962,44.4342],[15.0385,44.3929],[15.0978,44.358],[15.1629,44.3093],[15.1883,44.3357],[15.2137,44.3474],[15.2401,44.35],[15.1131,44.4358],[15.0062,44.5342],[14.8983,44.6109],[14.8555,44.6183],[14.8036,44.6485],[14.7417,44.6972]],[[14.6871,44.9554],[14.8104,44.9771],[14.739,45.0655],[14.7009,45.0898],[14.63,45.1782],[14.5713,45.2247],[14.5247,45.147],[14.4379,45.0988],[14.4506,45.0792],[14.5115,45.0353],[14.6131,45.0253],[14.6284,44.994],[14.6871,44.9554]],[[14.4676,44.7252],[14.4527,44.8691],[14.4676,44.9702],[14.394,45.0311],[14.3691,45.0808],[14.358,45.1676],[14.331,45.1649],[14.286,45.1448],[14.34,45.02],[14.3422,44.9797],[14.3025,44.9406],[14.3125,44.9004],[14.3887,44.7586],[14.4194,44.6702],[14.4802,44.6215],[14.4882,44.6601],[14.4824,44.6934],[14.4676,44.7252]]]}}
