{"type":"Feature","properties":{"id":77,"name":"Straits of Florida","featurecla":"strait","scalerank":4,"wikidataid":"Q232912","source":"Natural Earth 5.2.0-pre ne_10m_geography_marine_polys (public domain)"},"geometry":{"type":"Polygon","coordinates":[[[-80.6411,23.0982],[-80.6502,23.1029],[-81.0079,23.0897],[-81.1444,23.0548],[-81.1788,23.0595],[-81.2714,23.1289],[-81.2624,23.1569],[-81.3635,23.1299],[-81.5757,23.1167],[-81.8376,23.1633],[-82.1011,23.1903],[-82.3504,23.1537],[-82.588,23.0643],[-82.6657,23.0437],[-83.033,22.9998],[-83.0351,23.0188],[-82.9997,24.2184],[-81.8006,24.0771],[-80.4247,24.465],[-79.8956,24.9593],[-80.3189,25.4175],[-80.33,25.4223],[-80.3279,25.427],[-80.3009,25.6186],[-80.2189,25.7419],[-80.1591,25.8784],[-80.1427,25.8742],[-80.1363,25.8424],[-80.1263,25.8334],[-80.1104,26.1314],[-80.0411,26.5685],[-80.0427,26.6177],[-78.961,26.6685],[-78.7991,26.5282],[-78.1625,25.2021],[-78.2112,25.191],[-78.1594,25.0222],[-78.1842,24.9169],[-78.2991,24.7539],[-78.2737,24.6915],[-78.2599,24.6873],[-78.243,24.6539],[-78.3192,24.5904],[-78.3388,24.6423],[-78.4351,24.6275],[-80.6411,23.0982]]]}}
