{"type":"Feature","properties":{"id":78,"name":"Bay of Plenty","featurecla":"bay","scalerank":4,"wikidataid":"Q140290","source":"Natural Earth 5.2.0-pre ne_10m_geography_marine_polys (public domain)"},"geometry":{"type":"Polygon","coordinates":[[[178.2721,-37.5671],[178.0091,-37.5549],[177.9579,-37.5809],[177.9097,-37.6168],[177.8128,-37.656],[177.7271,-37.7057],[177.6488,-37.8079],[177.5583,-37.8973],[177.4535,-37.9576],[177.3361,-37.991],[177.2742,-37.9936],[177.162,-37.9856],[176.7698,-37.8899],[176.6148,-37.8311],[176.2915,-37.6803],[176.2433,-37.6639],[176.1909,-37.6671],[176.1084,-37.6454],[176.038,-37.6004],[176.03,-37.5761],[176.0534,-37.5618],[176.129,-37.5866],[176.1148,-37.5385],[175.9899,-37.4369],[175.9211,-37.2046],[175.8761,-36.958],[175.8422,-36.8749],[175.7808,-36.8045],[175.7724,-36.7352],[178.2721,-37.5671]]]}}
