{"type":"Feature","properties":{"id":79,"name":"The North Western Passages","featurecla":"channel","scalerank":4,"wikidataid":"Q81136","source":"Natural Earth 5.2.0-pre ne_10m_geography_marine_polys (public domain)"},"geometry":{"type":"Polygon","coordinates":[[[-85.6741,79.7021],[-85.4571,79.6899],[-85.2687,79.664],[-85.0899,79.6121],[-84.8364,79.4946],[-84.5226,79.3766],[-84.3813,79.3015],[-84.1972,79.2253],[-83.9781,79.1634],[-83.6622,79.0898],[-83.5759,79.0539],[-83.8246,79.0586],[-84.0532,79.0988],[-84.2564,79.1221],[-84.3834,79.1184],[-84.5305,79.1015],[-84.5676,79.0713],[-84.4956,79.0285],[-84.412,78.9967],[-84.3162,78.9755],[-84.1458,78.9597],[-83.7786,78.9454],[-83.0584,78.9395],[-82.644,78.9078],[-82.4387,78.9036],[-82.2371,78.9242],[-82.0281,78.9618],[-81.8889,78.975],[-81.7503,78.9755],[-81.781,78.9501],[-81.981,78.8983],[-82.1509,78.8639],[-82.2906,78.8469],[-82.4419,78.8406],[-82.9896,78.8443],[-83.1473,78.8078],[-83.2717,78.7702],[-83.3886,78.7792],[-83.5468,78.8046],[-83.9077,78.839],[-84.7872,78.8845],[-85.0036,78.912],[-85.2296,78.902],[-85.691,78.8438],[-86.2419,78.8237],[-86.8081,78.7744],[-86.9531,78.6638],[-87.1642,78.5575],[-87.361,78.4786],[-87.4912,78.4173],[-87.4912,78.2844],[-87.5516,78.1765],[-87.3393,78.1326],[-86.9134,78.1268],[-86.6938,78.1511],[-86.4271,78.1971],[-86.0709,78.2844],[-85.9201,78.3427],[-86.0625,78.1871],[-86.218,78.0812],[-85.5857,78.1093],[-85.419,78.1426],[-85.2703,78.1998],[-85.0242,78.3125],[-84.7829,78.5279],[-84.9105,78.2395],[-84.5501,78.2511],[-84.3882,78.2061],[-84.2226,78.176],[-84.5242,78.1971],[-84.6152,78.1955],[-85.0317,78.0622],[-85.2655,78.0103],[-85.5476,77.9278],[-85.292,77.7637],[-85.2894,77.559],[-85.0877,77.5156],[-84.8607,77.4997],[-84.4861,77.5621],[-84.1681,77.523],[-83.9283,77.5182],[-83.7791,77.5325],[-83.4283,77.6214],[-83.3039,77.6738],[-82.7033,77.9622],[-82.5954,77.9923],[-82.6261,77.9362],[-82.6647,77.8886],[-82.7102,77.8495],[-82.9028,77.7325],[-83.2505,77.5849],[-83.4775,77.5134],[-83.55,77.4828],[-83.6082,77.442],[-83.7214,77.414],[-83.9733,77.3907],[-84.4871,77.3679],[-84.7385,77.361],[-84.9507,77.3748],[-85.5883,77.4611],[-85.7312,77.5087],[-85.9069,77.614],[-86.1731,77.7463],[-86.3853,77.8087],[-86.7551,77.8637],[-87.0181,77.8923],[-87.2362,77.8918],[-87.4965,77.8717],[-87.7569,77.8362],[-88.0172,77.7849],[-88.0945,77.7193],[-87.9378,77.5997],[-87.7801,77.4928],[-87.6817,77.4362],[-87.5891,77.3949],[-87.4298,77.3478],[-87.2653,77.343],[-87.1822,77.3319],[-87.1007,77.3076],[-86.8737,77.2002],[-86.8123,77.1848],[-86.852,77.1743],[-87.0647,77.1658],[-87.3616,77.1361],[-87.6103,77.1266],[-87.8283,77.1367],[-88.1479,77.124],[-88.3982,77.1039],[-88.5564,77.0721],[-88.7708,76.9933],[-89.4999,76.8266],[-89.5444,76.6599],[-89.5703,76.4922],[-89.7264,76.5075],[-89.7264,76.5207],[-89.773,76.5339],[-89.8047,76.5609],[-89.8217,76.6022],[-89.8222,76.6308],[-89.7878,76.6594],[-89.7084,76.7012],[-89.6947,76.7197],[-89.6952,76.7414],[-89.7254,76.7636],[-89.7746,76.7821],[-89.9487,76.8361],[-90.1365,76.8372],[-90.4096,76.8102],[-90.5249,76.7879],[-90.5625,76.7541],[-90.5561,76.7345],[-90.4408,76.6631],[-90.2937,76.5795],[-90.1646,76.5234],[-90.0545,76.4953],[-89.9741,76.4874],[-89.9847,76.362],[-90.8546,76.4371],[-91.334,76.4467],[-91.415,76.4556],[-91.443,76.4985],[-91.3981,76.5096],[-91.3362,76.5107],[-91.2631,76.5001],[-90.8641,76.4837],[-90.6218,76.4646],[-90.5424,76.4958],[-90.5546,76.516],[-90.6048,76.543],[-90.7382,76.5816],[-91.1245,76.662],[-91.3049,76.6805],[-91.5483,76.6853],[-91.7896,76.6758],[-92.2971,76.616],[-92.7162,76.6027],[-92.9956,76.6202],[-93.4221,76.4742],[-93.5348,76.4477],[-93.4846,76.4922],[-93.4264,76.5271],[-93.3168,76.5736],[-93.2639,76.6265],[-93.2004,76.6689],[-93.1898,76.6864],[-93.1893,76.708],[-93.212,76.7546],[-93.23,76.7705],[-93.2766,76.7843],[-93.4205,76.8123],[-93.6084,76.8737],[-93.8111,76.9139],[-93.9481,76.9171],[-94.1079,76.9038],[-94.2947,76.9123],[-94.6159,76.9584],[-95.1266,77.0171],[-95.6383,77.0636],[-95.8494,77.0663],[-96.0611,77.0499],[-96.3775,77.0044],[-96.55,76.988],[-96.685,76.9848],[-96.7585,76.9716],[-96.7696,76.9483],[-96.8135,76.9134],[-96.7712,76.889],[-96.6611,76.8552],[-96.4331,76.8107],[-96.4013,76.7975],[-96.4511,76.7742],[-96.5902,76.7631],[-96.6797,76.7657],[-96.8781,76.8028],[-96.8977,76.7737],[-96.8982,76.7541],[-96.8807,76.7382],[-96.8458,76.7266],[-96.6394,76.7028],[-95.9711,76.5694],[-95.8732,76.5662],[-95.651,76.5848],[-95.6959,76.5636],[-95.7891,76.5371],[-96.0129,76.5133],[-96.0399,76.4869],[-95.9595,76.4461],[-95.8415,76.416],[-95.4472,76.363],[-95.2737,76.2646],[-94.9964,76.2577],[-94.7366,76.2932],[-94.5852,76.2969],[-94.3826,76.2821],[-93.8523,76.2699],[-93.665,76.2731],[-93.6444,76.2884],[-93.5597,76.3112],[-93.3084,76.3599],[-93.1925,76.3662],[-93.0919,76.354],[-92.8834,76.2138],[-92.7088,76.1143],[-92.4739,75.9863],[-92.3066,75.9154],[-92.1849,75.8466],[-92.1421,75.7968],[-92.0992,75.7275],[-92.0691,75.6577],[-92.0807,75.6344],[-92.1103,75.6106],[-92.3305,75.4793],[-92.4109,75.4063],[-92.4278,75.3825],[-92.4273,75.3465],[-92.4082,75.2973],[-92.3892,75.2634],[-92.3474,75.2296],[-92.2066,75.1814],[-92.0764,75.1237],[-92.0606,75.101],[-92.1654,75.0719],[-92.1743,75.0512],[-92.1024,74.9486],[-91.9616,74.793],[-91.8711,74.7433],[-91.6658,74.6993],[-91.5494,74.6554],[-91.5081,74.6507],[-91.3393,74.667],[-91.1679,74.6454],[-91.1345,74.6501],[-91.1636,74.7104],[-91.1298,74.7364],[-90.88,74.8179],[-90.8779,74.8009],[-90.9578,74.7454],[-90.9668,74.7152],[-90.7842,74.6962],[-90.5535,74.6126],[-90.3614,74.6104],[-90.0154,74.5607],[-89.8444,74.5485],[-89.5587,74.5549],[-89.4502,74.5681],[-89.2618,74.6094],[-89.1957,74.6374],[-89.1893,74.667],[-89.1967,74.6983],[-89.2189,74.7316],[-89.192,74.7448],[-89.1152,74.7374],[-89.0581,74.7475],[-89.0194,74.7739],[-88.9803,74.7882],[-88.9401,74.7893],[-88.9078,74.7639],[-88.8835,74.711],[-88.8512,74.6898],[-88.7776,74.7152],[-88.6818,74.802],[-88.5347,74.8316],[-88.4882,74.829],[-88.4315,74.8036],[-88.3395,74.785],[-88.3749,74.7443],[-88.4765,74.667],[-88.5374,74.6089],[-88.558,74.5697],[-88.5559,74.5417],[-88.5009,74.5099],[-88.4231,74.494],[-88.0061,74.4893],[-87.5928,74.4702],[-87.3637,74.502],[-86.9949,74.4803],[-86.77,74.4787],[-86.6663,74.4893],[-86.7308,74.557],[-86.6557,74.5554],[-86.3408,74.5136],[-86.2112,74.5358],[-86.1101,74.5395],[-85.9556,74.4988],[-85.8079,74.4988],[-85.5434,74.5348],[-85.5116,74.5453],[-85.4889,74.567],[-85.4746,74.6004],[-85.4423,74.6004],[-85.3391,74.5432],[-85.2142,74.5189],[-85.1332,74.5173],[-85.0867,74.5279],[-85.0613,74.6067],[-85.0115,74.6041],[-84.9163,74.5676],[-84.8184,74.5422],[-84.667,74.5194],[-84.4257,74.5083],[-84.2453,74.5152],[-83.868,74.5644],[-83.6219,74.566],[-83.532,74.5856],[-83.4124,74.6549],[-83.3939,74.6702],[-83.3415,74.7644],[-83.3643,74.802],[-83.4875,74.8343],[-83.5098,74.848],[-83.5436,74.8925],[-83.522,74.9015],[-83.4071,74.8851],[-83.2203,74.8285],[-83.1584,74.8168],[-83.1028,74.8168],[-83.0875,74.7882],[-83.1124,74.7321],[-83.1171,74.693],[-83.0579,74.63],[-82.9785,74.5835],[-82.9309,74.5654],[-82.7356,74.5305],[-82.6456,74.5252],[-82.4149,74.5353],[-82.0683,74.4818],[-81.9403,74.4728],[-81.809,74.4766],[-81.6074,74.5025],[-81.3407,74.5533],[-81.2264,74.5665],[-80.2776,74.5813],[-80.1776,74.5596],[-77.2143,73.6601],[-77.2465,73.5082],[-77.382,73.5368],[-78.0631,73.6479],[-78.2864,73.6659],[-79.3669,73.6415],[-79.5373,73.6542],[-79.8892,73.7013],[-80.1205,73.7071],[-80.4126,73.7654],[-80.6216,73.7675],[-80.7629,73.7579],[-80.8227,73.7437],[-80.8491,73.7214],[-80.8608,73.6706],[-80.8587,73.5913],[-80.8269,73.5346],[-80.7359,73.4833],[-80.7772,73.4817],[-80.7978,73.4717],[-80.8232,73.4288],[-80.8243,73.3807],[-80.7766,73.3341],[-80.7269,73.3055],[-80.6449,73.279],[-80.6814,73.1658],[-80.8216,73.2071],[-81.0253,73.2452],[-81.1518,73.314],[-81.2386,73.4796],[-81.3439,73.5976],[-81.4063,73.6347],[-81.6053,73.696],[-81.9461,73.7299],[-82.2027,73.7362],[-82.6594,73.7294],[-82.8435,73.7156],[-82.943,73.6992],[-83.0203,73.6759],[-83.4103,73.6315],[-83.7299,73.5759],[-83.904,73.5283],[-83.9151,73.5082],[-83.7765,73.4283],[-83.7818,73.4172],[-84.0892,73.4595],[-84.4162,73.4563],[-84.6163,73.3896],[-85.0184,73.3357],[-85.455,73.1055],[-85.3841,73.0452],[-85.0941,73.0028],[-84.2744,72.8367],[-84.2564,72.797],[-84.9893,72.9197],[-85.2624,72.9542],[-85.3878,72.9452],[-85.455,72.925],[-85.5746,72.8562],[-85.6195,72.8192],[-85.6444,72.7742],[-85.6497,72.7224],[-85.6381,72.6329],[-85.6159,72.6049],[-85.5539,72.5684],[-85.4979,72.5107],[-85.3915,72.444],[-85.3412,72.4213],[-85.1565,72.3832],[-85.0571,72.3842],[-84.9639,72.4054],[-84.8496,72.4064],[-84.6231,72.3768],[-84.6448,72.3514],[-84.811,72.3297],[-84.8422,72.308],[-84.7777,72.2588],[-84.6433,72.1895],[-84.3474,72.0943],[-84.2823,72.0583],[-84.2839,72.0445],[-84.3517,72.0524],[-84.6083,72.1297],[-85.019,72.2181],[-85.3216,72.2329],[-85.4058,72.2149],[-85.546,72.1016],[-85.6645,72.063],[-85.8619,72.0218],[-85.9116,71.9863],[-85.8132,71.9566],[-85.5963,71.8662],[-85.5116,71.8164],[-85.3968,71.727],[-85.3391,71.6974],[-85.2507,71.6752],[-85.1311,71.6614],[-85.0322,71.654],[-84.8401,71.6588],[-84.6993,71.6312],[-84.6602,71.5862],[-84.6581,71.5148],[-84.6745,71.4386],[-84.7083,71.3587],[-84.7898,71.0931],[-84.8237,71.0285],[-84.8703,71.002],[-84.9883,71.0317],[-85.0475,71.0587],[-85.066,71.0788],[-85.0428,71.0915],[-85.0015,71.1375],[-85.0946,71.1518],[-85.6439,71.1523],[-85.8243,71.1259],[-86.127,71.0492],[-86.3212,71.0169],[-86.5498,70.9888],[-86.5895,71.011],[-86.4731,71.0428],[-86.1794,71.0957],[-85.9455,71.1629],[-85.7571,71.1941],[-85.4052,71.2269],[-85.1375,71.3031],[-85.0232,71.3534],[-85.0788,71.3984],[-85.3269,71.492],[-85.537,71.5556],[-85.7503,71.6413],[-86.036,71.7709],[-86.2186,71.899],[-86.2974,72.026],[-86.3413,72.1234],[-86.3509,72.1911],[-86.3482,72.262],[-86.3239,72.4022],[-86.3223,72.461],[-86.3805,72.5245],[-86.5948,72.661],[-86.6562,72.7239],[-86.6678,72.7626],[-86.6292,72.8705],[-86.5747,72.9107],[-86.4816,72.9605],[-86.0863,73.26],[-86.0006,73.3124],[-85.682,73.4616],[-85.4936,73.5278],[-85.2042,73.6034],[-84.9745,73.695],[-84.947,73.7214],[-84.9835,73.7638],[-85.0094,73.7786],[-85.1105,73.8082],[-85.9508,73.85],[-86.4064,73.8548],[-86.7689,73.8341],[-87.4722,73.7595],[-87.7198,73.723],[-87.9262,73.6733],[-88.1701,73.5955],[-88.7051,73.4034],[-88.7273,73.3881],[-88.7395,73.3653],[-88.7427,73.3346],[-88.7607,73.3124],[-88.9766,73.2526],[-89.1147,73.1822],[-89.2253,73.1081],[-89.2634,73.069],[-89.2877,73.0171],[-89.3115,72.943],[-89.3269,72.8414],[-89.3576,72.8044],[-89.5364,72.6901],[-89.7015,72.5678],[-89.8169,72.4679],[-89.8614,72.4118],[-89.8741,72.3673],[-89.873,72.3128],[-89.8587,72.2482],[-89.8227,72.208],[-89.7105,72.18],[-89.6571,72.1752],[-89.664,72.1577],[-89.9317,72.0492],[-90.0254,71.9487],[-90.0196,71.9016],[-89.9772,71.8482],[-89.9339,71.7429],[-89.8883,71.5857],[-89.846,71.492],[-89.8053,71.4624],[-89.6931,71.4233],[-89.4179,71.3523],[-89.0793,71.2878],[-88.5892,71.2402],[-88.0606,71.2275],[-87.8722,71.2084],[-87.76,71.1782],[-87.5722,71.1073],[-87.3685,71.0528],[-87.1398,71.0116],[-87.1816,70.9878],[-87.5346,70.9565],[-87.8447,70.9444],[-88.0384,70.9512],[-88.3093,70.9846],[-88.5167,71.0306],[-88.6956,71.0454],[-89.0253,71.0444],[-89.3655,71.0671],[-89.456,71.0618],[-89.4163,71.0396],[-89.4206,71.0317],[-91.5674,70.1522],[-91.5716,70.1617],[-91.5642,70.1781],[-91.6542,70.2332],[-91.7156,70.2993],[-91.7611,70.3263],[-91.8203,70.3417],[-91.8754,70.3311],[-91.9262,70.2945],[-91.9833,70.2856],[-92.0473,70.3035],[-92.0727,70.3189],[-92.0373,70.3676],[-92.0489,70.3898],[-92.2146,70.493],[-92.3156,70.6073],[-92.3559,70.6343],[-92.3886,70.6502],[-92.5675,70.693],[-92.6416,70.7189],[-92.7829,70.7983],[-92.9607,70.838],[-92.9813,70.8523],[-92.922,70.8872],[-92.9041,70.9163],[-92.8829,71.0693],[-92.8903,71.1222],[-92.9485,71.2619],[-92.9824,71.3005],[-93.0311,71.336],[-93.2565,71.4608],[-93.4073,71.5206],[-93.5761,71.5688],[-93.7629,71.6381],[-93.7814,71.6741],[-93.7507,71.7164],[-93.7465,71.7429],[-93.81,71.7662],[-94.0862,71.7709],[-94.1714,71.7582],[-94.3085,71.7651],[-94.4789,71.8487],[-94.491,71.9154],[-94.5572,71.9789],[-94.6111,71.9868],[-94.735,71.9831],[-94.8869,71.9635],[-95.2012,71.9037],[-95.5118,71.7768],[-95.616,71.6852],[-95.8378,71.5984],[-95.8722,71.573],[-95.8303,71.5259],[-95.7732,71.5143],[-95.6743,71.5042],[-95.4451,71.5053],[-95.4065,71.4915],[-95.4472,71.4603],[-95.5642,71.337],[-95.6325,71.319],[-95.7256,71.328],[-95.851,71.3608],[-95.924,71.3931],[-95.9944,71.4106],[-96.0621,71.4137],[-96.1399,71.3963],[-96.2711,71.3391],[-96.4056,71.2735],[-96.4463,71.2396],[-96.4209,71.1767],[-96.4452,71.1592],[-96.5045,71.1433],[-96.5246,71.1269],[-96.4706,71.0698],[-96.4913,71.0026],[-96.5511,70.8899],[-96.549,70.8089],[-96.359,70.6787],[-96.2579,70.6422],[-96.1865,70.6385],[-95.9066,70.6978],[-95.8864,70.6941],[-95.988,70.6168],[-95.9801,70.593],[-95.8785,70.5491],[-96.0484,70.5671],[-96.123,70.5612],[-96.2262,70.5417],[-96.2976,70.5115],[-96.3368,70.4702],[-96.5458,70.3274],[-96.5596,70.2432],[-96.5516,70.2104],[-96.4923,70.1247],[-96.2696,69.9919],[-96.1717,69.9252],[-96.1193,69.8718],[-96.05,69.831],[-95.9648,69.8029],[-95.8505,69.785],[-95.7076,69.7781],[-95.5875,69.7559],[-95.4912,69.7178],[-95.2922,69.6675],[-94.8223,69.5775],[-94.7895,69.5855],[-94.7128,69.6495],[-94.6763,69.6569],[-94.6339,69.6495],[-94.5138,69.5834],[-94.4191,69.5172],[-94.3381,69.4743],[-94.2709,69.4553],[-94.163,69.4458],[-94.0153,69.4468],[-93.9153,69.4574],[-93.7941,69.4976],[-93.6497,69.5193],[-93.5322,69.4807],[-93.5227,69.4505],[-93.5428,69.4066],[-93.5369,69.3823],[-93.4311,69.3749],[-93.4507,69.3553],[-93.5676,69.2971],[-93.7486,69.2262],[-93.8206,69.2526],[-93.801,69.2807],[-93.6126,69.4029],[-93.6195,69.4172],[-93.8544,69.3764],[-94.1566,69.3415],[-94.2545,69.314],[-94.2767,69.2754],[-94.2852,69.2415],[-94.2556,69.1515],[-94.2217,69.1362],[-94.0809,69.1357],[-94.0836,69.123],[-94.2365,69.0499],[-94.4757,68.9584],[-94.5625,68.9118],[-94.6006,68.8034],[-94.5868,68.7753],[-94.4783,68.7425],[-94.2169,68.7605],[-94.0651,68.7848],[-93.9915,68.8208],[-93.9381,68.8891],[-93.8963,68.9822],[-93.8809,68.997],[-93.8523,69.0002],[-93.8116,68.9928],[-93.7655,68.9695],[-93.7158,68.9309],[-93.6814,68.8875],[-93.6629,68.8383],[-93.6597,68.7838],[-93.6761,68.6859],[-93.6438,68.633],[-93.6057,68.6234],[-93.4491,68.6187],[-93.483,68.5991],[-93.6518,68.543],[-93.928,68.4737],[-94.0979,68.3996],[-94.255,68.2969],[-94.3836,68.2271],[-94.4852,68.1901],[-94.7445,68.071],[-94.8609,68.0419],[-94.9551,68.0504],[-95.126,68.0832],[-95.2345,68.0599],[-95.3843,68.0556],[-95.4266,68.045],[-95.4605,68.0212],[-95.6504,67.7376],[-95.6335,67.7037],[-95.4631,67.6101],[-95.3896,67.518],[-95.2954,67.3609],[-95.2589,67.2624],[-95.3213,67.1524],[-95.3541,66.9809],[-95.3996,66.9497],[-95.4906,66.9243],[-95.625,66.9164],[-95.9722,66.9523],[-96.0367,66.9375],[-96.0452,66.9232],[-96.0161,66.8703],[-95.7722,66.7258],[-95.743,66.6904],[-95.7875,66.6168],[-95.7976,66.6163],[-95.8134,66.6904],[-95.8854,66.7412],[-96.3595,66.9894],[-96.4204,67.0359],[-96.4225,67.0518],[-96.4045,67.0635],[-96.3505,67.0698],[-96.2156,66.9978],[-96.0955,66.9936],[-96.0198,67.019],[-95.9542,67.0111],[-95.8621,66.9783],[-95.7684,66.9666],[-95.6107,66.9756],[-95.5594,66.973],[-95.5023,66.9798],[-95.4568,66.9894],[-95.4187,67.0132],[-95.407,67.0561],[-95.4044,67.1159],[-95.416,67.1555],[-95.5287,67.209],[-95.5568,67.2153],[-95.6266,67.2116],[-95.7774,67.1846],[-95.7827,67.1936],[-95.6954,67.2989],[-95.7198,67.3169],[-95.8791,67.2984],[-96.0124,67.2709],[-96.1415,67.2719],[-96.169,67.2889],[-96.1849,67.3757],[-96.2129,67.4042],[-96.369,67.5095],[-96.3712,67.554],[-96.2283,67.6794],[-96.1986,67.718],[-96.1712,67.8318],[-96.0362,68.1578],[-95.9701,68.2493],[-96.0754,68.2366],[-96.4394,68.1509],[-96.4611,68.1361],[-96.4939,68.0847],[-96.5315,68.0631],[-96.5924,68.0483],[-96.722,68.0387],[-96.7252,68.0615],[-96.4802,68.243],[-96.4352,68.2901],[-96.4304,68.3107],[-96.6283,68.2504],[-96.9765,68.2557],[-96.9998,68.2647],[-97.0718,68.3329],[-97.1358,68.3779],[-97.266,68.453],[-97.3358,68.479],[-97.4105,68.4964],[-97.4814,68.4954],[-97.548,68.4747],[-97.6396,68.4822],[-97.8285,68.5329],[-97.9253,68.524],[-97.9391,68.5102],[-97.911,68.4493],[-97.7941,68.3874],[-98.0904,68.3462],[-98.2185,68.3176],[-98.4688,68.3821],[-98.5222,68.3832],[-98.5625,68.371],[-98.6503,68.3636],[-98.6328,68.3313],[-98.491,68.2234],[-98.4492,68.2006],[-98.3809,68.1324],[-98.3862,68.1155],[-98.5,68.1324],[-98.5005,68.1175],[-98.4386,68.0646],[-98.3878,68.0355],[-98.4148,67.9884],[-98.5397,68.0466],[-98.6318,68.0726],[-98.69,68.0662],[-98.7201,68.0419],[-98.7223,68.0001],[-98.7037,67.9657],[-98.6064,67.9112],[-98.4677,67.8556],[-98.4169,67.8265],[-98.4122,67.8069],[-98.4529,67.798],[-98.6974,67.7799],[-98.8117,67.7445],[-98.9207,67.726],[-99.0323,67.7191],[-99.1467,67.7239],[-99.2938,67.7456],[-99.4721,67.7842],[-99.7732,67.8149],[-100.2129,67.8387],[-100.4563,67.8392],[-100.5198,67.8186],[-100.6162,67.8085],[-100.7458,67.8091],[-100.8559,67.799],[-101.0263,67.7657],[-101.0966,67.7625],[-101.5549,67.6932],[-101.6887,67.7085],[-101.8835,67.7456],[-102.0571,67.7535],[-102.21,67.7329],[-102.3206,67.7355],[-102.3889,67.762],[-102.6921,67.8117],[-102.8418,67.853],[-103.0217,67.9403],[-103.3234,68.0636],[-103.4742,68.1149],[-103.6573,68.0689],[-103.9017,68.0408],[-104.1933,68.0313],[-104.3505,68.0414],[-104.487,68.0631],[-104.6283,68.1213],[-104.6611,68.1488],[-104.6362,68.2139],[-104.6531,68.2303],[-104.7696,68.252],[-104.8796,68.2451],[-104.9119,68.2504],[-104.9368,68.3033],[-104.9601,68.3107],[-104.9939,68.3075],[-105.0437,68.288],[-105.1014,68.298],[-105.195,68.3303],[-105.3776,68.4139],[-105.4284,68.4584],[-105.457,68.5779],[-105.54,68.7187],[-105.6062,68.7822],[-105.6856,68.8282],[-105.7977,68.8647],[-106.0157,68.906],[-106.1644,68.9198],[-106.3243,68.8997],[-106.7137,68.8192],[-106.8307,68.8097],[-107.436,68.689],[-107.7662,68.6488],[-108.3134,68.6107],[-108.3457,68.598],[-108.641,68.3784],[-108.7182,68.2975],[-108.6865,68.2774],[-108.3679,68.1773],[-108.3229,68.1541],[-108.261,68.1498],[-108.1044,68.1694],[-108.0271,68.1631],[-107.8033,68.171],[-107.7985,68.0371],[-107.7874,68.0123],[-107.7287,67.9588],[-107.7631,67.9069],[-107.8911,67.8561],[-107.9583,67.8186],[-107.9721,67.7318],[-107.9541,67.7001],[-108.0488,67.6651],[-108.1277,67.6286],[-108.1208,67.5683],[-108.1509,67.5249],[-108.152,67.4296],[-108.0732,67.3852],[-108.0038,67.3661],[-107.9695,67.3259],[-107.9964,67.2598],[-108.3467,67.4032],[-108.4917,67.4831],[-108.5928,67.591],[-108.6134,67.5979],[-108.6801,67.6064],[-108.715,67.5826],[-108.8151,67.4376],[-108.8521,67.4222],[-108.8907,67.4381],[-108.95,67.4942],[-108.9675,67.5323],[-108.9944,67.6371],[-109.0378,67.6911],[-109.0812,67.7106],[-109.2241,67.7297],[-109.6305,67.7329],[-109.6861,67.7519],[-109.7601,67.8202],[-109.8316,67.8657],[-109.9041,67.8736],[-109.9364,67.8879],[-110.0427,67.9773],[-110.0739,67.9927],[-110.102,67.9921],[-110.2163,67.954],[-110.3719,67.954],[-110.8047,67.8323],[-110.9899,67.7905],[-111.0873,67.7879],[-111.155,67.7985],[-111.1921,67.8228],[-111.291,67.8154],[-111.4508,67.7762],[-111.5757,67.7567],[-111.7106,67.7572],[-112.1012,67.7318],[-112.2366,67.7313],[-112.3144,67.7196],[-112.4351,67.6847],[-112.5028,67.682],[-112.8796,67.68],[-113.0748,67.6868],[-113.2151,67.7016],[-113.6818,67.7001],[-113.8935,67.7069],[-114.0511,67.727],[-114.1755,67.735],[-114.2671,67.7313],[-114.4295,67.7514],[-114.6629,67.7953],[-114.8565,67.8138],[-115.0111,67.8064],[-115.1333,67.8191],[-115.2883,67.8715],[-115.4344,67.9022],[-115.427,67.9233],[-115.2021,67.9985],[-115.1672,68.0186],[-115.1867,68.0842],[-115.1762,68.1043],[-115.1269,68.1318],[-114.8523,68.1953],[-114.7655,68.2699],[-114.275,68.2477],[-114.0961,68.2668],[-114.0533,68.2832],[-114.021,68.3065],[-113.9644,68.3991],[-113.9882,68.4149],[-114.0511,68.4144],[-114.0919,68.4356],[-114.1109,68.4774],[-114.2184,68.552],[-114.4136,68.6594],[-114.62,68.7462],[-114.9936,68.8499],[-115.2397,68.8917],[-115.4423,68.9409],[-115.6313,68.9727],[-115.8064,68.9865],[-115.8831,68.9875],[-115.936,68.9579],[-116.1668,68.9754],[-116.2435,68.9743],[-116.2514,68.9579],[-116.0652,68.8552],[-116.0593,68.8372],[-116.2228,68.8468],[-116.334,68.8737],[-116.4245,68.8806],[-116.5499,68.879],[-117.0256,68.9161],[-117.132,68.9071],[-117.2272,68.9134],[-117.3114,68.9351],[-117.8305,68.9997],[-118.095,69.0431],[-118.3072,69.0928],[-118.4856,69.1447],[-118.7449,69.2341],[-118.7803,69.241],[-118.7803,69.2415],[-117.1928,70.0617],[-117.1907,70.0601],[-117.1955,70.0543],[-117.1838,69.9913],[-117.1489,69.8882],[-117.1219,69.8257],[-117.1039,69.804],[-116.9928,69.7193],[-116.7118,69.5765],[-116.6097,69.5119],[-116.5689,69.4627],[-116.5367,69.4336],[-116.5134,69.4246],[-116.1017,69.3373],[-115.8609,69.3034],[-115.618,69.2828],[-115.1592,69.2648],[-114.6989,69.2727],[-114.3231,69.269],[-114.0734,69.2516],[-113.694,69.195],[-113.6807,69.1822],[-113.6088,69.0304],[-113.5924,68.96],[-113.6167,68.8383],[-113.5548,68.7674],[-113.3378,68.5986],[-113.2315,68.5356],[-113.1278,68.4943],[-113.0193,68.4811],[-112.8642,68.4769],[-112.6663,68.4853],[-112.3049,68.516],[-111.518,68.5329],[-111.3111,68.5419],[-111.1275,68.5885],[-110.9571,68.5943],[-110.8481,68.5785],[-110.4676,68.6102],[-109.9586,68.6303],[-109.4723,68.6769],[-108.9457,68.76],[-108.7304,68.8272],[-108.5526,68.8976],[-108.3647,68.9346],[-107.8636,68.9542],[-107.4397,69.0023],[-107.3535,69.0314],[-107.1222,69.1521],[-107.0333,69.1806],[-106.8555,69.3473],[-106.7598,69.4071],[-106.6592,69.4394],[-106.5396,69.4431],[-106.42,69.4135],[-106.3613,69.3812],[-106.3444,69.3394],[-106.3555,69.2807],[-106.3539,69.251],[-106.3412,69.2246],[-106.2703,69.1944],[-106.1406,69.1621],[-106.0084,69.1478],[-105.8051,69.1531],[-105.5332,69.1336],[-105.2622,69.0939],[-105.0193,69.0812],[-105.0135,69.068],[-105.0215,69.0526],[-105.1485,68.978],[-105.1691,68.9552],[-105.1061,68.9203],[-104.5717,68.8722],[-104.46,68.9124],[-104.3526,68.9282],[-104.0674,68.8658],[-103.8202,68.8478],[-103.4684,68.8086],[-103.1625,68.8288],[-102.8953,68.8234],[-102.8349,68.8335],[-102.7381,68.8647],[-102.4883,68.8891],[-102.3587,68.923],[-101.9803,68.9886],[-101.857,69.024],[-101.7877,69.1325],[-101.7893,69.1817],[-101.8226,69.2172],[-101.8729,69.2399],[-101.8988,69.2457],[-101.993,69.2362],[-102.0459,69.2579],[-102.0639,69.2812],[-102.0708,69.3077],[-102.0671,69.3373],[-102.0528,69.3606],[-101.9756,69.4071],[-101.9782,69.4251],[-102.0459,69.4648],[-102.1513,69.4876],[-102.4465,69.4765],[-102.5466,69.4347],[-102.7773,69.3775],[-102.8842,69.3415],[-103.0905,69.2119],[-103.1202,69.2045],[-103.1127,69.2362],[-103.0397,69.3674],[-103.0318,69.4336],[-103.0487,69.4717],[-103.063,69.4849],[-103.1016,69.4833],[-103.1424,69.4971],[-103.2943,69.5685],[-103.4181,69.6114],[-103.4646,69.6447],[-103.435,69.6675],[-103.3593,69.6855],[-103.3032,69.6744],[-103.0593,69.5945],[-102.9196,69.5648],[-102.7434,69.5479],[-102.6211,69.5516],[-102.5629,69.5738],[-102.5407,69.5918],[-102.5349,69.6209],[-102.5449,69.6601],[-102.5651,69.6924],[-102.5957,69.7178],[-102.5232,69.758],[-102.3481,69.813],[-102.2343,69.8421],[-102.1819,69.8458],[-102.0978,69.8247],[-101.8602,69.7379],[-101.7337,69.704],[-101.6475,69.6987],[-101.6025,69.7215],[-101.5649,69.7559],[-101.5083,69.8331],[-101.484,69.8501],[-101.457,69.8336],[-101.4004,69.7495],[-101.3374,69.7103],[-101.2162,69.6796],[-101.0437,69.6685],[-100.9823,69.6796],[-100.9352,69.7151],[-100.9056,69.8119],[-100.9093,69.8691],[-100.9733,70.0294],[-101.0426,70.1109],[-101.0908,70.1358],[-101.1485,70.1475],[-101.239,70.1511],[-101.5623,70.1347],[-101.6184,70.1723],[-101.6268,70.2485],[-101.6411,70.2654],[-101.6761,70.2781],[-101.7322,70.2866],[-101.9375,70.2744],[-101.9899,70.285],[-102.3687,70.4131],[-102.5894,70.4686],[-102.7503,70.5221],[-103.0498,70.6549],[-103.0884,70.6496],[-103.0826,70.6189],[-103.0011,70.5411],[-103.0053,70.5258],[-103.0212,70.5157],[-103.0773,70.5089],[-103.1048,70.5105],[-103.1974,70.5475],[-103.2948,70.5724],[-103.5848,70.6311],[-103.8536,70.7338],[-103.9536,70.7629],[-104.1668,70.9274],[-104.515,71.0645],[-104.5696,71.1042],[-104.5632,71.1322],[-104.487,71.2481],[-104.4367,71.3005],[-104.3849,71.3375],[-104.3558,71.382],[-104.3494,71.4339],[-104.3552,71.4714],[-104.3732,71.4952],[-104.3859,71.5767],[-104.5182,71.6995],[-104.7669,71.8678],[-104.8103,71.9032],[-104.878,71.9799],[-105.2342,72.4149],[-105.2469,72.4636],[-105.2977,72.5605],[-105.3231,72.6345],[-105.3543,72.67],[-105.4109,72.7086],[-105.4258,72.7334],[-105.3348,72.9154],[-105.2887,72.9197],[-105.2008,72.9473],[-105.0744,72.997],[-105.0024,73.0378],[-104.9685,73.0886],[-104.7907,73.1674],[-104.6219,73.3113],[-104.5828,73.3537],[-104.5521,73.4659],[-104.5553,73.541],[-104.5875,73.578],[-104.6489,73.6145],[-104.7182,73.6362],[-104.8347,73.6473],[-105.1146,73.7442],[-105.2543,73.76],[-104.8632,75.1153],[-105.9089,75.1661],[-105.8628,75.1915],[-105.7025,75.4127],[-105.6781,75.5015],[-105.5194,75.6323],[-105.4813,75.7021],[-105.4808,75.7455],[-105.5633,75.8804],[-105.6046,75.9302],[-105.6326,75.9455],[-105.7115,75.9672],[-105.9046,76.009],[-106.3968,76.0603],[-106.5285,76.053],[-106.6772,76.0238],[-106.8042,75.9746],[-106.8455,75.9513],[-106.8619,75.9302],[-106.8201,75.8725],[-106.7592,75.8418],[-106.6883,75.819],[-106.6931,75.8101],[-106.8915,75.7825],[-106.9026,75.7418],[-106.9042,75.6894],[-106.9138,75.6799],[-106.9709,75.773],[-107.0503,75.8455],[-107.0804,75.863],[-107.1355,75.8783],[-107.2164,75.8915],[-107.418,75.9064],[-107.5408,75.9011],[-107.7027,75.8778],[-107.9176,75.8021],[-107.9509,75.7963],[-108.0208,75.8048],[-107.9705,75.8397],[-107.7551,75.9402],[-107.7318,75.9556],[-107.7212,75.9741],[-107.7234,75.9953],[-107.7768,76.0355],[-107.8525,76.0577],[-108.0186,76.0651],[-108.1663,76.0545],[-108.2922,76.0572],[-108.3869,76.0667],[-108.406,76.0852],[-108.3817,76.1159],[-108.306,76.154],[-108.1779,76.2001],[-108.1234,76.2334],[-108.1938,76.3302],[-108.3457,76.3916],[-108.5124,76.4387],[-108.5235,76.4472],[-108.5388,76.5033],[-108.5595,76.5361],[-108.6277,76.5869],[-108.6351,76.6086],[-108.6118,76.6297],[-108.5124,76.68],[-108.478,76.708],[-108.4669,76.7377],[-108.4923,76.7541],[-108.5542,76.7578],[-108.8315,76.8213],[-109.0981,76.8117],[-109.2193,76.7922],[-109.3384,76.7599],[-109.5051,76.6917],[-109.8649,76.5223],[-109.9819,76.4847],[-110.2703,76.417],[-110.3094,76.3974],[-110.3147,76.3694],[-110.2851,76.3329],[-110.247,76.3064],[-110.2009,76.2895],[-109.9078,76.2228],[-109.7104,76.2122],[-109.4871,76.1445],[-109.4305,76.109],[-109.4167,76.072],[-109.4247,76.0424],[-109.4548,76.0212],[-109.8707,75.9291],[-109.7961,75.863],[-108.9447,75.6989],[-108.9182,75.6746],[-108.8997,75.6243],[-108.9124,75.5868],[-108.9473,75.5417],[-109.005,75.5148],[-109.0865,75.5063],[-110.4592,75.5555],[-110.7253,75.5598],[-110.8894,75.5471],[-111.0529,75.5486],[-111.1635,75.5703],[-111.2757,75.6127],[-111.3725,75.6767],[-111.4545,75.7619],[-111.5133,75.8106],[-111.5493,75.8222],[-111.7096,75.8323],[-111.8773,75.8254],[-112.0567,75.8344],[-112.0811,75.8476],[-112.0472,75.8667],[-111.8678,75.9106],[-111.8652,75.9392],[-112.334,76.072],[-112.6975,76.2016],[-112.9785,76.2445],[-113.1711,76.2577],[-113.3627,76.2482],[-113.8236,76.2069],[-113.9231,76.2291],[-114.0586,76.3006],[-114.1014,76.3313],[-114.1125,76.3493],[-114.1157,76.3959],[-114.1411,76.4228],[-114.194,76.4514],[-114.2988,76.4747],[-114.5348,76.5017],[-114.7671,76.5059],[-114.9983,76.4975],[-115.5804,76.4377],[-115.7794,76.3646],[-115.8255,76.3297],[-115.8318,76.2958],[-115.8223,76.2699],[-115.7969,76.2525],[-115.6646,76.2397],[-115.0243,76.2117],[-114.8803,76.1948],[-114.7788,76.1725],[-114.9396,76.1662],[-115.7683,76.1842],[-116.0593,76.2016],[-116.2096,76.1942],[-116.4541,76.1434],[-116.5911,76.0958],[-116.6097,76.0736],[-116.5499,76.017],[-116.5806,75.9915],[-116.6647,75.9577],[-116.6541,75.9291],[-116.444,75.8905],[-116.3377,75.881],[-115.6021,75.8947],[-114.9915,75.8963],[-115.1735,75.8672],[-115.4767,75.8413],[-115.8381,75.8407],[-116.3895,75.8079],[-116.8023,75.7714],[-116.9727,75.7455],[-117.0383,75.7185],[-117.1637,75.6449],[-117.1378,75.6169],[-117.0251,75.6016],[-116.4255,75.5852],[-116.0345,75.6069],[-115.1216,75.7058],[-115.1174,75.6952],[-115.1418,75.6783],[-115.2508,75.6386],[-115.3354,75.618],[-116.0773,75.4931],[-116.2128,75.483],[-116.8907,75.4804],[-117.1542,75.473],[-117.2579,75.4597],[-117.3357,75.4423],[-117.3881,75.4217],[-117.513,75.3565],[-117.5759,75.3142],[-117.5966,75.2925],[-117.5971,75.2888],[-118.2983,75.5889],[-118.2263,75.6111],[-117.8908,75.8053],[-117.7162,75.9212],[-117.6262,75.9662],[-117.4992,76.0773],[-117.5124,76.0995],[-117.6336,76.1148],[-117.7527,76.1122],[-117.8892,76.0762],[-118.1368,75.9947],[-118.3792,75.9577],[-118.6263,75.9064],[-119.0036,75.7693],[-119.2269,75.6984],[-119.3201,75.6624],[-119.3444,75.6476],[-119.918,75.8561],[-119.918,75.8587],[-119.9127,75.8587],[-119.7349,75.9154],[-119.6672,75.9461],[-119.6079,75.9847],[-119.5376,75.982],[-119.5259,75.9974],[-119.527,76.0307],[-119.5497,76.0519],[-119.7254,76.1],[-119.7397,76.1175],[-119.6397,76.1567],[-119.636,76.19],[-119.6508,76.2434],[-119.6492,76.2799],[-119.5804,76.3265],[-119.5238,76.3403],[-119.4889,76.3202],[-119.4476,76.2752],[-119.3677,76.2218],[-119.2491,76.1593],[-119.1682,76.1265],[-119.0809,76.1238],[-118.9941,76.145],[-118.9555,76.1678],[-118.8512,76.2577],[-118.8115,76.2773],[-118.6433,76.3345],[-118.6247,76.3657],[-118.6438,76.4175],[-118.7994,76.4636],[-118.8205,76.4858],[-118.7914,76.5128],[-118.7316,76.5255],[-118.5739,76.5249],[-118.4681,76.5472],[-118.4311,76.5879],[-118.4094,76.6626],[-118.3697,76.7012],[-118.3004,76.7366],[-118.203,76.7604],[-118.0765,76.7726],[-117.8807,76.8049],[-117.8178,76.8044],[-117.7802,76.7843],[-117.8077,76.734],[-117.8993,76.653],[-117.9654,76.5742],[-118.0056,76.4969],[-118.0204,76.4467],[-117.9929,76.4059],[-117.8416,76.3451],[-117.7326,76.317],[-117.4923,76.2726],[-117.3468,76.2726],[-117.2336,76.2815],[-117.1536,76.2979],[-117.1076,76.3218],[-117.0447,76.3731],[-117.0261,76.4032],[-117.0134,76.4689],[-117.0166,76.4958],[-116.9991,76.5318],[-116.4678,76.5773],[-116.2202,76.6112],[-116.0763,76.6535],[-115.9847,76.6869],[-115.9461,76.7112],[-115.9445,76.7361],[-116.0165,76.7843],[-116.234,76.8742],[-116.2525,76.9012],[-116.1832,76.9155],[-116.1096,76.9181],[-115.9128,76.9086],[-115.8101,76.9393],[-115.8567,76.9695],[-116.0731,77.0298],[-116.2858,77.1018],[-116.3292,77.1372],[-116.2139,77.1785],[-115.6238,77.2658],[-115.5064,77.2922],[-115.4704,77.3087],[-115.4757,77.3245],[-115.5513,77.3632],[-116.008,77.4605],[-116.2091,77.5161],[-116.3266,77.5367],[-116.3197,77.5759],[-115.0497,77.9463],[-115.0285,77.9664],[-114.9804,77.9156],[-114.6084,77.7696],[-114.2872,77.7214],[-114.1057,77.7209],[-113.8326,77.7547],[-113.7257,77.7759],[-113.6194,77.8135],[-113.6178,77.8325],[-113.6966,77.869],[-113.7215,77.8897],[-113.768,77.9034],[-113.7834,77.905],[-113.7797,77.9463],[-113.3034,78.3167],[-113.2923,78.3342],[-113.223,78.2977],[-113.1727,78.2839],[-112.9997,78.2929],[-112.5579,78.3416],[-112.1313,78.3659],[-111.7599,78.2828],[-111.5175,78.2749],[-111.4349,78.2876],[-111.3005,78.3368],[-111.2291,78.3765],[-111.1693,78.386],[-111.027,78.3675],[-110.8402,78.3225],[-110.755,78.3109],[-110.4184,78.295],[-110.2935,78.2982],[-110.0221,78.3225],[-109.7088,78.3035],[-109.4844,78.3162],[-109.3908,78.3368],[-109.3522,78.3686],[-109.3357,78.4083],[-109.3421,78.4559],[-109.3622,78.4929],[-109.4675,78.567],[-109.504,78.5824],[-109.5807,78.5935],[-109.6411,78.5919],[-109.8162,78.6506],[-109.9411,78.6787],[-110.1406,78.7046],[-110.4004,78.7549],[-110.393,78.793],[-105.6305,79.0046],[-105.5707,79.0607],[-105.5358,79.0327],[-105.3088,79.0332],[-104.9013,79.0512],[-104.7468,79.0269],[-104.7352,78.9909],[-104.8934,78.8903],[-104.9696,78.8565],[-104.9701,78.829],[-104.8955,78.8083],[-104.8172,78.8073],[-104.7362,78.8258],[-104.3949,78.956],[-104.152,78.9898],[-104.1129,78.9856],[-104.007,78.948],[-103.8869,78.9189],[-103.8758,78.9025],[-104.1552,78.8141],[-104.1944,78.7956],[-104.1848,78.7813],[-104.0086,78.7639],[-103.5186,78.7691],[-103.4085,78.7517],[-103.3715,78.7364],[-103.5625,78.6924],[-103.9287,78.6633],[-104.0208,78.6347],[-103.5879,78.6231],[-103.4826,78.594],[-103.5705,78.54],[-103.7642,78.5194],[-104.2139,78.5395],[-104.7272,78.5792],[-104.8204,78.5728],[-104.9098,78.5527],[-104.9955,78.5183],[-104.9855,78.4681],[-104.8791,78.4014],[-104.7638,78.3517],[-104.5124,78.2945],[-104.324,78.2696],[-103.9467,78.2601],[-103.6774,78.3194],[-102.7312,78.3712],[-102.7841,78.3299],[-102.772,78.3066],[-102.7227,78.2755],[-102.6677,78.2558],[-102.6069,78.249],[-102.2846,78.2749],[-102.0571,78.2797],[-101.8295,78.2643],[-101.2982,78.1992],[-101.0744,78.194],[-100.9574,78.1305],[-100.8262,78.0876],[-100.8098,78.0717],[-100.7781,77.996],[-100.758,77.9775],[-100.6802,77.9304],[-100.586,77.8918],[-100.2748,77.8325],[-99.9557,77.7939],[-99.6589,77.8241],[-99.3414,77.8394],[-99.1662,77.8569],[-99.1281,77.877],[-99.0609,77.9659],[-98.9995,77.9971],[-99.0048,78.0161],[-99.053,78.0722],[-99.1318,78.1178],[-99.5626,78.2792],[-99.7515,78.303],[-99.7785,78.3252],[-99.7684,78.3643],[-99.7742,78.3929],[-99.8478,78.4384],[-99.8182,78.4554],[-99.68,78.4935],[-99.6308,78.5448],[-99.5822,78.5633],[-99.6097,78.5829],[-99.7817,78.6194],[-100.015,78.7284],[-100.4357,78.8205],[-100.9172,78.7829],[-101.1284,78.8014],[-101.1474,78.8242],[-101.1162,78.8581],[-101.0336,78.9147],[-101.0374,78.939],[-101.0887,78.9618],[-101.1448,78.9729],[-101.2993,78.9824],[-101.7036,79.0787],[-101.8724,79.0882],[-101.9735,79.0793],[-102.1888,79.0385],[-102.3931,79.0104],[-102.4074,78.9538],[-102.4248,78.9332],[-102.4947,78.9009],[-102.5762,78.8792],[-102.5926,78.9009],[-102.5809,78.93],[-102.5957,78.9427],[-102.7307,78.9692],[-102.6831,78.9909],[-102.6481,79.0274],[-102.6376,79.0549],[-102.6392,79.0777],[-102.6524,79.0951],[-102.9143,79.2311],[-103.1916,79.2952],[-103.426,79.3158],[-103.6239,79.3417],[-103.6197,79.3751],[-100.233,79.9571],[-100.1261,80.0011],[-100.0923,79.9185],[-100.0568,79.8984],[-99.9997,79.8841],[-99.8573,79.8793],[-99.5155,79.8873],[-99.3329,79.8396],[-99.3065,79.8026],[-99.3017,79.7841],[-99.2186,79.7619],[-98.945,79.7243],[-98.8852,79.7259],[-98.8408,79.737],[-98.79,79.7852],[-98.7688,79.8508],[-98.7916,79.981],[-98.8233,80.0376],[-98.8948,80.082],[-98.9789,80.1021],[-98.963,80.1688],[-96.8464,80.1159],[-96.7733,80.136],[-96.6394,80.0243],[-96.6067,79.9778],[-96.5892,79.9169],[-96.4627,79.8476],[-95.9997,79.7047],[-95.8573,79.674],[-95.7393,79.6603],[-95.5525,79.6534],[-95.297,79.6529],[-94.9731,79.6772],[-94.581,79.7254],[-94.4021,79.7365],[-94.4757,79.6862],[-94.5196,79.6672],[-95.3022,79.5682],[-95.5636,79.5497],[-95.6631,79.5274],[-95.733,79.4184],[-95.6568,79.3904],[-95.3165,79.355],[-95.1033,79.2898],[-95.0435,79.2936],[-94.8461,79.3348],[-94.4048,79.3904],[-94.2841,79.4005],[-94.1106,79.4015],[-93.9603,79.3957],[-93.9396,79.3856],[-94.0402,79.3571],[-94.1095,79.3153],[-94.0936,79.3026],[-94.0397,79.2952],[-93.9333,79.2909],[-93.5507,79.3539],[-93.3808,79.3682],[-93.0279,79.429],[-92.8221,79.4497],[-92.6448,79.4502],[-92.4844,79.4391],[-92.2479,79.3735],[-91.6928,79.365],[-91.3002,79.3729],[-91.3435,79.3608],[-91.8674,79.3174],[-92.5474,79.2824],[-92.6834,79.1856],[-92.8416,79.1565],[-93.0686,79.1554],[-93.2941,79.1396],[-93.9502,79.0375],[-94.163,78.994],[-94.1698,78.9729],[-94.1534,78.9512],[-94.1148,78.929],[-93.9021,78.8723],[-93.3364,78.8083],[-93.1597,78.7755],[-93.2083,78.7691],[-93.5613,78.7776],[-93.6232,78.7676],[-93.6343,78.7512],[-93.5523,78.7078],[-93.3893,78.6427],[-93.2665,78.6083],[-93.1094,78.6014],[-92.9723,78.613],[-92.7157,78.6051],[-91.9352,78.5617],[-91.8669,78.5427],[-92.2966,78.521],[-92.7257,78.4866],[-92.848,78.4601],[-92.8078,78.4299],[-92.6781,78.3892],[-92.3511,78.313],[-91.8992,78.2368],[-91.4097,78.1881],[-90.9181,78.1585],[-90.6144,78.15],[-90.3868,78.1632],[-90.3265,78.1849],[-90.3577,78.2188],[-90.4053,78.2469],[-90.4694,78.2686],[-90.6525,78.3077],[-90.6218,78.3215],[-90.4588,78.331],[-90.2974,78.3278],[-90.136,78.313],[-90.0254,78.2913],[-89.9651,78.2622],[-89.873,78.2373],[-89.6513,78.1929],[-89.5793,78.1664],[-89.5259,78.1595],[-89.4899,78.1717],[-89.5068,78.2035],[-89.6116,78.2792],[-89.7571,78.3702],[-90.0011,78.4956],[-90.0762,78.549],[-90.037,78.6067],[-89.9952,78.6009],[-89.9264,78.5728],[-89.6555,78.4389],[-89.4698,78.3702],[-89.0956,78.2093],[-88.9697,78.1844],[-88.8226,78.186],[-88.7909,78.1924],[-88.7332,78.2416],[-88.6485,78.3336],[-88.6067,78.3919],[-88.6231,78.4622],[-88.7141,78.5464],[-88.7416,78.5839],[-88.7094,78.5961],[-88.5808,78.6019],[-88.2845,78.4966],[-88.1474,78.477],[-88.0405,78.4945],[-87.9828,78.5369],[-87.9738,78.5649],[-87.9818,78.5945],[-88.0029,78.6157],[-88.0368,78.6268],[-88.2278,78.6533],[-88.2538,78.6718],[-88.1897,78.6961],[-88.1664,78.7453],[-88.1902,78.8676],[-88.1638,78.9337],[-88.104,78.9729],[-88.04,78.9951],[-87.8786,79.038],[-87.8294,79.0454],[-87.8166,79.0364],[-87.9225,78.9507],[-87.9532,78.9152],[-87.9606,78.893],[-87.9564,78.8517],[-87.9225,78.7512],[-87.8616,78.7067],[-87.6172,78.6765],[-87.4785,78.7183],[-87.2462,78.8136],[-87.0806,78.866],[-87.0166,78.8988],[-86.9573,78.975],[-86.9134,78.9829],[-86.7207,78.9755],[-86.6292,78.9914],[-86.4504,79.0385],[-86.0916,79.0999],[-85.2899,79.2083],[-85.1814,79.2338],[-85.0422,79.2846],[-85.0639,79.3279],[-85.1756,79.3872],[-85.5015,79.5301],[-85.6481,79.6116],[-85.6788,79.6153],[-85.6741,79.7021]],[[-91.1763,77.4261],[-91.1472,77.3875],[-90.9933,77.3293],[-90.2281,77.2123],[-90.0947,77.2102],[-89.8333,77.2674],[-89.7465,77.2928],[-89.7121,77.3102],[-89.6947,77.3388],[-89.6941,77.378],[-89.7195,77.442],[-89.8391,77.4912],[-90.172,77.5949],[-90.4228,77.6283],[-90.6747,77.6489],[-90.8424,77.6553],[-91.0192,77.6442],[-91.1091,77.6256],[-91.1493,77.6082],[-91.1827,77.5574],[-91.1853,77.4817],[-91.1763,77.4261]],[[-93.7846,74.1183],[-93.9386,74.1315],[-94.4826,74.113],[-94.7292,74.086],[-94.9736,74.0416],[-95.0398,74.0241],[-95.1213,73.9849],[-95.1445,73.9601],[-95.1525,73.9326],[-95.1488,73.9067],[-95.134,73.8813],[-95.0594,73.8051],[-94.8969,73.7161],[-94.7969,73.686],[-94.6911,73.6712],[-94.6974,73.6637],[-94.817,73.6627],[-94.9964,73.686],[-95.3859,73.7553],[-95.4472,73.7516],[-95.5695,73.7283],[-95.633,73.6955],[-95.6451,73.6706],[-95.6478,73.6383],[-95.6441,73.5574],[-95.6039,73.3277],[-95.5891,73.1743],[-95.5917,73.1155],[-95.6124,72.9991],[-95.6134,72.9414],[-95.6023,72.8843],[-95.5801,72.8314],[-95.5478,72.7816],[-95.2509,72.5017],[-95.1927,72.3445],[-95.1668,72.18],[-95.1927,72.0276],[-95.008,72.0128],[-94.6111,72.0424],[-94.4974,72.0435],[-94.1439,72.0006],[-94.0375,72.0286],[-93.9724,72.1302],[-93.8709,72.2525],[-93.5549,72.4213],[-93.5417,72.4371],[-93.5338,72.4996],[-93.5465,72.5313],[-93.5724,72.5589],[-93.7703,72.6684],[-93.9201,72.7033],[-94.1518,72.7356],[-94.2111,72.7568],[-93.5788,72.8007],[-93.3406,72.8017],[-92.3918,72.7187],[-92.2347,72.7266],[-92.1177,72.7536],[-91.9055,72.8494],[-91.7886,72.9155],[-91.6208,73.0261],[-91.4595,73.1452],[-91.4261,73.1949],[-91.4658,73.214],[-91.5536,73.2362],[-91.298,73.2849],[-91.2494,73.3039],[-91.0678,73.4156],[-91.0017,73.4669],[-90.9752,73.5024],[-90.9334,73.5278],[-90.7646,73.5807],[-90.5657,73.6865],[-90.4662,73.7537],[-90.3815,73.8246],[-90.3545,73.8685],[-90.4577,73.9082],[-90.6276,73.9516],[-91.088,74.0093],[-91.6304,74.0278],[-91.8743,74.013],[-92.2225,73.9723],[-92.314,73.9924],[-92.4929,74.0622],[-92.5866,74.0829],[-92.7781,74.1135],[-93.1708,74.1612],[-93.4105,74.1786],[-93.5491,74.167],[-93.7846,74.1183]],[[-96.2389,77.6727],[-96.2764,77.6304],[-96.2638,77.5944],[-96.0563,77.5034],[-95.987,77.4843],[-94.409,77.4743],[-93.8359,77.4521],[-93.7401,77.4648],[-93.5438,77.4669],[-93.5195,77.4743],[-93.3391,77.6299],[-93.129,77.66],[-93.211,77.7103],[-93.3009,77.7399],[-93.4713,77.7642],[-93.583,77.7706],[-94.0148,77.76],[-94.6667,77.7764],[-94.9599,77.7743],[-95.2329,77.7537],[-95.4843,77.7918],[-95.6838,77.7823],[-96.1431,77.7145],[-96.1944,77.7008],[-96.2389,77.6727]],[[-95.8531,75.4693],[-95.9547,75.4439],[-96.1251,75.3581],[-96.1182,75.301],[-96.1801,75.2401],[-96.2923,75.2195],[-96.3828,75.2116],[-96.5659,75.0989],[-96.5971,75.0581],[-96.5998,75.0316],[-96.5913,75.002],[-96.5601,74.9904],[-96.3865,74.9994],[-96.3431,74.9819],[-96.3188,74.9475],[-96.2939,74.9274],[-96.2701,74.9205],[-96.1817,74.9507],[-96.0944,74.9327],[-95.8653,74.8306],[-95.4515,74.7972],[-95.2858,74.7941],[-94.9588,74.6999],[-94.8038,74.6602],[-94.6974,74.6422],[-94.5344,74.6369],[-94.2058,74.6475],[-93.9846,74.6443],[-93.6264,74.6607],[-93.5729,74.6686],[-93.547,74.6909],[-93.5481,74.7274],[-93.5359,74.7491],[-93.5094,74.7565],[-93.4909,74.7718],[-93.4634,74.8565],[-93.4666,74.9211],[-93.4782,74.9518],[-93.5428,75.0279],[-93.5518,75.0512],[-93.5316,75.1005],[-93.4978,75.137],[-93.5915,75.2301],[-93.6666,75.2735],[-93.7507,75.3491],[-93.909,75.4227],[-94.2566,75.5439],[-94.427,75.5936],[-94.6487,75.6232],[-94.8784,75.6301],[-95.0493,75.6217],[-95.6705,75.5285],[-95.8531,75.4693]],[[-94.6244,75.7487],[-94.5265,75.7492],[-94.3296,75.7661],[-94.3042,75.7762],[-94.2963,75.7878],[-94.3323,75.8259],[-94.4138,75.8847],[-94.4434,75.9169],[-94.4715,75.9715],[-94.4984,75.9921],[-94.5381,75.9963],[-94.745,75.9572],[-94.8398,75.9545],[-94.8816,75.9461],[-94.9012,75.9307],[-94.8943,75.9116],[-94.8599,75.8894],[-94.8334,75.8587],[-94.8149,75.8212],[-94.7874,75.7915],[-94.7514,75.7698],[-94.6244,75.7487]],[[-96.9898,77.8061],[-96.8342,77.8119],[-96.6029,77.8495],[-96.477,77.8722],[-96.0113,77.8875],[-95.6705,77.9246],[-95.4515,77.9632],[-95.3705,77.9706],[-95.1991,77.968],[-95.0869,77.9929],[-94.9345,78.0754],[-94.9361,78.1066],[-94.9879,78.1363],[-95.1027,78.1781],[-95.3292,78.2252],[-95.2678,78.2627],[-95.0139,78.3125],[-94.8874,78.3453],[-94.8879,78.3606],[-94.9154,78.3903],[-95.0313,78.4305],[-95.4129,78.4977],[-95.561,78.5167],[-95.9685,78.5051],[-96.2045,78.531],[-96.2563,78.5511],[-96.2426,78.5733],[-96.2653,78.5956],[-96.4754,78.6654],[-96.5871,78.6871],[-96.9358,78.7205],[-97.1692,78.7575],[-97.3824,78.7829],[-97.5957,78.7956],[-98.0428,78.8051],[-98.2121,78.8046],[-98.3328,78.7734],[-98.3407,78.7512],[-98.2899,78.6924],[-98.0963,78.5866],[-98.0603,78.5585],[-98.3159,78.5173],[-98.3238,78.4982],[-98.3174,78.477],[-98.2756,78.4379],[-98.255,78.4294],[-98.1142,78.403],[-98.0693,78.3866],[-98.0497,78.3257],[-97.8428,78.2622],[-97.819,78.2305],[-97.3231,78.2035],[-97.0273,78.1575],[-96.9448,78.1516],[-96.9585,78.1389],[-97.0411,78.1167],[-97.2268,78.1035],[-97.6581,78.0908],[-97.6486,78.0717],[-97.6211,78.05],[-97.4269,77.9823],[-97.0935,77.9336],[-97.0189,77.9082],[-97.0522,77.8812],[-97.0638,77.859],[-97.0406,77.8272],[-96.9898,77.8061]],[[-98.2889,69.6289],[-98.1629,69.5125],[-98.0412,69.4569],[-98.1555,69.469],[-98.2222,69.4844],[-98.3894,69.5648],[-98.4757,69.5791],[-98.546,69.5728],[-98.5482,69.5447],[-98.5344,69.5273],[-98.4947,69.4992],[-98.4481,69.4796],[-98.5365,69.4781],[-98.5587,69.4617],[-98.5355,69.4262],[-98.4667,69.3749],[-98.4503,69.3542],[-98.4561,69.3346],[-98.5037,69.3082],[-98.7238,69.2193],[-98.9122,69.1674],[-99.0853,69.15],[-99.4557,69.1314],[-99.5134,69.0997],[-99.5573,69.0542],[-99.5641,69.0341],[-99.4948,68.9595],[-99.4408,68.9177],[-99.3181,68.8764],[-99.2541,68.8631],[-99.0906,68.8631],[-99.0736,68.8764],[-99.0937,68.8991],[-99.0572,68.9177],[-98.9641,68.933],[-98.9043,68.9325],[-98.8789,68.9166],[-98.8635,68.8939],[-98.8593,68.8642],[-98.8297,68.8388],[-98.7752,68.8166],[-98.7037,68.8028],[-98.5397,68.7981],[-98.4317,68.8182],[-98.3756,68.8415],[-98.3206,68.8425],[-98.2963,68.8309],[-98.2804,68.8071],[-98.273,68.7716],[-98.2582,68.7494],[-98.2349,68.7393],[-97.8851,68.6727],[-97.7047,68.6261],[-97.4718,68.5435],[-97.2639,68.5277],[-97.0083,68.5388],[-96.5987,68.461],[-96.4013,68.4705],[-96.2675,68.5081],[-96.024,68.607],[-95.8944,68.6271],[-95.8023,68.6864],[-95.6854,68.7356],[-95.6145,68.7452],[-95.4658,68.7473],[-95.3594,68.7785],[-95.2954,68.8049],[-95.2678,68.8261],[-95.3197,68.8732],[-95.3742,68.8923],[-95.4377,68.8806],[-95.5853,68.8351],[-95.7515,68.8976],[-95.8547,68.9536],[-95.9515,69.0235],[-96.0611,69.1256],[-96.1838,69.2584],[-96.2997,69.3442],[-96.6945,69.4712],[-96.8755,69.5098],[-96.9892,69.5537],[-97.0961,69.6151],[-97.2364,69.6733],[-97.2787,69.6796],[-97.3057,69.6733],[-97.3506,69.641],[-97.4089,69.631],[-97.4396,69.6426],[-97.4692,69.667],[-97.4602,69.6828],[-97.3856,69.7003],[-97.3824,69.7125],[-97.4115,69.7384],[-97.6041,69.8024],[-97.6914,69.8411],[-97.7909,69.8617],[-97.8888,69.8585],[-98.0809,69.8331],[-98.2005,69.7971],[-98.2386,69.7802],[-98.2682,69.7543],[-98.301,69.6918],[-98.3047,69.6691],[-98.2889,69.6289]],[[-95.7457,74.6157],[-95.7743,74.5988],[-95.851,74.5824],[-95.8346,74.5692],[-95.7774,74.5506],[-95.4414,74.5062],[-95.3525,74.5004],[-95.3065,74.5057],[-95.2742,74.5194],[-95.2784,74.5395],[-95.3525,74.5856],[-95.5102,74.6369],[-95.6605,74.6369],[-95.7457,74.6157]],[[-95.8933,69.3516],[-95.8584,69.3823],[-95.8118,69.4468],[-95.7981,69.4997],[-95.8177,69.5405],[-95.806,69.5606],[-95.7637,69.5595],[-95.7039,69.5378],[-95.6827,69.5003],[-95.6658,69.4389],[-95.67,69.4018],[-95.6959,69.3897],[-95.7304,69.3473],[-95.6843,69.3357],[-95.5785,69.3357],[-95.4965,69.35],[-95.4377,69.3786],[-95.3996,69.4198],[-95.3822,69.4738],[-95.3811,69.5066],[-95.5139,69.5738],[-95.6023,69.6019],[-95.7065,69.6241],[-95.7976,69.6257],[-95.8759,69.6061],[-95.9362,69.5669],[-95.979,69.5087],[-95.9949,69.4696],[-95.978,69.4325],[-95.9859,69.3918],[-95.9563,69.3669],[-95.8933,69.3516]],[[-96.9697,75.4127],[-96.9151,75.3798],[-96.857,75.3692],[-96.7231,75.3809],[-96.6791,75.3941],[-96.622,75.4312],[-96.4617,75.4942],[-96.3447,75.5058],[-96.2368,75.4746],[-96.1563,75.4772],[-96.0785,75.51],[-95.9685,75.5417],[-95.96,75.5545],[-96.0399,75.5857],[-96.1452,75.6137],[-96.368,75.6545],[-96.3971,75.6465],[-96.4172,75.6307],[-96.4278,75.6063],[-96.523,75.5836],[-96.8564,75.5381],[-96.9829,75.51],[-97.0205,75.4682],[-96.9697,75.4127]],[[-96.7172,72.0249],[-96.7585,72.0318],[-96.7665,72.0461],[-96.6183,72.1461],[-96.6008,72.1731],[-96.5929,72.2043],[-96.6156,72.2371],[-96.6686,72.271],[-96.7961,72.3138],[-96.8014,72.3223],[-96.7453,72.3228],[-96.6384,72.3419],[-96.5199,72.3932],[-96.4728,72.4345],[-96.4399,72.4874],[-96.4458,72.5525],[-96.4892,72.6298],[-96.5421,72.6986],[-96.5918,72.7102],[-96.6712,72.7134],[-96.8691,72.6869],[-97.0517,72.6367],[-97.1279,72.6277],[-97.1591,72.643],[-97.1406,72.6726],[-97.0728,72.7176],[-97.0829,72.7626],[-97.2374,72.8377],[-97.3776,72.8647],[-97.3708,72.878],[-97.3099,72.898],[-97.2956,72.9182],[-97.329,72.9377],[-97.4755,72.9922],[-97.6364,73.0277],[-97.7248,73.0367],[-97.9396,73.0356],[-98.0608,73.0203],[-98.1809,72.9933],[-98.3667,72.934],[-98.4217,72.9409],[-98.4307,72.9578],[-98.437,73.0002],[-98.4169,73.0224],[-98.3756,73.0446],[-98.1756,73.1155],[-97.7957,73.2854],[-97.484,73.3394],[-97.2723,73.387],[-97.2305,73.4214],[-97.2872,73.4584],[-97.3501,73.4812],[-97.4702,73.4881],[-97.5316,73.4738],[-97.5856,73.4711],[-97.6147,73.4812],[-97.6258,73.5024],[-97.5972,73.5368],[-97.4898,73.5267],[-97.3946,73.5643],[-97.284,73.5706],[-97.1564,73.5923],[-97.0945,73.6145],[-97.0019,73.6664],[-96.9966,73.6749],[-97.0115,73.7061],[-97.112,73.7902],[-97.1707,73.8246],[-97.2247,73.8437],[-97.3268,73.8616],[-97.5819,73.8876],[-97.6697,73.8876],[-97.8322,73.8791],[-97.928,73.8659],[-98.1518,73.8183],[-98.5196,73.7923],[-98.7847,73.7606],[-99.0398,73.7495],[-99.1578,73.7315],[-100.0018,73.9458],[-100.1383,73.9289],[-100.2272,73.8892],[-100.2245,73.8722],[-100.1536,73.8442],[-100.0399,73.8437],[-99.9393,73.8569],[-99.9118,73.8468],[-99.9912,73.795],[-100.1822,73.8013],[-100.4839,73.8437],[-100.9151,73.8056],[-100.9627,73.7913],[-100.985,73.7654],[-100.9818,73.7273],[-100.9527,73.6913],[-100.8982,73.6579],[-100.7828,73.6129],[-100.6579,73.5934],[-100.6071,73.5754],[-100.5362,73.5098],[-100.5087,73.4653],[-100.5214,73.4494],[-100.677,73.4944],[-100.8543,73.5711],[-100.976,73.5997],[-101.1151,73.596],[-101.3231,73.5722],[-101.4628,73.5341],[-101.5184,73.505],[-101.5231,73.4865],[-101.4819,73.4458],[-101.4506,73.4309],[-100.8892,73.2753],[-100.7553,73.2785],[-100.587,73.2997],[-100.4981,73.3161],[-100.3664,73.3589],[-100.2579,73.3404],[-100.006,73.2394],[-99.825,73.214],[-99.9663,73.2013],[-100.0669,73.2113],[-100.2256,73.2547],[-100.341,73.2653],[-100.4389,73.2547],[-100.4891,73.2341],[-100.5362,73.1981],[-100.55,73.1637],[-100.5315,73.1383],[-100.4463,73.1203],[-100.3346,73.1283],[-100.2828,73.1203],[-100.2362,73.0954],[-100.1843,73.0552],[-100.0965,72.9631],[-100.0923,72.9452],[-100.1282,72.9065],[-100.1886,72.8901],[-100.2277,72.8991],[-100.3674,72.9779],[-100.3955,72.9769],[-100.4426,72.807],[-100.468,72.779],[-100.4849,72.7732],[-100.8961,72.7261],[-101.0876,72.7134],[-101.2734,72.7218],[-101.3506,72.7462],[-101.4348,72.8208],[-101.5438,72.8832],[-101.6178,72.9097],[-101.7544,72.943],[-101.7983,72.9732],[-101.8353,73.0182],[-101.9227,73.0568],[-102.0195,73.07],[-102.2042,73.0775],[-102.3359,73.0642],[-102.5037,73.006],[-102.5513,72.9785],[-102.6286,72.9107],[-102.6873,72.843],[-102.7138,72.7827],[-102.709,72.7647],[-102.6571,72.7192],[-102.4021,72.5948],[-101.9735,72.4864],[-101.9094,72.4308],[-101.8327,72.4091],[-101.8047,72.3853],[-101.7745,72.3408],[-101.7237,72.3149],[-101.4983,72.2779],[-101.3189,72.3128],[-101.2506,72.3218],[-101.2088,72.317],[-101.0929,72.2789],[-101.0263,72.2287],[-100.9839,72.2101],[-100.8003,72.1995],[-100.7066,72.1858],[-100.5944,72.1524],[-100.3256,72.0038],[-100.124,71.9117],[-99.7346,71.7572],[-99.5816,71.6513],[-99.4038,71.5571],[-99.2763,71.4243],[-99.2234,71.3873],[-99.1673,71.3672],[-98.9863,71.3693],[-98.899,71.3523],[-98.7836,71.3137],[-98.663,71.3021],[-98.536,71.3174],[-98.4122,71.3486],[-98.1984,71.4407],[-98.1899,71.4624],[-98.1952,71.491],[-98.2317,71.5587],[-98.4206,71.7164],[-98.4587,71.773],[-98.3894,71.8244],[-98.3227,71.8524],[-98.3058,71.8477],[-98.3026,71.8312],[-98.3132,71.8032],[-98.3069,71.7646],[-98.2841,71.7154],[-98.2418,71.6815],[-98.1814,71.6624],[-97.5824,71.6296],[-97.4613,71.6344],[-97.2221,71.6736],[-97.1168,71.7106],[-97.0247,71.7609],[-96.9464,71.7921],[-96.6135,71.8339],[-96.6241,71.9678],[-96.7172,72.0249]],[[-97.093,72.997],[-96.9437,72.9266],[-96.7823,72.9367],[-96.7093,72.9467],[-96.6707,72.961],[-96.6352,72.9922],[-96.6035,73.0414],[-96.5987,73.0737],[-96.6458,73.1018],[-96.7442,73.1261],[-96.7675,73.1372],[-96.7929,73.1653],[-96.8622,73.1886],[-97.0152,73.1573],[-97.0691,73.1304],[-97.0877,73.0986],[-97.0977,73.0626],[-97.093,72.997]],[[-97.4163,74.6263],[-97.5163,74.6025],[-97.7502,74.5104],[-97.7216,74.4893],[-97.656,74.4655],[-97.3554,74.5263],[-97.3041,74.5596],[-97.2914,74.5766],[-97.3184,74.5983],[-97.4163,74.6263]],[[-99.0239,76.6144],[-98.971,76.5366],[-98.8905,76.4657],[-99.1694,76.4535],[-99.3297,76.5212],[-99.6689,76.6239],[-99.8139,76.6324],[-100.0685,76.6345],[-100.3881,76.6133],[-100.5738,76.5848],[-100.8299,76.5239],[-100.8908,76.4757],[-100.8738,76.4567],[-100.8199,76.4371],[-100.6505,76.3959],[-100.1748,76.3593],[-100.0817,76.3429],[-99.978,76.3122],[-99.9832,76.3],[-100.0425,76.2911],[-100.3574,76.271],[-100.4145,76.2567],[-100.414,76.2424],[-100.1827,76.1974],[-99.9975,76.1958],[-99.8171,76.1678],[-99.5409,76.1461],[-99.7901,76.1328],[-100.0018,76.1392],[-100.0859,76.1334],[-100.1129,76.117],[-100.051,76.0667],[-99.9785,76.0296],[-99.6891,75.9598],[-99.7012,75.9413],[-99.7748,75.9275],[-99.8652,75.9244],[-100.0203,75.9397],[-100.1055,75.9604],[-100.2309,76.0074],[-100.9003,76.2069],[-101.0559,76.2456],[-101.094,76.272],[-101.0876,76.308],[-101.139,76.3451],[-101.3395,76.4107],[-101.4152,76.4249],[-101.6771,76.4509],[-101.7877,76.4514],[-101.8586,76.4392],[-101.9645,76.399],[-102.1047,76.3313],[-102.1375,76.2847],[-101.9872,76.2429],[-101.9099,76.2344],[-101.557,76.236],[-101.529,76.2175],[-101.7713,76.1503],[-101.8613,76.1011],[-101.8724,76.0831],[-101.8232,76.0413],[-101.7168,76.008],[-101.4316,75.9921],[-101.5078,75.9434],[-101.5057,75.918],[-101.4702,75.882],[-101.4152,75.846],[-101.2882,75.7889],[-101.2591,75.7836],[-101.0098,75.8027],[-100.9728,75.7984],[-101.1194,75.763],[-101.2612,75.7582],[-101.421,75.782],[-101.5999,75.8328],[-101.9428,75.8836],[-102.1449,75.8751],[-102.2708,75.8127],[-102.2523,75.7778],[-102.4105,75.7127],[-102.728,75.6386],[-102.7974,75.5994],[-102.7005,75.5433],[-102.5873,75.5137],[-102.5413,75.5137],[-101.4612,75.6079],[-101.2067,75.5905],[-100.9019,75.6206],[-99.915,75.6815],[-99.1948,75.6984],[-99.2096,75.6688],[-99.5912,75.6555],[-99.7563,75.6333],[-99.77,75.6121],[-99.9653,75.5687],[-100.2796,75.4608],[-100.7119,75.4063],[-100.704,75.3941],[-100.731,75.3465],[-100.6151,75.3216],[-100.3643,75.2894],[-100.1457,75.246],[-100.1521,75.2359],[-100.4595,75.219],[-100.4833,75.1883],[-100.3568,75.0666],[-100.2923,75.0279],[-100.2346,75.0079],[-99.9467,75.0031],[-99.6271,74.9835],[-99.4207,75.0438],[-99.326,75.0496],[-99.2451,75.0258],[-99.1556,75.0158],[-99.0101,75.0211],[-98.835,75.0184],[-98.7037,75.0057],[-98.5688,75.0094],[-98.2952,75.0322],[-98.1211,75.0327],[-97.992,75.0459],[-97.9534,75.0602],[-97.9899,75.1105],[-98.0767,75.1528],[-98.0915,75.1761],[-98.0687,75.1994],[-98.0455,75.201],[-97.9708,75.1534],[-97.8428,75.1216],[-97.7994,75.1168],[-97.6745,75.1274],[-97.6597,75.1513],[-97.7047,75.1909],[-97.8528,75.2603],[-97.8782,75.4164],[-97.6533,75.5079],[-97.4655,75.4587],[-97.3634,75.4174],[-97.3358,75.42],[-97.4094,75.5523],[-97.4073,75.6725],[-97.4396,75.6846],[-97.8629,75.7381],[-97.8904,75.7603],[-97.6941,75.8027],[-97.6015,75.8508],[-97.6031,75.8794],[-97.6523,75.9402],[-97.6502,75.9794],[-97.6136,76.0524],[-97.5311,76.1096],[-97.5242,76.1387],[-97.5306,76.1815],[-97.5729,76.2244],[-97.7068,76.3038],[-97.7385,76.335],[-97.7369,76.363],[-97.702,76.3874],[-97.6898,76.4218],[-97.701,76.4668],[-97.7258,76.4958],[-97.8084,76.5186],[-97.9671,76.5329],[-98.2359,76.5752],[-98.2889,76.5985],[-98.5275,76.6673],[-98.7106,76.6938],[-98.9408,76.643],[-99.0239,76.6144]],[[-98.9741,73.8119],[-98.8164,73.8172],[-98.7614,73.8289],[-98.691,73.8564],[-98.5582,73.8474],[-98.2704,73.8685],[-98.1471,73.8886],[-97.8613,73.9686],[-97.7549,74.0056],[-97.6734,74.0532],[-97.6591,74.0717],[-97.6676,74.0903],[-97.6983,74.1088],[-97.8004,74.1146],[-98.0608,74.1045],[-98.5852,74.0347],[-98.818,74.0209],[-98.9043,74.0066],[-98.9667,73.9881],[-99.0048,73.9648],[-99.0969,73.9485],[-99.3456,73.9257],[-99.4038,73.9109],[-99.4171,73.8955],[-99.3853,73.8791],[-99.298,73.8622],[-98.9741,73.8119]],[[-100.5966,68.7663],[-100.5733,68.7663],[-100.5209,68.7907],[-100.4971,68.7922],[-100.4807,68.7864],[-100.4426,68.7478],[-100.3971,68.724],[-100.3658,68.7287],[-100.2881,68.7663],[-100.2489,68.7748],[-100.2172,68.8065],[-100.1785,68.9039],[-100.2071,68.9261],[-100.2891,68.9579],[-100.3299,68.9975],[-100.414,69.0283],[-100.5204,69.0351],[-100.5653,69.0267],[-100.6008,69.0092],[-100.6114,68.9902],[-100.5981,68.969],[-100.5997,68.9415],[-100.6246,68.8653],[-100.6251,68.8161],[-100.6162,68.7827],[-100.5966,68.7663]],[[-101.1649,76.6652],[-101.5094,76.6276],[-101.6131,76.6043],[-101.6052,76.5869],[-101.485,76.5752],[-101.2263,76.5795],[-100.7463,76.6493],[-100.269,76.734],[-100.4675,76.7504],[-100.6214,76.7525],[-100.8865,76.7424],[-100.9622,76.734],[-101.1649,76.6652]],[[-100.6781,70.6459],[-100.667,70.5962],[-100.6479,70.5634],[-100.6209,70.547],[-100.5373,70.5247],[-100.3214,70.4877],[-100.3082,70.4956],[-100.3055,70.5083],[-100.323,70.5422],[-100.3209,70.5782],[-100.2759,70.5946],[-100.4341,70.6496],[-100.5378,70.6687],[-100.6352,70.6703],[-100.6781,70.6459]],[[-101.3131,69.5759],[-101.3511,69.559],[-101.3564,69.5394],[-101.3284,69.5172],[-101.23,69.4929],[-101.2072,69.4796],[-101.2178,69.4627],[-101.2898,69.441],[-101.2675,69.4315],[-101.2617,69.4177],[-101.2686,69.3907],[-101.2532,69.3886],[-101.1718,69.3971],[-101.1268,69.4145],[-101.0871,69.4431],[-101.049,69.4569],[-101.0008,69.4622],[-101.031,69.4955],[-101.0982,69.541],[-101.2448,69.5733],[-101.3131,69.5759]],[[-101.9179,77.8997],[-102.2629,77.8891],[-102.4476,77.8807],[-102.4714,77.8733],[-102.4751,77.8368],[-102.4582,77.7701],[-102.3777,77.7283],[-102.0798,77.6923],[-101.8311,77.6875],[-101.6935,77.6965],[-101.5845,77.7182],[-101.3977,77.7288],[-101.0019,77.7352],[-101.0194,77.7627],[-101.0464,77.778],[-101.1279,77.8124],[-101.1935,77.8299],[-101.3221,77.8542],[-101.6396,77.8923],[-101.9179,77.8997]],[[-101.7332,68.7536],[-101.7591,68.7748],[-101.8285,68.7991],[-102.0131,68.8256],[-102.0745,68.7743],[-102.1534,68.7404],[-102.2703,68.7076],[-102.3084,68.6822],[-102.2666,68.6637],[-101.9449,68.6028],[-101.8872,68.5848],[-101.8459,68.5864],[-101.7941,68.6367],[-101.7322,68.652],[-101.7216,68.724],[-101.7332,68.7536]],[[-102.3179,75.8953],[-102.0475,75.9275],[-102.0079,75.9392],[-102.0179,75.9535],[-102.2274,76.0148],[-102.4259,76.0863],[-102.4899,76.0953],[-102.536,76.1964],[-102.5841,76.2815],[-102.728,76.3069],[-103.0985,76.3117],[-103.5715,76.2582],[-104.0118,76.2228],[-104.3505,76.1826],[-104.406,76.1085],[-104.2425,76.0471],[-103.9843,76.0466],[-103.8007,76.0371],[-103.9854,75.9334],[-103.77,75.8926],[-103.2017,75.9587],[-103.0413,75.9191],[-103.2445,75.8228],[-103.3149,75.764],[-102.9434,75.7635],[-102.5793,75.7804],[-102.5116,75.8084],[-102.4233,75.8693],[-102.3179,75.8953]],[[-102.8254,78.2501],[-102.8916,78.2712],[-102.973,78.267],[-103.1106,78.2458],[-103.2599,78.1834],[-103.2736,78.1659],[-103.271,78.1506],[-103.2525,78.1379],[-103.118,78.1262],[-103.0032,78.1463],[-102.7884,78.2183],[-102.8254,78.2501]],[[-103.19,76.4773],[-103.5848,76.5387],[-103.6133,76.5636],[-103.7229,76.6012],[-103.8213,76.5974],[-103.9737,76.5773],[-104.0229,76.5832],[-103.9689,76.6144],[-103.9589,76.6387],[-103.9922,76.6567],[-104.0742,76.6662],[-104.205,76.6662],[-104.5002,76.6303],[-104.5859,76.6065],[-104.6029,76.5826],[-104.5764,76.5403],[-104.5066,76.4789],[-104.4076,76.3652],[-104.3573,76.3345],[-104.2706,76.326],[-103.4721,76.3292],[-103.3112,76.3477],[-103.1995,76.371],[-103.0831,76.4054],[-103.0334,76.4313],[-103.0514,76.4498],[-103.19,76.4773]],[[-104.3462,75.4301],[-104.4743,75.4132],[-104.6489,75.3497],[-104.6902,75.3206],[-104.8013,75.211],[-104.8479,75.1729],[-104.8818,75.1602],[-104.8876,75.1475],[-104.8283,75.1195],[-104.6341,75.0613],[-104.3087,75.0311],[-104.1198,75.0364],[-103.8139,75.0798],[-103.7097,75.1153],[-103.6641,75.1391],[-103.6419,75.1629],[-103.6435,75.1867],[-103.6673,75.2105],[-103.7467,75.2523],[-103.7578,75.2888],[-103.8038,75.3454],[-103.8509,75.3709],[-103.9171,75.392],[-104.0748,75.4243],[-104.3462,75.4301]],[[-104.9072,68.5816],[-104.9939,68.5742],[-105.0516,68.5589],[-105.0416,68.5314],[-104.9654,68.4917],[-104.8511,68.4541],[-104.6992,68.4181],[-104.596,68.4022],[-104.5404,68.406],[-104.4574,68.4314],[-104.4404,68.4493],[-104.4447,68.4705],[-104.4722,68.5033],[-104.6018,68.5615],[-104.7002,68.5769],[-104.9072,68.5816]],[[-105.0072,77.5066],[-105.0738,77.5484],[-105.2897,77.642],[-105.4559,77.7008],[-105.5877,77.7362],[-105.8628,77.7542],[-106.0353,77.7399],[-106.066,77.7256],[-105.8829,77.6267],[-105.848,77.5632],[-105.7475,77.5256],[-105.6951,77.4616],[-105.5564,77.3526],[-105.3797,77.2541],[-105.2151,77.1822],[-105.0156,77.1647],[-104.7114,77.124],[-104.5579,77.142],[-104.4933,77.1626],[-104.4568,77.2208],[-104.4536,77.2494],[-104.5007,77.3087],[-104.542,77.3378],[-104.7701,77.4134],[-104.9553,77.4187],[-104.9945,77.4494],[-105.0072,77.5066]],[[-111.2265,77.4282],[-111.0603,77.433],[-110.8942,77.4261],[-110.683,77.4457],[-110.3713,77.4907],[-110.1983,77.5245],[-110.1396,77.5722],[-110.1168,77.6246],[-110.1173,77.7156],[-110.1311,77.7426],[-110.1528,77.7632],[-110.1893,77.777],[-110.2919,77.7865],[-110.7195,77.7812],[-110.8116,77.8029],[-110.8566,77.8204],[-110.8656,77.8341],[-110.7513,77.8574],[-110.1993,77.905],[-109.7718,77.9574],[-109.6792,77.9992],[-109.6189,78.0569],[-109.622,78.0749],[-109.6569,78.0791],[-110.4581,78.1035],[-110.7274,78.0966],[-110.873,78.0807],[-111.2064,78.0881],[-112.3044,78.0066],[-112.8044,77.9415],[-113.0214,77.9193],[-113.187,77.9124],[-113.2151,77.9034],[-113.2696,77.8601],[-113.2828,77.8357],[-113.2833,77.813],[-113.2712,77.7786],[-113.1897,77.7182],[-113.168,77.6764],[-113.1209,77.6325],[-113.1373,77.6177],[-113.1886,77.5997],[-113.2087,77.5801],[-113.1971,77.559],[-113.1643,77.5304],[-113.0463,77.5108],[-112.9256,77.4748],[-112.6436,77.4436],[-112.3726,77.3642],[-112.1763,77.3436],[-111.9519,77.3441],[-111.2265,77.4282]],[[-113.7125,76.7107],[-113.5606,76.7435],[-113.4876,76.7832],[-113.5167,76.825],[-113.5855,76.8472],[-113.7077,76.8732],[-113.8919,76.8948],[-114.42,76.8753],[-114.647,76.8509],[-114.8354,76.7948],[-114.8084,76.7742],[-114.7512,76.7588],[-113.7125,76.7107]]]}}
