{"type":"Feature","properties":{"id":80,"name":"Queen Charlotte Sound","featurecla":"sound","scalerank":7,"wikidataid":"Q2565098","source":"Natural Earth 5.2.0-pre ne_10m_geography_marine_polys (public domain)"},"geometry":{"type":"Polygon","coordinates":[[[-131.0263,51.9557],[-131.0474,51.9595],[-131.0295,51.9616],[-131.0104,52.0955],[-131.0982,52.1505],[-131.1073,52.1367],[-131.1173,52.1007],[-131.1189,52.1007],[-131.2221,52.1521],[-131.2215,52.1537],[-131.1163,52.2193],[-131.1341,52.2677],[-129.8924,53.1688],[-129.8685,53.1644],[-129.8484,53.1681],[-129.769,53.2173],[-129.7547,53.2448],[-129.7603,53.2505],[-129.67,53.3224],[-129.5637,53.2517],[-129.5631,53.2522],[-129.5145,53.1792],[-129.5012,53.1882],[-129.4716,53.1829],[-129.451,53.1749],[-129.3435,53.0527],[-129.3139,52.9924],[-129.3287,52.9844],[-129.2636,52.8008],[-129.2679,52.7723],[-129.2504,52.722],[-129.1509,52.6056],[-129.1022,52.5743],[-128.9689,52.4643],[-128.9453,52.4981],[-128.7316,52.3752],[-128.7308,52.3563],[-128.6789,52.2897],[-128.3553,52.1602],[-128.3577,52.159],[-128.1937,51.9981],[-128.1021,51.7885],[-128.0832,51.685],[-128.1227,51.6668],[-128.1423,51.6467],[-128.1487,51.6266],[-128.0915,51.5112],[-128.0444,51.4742],[-127.9815,51.4573],[-127.9413,51.4573],[-127.7047,51.2974],[-127.7142,51.2689],[-127.7079,51.1514],[-127.7037,51.1492],[-127.9109,50.859],[-127.918,50.8604],[-128.1016,50.8577],[-128.2418,50.8281],[-128.3011,50.7942],[-128.3461,50.7445],[-128.3492,50.7032],[-131.0263,51.9557]]]}}
