{"type":"Feature","properties":{"id":81,"name":"Ionian Sea","featurecla":"sea","scalerank":4,"wikidataid":"Q37495","source":"Natural Earth 5.2.0-pre ne_10m_geography_marine_polys (public domain)"},"geometry":{"type":"Polygon","coordinates":[[[15.1116,36.6343],[15.1126,36.6877],[15.1163,36.7364],[15.1041,36.7851],[15.1158,36.839],[15.1423,36.8914],[15.1851,36.9348],[15.2947,37.0131],[15.2957,37.0549],[15.2888,37.0968],[15.2359,37.1386],[15.174,37.2095],[15.2301,37.2444],[15.1936,37.283],[15.1459,37.3079],[15.1168,37.3349],[15.1057,37.3756],[15.0994,37.4587],[15.1311,37.5317],[15.165,37.5894],[15.1899,37.6508],[15.2068,37.7206],[15.2343,37.7847],[15.4756,38.063],[15.509,38.1064],[15.5767,38.2202],[15.6344,38.2678],[15.6518,38.2731],[15.6793,38.2546],[15.6904,38.2477],[15.6434,38.1752],[15.646,38.0344],[15.7243,37.9392],[16.0566,37.9418],[16.1095,38.0186],[16.144,38.0863],[16.2826,38.2498],[16.5456,38.4091],[16.5742,38.4937],[16.5588,38.715],[16.6165,38.8001],[16.7556,38.8896],[16.9515,38.9398],[17.0986,38.9192],[17.1748,38.9981],[17.1229,39.1367],[17.1144,39.3806],[16.9991,39.4817],[16.8245,39.5785],[16.598,39.6389],[16.5218,39.7473],[16.5297,39.8595],[16.6694,40.1373],[16.807,40.3262],[16.9282,40.458],[17.0313,40.5136],[17.1801,40.503],[17.2155,40.4866],[17.2494,40.4379],[17.2578,40.3993],[17.396,40.34],[17.4764,40.3151],[17.8648,40.2802],[18.078,39.9368],[18.2193,39.8527],[18.3437,39.8214],[18.3691,39.8013],[19.6269,39.7431],[19.6481,39.7447],[19.6492,39.7262],[19.809,39.5854],[19.8841,39.4616],[19.9751,39.4113],[20.0995,39.3764],[20.0778,39.4325],[20.0275,39.442],[19.9556,39.4706],[19.9275,39.506],[19.9032,39.6002],[19.9042,39.6193],[19.8465,39.668],[19.8624,39.6928],[19.937,39.7468],[19.9312,39.7611],[19.9412,39.7654],[19.991,39.7563],[19.9984,39.7569],[20.001,39.7093],[20.0995,39.641],[20.1916,39.5457],[20.3005,39.3272],[20.4683,39.2552],[20.5715,39.1478],[20.6911,39.0674],[20.7133,39.0351],[20.7794,39.0086],[20.9228,39.0367],[21.034,39.0261],[21.0684,39.0325],[21.1181,39.0298],[21.1446,38.979],[21.1525,38.9218],[21.1118,38.8964],[21.0742,38.8853],[20.8932,38.9409],[20.7773,38.9277],[20.7683,38.8742],[20.7768,38.8076],[20.8731,38.7758],[20.9922,38.6541],[21.1134,38.3847],[21.1827,38.3456],[21.3033,38.3742],[21.3298,38.4244],[21.3308,38.4874],[21.3552,38.4747],[21.3901,38.408],[21.4727,38.3213],[21.5679,38.3334],[21.6499,38.354],[21.7172,38.3551],[21.8044,38.3668],[21.8129,38.3694],[21.9653,38.4123],[22.2267,38.353],[22.3199,38.3567],[22.3855,38.3858],[22.4215,38.4387],[22.5834,38.3451],[22.7538,38.2895],[22.7834,38.2614],[22.8342,38.2345],[22.9326,38.2022],[22.9956,38.2154],[23.0342,38.2022],[23.0935,38.1964],[23.1491,38.1762],[23.1835,38.1339],[23.1528,38.0964],[23.1221,38.0736],[22.9549,38.0747],[22.8929,38.0508],[22.9168,38.0074],[22.9204,37.9582],[22.8464,37.9678],[22.7998,37.981],[22.7115,38.0471],[22.5559,38.1133],[22.2436,38.189],[21.9532,38.3213],[21.8245,38.3281],[21.7484,38.2742],[21.6584,38.1752],[21.5488,38.1646],[21.451,38.2048],[21.4039,38.1969],[21.3081,38.0276],[21.1451,37.9191],[21.125,37.8916],[21.1377,37.854],[21.2055,37.8291],[21.2885,37.7746],[21.3293,37.6693],[21.416,37.6402],[21.5711,37.5412],[21.679,37.3873],[21.6922,37.3095],[21.579,37.2005],[21.5827,37.0809],[21.7383,36.8634],[21.8923,36.7374],[21.9341,36.8036],[21.9399,36.892],[21.9558,36.9899],[22.0119,37.0163],[22.0807,37.029],[22.1336,36.9639],[22.1648,36.9031],[22.231,36.8825],[22.3759,36.702],[22.3812,36.6464],[22.3749,36.5136],[22.4278,36.4755],[22.4543,36.4628],[15.1116,36.6343]],[[20.8186,37.6645],[20.9091,37.7323],[20.9938,37.7079],[20.8885,37.8053],[20.8398,37.8408],[20.7588,37.8529],[20.6916,37.9296],[20.6197,37.8551],[20.635,37.8233],[20.7038,37.7434],[20.8186,37.6645]],[[20.563,38.4747],[20.5503,38.4567],[20.5482,38.3948],[20.5197,38.3323],[20.4815,38.3181],[20.435,38.3562],[20.4085,38.3366],[20.3524,38.2218],[20.3524,38.1799],[20.391,38.1884],[20.4519,38.2339],[20.473,38.2186],[20.4985,38.1842],[20.4953,38.1641],[20.5233,38.1064],[20.5689,38.0979],[20.6059,38.1196],[20.7615,38.0704],[20.781,38.0889],[20.789,38.1419],[20.6953,38.2461],[20.6249,38.2678],[20.6123,38.3832],[20.563,38.4747]]]}}
