{"type":"Feature","properties":{"id":82,"name":"Gulf of Saint Lawrence","featurecla":"gulf","scalerank":4,"wikidataid":"Q169523","source":"Natural Earth 5.2.0-pre ne_10m_geography_marine_polys (public domain)"},"geometry":{"type":"Polygon","coordinates":[[[-61.4552,45.7089],[-61.507,45.6894],[-61.5054,45.6835],[-61.6568,45.6423],[-61.7764,45.6555],[-61.8774,45.7142],[-61.9118,45.7989],[-61.9235,45.8513],[-61.9557,45.8682],[-62.2177,45.7306],[-62.4219,45.6645],[-62.4473,45.6407],[-62.4828,45.6216],[-62.5855,45.6608],[-62.75,45.6481],[-62.7183,45.6862],[-62.7008,45.7407],[-62.9109,45.7761],[-63.1077,45.7825],[-63.2168,45.7582],[-63.293,45.7518],[-63.3157,45.7798],[-63.358,45.8111],[-63.5094,45.8746],[-63.5676,45.8777],[-63.7031,45.8582],[-63.8745,45.9592],[-64.0565,46.0211],[-63.8317,46.1074],[-63.8724,46.146],[-63.9158,46.1656],[-64.1449,46.1931],[-64.2116,46.2201],[-64.5412,46.2402],[-64.5566,46.3117],[-64.6476,46.3561],[-64.6413,46.4254],[-64.6894,46.5122],[-64.7259,46.6715],[-64.817,46.6985],[-64.8826,46.8228],[-64.9059,46.8879],[-64.8656,46.9578],[-64.8313,47.061],[-64.9424,47.0864],[-65.0424,47.089],[-65.1921,47.0493],[-65.2604,47.0694],[-65.3191,47.1012],[-65.0863,47.234],[-64.9122,47.3684],[-64.8524,47.57],[-64.7661,47.6737],[-64.7032,47.725],[-64.8741,47.797],[-65.0466,47.7928],[-65.0016,47.8468],[-65.2281,47.8113],[-65.344,47.7679],[-65.4837,47.687],[-65.607,47.67],[-65.6663,47.696],[-65.7557,47.86],[-65.8494,47.9108],[-66.2102,47.9886],[-66.3595,48.0606],[-66.4288,48.0669],[-66.6315,48.0108],[-66.7045,48.0224],[-66.4489,48.1198],[-66.324,48.0981],[-66.2489,48.1172],[-66.0832,48.1029],[-66.0123,48.1468],[-65.9266,48.1886],[-65.7546,48.1119],[-65.4758,48.0315],[-65.3599,48.0113],[-65.2593,48.0214],[-65.036,48.1061],[-64.9598,48.16],[-64.8222,48.1965],[-64.7646,48.2283],[-64.7058,48.3109],[-64.6333,48.3606],[-64.3487,48.423],[-64.2539,48.5506],[-64.246,48.6913],[-64.4148,48.8035],[-64.5138,48.8411],[-64.3709,48.839],[-64.2089,48.8061],[-64.2164,48.8739],[-64.2619,48.922],[-64.5328,49.0834],[-64.5196,49.1057],[-64.5196,50.3021],[-64.5201,50.3079],[-64.509,50.309],[-64.1703,50.2693],[-64.0158,50.3037],[-63.8539,50.3143],[-63.7338,50.3047],[-63.5867,50.2582],[-63.2385,50.2423],[-63.1358,50.2936],[-62.9495,50.2915],[-62.8305,50.3016],[-62.7156,50.3016],[-62.541,50.2846],[-62.3616,50.2772],[-62.1653,50.2391],[-61.9198,50.2328],[-61.8351,50.1968],[-61.725,50.1042],[-61.2895,50.2021],[-61.1805,50.1915],[-60.9561,50.2053],[-60.8075,50.2497],[-60.608,50.2211],[-60.4381,50.2386],[-60.0804,50.2545],[-59.8862,50.3164],[-59.8153,50.4185],[-59.6121,50.4921],[-59.3782,50.6757],[-59.1655,50.78],[-59.0549,50.8789],[-58.6373,51.1715],[-58.6146,51.2371],[-58.5934,51.2572],[-58.5104,51.2948],[-58.4421,51.3059],[-58.2706,51.2953],[-58.0897,51.3112],[-58.0224,51.3223],[-57.8536,51.3996],[-57.7695,51.4261],[-57.4616,51.4689],[-57.2991,51.4784],[-57.0953,51.4424],[-57.0319,51.4462],[-57.0313,51.4377],[-56.7604,51.2763],[-56.7514,51.2726],[-56.8054,51.1445],[-56.8249,51.1255],[-56.9763,51.0281],[-57.0361,51.0107],[-57.0372,50.9959],[-57.0128,50.9678],[-57.0054,50.9397],[-57.053,50.8572],[-57.1319,50.7873],[-57.2419,50.745],[-57.2747,50.7254],[-57.298,50.6985],[-57.2943,50.6736],[-57.2642,50.6492],[-57.1795,50.6148],[-57.2372,50.6053],[-57.3303,50.6053],[-57.3605,50.5841],[-57.4324,50.5058],[-57.4658,50.4635],[-57.6081,50.1989],[-57.7124,50.0248],[-57.9261,49.701],[-57.9293,49.6682],[-57.8976,49.6004],[-57.7986,49.5083],[-57.7912,49.4898],[-57.8563,49.474],[-57.9611,49.5316],[-58.0156,49.5428],[-58.1077,49.4999],[-58.1828,49.4353],[-58.2135,49.3867],[-58.2188,49.3052],[-58.1907,49.2586],[-58.0971,49.23],[-57.9801,49.2295],[-57.9907,49.2094],[-58.0489,49.1797],[-58.0986,49.0776],[-58.0817,49.0448],[-58.0405,49.0099],[-57.9907,48.9882],[-58.0055,48.9813],[-58.0494,48.9877],[-58.186,49.0617],[-58.3188,49.0813],[-58.3585,49.0967],[-58.4035,49.0845],[-58.4939,49.003],[-58.5458,48.8966],[-58.6416,48.7495],[-58.6871,48.622],[-58.7167,48.5982],[-58.8432,48.6051],[-58.8771,48.6225],[-58.9067,48.6501],[-58.8871,48.6913],[-58.8194,48.7469],[-58.8416,48.7464],[-59.0633,48.6278],[-59.1676,48.5585],[-59.1671,48.522],[-58.9437,48.522],[-58.7225,48.5405],[-58.6061,48.5331],[-58.4924,48.513],[-58.3304,48.522],[-58.3357,48.5135],[-58.5024,48.4421],[-58.6051,48.4114],[-58.7104,48.3251],[-58.9607,48.1595],[-59.2718,47.9955],[-59.3406,47.9336],[-59.3623,47.8891],[-59.3623,47.8658],[-59.3205,47.7367],[-59.2597,47.634],[-59.2194,47.6023],[-59.1168,47.5706],[-58.9411,47.5806],[-58.613,47.6261],[-58.5087,47.6526],[-58.4278,47.6832],[-58.3368,47.7309],[-58.3267,47.7198],[-58.3331,47.6769],[-58.2394,47.669],[-57.9256,47.6748],[-57.8843,47.66],[-57.66,47.6256],[-57.4732,47.6309],[-56.9525,47.5743],[-56.7742,47.5653],[-56.7223,47.5922],[-56.4593,47.6171],[-56.3259,47.6547],[-56.263,47.6584],[-56.2212,47.6716],[-56.1508,47.7743],[-56.1217,47.7891],[-56.0894,47.7716],[-56.0201,47.7637],[-55.9185,47.7917],[-55.8582,47.8193],[-55.8444,47.788],[-55.8672,47.5922],[-56.0836,47.5245],[-56.1275,47.5028],[-56.0815,47.5002],[-55.8619,47.5303],[-55.8116,47.5166],[-55.7745,47.498],[-55.5761,47.4652],[-55.4989,47.4753],[-55.4608,47.4848],[-55.4348,47.5012],[-55.4126,47.5504],[-55.3909,47.643],[-55.366,47.661],[-55.1967,47.6499],[-55.0745,47.6573],[-55.0348,47.634],[-54.9459,47.6208],[-54.8909,47.6293],[-54.7845,47.6647],[-54.7956,47.6404],[-54.8697,47.5711],[-54.9755,47.516],[-55.1909,47.4488],[-55.3607,47.2583],[-55.401,47.2213],[-55.4915,47.1605],[-55.61,47.1197],[-55.7719,47.0922],[-55.8386,47.0715],[-55.919,47.017],[-55.9545,46.9731],[-55.9582,46.9562],[-55.9545,46.944],[-55.9772,46.9371],[-56.2328,46.8641],[-56.264,46.845],[-56.2556,46.8609],[-56.29,46.9001],[-56.3148,46.9541],[-56.2783,47.035],[-56.2873,47.071],[-56.3646,47.0991],[-56.3778,47.0895],[-56.3868,47.0679],[-56.3339,46.9356],[-56.3323,46.9159],[-56.3773,46.8477],[-56.3847,46.8196],[-56.354,46.7953],[-56.3021,46.8213],[-56.3715,46.7784],[-59.8777,46.1635],[-59.9613,46.191],[-60.0926,46.2058],[-60.2264,46.1958],[-60.2439,46.2698],[-60.2979,46.3111],[-60.3767,46.2847],[-60.4307,46.2556],[-60.5048,46.2037],[-60.5133,46.1947],[-60.5344,46.2143],[-60.4947,46.2704],[-60.508,46.3032],[-60.4826,46.4132],[-60.3841,46.6133],[-60.3328,46.7371],[-60.3317,46.7678],[-60.4254,46.9234],[-60.4312,46.9631],[-60.4085,47.0033],[-60.4889,47.0096],[-60.5709,46.999],[-60.6164,46.9758],[-60.7598,46.8636],[-60.8699,46.7969],[-60.9318,46.7292],[-60.9826,46.6503],[-61.2403,46.3027],[-61.3022,46.2439],[-61.4086,46.1704],[-61.4806,46.0598],[-61.4954,45.9413],[-61.4499,45.7164],[-61.4483,45.7148],[-61.4552,45.7089]],[[-61.951,47.2192],[-61.8335,47.2223],[-61.7727,47.2599],[-61.8155,47.2673],[-61.8785,47.2657],[-61.9139,47.2843],[-61.8864,47.3446],[-61.8314,47.3922],[-61.751,47.4309],[-61.6843,47.4986],[-61.5822,47.56],[-61.4758,47.5642],[-61.3954,47.6378],[-61.4742,47.6468],[-61.5478,47.6319],[-61.6277,47.5938],[-61.8272,47.4689],[-61.9245,47.425],[-62.0081,47.2345],[-61.951,47.2192]],[[-62.2193,49.0792],[-61.8012,49.094],[-61.7457,49.1057],[-61.6959,49.139],[-61.7356,49.2036],[-61.8171,49.2835],[-62.0431,49.3898],[-62.133,49.4073],[-62.6336,49.6237],[-62.8585,49.7057],[-63.0887,49.7729],[-63.2919,49.8169],[-63.7602,49.8751],[-64.1317,49.9417],[-64.2439,49.9444],[-64.373,49.9259],[-64.4852,49.8872],[-64.4402,49.828],[-63.8851,49.6576],[-63.7766,49.602],[-63.6761,49.5343],[-63.6258,49.4597],[-63.566,49.3993],[-63.0416,49.2247],[-62.7998,49.1707],[-62.5527,49.1411],[-62.2193,49.0792]],[[-64.0195,46.4048],[-63.8607,46.408],[-63.7586,46.3974],[-63.7507,46.3841],[-63.7634,46.3704],[-63.8004,46.3672],[-63.7316,46.2889],[-63.6411,46.2307],[-63.5686,46.209],[-63.2765,46.1534],[-63.2136,46.1598],[-63.1527,46.1883],[-63.2707,46.2],[-63.1945,46.2365],[-63.1173,46.2529],[-63.0569,46.2953],[-62.9786,46.3164],[-62.995,46.2921],[-63.0527,46.2698],[-63.0564,46.2238],[-63.0151,46.1899],[-62.9527,46.1952],[-62.8945,46.1238],[-63.022,46.0666],[-62.9945,46.0582],[-62.9035,46.0682],[-62.8781,46.0016],[-62.8051,45.973],[-62.7431,45.9667],[-62.5315,45.9772],[-62.478,46.0],[-62.5024,46.0227],[-62.5431,46.0286],[-62.5394,46.0979],[-62.5521,46.1661],[-62.5262,46.2027],[-62.3198,46.2783],[-62.1717,46.3556],[-62.0235,46.4217],[-62.0409,46.4455],[-62.0743,46.4656],[-62.1637,46.4873],[-62.423,46.4784],[-62.6818,46.4593],[-62.7119,46.4503],[-62.9638,46.4276],[-63.1294,46.4223],[-63.2861,46.4604],[-63.3686,46.5085],[-63.4131,46.5122],[-63.4565,46.5038],[-63.5343,46.5408],[-63.6814,46.562],[-63.7369,46.4805],[-63.784,46.4545],[-63.811,46.4688],[-63.8338,46.4937],[-63.9057,46.5085],[-63.8756,46.5387],[-63.8639,46.5725],[-63.8793,46.609],[-63.9031,46.6392],[-64.0878,46.7752],[-63.9814,46.9128],[-63.9973,46.9816],[-63.9936,47.0615],[-64.1571,46.9551],[-64.2232,46.9011],[-64.2798,46.8355],[-64.3545,46.7694],[-64.4031,46.6916],[-64.3878,46.6408],[-64.2354,46.6313],[-64.1359,46.5995],[-64.1068,46.562],[-64.111,46.4254],[-64.0195,46.4048]]]}}
