{"type":"Feature","properties":{"id":83,"name":"Molucca Sea","featurecla":"sea","scalerank":4,"wikidataid":"Q185291","source":"Natural Earth 5.2.0-pre ne_10m_geography_marine_polys (public domain)"},"geometry":{"type":"Polygon","coordinates":[[[128.5755,2.5967],[128.5686,2.5961],[128.4723,2.5707],[128.3304,2.4692],[128.2177,2.2977],[128.2184,2.2945],[128.0413,2.1654],[128.0362,2.1993],[127.9643,2.1749],[127.8997,2.1374],[127.7315,1.9659],[127.632,1.8437],[127.5706,1.7003],[127.5579,1.6341],[127.5346,1.5722],[127.5373,1.4674],[127.4203,1.2521],[127.4287,1.1399],[127.5203,0.924],[127.6082,0.8483],[127.6007,0.7959],[127.5669,0.7425],[127.542,0.6806],[127.5373,0.6107],[127.5552,0.4895],[127.6161,0.3832],[127.6685,0.3366],[127.7087,0.2879],[127.6854,0.1493],[127.6812,0.035],[127.6875,-0.0798],[127.6748,-0.1629],[127.6918,-0.2418],[127.741,-0.3005],[127.8532,-0.3799],[127.8891,-0.4233],[128.0108,-0.6572],[128.0463,-0.7058],[128.2337,-0.7879],[128.2548,-0.8271],[127.7483,-1.1047],[127.6375,-1.3355],[127.5917,-1.3509],[127.4568,-1.4536],[127.4171,-1.5414],[127.397,-1.57],[126.4091,-1.8166],[126.3249,-1.8224],[126.0244,-1.7896],[125.7201,-1.8139],[125.5206,-1.8007],[125.4449,-1.8092],[125.3873,-1.843],[125.3179,-1.8372],[125.32,-1.8102],[125.3052,-1.7938],[125.2581,-1.7711],[125.1978,-1.78],[125.1877,-1.7129],[125.1459,-1.6928],[125.1269,-1.6991],[125.0957,-1.7409],[125.0628,-1.7409],[124.9697,-1.7055],[124.6638,-1.6361],[124.4829,-1.6441],[124.4178,-1.6594],[124.3808,-1.6874],[124.3575,-1.7658],[124.3564,-1.7653],[123.6801,-1.7002],[123.532,-1.4409],[123.5156,-1.4356],[123.5473,-1.3377],[123.5267,-1.2858],[123.541,-1.2742],[123.3743,-1.0149],[123.3716,-1.0059],[123.3779,-1.0043],[123.3965,-0.9614],[123.4341,-0.7783],[123.424,-0.7371],[123.4812,-0.7233],[123.4986,0.3022],[123.5261,0.3001],[123.6394,0.2975],[123.7537,0.3054],[124.1013,0.3747],[124.2167,0.3805],[124.2781,0.3985],[124.3845,0.4451],[124.4273,0.4705],[124.5141,0.5573],[124.5893,0.6552],[124.6401,0.7435],[124.6983,0.8255],[124.8887,0.9954],[124.9666,1.0827],[125.028,1.1801],[125.1174,1.3791],[125.1412,1.4082],[125.2216,1.4785],[125.2338,1.5024],[125.165,1.6436],[125.1554,1.6511],[125.1655,1.6643],[125.3354,1.9559],[125.465,2.3527],[125.4248,2.6284],[125.4814,2.7819],[125.5217,3.001],[125.6354,3.3973],[125.6333,3.4052],[125.6513,3.4275],[125.6756,3.3973],[126.6455,4.0037],[126.6614,3.9286],[126.7218,3.8323],[126.7192,3.8746],[126.7398,3.918],[126.6852,4.0016],[126.6668,4.0175],[126.7081,4.0445],[126.7112,4.0201],[126.7763,4.0127],[126.8165,4.0334],[126.8477,4.18],[126.8572,4.1948],[126.9398,4.2799],[128.5744,2.6215],[128.5755,2.5967]],[[127.4917,-0.3359],[127.4552,-0.4063],[127.3711,-0.3317],[127.325,-0.3359],[127.3293,-0.391],[127.297,-0.4603],[127.3002,-0.5005],[127.3806,-0.5995],[127.4684,-0.6429],[127.4383,-0.7392],[127.4626,-0.8059],[127.4981,-0.8027],[127.624,-0.7662],[127.6431,-0.7842],[127.6674,-0.8318],[127.761,-0.8837],[127.842,-0.8476],[127.8801,-0.8085],[127.8632,-0.7598],[127.8378,-0.7238],[127.8045,-0.6942],[127.6584,-0.6895],[127.605,-0.6101],[127.6822,-0.4682],[127.5669,-0.319],[127.5272,-0.3063],[127.4917,-0.3359]],[[127.1875,-0.5212],[127.2499,-0.4953],[127.2805,-0.391],[127.2531,-0.3185],[127.2901,-0.2846],[127.1896,-0.2555],[127.1266,-0.2788],[127.1044,-0.4138],[127.1192,-0.5206],[127.1875,-0.5212]]]}}
