{"type":"Feature","properties":{"id":84,"name":"Bismarck Sea","featurecla":"sea","scalerank":4,"wikidataid":"Q199436","source":"Natural Earth 5.2.0-pre ne_10m_geography_marine_polys (public domain)"},"geometry":{"type":"Polygon","coordinates":[[[150.8243,-2.5595],[151.0344,-2.7103],[150.9952,-2.6881],[150.8253,-2.5728],[150.8428,-2.6437],[150.8264,-2.713],[150.746,-2.7389],[150.8481,-2.7797],[150.9682,-2.7797],[151.0666,-2.8289],[151.4053,-3.0368],[151.4651,-3.1014],[151.5783,-3.1538],[151.7931,-3.3379],[151.88,-3.3998],[151.9731,-3.4533],[152.0233,-3.4686],[152.1361,-3.4872],[152.1747,-3.4998],[152.2165,-3.5274],[152.2795,-3.5824],[152.3557,-3.6681],[152.5986,-3.9946],[152.6679,-4.1317],[152.697,-4.282],[152.6933,-4.3561],[152.6896,-4.3746],[152.3784,-4.437],[152.4054,-4.3407],[152.2996,-4.3206],[152.1975,-4.2852],[152.1171,-4.2121],[151.9678,-4.3169],[151.9154,-4.2968],[151.8646,-4.2608],[151.8196,-4.2169],[151.7037,-4.1999],[151.5932,-4.201],[151.5603,-4.2475],[151.5445,-4.2994],[151.5519,-4.3455],[151.6646,-4.637],[151.6789,-4.7608],[151.6709,-4.8831],[151.5725,-4.9376],[151.4397,-4.9307],[151.381,-4.9413],[151.3265,-4.9604],[151.1375,-5.1128],[151.0687,-5.2043],[151.0222,-5.3207],[150.9529,-5.4239],[150.9005,-5.4472],[150.8428,-5.4535],[150.7846,-5.471],[150.7343,-5.5107],[150.6258,-5.5207],[150.5195,-5.4604],[150.4046,-5.4731],[150.2988,-5.5356],[150.1829,-5.5234],[150.1062,-5.4292],[150.0723,-5.3096],[150.0813,-5.1863],[150.1088,-5.136],[150.1702,-5.0704],[150.122,-5.018],[150.0903,-5.0117],[150.0453,-5.0344],[150.012,-5.1397],[149.9628,-5.4477],[149.8316,-5.5239],[149.6813,-5.5234],[149.6315,-5.516],[149.4755,-5.5731],[149.359,-5.5837],[149.2452,-5.5731],[149.1241,-5.5229],[148.9992,-5.4848],[148.7833,-5.5118],[148.7245,-5.4932],[148.6658,-5.4869],[148.6156,-5.5075],[148.5648,-5.508],[148.4319,-5.4721],[148.4155,-5.4858],[147.7874,-5.4858],[147.4487,-5.9811],[147.4228,-5.9663],[147.3768,-5.951],[147.2481,-5.9547],[147.1207,-5.9451],[147.0344,-5.9192],[146.4036,-5.6165],[146.2052,-5.5451],[145.9993,-5.4969],[145.8528,-5.4716],[145.7453,-5.4022],[145.7929,-5.1778],[145.7881,-4.8905],[145.7671,-4.8228],[145.3347,-4.3852],[145.2082,-4.3804],[145.0876,-4.3492],[145.0082,-4.2756],[144.9384,-4.1883],[144.8436,-4.1015],[144.7378,-4.029],[144.6267,-3.993],[144.5484,-3.9131],[144.5245,-3.8555],[144.478,-3.8253],[144.4267,-3.8094],[144.3743,-3.8026],[144.2478,-3.8184],[144.1219,-3.8152],[144.0663,-3.8052],[144.016,-3.7835],[143.8874,-3.6972],[143.7969,-3.6173],[143.7006,-3.5734],[143.5091,-3.4311],[143.3784,-3.3951],[143.1302,-3.3549],[143.0154,-3.3448],[142.9053,-3.3205],[142.5492,-3.2046],[142.2116,-3.0834],[141.9856,-2.9633],[141.9745,-2.9612],[141.9824,-2.9231],[142.5756,-1.8452],[143.2493,-1.3869],[144.3277,-1.535],[145.1633,-1.7774],[146.5703,-2.0108],[146.6083,-2.0081],[146.5957,-2.0171],[146.6068,-2.1024],[146.5322,-2.1261],[146.5311,-2.1542],[146.5464,-2.2087],[146.5724,-2.2103],[146.6354,-2.1733],[146.6989,-2.1828],[146.7481,-2.1489],[146.9265,-2.1891],[147.064,-2.187],[147.1423,-2.1669],[147.2063,-2.1817],[147.3016,-2.0907],[147.3366,-2.0658],[147.3852,-2.0706],[147.4382,-2.0589],[147.444,-2.0113],[147.4244,-1.9944],[147.4186,-2.0013],[147.4228,-2.0245],[147.4006,-2.025],[147.1249,-1.9711],[147.3111,-1.9579],[148.1689,-2.1145],[149.1103,-2.3283],[149.9617,-2.4786],[149.9692,-2.4791],[149.985,-2.4913],[150.0432,-2.5125],[150.1015,-2.6024],[150.166,-2.66],[150.2374,-2.6754],[150.4364,-2.6616],[150.4459,-2.6326],[150.4517,-2.541],[150.4507,-2.5246],[150.8243,-2.5595]],[[147.1201,-5.4377],[147.1762,-5.4319],[147.2217,-5.3816],[147.2063,-5.2514],[147.1312,-5.1911],[147.0148,-5.2572],[147.0058,-5.307],[147.0291,-5.3424],[147.1201,-5.4377]]]}}
