{"type":"Feature","properties":{"id":85,"name":"Solomon Sea","featurecla":"sea","scalerank":4,"wikidataid":"Q199479","source":"Natural Earth 5.2.0-pre ne_10m_geography_marine_polys (public domain)"},"geometry":{"type":"Polygon","coordinates":[[[161.5986,-9.6837],[161.3891,-10.2076],[161.3822,-10.2055],[161.305,-10.2044],[161.2854,-10.2822],[161.2939,-10.3267],[161.3981,-10.3319],[161.487,-10.3615],[161.4991,-10.4547],[161.5394,-10.4912],[161.5378,-10.5663],[161.787,-10.7172],[161.9061,-10.7643],[162.0426,-10.7849],[162.1183,-10.8219],[160.5578,-11.7649],[160.5234,-11.749],[160.4487,-11.6961],[160.0773,-11.4929],[160.0,-11.4718],[159.9863,-11.4945],[159.9826,-11.5188],[153.7553,-11.5887],[153.7601,-11.5866],[153.7029,-11.5284],[153.5362,-11.476],[153.3066,-11.3564],[153.2844,-11.3495],[153.1849,-11.2357],[151.2799,-10.9891],[150.6803,-10.5658],[150.6179,-10.5573],[150.647,-10.5182],[150.6052,-10.4838],[150.4887,-10.4256],[150.4105,-10.3393],[150.4459,-10.3076],[150.6369,-10.3378],[150.6915,-10.3177],[150.8496,-10.2362],[150.6671,-10.2573],[150.5391,-10.2065],[150.3639,-10.1896],[150.284,-10.1631],[150.2062,-10.1255],[150.0888,-10.088],[149.9675,-10.061],[149.9194,-10.0414],[149.8744,-10.0128],[149.8215,-9.934],[149.7633,-9.8689],[149.7612,-9.8059],[149.8644,-9.7705],[149.9284,-9.761],[149.9845,-9.7371],[150.0109,-9.6879],[149.9734,-9.661],[149.8654,-9.6303],[149.7559,-9.6107],[149.476,-9.5885],[149.4188,-9.5689],[149.2632,-9.498],[149.2029,-9.4069],[149.2161,-9.2958],[149.2643,-9.181],[149.2479,-9.0709],[149.1982,-9.0312],[149.1415,-9.0143],[149.0976,-9.017],[148.7918,-9.0894],[148.6796,-9.0921],[148.5833,-9.0518],[148.5261,-8.9386],[148.451,-8.6947],[148.4144,-8.664],[148.2467,-8.5545],[148.2335,-8.5095],[148.2298,-8.4597],[148.2065,-8.3386],[148.152,-8.1602],[148.1266,-8.1036],[147.9361,-7.9755],[147.8218,-7.9374],[147.7244,-7.8761],[147.545,-7.7109],[147.4588,-7.6162],[147.3651,-7.5337],[147.2603,-7.4638],[147.19,-7.3781],[147.1047,-7.167],[146.9608,-6.9289],[146.9492,-6.8834],[146.9534,-6.8342],[147.119,-6.722],[147.3556,-6.7426],[147.7096,-6.7235],[147.8107,-6.7034],[147.8456,-6.6622],[147.8546,-6.551],[147.8244,-6.3733],[147.8022,-6.315],[147.7631,-6.2918],[147.7302,-6.2611],[147.653,-6.1547],[147.5667,-6.0568],[147.5186,-6.0213],[147.4487,-5.9811],[147.7874,-5.4858],[148.4155,-5.4858],[148.3446,-5.5451],[148.3372,-5.6694],[148.4012,-5.7652],[148.5097,-5.8054],[148.6246,-5.8309],[148.7193,-5.8673],[148.8076,-5.9165],[149.0992,-6.1171],[149.1267,-6.1277],[149.2728,-6.0795],[149.3823,-6.078],[149.4828,-6.1251],[149.5981,-6.2611],[149.6527,-6.2907],[149.7501,-6.3008],[149.8511,-6.2928],[150.1909,-6.2891],[150.4285,-6.2764],[150.4734,-6.2632],[150.5883,-6.188],[150.7058,-6.1494],[150.7597,-6.1145],[150.8089,-6.0716],[150.92,-6.0272],[151.0434,-6.015],[151.0899,-5.9965],[151.2291,-5.9197],[151.3312,-5.8393],[151.4223,-5.7472],[151.455,-5.7033],[151.4804,-5.6546],[151.4815,-5.5911],[151.5154,-5.5525],[151.6948,-5.5435],[151.8651,-5.5647],[151.9683,-5.5287],[152.0768,-5.4583],[152.1429,-5.3572],[152.0768,-5.2472],[151.9938,-5.1492],[151.9837,-5.0747],[152.0133,-5.0037],[152.1668,-4.9932],[152.216,-4.9794],[152.2578,-4.9545],[152.3509,-4.8222],[152.4001,-4.7312],[152.4033,-4.6291],[152.3758,-4.5603],[152.3637,-4.491],[152.3784,-4.437],[152.6896,-4.3746],[152.6779,-4.4291],[152.6805,-4.4984],[152.7399,-4.636],[152.7864,-4.6995],[152.8457,-4.7614],[152.8917,-4.8323],[152.9658,-4.7561],[153.0235,-4.6661],[153.0457,-4.5762],[153.0441,-4.4762],[153.1114,-4.3915],[153.1325,-4.3523],[153.1272,-4.2872],[153.132,-4.2862],[154.1903,-4.4979],[154.5078,-4.9741],[154.5723,-5.0736],[154.5401,-5.1106],[154.5628,-5.1519],[154.5761,-5.2207],[154.584,-5.3144],[154.6274,-5.4409],[154.647,-5.4329],[154.6983,-5.3826],[154.7142,-5.2926],[154.8576,-5.5144],[154.8184,-5.4943],[154.7724,-5.4541],[154.7296,-5.4445],[154.7412,-5.5451],[154.7089,-5.7472],[154.7211,-5.8165],[154.7592,-5.9314],[154.7819,-5.9705],[154.8703,-6.0615],[154.9401,-6.106],[155.01,-6.2097],[155.0444,-6.2335],[155.202,-6.3076],[155.2344,-6.4119],[155.2084,-6.5267],[155.2602,-6.6262],[155.3439,-6.722],[155.4275,-6.7828],[155.5206,-6.8304],[155.6174,-6.8558],[155.7191,-6.8627],[155.7635,-6.8342],[155.8048,-6.7955],[155.8921,-6.7617],[155.9149,-6.7966],[155.9334,-6.7807],[155.9577,-6.687],[155.9276,-6.5648],[155.882,-6.4695],[155.8392,-6.4055],[156.5186,-6.6145],[156.5287,-6.6214],[156.4795,-6.6087],[156.4525,-6.6384],[156.4573,-6.7151],[156.4948,-6.7617],[156.6959,-6.9108],[156.9044,-7.1807],[157.1018,-7.3236],[157.2436,-7.3532],[157.3145,-7.3416],[157.3171,-7.3596],[157.3394,-7.3929],[157.4415,-7.4257],[157.5188,-7.3654],[157.4865,-7.3305],[157.4516,-7.3136],[157.4119,-7.3088],[157.3362,-7.2802],[157.1933,-7.1601],[157.1484,-7.1135],[157.1235,-7.0284],[157.5241,-7.3024],[158.2649,-7.3554],[158.6808,-7.593],[158.4575,-7.5448],[158.4787,-7.5771],[158.5654,-7.6512],[158.5972,-7.7591],[158.6861,-7.8179],[158.7781,-7.9068],[158.8316,-7.9269],[158.8544,-7.9597],[158.9438,-8.0406],[159.0904,-8.1031],[159.2391,-8.1962],[159.2915,-8.2036],[159.3539,-8.2602],[159.6444,-8.3719],[159.7466,-8.474],[159.881,-8.5576],[159.8794,-8.5344],[159.8487,-8.4635],[159.7942,-8.4063],[159.8429,-8.3269],[159.4312,-8.029],[159.3677,-7.9941],[159.2867,-7.9761],[159.1978,-7.9094],[159.1094,-7.9036],[159.0105,-7.8375],[158.9723,-7.7893],[158.8628,-7.7226],[158.7893,-7.6549],[159.7466,-8.202],[160.6461,-8.2549],[160.6938,-8.3264],[160.6848,-8.3364],[160.6483,-8.3386],[160.5964,-8.328],[160.5906,-8.373],[160.7139,-8.5391],[160.6625,-8.6206],[160.7721,-8.9641],[160.8732,-9.1567],[161.0245,-9.2715],[161.0414,-9.308],[161.1912,-9.3927],[161.3219,-9.5895],[161.3674,-9.6112],[161.3775,-9.5736],[161.3679,-9.4905],[161.2584,-9.317],[161.2568,-9.1921],[161.2086,-9.1328],[161.2044,-9.0926],[161.3827,-9.3598],[161.3642,-9.3535],[161.4023,-9.4482],[161.4172,-9.5138],[161.4118,-9.6001],[161.4097,-9.6816],[161.4425,-9.7191],[161.4779,-9.6911],[161.5537,-9.7694],[161.559,-9.7329],[161.5478,-9.6255],[161.4928,-9.5249],[161.5986,-9.6837]],[[159.6073,-9.354],[159.6121,-9.4704],[159.6217,-9.5323],[159.6804,-9.6366],[159.7556,-9.726],[159.8026,-9.7636],[159.854,-9.7916],[160.0022,-9.8123],[160.3213,-9.8213],[160.4816,-9.8948],[160.6493,-9.9287],[160.7133,-9.9139],[160.8017,-9.8784],[160.8192,-9.8625],[160.7943,-9.7673],[160.7515,-9.7149],[160.6816,-9.6917],[160.6255,-9.589],[160.525,-9.5361],[160.3546,-9.4217],[160.0651,-9.4186],[159.9704,-9.4334],[159.7503,-9.2726],[159.6863,-9.2688],[159.6254,-9.3112],[159.6073,-9.354]],[[157.9982,-8.5084],[157.9669,-8.5444],[157.9384,-8.5608],[157.9093,-8.5656],[157.8982,-8.5873],[157.8791,-8.6688],[157.9373,-8.7365],[158.0093,-8.7629],[158.1077,-8.6841],[158.1035,-8.6466],[158.0898,-8.6227],[158.0686,-8.6069],[158.1321,-8.5566],[158.1056,-8.537],[157.9982,-8.5084]],[[157.3214,-8.1613],[157.2283,-8.2115],[157.2177,-8.2629],[157.2325,-8.3147],[157.3023,-8.3333],[157.3516,-8.275],[157.5039,-8.2581],[157.5579,-8.2698],[157.5648,-8.338],[157.5881,-8.4454],[157.6558,-8.4994],[157.749,-8.5238],[157.8193,-8.6121],[157.8336,-8.5724],[157.8855,-8.5693],[157.8982,-8.5063],[157.8262,-8.3237],[157.7632,-8.2422],[157.6511,-8.2169],[157.6124,-8.165],[157.5987,-8.0057],[157.4907,-7.966],[157.4336,-7.9845],[157.3405,-8.0962],[157.3214,-8.1613]],[[156.9589,-7.938],[156.9584,-8.0142],[157.0415,-8.1174],[157.1499,-8.1232],[157.1716,-8.1078],[157.1912,-8.0819],[157.2007,-8.0158],[157.1859,-7.9412],[157.1457,-7.8824],[157.1028,-7.8554],[157.0239,-7.8681],[156.9589,-7.938]],[[156.6689,-7.9369],[156.6879,-7.9232],[156.7081,-7.8771],[156.7901,-7.7782],[156.8092,-7.7231],[156.7176,-7.6956],[156.6398,-7.6126],[156.561,-7.5739],[156.5023,-7.64],[156.5113,-7.7078],[156.6118,-7.8057],[156.6112,-7.866],[156.6356,-7.8829],[156.6689,-7.9369]],[[152.6383,-9.0582],[152.7081,-9.126],[152.7202,-9.1667],[152.7594,-9.1773],[152.8674,-9.2244],[152.9229,-9.2032],[152.9669,-9.209],[152.9595,-9.1688],[152.9848,-9.1508],[152.9949,-9.1307],[152.9954,-9.108],[152.9531,-9.0704],[152.905,-9.0445],[152.8499,-9.0244],[152.8102,-8.9672],[152.6891,-8.9746],[152.6309,-8.9592],[152.5769,-8.9698],[152.515,-9.01],[152.6383,-9.0582]],[[151.2556,-9.9229],[151.1942,-9.9456],[151.1233,-10.0203],[151.0809,-10.0203],[151.0439,-9.9832],[151.0513,-9.9388],[150.8624,-9.8022],[150.8169,-9.7361],[150.7762,-9.7091],[150.7899,-9.7742],[150.8613,-9.8763],[150.8962,-9.9679],[150.9523,-9.9986],[150.9592,-10.0928],[151.1757,-10.1589],[151.2307,-10.1949],[151.2963,-9.9568],[151.2556,-9.9229]],[[150.7465,-9.4043],[150.6692,-9.4286],[150.5285,-9.3466],[150.4989,-9.3456],[150.4375,-9.3598],[150.4316,-9.3868],[150.4348,-9.435],[150.5084,-9.5361],[150.4951,-9.562],[150.4364,-9.6244],[150.5761,-9.6313],[150.6782,-9.6567],[150.8099,-9.6546],[150.8481,-9.6625],[150.8438,-9.7028],[150.8941,-9.6673],[150.8984,-9.6414],[150.8841,-9.5821],[150.8793,-9.5128],[150.7888,-9.4181],[150.7465,-9.4043]],[[150.2083,-9.2064],[150.1348,-9.2593],[150.1099,-9.362],[150.2728,-9.5006],[150.3311,-9.5186],[150.3454,-9.4937],[150.3681,-9.3964],[150.357,-9.3492],[150.32,-9.2641],[150.2083,-9.2064]],[[147.8466,-5.4906],[147.7948,-5.4922],[147.7826,-5.5223],[147.781,-5.6271],[147.8747,-5.7494],[147.9678,-5.7885],[147.9853,-5.834],[148.0255,-5.8266],[148.0605,-5.7647],[148.0763,-5.6504],[148.0546,-5.6112],[147.8466,-5.4906]]]}}
