{"type":"Feature","properties":{"id":86,"name":"Gulf of Tonkin","featurecla":"gulf","scalerank":4,"wikidataid":"Q212428","source":"Natural Earth 5.2.0-pre ne_10m_geography_marine_polys (public domain)"},"geometry":{"type":"Polygon","coordinates":[[[108.6994,18.5384],[106.5124,17.9034],[106.4843,17.9187],[106.4992,17.9462],[106.4118,18.0531],[106.2393,18.2209],[106.1446,18.2595],[106.0658,18.3161],[105.8885,18.5024],[105.8393,18.5743],[105.8081,18.6458],[105.7441,18.7463],[105.7319,18.7791],[105.6218,18.9664],[105.6393,19.0569],[105.7165,19.1279],[105.7911,19.294],[105.7853,19.3787],[105.8123,19.467],[105.8139,19.5877],[105.9843,19.939],[106.0621,19.9872],[106.1658,19.992],[106.3954,20.2057],[106.5182,20.2888],[106.5727,20.392],[106.5505,20.5264],[106.7531,20.7349],[106.7373,20.8064],[106.6754,20.9603],[106.6833,21.0],[106.7251,21.0],[106.76,20.991],[106.8204,20.9577],[106.886,20.9498],[106.9362,20.9741],[106.9813,20.9715],[107.0193,20.991],[107.0749,20.9995],[107.1119,20.9598],[107.1649,20.9487],[107.3543,21.0551],[107.3733,21.1286],[107.376,21.1942],[107.4099,21.2847],[107.5268,21.3361],[107.6369,21.3678],[107.7073,21.4059],[107.8089,21.4969],[107.9258,21.499],[108.0671,21.526],[108.1454,21.5652],[108.2464,21.5583],[108.3021,21.6218],[108.3248,21.6938],[108.3544,21.6969],[108.383,21.679],[108.4444,21.6075],[108.502,21.6334],[108.5258,21.6715],[108.4925,21.7393],[108.4809,21.8287],[108.4798,21.9044],[108.5936,21.9012],[108.6158,21.8689],[108.5894,21.816],[108.6158,21.7705],[108.6746,21.7245],[108.7439,21.6514],[108.7719,21.6303],[108.8466,21.6345],[108.9217,21.6244],[109.0307,21.6266],[109.1016,21.5906],[109.1334,21.5435],[109.0984,21.4874],[109.0814,21.4403],[109.1487,21.4255],[109.2207,21.4435],[109.3466,21.4541],[109.4355,21.4795],[109.544,21.5382],[109.5218,21.6933],[109.5662,21.6906],[109.5943,21.6721],[109.6869,21.5244],[109.7435,21.5281],[109.7594,21.5599],[109.8298,21.4837],[109.9308,21.4805],[109.9213,21.3763],[109.7795,21.3376],[109.7604,21.2286],[109.681,21.1318],[109.7043,21.053],[109.6625,20.9169],[109.6848,20.8736],[109.726,20.8386],[109.7673,20.781],[109.8054,20.7116],[109.7922,20.6217],[109.861,20.5143],[109.9461,20.4746],[109.9684,20.4481],[109.9837,20.4031],[109.9319,20.3989],[109.8858,20.4132],[109.8827,20.364],[109.9382,20.2952],[109.934,20.2814],[109.8636,20.3026],[109.7578,19.9851],[110.0959,20.002],[110.0832,19.993],[109.9059,19.9629],[109.6514,19.9846],[109.5841,19.9703],[109.5138,19.9041],[109.4181,19.8888],[109.3149,19.9047],[109.2635,19.8824],[109.2191,19.8427],[109.1773,19.7687],[109.2196,19.7576],[109.2768,19.7612],[109.1788,19.6739],[109.0629,19.6136],[108.9026,19.4813],[108.791,19.4184],[108.6936,19.3385],[108.6656,19.304],[108.6502,19.2649],[108.6354,18.9077],[108.6381,18.8664],[108.6761,18.75],[108.701,18.5384],[108.6994,18.5384]]]}}
