{"type":"Feature","properties":{"id":87,"name":"Bay of Fundy","featurecla":"bay","scalerank":4,"wikidataid":"Q181857","source":"Natural Earth 5.2.0-pre ne_10m_geography_marine_polys (public domain)"},"geometry":{"type":"Polygon","coordinates":[[[-67.1866,44.6792],[-66.9871,44.8279],[-66.9913,44.8496],[-67.0141,44.8675],[-67.1067,44.885],[-67.1141,44.9443],[-67.0802,44.9893],[-67.1024,45.0877],[-67.1305,45.139],[-67.1247,45.1692],[-67.0839,45.1438],[-66.9765,45.157],[-66.9188,45.1454],[-66.9082,45.0978],[-66.8722,45.0671],[-66.7071,45.0835],[-66.5108,45.1432],[-66.4399,45.0962],[-66.3521,45.1332],[-66.2515,45.1888],[-66.1436,45.2274],[-66.1076,45.257],[-66.1827,45.3353],[-66.0896,45.3756],[-66.0647,45.401],[-66.0266,45.4174],[-66.0668,45.3597],[-66.1097,45.3168],[-65.9557,45.2226],[-65.8843,45.2226],[-65.5451,45.3375],[-65.2821,45.4729],[-65.0572,45.5444],[-64.8979,45.6259],[-64.7783,45.6386],[-64.5936,45.8137],[-64.6418,45.9132],[-64.6328,45.9465],[-64.5365,45.8666],[-64.482,45.8063],[-64.4042,45.8269],[-64.3148,45.8359],[-64.3513,45.783],[-64.3973,45.756],[-64.5603,45.6253],[-64.8275,45.4756],[-64.9127,45.375],[-64.873,45.3544],[-64.8318,45.3502],[-64.7466,45.3242],[-64.681,45.383],[-64.6,45.4099],[-64.3365,45.3893],[-64.0872,45.411],[-63.9062,45.3782],[-63.6147,45.3941],[-63.3681,45.365],[-63.4602,45.3211],[-63.7486,45.311],[-64.0931,45.2173],[-64.1825,45.147],[-64.1354,45.0231],[-64.2349,45.1141],[-64.3545,45.138],[-64.3656,45.1872],[-64.3587,45.2385],[-64.3402,45.2681],[-64.3306,45.3094],[-64.4481,45.3375],[-64.4069,45.3057],[-64.4486,45.256],[-64.7513,45.1803],[-64.9027,45.121],[-65.6567,44.7601],[-65.6922,44.7385],[-65.7282,44.6972],[-65.5869,44.7284],[-65.5022,44.7601],[-65.5202,44.7326],[-65.616,44.6802],[-65.6816,44.6511],[-65.7779,44.6464],[-65.9171,44.6152],[-66.0219,44.5617],[-66.0907,44.5051],[-66.1251,44.4696],[-66.1462,44.4358],[-65.942,44.5755],[-65.8679,44.5686],[-66.0997,44.3675],[-66.1917,44.1468],[-67.1866,44.6792]]]}}
