{"type":"Feature","properties":{"id":88,"name":"Río de la Plata","featurecla":"gulf","scalerank":4,"wikidataid":"Q35827","source":"Natural Earth 5.2.0-pre ne_10m_geography_marine_polys (public domain)"},"geometry":{"type":"Polygon","coordinates":[[[-54.9189,-34.9625],[-56.7509,-36.3362],[-56.7503,-36.3463],[-56.9371,-36.3527],[-57.0763,-36.2965],[-57.2652,-36.1442],[-57.3356,-36.0267],[-57.3753,-35.9002],[-57.3541,-35.7203],[-57.1589,-35.506],[-57.1705,-35.3625],[-57.3039,-35.1885],[-57.5478,-35.0192],[-57.7637,-34.8948],[-58.2833,-34.6837],[-58.4188,-34.5318],[-58.4664,-34.4572],[-58.5257,-34.2963],[-58.4754,-34.263],[-58.4357,-34.2524],[-58.3923,-34.1931],[-58.4093,-34.0608],[-58.4294,-33.9909],[-58.4564,-33.8983],[-58.5305,-33.7528],[-58.5474,-33.6634],[-58.4548,-33.2861],[-58.4246,-33.1115],[-58.3759,-33.0718],[-58.3087,-33.0829],[-58.2505,-33.0781],[-58.2008,-33.0147],[-58.1711,-32.9591],[-58.2198,-32.5638],[-58.2013,-32.4717],[-58.1622,-32.5664],[-58.1293,-32.7575],[-58.0823,-32.8935],[-58.0928,-32.9675],[-58.1537,-33.0649],[-58.2214,-33.1289],[-58.2923,-33.138],[-58.3638,-33.1824],[-58.3532,-33.2602],[-58.4114,-33.5089],[-58.4384,-33.719],[-58.4003,-33.9127],[-58.2071,-34.109],[-57.9611,-34.3069],[-57.9023,-34.3899],[-57.8732,-34.4477],[-57.8293,-34.4773],[-57.5436,-34.4482],[-57.1705,-34.4524],[-56.8551,-34.6767],[-56.463,-34.7752],[-56.3879,-34.8609],[-56.2497,-34.9011],[-56.1947,-34.9064],[-56.118,-34.908],[-55.8629,-34.8112],[-55.673,-34.7757],[-55.3708,-34.8075],[-55.238,-34.8959],[-55.0951,-34.8953],[-54.9125,-34.9308],[-54.9189,-34.9625]]]}}
