{"type":"Feature","properties":{"id":89,"name":"Strait of Malacca","featurecla":"strait","scalerank":4,"wikidataid":"Q48359","source":"Natural Earth 5.2.0-pre ne_10m_geography_marine_polys (public domain)"},"geometry":{"type":"Polygon","coordinates":[[[102.9072,0.6859],[102.8495,0.7155],[102.5664,0.7488],[102.469,0.7795],[102.3902,0.842],[102.2389,0.9901],[102.2235,1.0187],[102.1981,1.1415],[102.1573,1.2589],[102.0981,1.3579],[102.0197,1.442],[101.7848,1.6214],[101.6843,1.6611],[101.5752,1.6706],[101.4768,1.6929],[101.4049,1.7574],[101.3578,1.8871],[101.3006,2.0119],[101.225,2.1024],[101.0461,2.2575],[100.936,2.2945],[100.8773,2.2834],[100.8281,2.2427],[100.8175,2.194],[100.817,2.14],[100.8768,2.0506],[100.8879,1.9484],[100.817,1.9892],[100.6852,2.1199],[100.6037,2.1368],[100.5238,2.1892],[100.4572,2.2575],[100.401,2.3316],[100.3529,2.4115],[100.3074,2.4665],[100.1275,2.6475],[100.0211,2.794],[99.9692,2.8951],[99.9068,2.9883],[99.7322,3.183],[99.5216,3.311],[99.1511,3.5815],[98.8685,3.7106],[98.7781,3.7593],[98.7056,3.8349],[98.6866,3.8857],[98.6585,3.9281],[98.5283,3.9974],[98.3072,4.0926],[98.2415,4.1948],[98.2733,4.3223],[98.2484,4.4144],[98.0209,4.635],[97.9997,4.662],[97.9664,4.7774],[97.9082,4.88],[97.7065,5.0404],[97.5875,5.1705],[97.5473,5.206],[97.5002,5.2282],[97.4509,5.2362],[97.1906,5.2076],[97.0858,5.2298],[96.9678,5.269],[96.8429,5.2743],[96.6154,5.2203],[96.4926,5.2293],[96.2508,5.2668],[96.1333,5.2944],[96.0275,5.351],[95.8412,5.5145],[95.7375,5.5791],[95.629,5.6092],[95.5168,5.6246],[95.4507,5.6267],[98.3013,7.7756],[98.3008,7.7777],[98.3156,7.7825],[98.3574,7.8296],[98.3987,7.8285],[98.4093,7.9021],[98.3987,7.9645],[98.4352,8.0857],[98.351,8.1106],[98.323,8.1646],[98.3135,8.2207],[98.3606,8.1868],[98.4209,8.1783],[98.4738,8.2471],[98.4998,8.318],[98.5791,8.3445],[98.6363,8.3048],[98.7035,8.2566],[98.7887,8.0598],[98.8723,8.0238],[98.9739,7.963],[99.0511,7.8878],[99.0427,7.7656],[99.0776,7.718],[99.1834,7.718],[99.2638,7.619],[99.3004,7.5613],[99.3586,7.3724],[99.4353,7.3343],[99.529,7.3295],[99.5967,7.3555],[99.5528,7.2189],[99.6025,7.1555],[99.6676,7.1507],[99.7206,7.1062],[99.6962,6.8766],[99.8687,6.7501],[100.119,6.4421],[100.1582,6.3241],[100.2635,6.1823],[100.3434,5.9844],[100.3741,5.778],[100.3529,5.5875],[100.4735,5.0441],[100.6143,4.6525],[100.6143,4.3736],[100.6609,4.226],[100.7603,4.0974],[100.7953,4.0233],[100.7572,4.0016],[100.7154,3.9662],[100.782,3.8645],[100.8513,3.7767],[101.0249,3.6248],[101.1154,3.4719],[101.3001,3.2534],[101.3303,3.1422],[101.3541,3.011],[101.2953,2.8851],[101.3514,2.839],[101.407,2.8136],[101.5197,2.6835],[101.7811,2.5734],[101.8901,2.4496],[102.1457,2.2485],[102.5484,2.0426],[102.7272,1.8553],[102.8971,1.7923],[103.357,1.5463],[103.3998,1.4976],[103.4273,1.4299],[103.4802,1.3293],[103.5046,1.3304],[103.375,1.1304],[103.3549,1.1171],[103.3152,1.0711],[103.3268,1.0558],[103.3109,1.0319],[103.1522,0.8996],[103.1474,0.8975],[103.0675,1.015],[102.9993,1.0679],[102.7902,1.1653],[102.7257,1.1589],[102.7019,1.0536],[102.7267,1.0414],[102.7881,1.0309],[102.8866,0.997],[102.9638,0.9425],[103.0336,0.8822],[103.0627,0.8637],[103.0067,0.8404],[103.0024,0.8594],[102.9442,0.8928],[102.7802,0.9594],[102.7262,0.9891],[102.6331,1.0541],[102.5495,1.1304],[102.5066,1.0886],[102.4912,0.987],[102.4664,0.9504],[102.4537,0.8896],[102.4902,0.8568],[102.5415,0.8314],[102.7104,0.7843],[102.7765,0.7795],[102.9421,0.743],[102.9072,0.6859]],[[102.4992,1.3309],[102.4918,1.459],[102.4695,1.5103],[102.042,1.6251],[102.024,1.6082],[102.0182,1.5854],[102.0208,1.5585],[102.0785,1.4986],[102.1616,1.4653],[102.2743,1.4531],[102.3669,1.4156],[102.4251,1.3642],[102.4992,1.3309]],[[102.3584,1.3457],[102.2764,1.3955],[102.2563,1.397],[102.2287,1.3479],[102.2341,1.2637],[102.2552,1.1473],[102.2796,1.0759],[102.3251,1.0071],[102.3807,0.9599],[102.4272,0.9901],[102.4288,1.0674],[102.4489,1.1563],[102.4431,1.2341],[102.413,1.2611],[102.3584,1.3457]],[[101.6409,2.1268],[101.5446,2.0606],[101.4504,2.068],[101.4097,2.0215],[101.4033,1.9014],[101.4678,1.7595],[101.5007,1.7331],[101.6028,1.7156],[101.7192,1.7892],[101.734,1.8828],[101.7737,1.9437],[101.7621,1.9966],[101.7081,2.0786],[101.6409,2.1268]]]}}
