{"type":"Feature","properties":{"id":90,"name":"Strait of Singapore","featurecla":"strait","scalerank":4,"wikidataid":"Q205655","source":"Natural Earth 5.2.0-pre ne_10m_geography_marine_polys (public domain)"},"geometry":{"type":"Polygon","coordinates":[[[104.1407,1.1039],[104.1317,1.1065],[104.1375,1.1283],[104.1396,1.1658],[104.0883,1.1372],[104.0248,1.1806],[103.9999,1.1372],[103.9554,1.1372],[103.9481,1.0922],[103.4295,1.0494],[103.4236,1.0483],[103.4051,1.0726],[103.3797,1.1335],[103.375,1.1304],[103.5046,1.3304],[103.5496,1.333],[103.6946,1.4494],[103.8168,1.4764],[103.9152,1.4468],[103.9915,1.4547],[103.9915,1.55],[103.9814,1.6235],[104.0158,1.5791],[104.0761,1.5299],[104.1004,1.4881],[104.0941,1.4463],[104.1148,1.4124],[104.1767,1.3648],[104.2502,1.3886],[104.2767,1.4124],[104.2809,1.4076],[104.4217,1.4076],[104.4894,1.2627],[104.4307,1.1992],[104.4301,1.1954],[104.4285,1.1959],[104.3619,1.1817],[104.2502,1.1028],[104.2475,1.0907],[104.1407,1.1039]],[[103.8179,1.4473],[103.7052,1.4235],[103.6501,1.3256],[103.82,1.2653],[103.9698,1.3314],[103.9962,1.3653],[103.9608,1.3923],[103.9089,1.4161],[103.8179,1.4473]]]}}
