{"type":"Feature","properties":{"id":91,"name":"Makassar Strait","featurecla":"strait","scalerank":4,"wikidataid":"Q194477","source":"Natural Earth 5.2.0-pre ne_10m_geography_marine_polys (public domain)"},"geometry":{"type":"Polygon","coordinates":[[[120.8528,1.2875],[120.8761,1.2595],[120.8682,1.2526],[120.8036,1.1494],[120.7549,1.0356],[120.711,0.9864],[120.6591,0.9436],[120.6263,0.9023],[120.6025,0.8547],[120.5168,0.8176],[120.4162,0.8488],[120.3665,0.8874],[120.3226,0.9832],[120.294,0.979],[120.2697,0.9705],[120.23,0.861],[120.1564,0.7742],[120.1009,0.7404],[120.0564,0.6927],[120.0496,0.6525],[120.0352,0.5666],[119.9981,0.5202],[119.9132,0.4451],[119.8093,0.2387],[119.8117,0.1869],[119.8656,0.0401],[119.8383,-0.0221],[119.7865,-0.057],[119.7359,-0.051],[119.7218,-0.0885],[119.7717,-0.4836],[119.8298,-0.6863],[119.8452,-0.7732],[119.8443,-0.8619],[119.7867,-0.7639],[119.7114,-0.6807],[119.6535,-0.7279],[119.5082,-0.9067],[119.3592,-1.2434],[119.309,-1.4082],[119.3104,-1.4957],[119.3241,-1.5842],[119.3083,-1.6596],[119.3482,-1.8253],[119.3218,-1.9296],[119.2408,-2.0309],[119.1723,-2.14],[119.1382,-2.2585],[119.1353,-2.3823],[119.0922,-2.4829],[118.9581,-2.5974],[118.9075,-2.6314],[118.8533,-2.6502],[118.809,-2.6824],[118.7833,-2.7208],[118.7837,-2.7647],[118.829,-2.8501],[118.8581,-2.9285],[118.8218,-3.0406],[118.8125,-3.1567],[118.8328,-3.2802],[118.8677,-3.3981],[118.9222,-3.4827],[118.9946,-3.5376],[119.24,-3.4753],[119.3622,-3.459],[119.4198,-3.4754],[119.4675,-3.513],[119.4945,-3.5541],[119.492,-3.6078],[119.4793,-3.6674],[119.4801,-3.7297],[119.4936,-3.7686],[119.6114,-3.9998],[119.6236,-4.0343],[119.6117,-4.4236],[119.5941,-4.5232],[119.5449,-4.6308],[119.5155,-4.7419],[119.5196,-4.8774],[119.4336,-5.0792],[119.3907,-5.2006],[119.3616,-5.3202],[116.1802,-3.9772],[116.3033,-3.8681],[116.2893,-3.8209],[116.3186,-3.763],[116.3052,-3.7186],[116.282,-3.5347],[116.2952,-3.495],[116.2865,-3.4488],[116.2621,-3.3948],[116.2697,-3.2511],[116.2572,-3.1264],[116.1723,-3.0253],[116.1541,-2.9838],[116.1663,-2.9345],[116.2258,-2.9769],[116.2889,-2.9588],[116.3306,-2.9022],[116.3532,-2.8327],[116.3717,-2.7068],[116.3755,-2.578],[116.3072,-2.6033],[116.3168,-2.5519],[116.3525,-2.5216],[116.4013,-2.5198],[116.4504,-2.5382],[116.5294,-2.5105],[116.5492,-2.4109],[116.5654,-2.2997],[116.5281,-2.2079],[116.4181,-2.1867],[116.3686,-2.1582],[116.314,-2.1399],[116.4235,-2.0526],[116.4519,-1.9231],[116.4296,-1.8641],[116.4243,-1.7849],[116.3532,-1.7787],[116.2755,-1.7849],[116.2996,-1.7443],[116.3322,-1.7125],[116.4779,-1.6328],[116.5176,-1.5981],[116.5451,-1.5531],[116.5545,-1.4739],[116.6116,-1.4286],[116.7152,-1.3758],[116.7534,-1.3273],[116.771,-1.2666],[116.7593,-1.2072],[116.7287,-1.1508],[116.7261,-1.0982],[116.7399,-1.0442],[116.7606,-1.1171],[116.797,-1.1838],[116.8494,-1.2183],[116.9139,-1.2236],[117.0032,-1.1877],[117.0702,-1.1126],[117.1465,-1.009],[117.2407,-0.9257],[117.3571,-0.8672],[117.5217,-0.7967],[117.5625,-0.7709],[117.5738,-0.7275],[117.5569,-0.6753],[117.5489,-0.5544],[117.4629,-0.3237],[117.4638,-0.2005],[117.5222,0.2359],[117.5534,0.341],[117.7451,0.7296],[117.7769,0.754],[117.8526,0.7887],[117.9231,0.8314],[117.9643,0.8896],[117.9773,0.9638],[117.9519,1.032],[117.9116,1.0987],[118.0163,1.0392],[118.0955,0.9291],[118.1961,0.8744],[118.3115,0.8471],[118.5348,0.8135],[118.5869,0.8192],[118.7573,0.8393],[118.8923,0.8869],[118.9579,0.9542],[120.8528,1.2875]]]}}
