{"type":"Feature","properties":{"id":92,"name":"Ceram Sea","featurecla":"sea","scalerank":4,"wikidataid":"Q210855","source":"Natural Earth 5.2.0-pre ne_10m_geography_marine_polys (public domain)"},"geometry":{"type":"Polygon","coordinates":[[[125.8936,-1.9108],[125.9566,-1.9166],[126.2879,-1.8589],[126.3318,-1.8229],[126.3249,-1.8224],[126.4091,-1.8166],[127.397,-1.57],[127.4171,-1.5414],[127.3949,-1.5896],[127.3923,-1.6446],[127.4579,-1.6964],[127.5616,-1.7287],[127.741,-1.6906],[127.914,-1.6853],[128.0611,-1.7123],[128.0918,-1.7012],[128.1532,-1.6605],[128.149,-1.6038],[128.095,-1.57],[129.1962,-1.1816],[129.9016,-1.2525],[130.5884,-1.3811],[130.9864,-1.4552],[130.9959,-1.4245],[131.0567,-1.4478],[131.1176,-1.4552],[131.1789,-1.4483],[131.2409,-1.4297],[131.2938,-1.3932],[131.7314,-1.5414],[131.8299,-1.5568],[131.9304,-1.5594],[131.9362,-1.715],[131.9981,-1.9324],[132.0235,-1.9902],[132.0801,-2.033],[132.1219,-2.0923],[132.2072,-2.1759],[132.3076,-2.242],[132.4035,-2.2404],[132.5024,-2.2182],[132.631,-2.2468],[132.8632,-2.2701],[132.9628,-2.2727],[133.2247,-2.2145],[133.3565,-2.2156],[133.4877,-2.2256],[133.7105,-2.1891],[133.9216,-2.1018],[133.9206,-2.1473],[133.9026,-2.1838],[133.8497,-2.2198],[133.7909,-2.2939],[133.8989,-2.3045],[133.9047,-2.3907],[133.8777,-2.415],[133.8349,-2.4214],[133.7534,-2.4505],[133.711,-2.5442],[133.6999,-2.6246],[133.6517,-2.6008],[133.6089,-2.5473],[133.5264,-2.5415],[133.4115,-2.514],[133.2649,-2.4542],[133.1909,-2.4378],[133.1189,-2.4505],[133.0337,-2.4875],[132.8972,-2.658],[132.7252,-2.7892],[132.6527,-2.7664],[132.5755,-2.7273],[132.3235,-2.6844],[132.2304,-2.6802],[132.0669,-2.7596],[131.9711,-2.7887],[132.0066,-2.8558],[132.0537,-2.9146],[132.1018,-2.9294],[132.2547,-2.9437],[132.3484,-2.9749],[132.5537,-3.1305],[132.7517,-3.2945],[132.83,-3.4131],[132.8696,-3.5512],[132.7538,-3.7036],[132.7908,-3.8279],[132.8368,-3.9491],[132.8702,-4.0074],[132.9147,-4.0571],[132.9686,-4.0946],[133.085,-4.0693],[133.1977,-4.0703],[133.2485,-4.0623],[133.4009,-3.8988],[133.4221,-3.8428],[133.4073,-3.7851],[133.4089,-3.774],[133.5353,-4.2158],[133.5311,-4.2285],[133.4644,-4.1999],[133.321,-4.1111],[133.3332,-4.1698],[133.503,-4.2576],[133.5194,-4.2635],[133.1581,-5.3355],[133.1385,-5.3181],[133.1146,-5.3107],[133.1141,-5.3122],[131.8066,-4.4275],[131.2419,-4.1449],[130.7482,-3.8629],[130.7609,-3.8364],[130.8049,-3.8576],[130.8599,-3.5702],[130.8456,-3.5332],[130.7737,-3.4189],[130.718,-3.4115],[130.671,-3.3914],[130.6419,-3.312],[130.6254,-3.2279],[130.5699,-3.131],[130.3788,-2.9892],[130.3037,-2.9786],[130.1031,-2.9929],[129.9841,-2.9765],[129.7544,-2.8659],[129.6004,-2.8061],[129.5427,-2.7903],[129.4841,-2.786],[129.4274,-2.7908],[129.3714,-2.8204],[129.2798,-2.8892],[129.1745,-2.9337],[129.1163,-2.9368],[129.0745,-2.895],[129.0575,-2.8384],[128.9909,-2.8284],[128.911,-2.8495],[128.7903,-2.8569],[128.5697,-2.8421],[128.1987,-2.8659],[128.1955,-2.8686],[128.1728,-2.84],[127.7494,-2.8045],[126.8324,-2.9104],[125.9857,-3.0516],[126.0212,-2.4542],[126.0381,-2.4696],[126.055,-2.4511],[126.0656,-2.3658],[125.9762,-2.1679],[125.9926,-2.0118],[125.963,-1.9758],[125.9227,-1.9748],[125.9122,-1.988],[125.8936,-1.9108]],[[130.1995,-1.7325],[130.1058,-1.7303],[129.9936,-1.7589],[129.7375,-1.8669],[129.7544,-1.8944],[129.8862,-1.9864],[130.0931,-2.0282],[130.1333,-2.0637],[130.2481,-2.0478],[130.2842,-2.0092],[130.3392,-1.9817],[130.3725,-1.9917],[130.4191,-1.9711],[130.3932,-1.9415],[130.3804,-1.9028],[130.4043,-1.8896],[130.4249,-1.8044],[130.3656,-1.7499],[130.3535,-1.6906],[130.318,-1.6922],[130.1995,-1.7325]]]}}
