{"type":"Feature","properties":{"id":93,"name":"Korea Strait","featurecla":"strait","scalerank":4,"wikidataid":"Q52052","source":"Natural Earth 5.2.0-pre ne_10m_geography_marine_polys (public domain)"},"geometry":{"type":"Polygon","coordinates":[[[129.5618,35.9474],[129.5707,36.0296],[129.6002,36.056],[130.206,35.5799],[130.6172,35.0174],[130.8335,34.5089],[130.8944,34.2754],[130.889,34.262],[130.9186,33.9757],[130.9372,33.9831],[130.9377,33.9826],[130.8593,33.9101],[130.8398,33.9181],[130.7154,33.9276],[130.6694,33.9154],[130.4836,33.8344],[130.4572,33.7889],[130.4392,33.7344],[130.3651,33.6344],[130.2751,33.5979],[130.1683,33.5984],[130.1307,33.5783],[130.1031,33.5397],[130.0719,33.5217],[129.919,33.4836],[129.8259,33.437],[129.8364,33.4037],[129.8576,33.3751],[129.8444,33.3217],[129.7021,33.3598],[129.6597,33.3651],[129.61,33.3439],[129.5803,33.2365],[129.665,33.1867],[129.7989,33.0836],[129.8968,33.0222],[129.9217,32.9878],[129.9915,32.8518],[129.901,32.8518],[129.8285,32.8925],[129.7777,32.9857],[129.6788,33.0597],[129.6624,32.9952],[129.6571,32.9952],[129.0194,32.5084],[128.6972,32.4496],[128.4199,32.5084],[127.8203,32.6851],[127.0795,32.9317],[126.5964,33.2418],[126.7091,33.2719],[126.8726,33.3412],[126.9054,33.3825],[126.9314,33.4439],[126.9012,33.5153],[126.7599,33.5535],[126.6953,33.5492],[126.3604,33.4661],[126.5149,34.3075],[126.5297,34.317],[126.5313,34.3144],[126.5842,34.3176],[126.6106,34.4033],[126.7546,34.5118],[126.7964,34.4943],[126.826,34.4509],[126.8975,34.4388],[127.0308,34.607],[127.2473,34.7552],[127.2684,34.7203],[127.2605,34.6615],[127.1949,34.6049],[127.1737,34.5462],[127.3245,34.4631],[127.3806,34.5007],[127.4012,34.5525],[127.479,34.625],[127.4235,34.6885],[127.3896,34.743],[127.4044,34.8229],[127.4769,34.8441],[127.5235,34.8398],[127.5653,34.7658],[127.6325,34.6901],[127.7156,34.7208],[127.7421,34.7827],[127.6627,34.8436],[127.6394,34.8896],[127.659,34.9261],[127.715,34.9547],[127.8733,34.9663],[127.9765,35.0187],[128.0362,35.0219],[128.0944,34.9335],[128.1522,34.9161],[128.276,34.9108],[128.3876,34.8753],[128.4442,34.8706],[128.448,34.9319],[128.4189,35.0155],[128.4579,35.0695],[128.5108,35.1007],[128.6427,35.1198],[128.7956,35.0939],[128.9803,35.1013],[129.0766,35.123],[129.2142,35.1817],[129.329,35.333],[129.419,35.4976],[129.4856,35.6876],[129.5618,35.9474]],[[129.3221,34.5795],[129.3296,34.5218],[129.2666,34.3705],[129.2973,34.3398],[129.3655,34.3054],[129.3856,34.3536],[129.3814,34.4165],[129.4756,34.5403],[129.4692,34.6155],[129.4803,34.6494],[129.4724,34.6716],[129.4513,34.6864],[129.3258,34.6076],[129.3221,34.5795]],[[128.7903,32.6369],[128.8215,32.6465],[128.8945,32.6523],[128.8792,32.6936],[128.8385,32.7629],[128.8062,32.7761],[128.7612,32.7724],[128.7041,32.757],[128.6654,32.784],[128.649,32.6618],[128.6575,32.6285],[128.693,32.6047],[128.7506,32.5861],[128.7903,32.6369]],[[128.5194,34.8197],[128.6469,34.7367],[128.7411,34.7986],[128.722,35.0134],[128.6681,35.0087],[128.586,34.9324],[128.4892,34.8653],[128.5194,34.8197]],[[127.9659,34.8928],[127.9155,34.9208],[127.832,34.8743],[127.8383,34.8134],[127.8733,34.7351],[127.8971,34.7356],[127.9415,34.7663],[127.9838,34.7033],[128.0547,34.7081],[128.0659,34.806],[128.0378,34.8785],[127.9659,34.8928]]]}}
