{"type":"Feature","properties":{"id":94,"name":"Inner Sea","featurecla":"sea","scalerank":4,"wikidataid":"Q231312","source":"Natural Earth 5.2.0-pre ne_10m_geography_marine_polys (public domain)"},"geometry":{"type":"Polygon","coordinates":[[[132.495,32.8957],[132.0045,32.8941],[132.0087,32.919],[131.9103,32.9735],[131.9372,33.01],[131.9494,33.047],[131.9029,33.0878],[131.8478,33.118],[131.8547,33.1814],[131.8965,33.2545],[131.7171,33.2518],[131.5372,33.274],[131.6155,33.392],[131.7108,33.5021],[131.724,33.554],[131.6965,33.6027],[131.6431,33.6376],[131.5833,33.6524],[131.4991,33.6238],[131.4187,33.5847],[131.3658,33.5709],[131.3091,33.5725],[131.1747,33.6027],[131.0583,33.673],[131.0091,33.7757],[130.953,33.872],[130.8593,33.9101],[130.9377,33.9826],[130.9372,33.9831],[130.9964,34.0075],[131.0721,34.0207],[131.1504,33.9757],[131.2324,33.9482],[131.3229,33.9651],[131.408,34.0038],[131.4763,34.0191],[131.7404,34.0519],[131.7632,34.0451],[132.0902,33.8556],[132.1463,33.8387],[132.1595,33.944],[132.2018,34.0318],[132.2379,34.2271],[132.3124,34.325],[132.4215,34.3536],[132.5347,34.2869],[132.6564,34.2461],[132.7744,34.2551],[133.0189,34.3297],[133.1422,34.3022],[133.2099,34.344],[133.3359,34.3853],[133.4453,34.4329],[133.4745,34.4303],[133.5788,34.4647],[133.6782,34.4859],[133.8766,34.4948],[133.9682,34.5271],[134.0746,34.5933],[134.2084,34.6975],[134.247,34.7139],[134.3624,34.7234],[134.4725,34.7546],[134.5837,34.7705],[134.7403,34.7652],[134.7852,34.7472],[134.9297,34.662],[135.0297,34.634],[135.0419,34.6308],[135.1985,34.6531],[135.3551,34.6541],[135.416,34.6176],[135.4118,34.5467],[135.3847,34.5007],[135.3091,34.417],[135.2657,34.3811],[135.1318,34.3165],[135.1001,34.2885],[135.1356,34.1826],[135.1281,34.0069],[135.171,33.908],[134.736,33.8217],[134.6746,33.8477],[134.6953,33.9276],[134.6556,33.9826],[134.6355,34.044],[134.6376,34.2265],[134.4958,34.2149],[134.3577,34.2562],[134.219,34.3191],[134.0756,34.3583],[133.948,34.3483],[133.8254,34.307],[133.7063,34.2371],[133.6555,34.2329],[133.6026,34.244],[133.6433,34.1345],[133.6269,34.0694],[133.5819,34.017],[133.4718,33.9726],[133.3496,33.9768],[133.2988,33.9689],[133.1929,33.9334],[133.1337,33.927],[133.0511,33.9969],[132.9903,34.0879],[132.9353,34.0953],[132.8395,34.0212],[132.7845,33.9927],[132.7522,33.9064],[132.7162,33.8524],[132.6988,33.791],[132.6431,33.69],[132.5363,33.6328],[132.3659,33.5127],[132.2881,33.4693],[132.1146,33.3947],[132.0325,33.3402],[132.086,33.3402],[132.2812,33.4169],[132.3749,33.4339],[132.413,33.4307],[132.405,33.3312],[132.4453,33.3047],[132.5114,33.2931],[132.5151,33.2555],[132.505,33.2111],[132.477,33.1809],[132.476,33.1264],[132.4278,33.0592],[132.4924,33.0079],[132.495,32.9163],[132.495,32.8957]],[[134.9609,34.5451],[134.9043,34.5192],[134.8344,34.4726],[134.7572,34.3684],[134.6678,34.2943],[134.6836,34.2472],[134.7307,34.2091],[134.8244,34.2027],[134.9329,34.2879],[134.9053,34.3985],[135.0049,34.544],[134.9609,34.5451]]]}}
