{"type":"Feature","properties":{"id":95,"name":"Taiwan Strait","featurecla":"strait","scalerank":4,"wikidataid":"Q127031","source":"Natural Earth 5.2.0-pre ne_10m_geography_marine_polys (public domain)"},"geometry":{"type":"Polygon","coordinates":[[[120.0591,23.0543],[117.5191,23.7596],[117.4609,23.7554],[117.4598,23.7713],[117.4333,23.7919],[117.4661,23.8406],[117.5794,23.857],[117.628,23.8369],[117.6677,23.939],[117.7418,24.0147],[117.8391,24.012],[117.9043,24.1062],[118.0562,24.2459],[118.0503,24.3269],[118.0244,24.3798],[117.8789,24.3957],[117.8481,24.4322],[117.8429,24.4745],[117.8969,24.4798],[117.935,24.474],[118.0059,24.4819],[118.0138,24.5597],[118.0869,24.6269],[118.1948,24.6259],[118.2953,24.573],[118.4123,24.6005],[118.5604,24.5804],[118.6573,24.6217],[118.7192,24.746],[118.6917,24.7825],[118.6404,24.809],[118.6367,24.8354],[118.7076,24.8497],[118.8219,24.9111],[118.9092,24.9291],[118.9558,25.0048],[118.9145,25.127],[118.9774,25.209],[119.0245,25.2233],[119.2357,25.2059],[119.2854,25.2323],[119.2637,25.2709],[121.0819,25.0651],[121.0851,25.0593],[121.0406,25.0328],[120.9639,24.928],[120.9015,24.8132],[120.8359,24.7227],[120.7575,24.6423],[120.6295,24.4788],[120.1591,23.7088],[120.1321,23.6527],[120.1252,23.5268],[120.1432,23.3993],[120.121,23.3051],[120.0855,23.2119],[120.0723,23.1495],[120.0834,23.0939],[120.094,23.0775],[120.0591,23.0543]]]}}
