{"type":"Feature","properties":{"id":96,"name":"Cook Inlet","featurecla":"bay","scalerank":4,"wikidataid":"Q1129590","source":"Natural Earth 5.2.0-pre ne_10m_geography_marine_polys (public domain)"},"geometry":{"type":"Polygon","coordinates":[[[-151.9665,59.272],[-153.3285,58.8873],[-153.3391,58.9085],[-153.4185,58.9598],[-153.6566,59.0386],[-153.7879,59.0678],[-153.8995,59.0778],[-154.1297,59.1196],[-154.1784,59.1556],[-154.1387,59.2403],[-154.0673,59.3366],[-154.0884,59.3636],[-153.8143,59.4736],[-153.7524,59.5096],[-153.7143,59.545],[-153.6222,59.5985],[-153.6095,59.6149],[-153.6709,59.635],[-153.6524,59.6472],[-153.4825,59.7207],[-153.4143,59.7403],[-153.3667,59.7297],[-153.3598,59.7176],[-153.3836,59.6673],[-153.364,59.6599],[-153.2359,59.671],[-153.0936,59.7091],[-153.0481,59.7303],[-153.0248,59.7938],[-153.0402,59.8107],[-153.2111,59.8424],[-153.1862,59.8567],[-153.1063,59.8753],[-152.8571,59.898],[-152.7597,59.9208],[-152.6602,59.997],[-152.6285,60.0409],[-152.6301,60.0837],[-152.665,60.125],[-152.7523,60.1774],[-152.893,60.2404],[-153.0311,60.2891],[-153.0248,60.2954],[-152.9232,60.2928],[-152.7978,60.2473],[-152.7274,60.2372],[-152.6539,60.2383],[-152.5411,60.2653],[-152.3687,60.3362],[-152.2914,60.3811],[-152.2602,60.4092],[-152.3051,60.4531],[-152.3067,60.4721],[-152.2708,60.5282],[-151.9961,60.6822],[-151.8659,60.7341],[-151.785,60.7404],[-151.7506,60.7547],[-151.7845,60.833],[-151.7818,60.8579],[-151.7342,60.9108],[-151.5934,60.9796],[-151.4601,61.014],[-151.2817,61.0421],[-151.15,61.086],[-151.0648,61.1458],[-150.9457,61.1982],[-150.6123,61.3014],[-150.5674,61.3066],[-150.533,61.3003],[-150.4716,61.2601],[-150.1091,61.268],[-149.9757,61.2791],[-149.9451,61.2945],[-149.8736,61.3728],[-149.8239,61.4135],[-149.6953,61.4707],[-149.6254,61.486],[-149.4334,61.5009],[-149.3291,61.4972],[-149.5958,61.4172],[-149.7371,61.3633],[-149.8292,61.3077],[-149.8821,61.2638],[-149.8953,61.2315],[-149.9265,61.2135],[-150.0186,61.1945],[-150.053,61.1712],[-149.9678,61.122],[-149.5926,60.9939],[-149.4593,60.9648],[-149.1423,60.9357],[-149.0714,60.8854],[-149.0751,60.8764],[-149.173,60.8807],[-149.6323,60.9521],[-149.8561,60.9622],[-149.9975,60.9352],[-150.1128,60.9331],[-150.2028,60.9553],[-150.2816,60.9855],[-150.3493,61.0225],[-150.4414,61.0236],[-150.7796,60.9151],[-150.9536,60.841],[-151.3219,60.7431],[-151.3563,60.723],[-151.3553,60.66],[-151.3177,60.5536],[-151.3124,60.4663],[-151.396,60.2743],[-151.4516,60.2028],[-151.6119,60.0922],[-151.7347,59.9885],[-151.7834,59.9213],[-151.8532,59.7821],[-151.8167,59.7207],[-151.7638,59.7001],[-151.5125,59.6514],[-151.45,59.6504],[-151.4034,59.662],[-151.0896,59.7895],[-151.0574,59.7821],[-151.0463,59.7715],[-151.1897,59.6377],[-151.2622,59.5858],[-151.3997,59.5165],[-151.5125,59.4826],[-151.6924,59.462],[-151.8501,59.4064],[-151.8844,59.3863],[-151.9315,59.3429],[-151.9638,59.2852],[-151.9585,59.2778],[-151.9665,59.272]]]}}
