{"type":"Feature","properties":{"id":97,"name":"Bristol Bay","featurecla":"bay","scalerank":4,"wikidataid":"Q917872","source":"Natural Earth 5.2.0-pre ne_10m_geography_marine_polys (public domain)"},"geometry":{"type":"Polygon","coordinates":[[[-162.1318,58.6434],[-161.7555,58.6121],[-161.3613,58.6693],[-161.328,58.7439],[-161.2877,58.7608],[-161.247,58.7995],[-161.2158,58.8011],[-160.9242,58.8725],[-160.8173,58.872],[-160.6564,58.955],[-160.5199,59.0074],[-160.3633,59.0514],[-160.2606,58.9714],[-160.1527,58.9058],[-159.9204,58.8201],[-159.832,58.836],[-159.7415,58.8942],[-159.6701,58.9111],[-159.4542,58.7931],[-159.3584,58.7211],[-159.0827,58.4698],[-158.9509,58.4047],[-158.7885,58.4412],[-158.7721,58.5206],[-158.8615,58.719],[-158.8377,58.7942],[-158.7758,58.9027],[-158.8097,58.9741],[-158.7604,58.9503],[-158.6784,58.9291],[-158.5842,58.9878],[-158.5144,59.073],[-158.4228,59.09],[-158.2207,59.0376],[-158.0805,58.9773],[-158.1895,58.9799],[-158.3144,59.0095],[-158.4255,58.9995],[-158.4763,58.9381],[-158.5033,58.8503],[-158.4392,58.7825],[-158.3895,58.7455],[-158.3027,58.6418],[-158.1911,58.6143],[-158.0217,58.6402],[-157.6656,58.7487],[-157.1423,58.8778],[-156.9634,58.9889],[-156.8089,59.1344],[-156.9232,58.9635],[-157.0406,58.7725],[-157.0089,58.7439],[-156.9745,58.7365],[-157.229,58.6407],[-157.4608,58.5031],[-157.5238,58.4211],[-157.5243,58.3507],[-157.4883,58.2539],[-157.3936,58.2348],[-157.3396,58.2343],[-157.1936,58.1941],[-157.4428,58.1724],[-157.555,58.1401],[-157.6111,58.0507],[-157.6211,57.8951],[-157.6841,57.7438],[-157.6973,57.6792],[-157.6804,57.638],[-157.6074,57.6014],[-157.5714,57.5406],[-157.5333,57.5257],[-157.4741,57.5184],[-157.4619,57.5062],[-157.5354,57.4834],[-157.6455,57.4977],[-157.6741,57.5136],[-157.6973,57.5395],[-157.737,57.548],[-157.8455,57.5279],[-157.8942,57.5115],[-158.0455,57.4093],[-158.1334,57.3665],[-158.2244,57.3427],[-158.3207,57.2977],[-158.4736,57.1993],[-158.5858,57.1141],[-158.661,57.0395],[-158.6774,56.9971],[-158.6848,56.9442],[-158.6811,56.8876],[-158.6657,56.8278],[-158.6752,56.795],[-158.7086,56.7886],[-158.7821,56.7955],[-158.8948,56.8167],[-158.9181,56.8474],[-158.9181,56.8823],[-158.9906,56.8601],[-159.1589,56.7701],[-159.2833,56.6886],[-159.7849,56.5616],[-160.0463,56.4373],[-160.1495,56.3965],[-160.3019,56.314],[-160.3776,56.2415],[-160.4607,56.1378],[-160.5146,56.0589],[-160.539,56.0065],[-160.5273,55.9652],[-160.4797,55.9356],[-160.3082,55.8647],[-160.2702,55.8324],[-160.2919,55.8049],[-160.3474,55.8002],[-160.4368,55.8165],[-160.4977,55.8377],[-160.5305,55.8636],[-160.5998,55.8742],[-160.7062,55.8705],[-160.7586,55.8547],[-160.7454,55.7716],[-160.7628,55.7568],[-160.803,55.7546],[-160.8512,55.7721],[-161.0052,55.8869],[-161.0083,55.9118],[-160.9025,55.9414],[-160.8776,55.9705],[-160.8988,55.9938],[-160.9686,55.9695],[-161.1454,55.9515],[-161.1925,55.9541],[-161.2227,55.9774],[-161.1787,56.0145],[-161.2158,56.0213],[-161.438,55.9684],[-162.1318,58.6434]],[[-160.7152,58.7952],[-160.7686,58.7894],[-160.9861,58.7365],[-161.0846,58.6714],[-161.1316,58.6682],[-161.0703,58.5693],[-160.9925,58.5608],[-160.9189,58.5772],[-160.7152,58.7952]]]}}
