{"type":"Feature","properties":{"id":98,"name":"Melville Bay","featurecla":"bay","scalerank":4,"wikidataid":"Q2336534","source":"Natural Earth 5.2.0-pre ne_10m_geography_marine_polys (public domain)"},"geometry":{"type":"Polygon","coordinates":[[[-66.731,75.9741],[-66.6749,75.9773],[-66.8537,76.0498],[-67.0548,76.1519],[-67.0786,76.1948],[-66.9924,76.2128],[-66.8738,76.218],[-66.66,76.1662],[-66.5531,76.1461],[-66.4658,76.1392],[-66.3616,76.1545],[-66.134,76.2196],[-65.9541,76.2419],[-65.8758,76.2382],[-65.7853,76.2154],[-65.6832,76.1725],[-65.5737,76.1445],[-65.4567,76.1297],[-65.3699,76.1307],[-65.3133,76.1466],[-65.0879,76.1514],[-64.9122,76.1725],[-64.6921,76.2164],[-64.5434,76.253],[-64.3873,76.3038],[-64.3074,76.3165],[-64.2232,76.3033],[-64.1354,76.2646],[-63.9602,76.209],[-63.8433,76.217],[-63.6221,76.2779],[-63.439,76.3392],[-63.2914,76.3519],[-63.0056,76.3191],[-62.8236,76.2614],[-62.7426,76.2519],[-62.496,76.2604],[-62.0965,76.2424],[-61.6208,76.1858],[-61.3747,76.18],[-61.1885,76.1577],[-60.8747,76.0974],[-60.173,75.9931],[-59.7174,75.8963],[-59.4454,75.8587],[-59.2634,75.819],[-59.0818,75.7645],[-58.8813,75.7307],[-58.6633,75.7164],[-58.5162,75.6889],[-58.3812,75.6121],[-58.2495,75.5068],[-58.2812,75.4719],[-58.6035,75.3851],[-58.5654,75.3529],[-58.2532,75.2788],[-58.1796,75.2476],[-58.1087,75.2047],[-57.9669,75.1052],[-57.8134,75.0401],[-57.3647,74.9454],[-57.1906,74.8935],[-57.0715,74.8401],[-56.9853,74.7867],[-56.9324,74.7332],[-56.871,74.6951],[-56.8012,74.6718],[-56.5223,74.6141],[-56.2556,74.5268],[-56.3503,74.4903],[-56.4455,74.4861],[-56.6561,74.4575],[-56.7175,74.4295],[-56.6546,74.3781],[-56.6641,74.3294],[-56.6392,74.2786],[-56.7064,74.2194],[-56.9377,74.195],[-57.1123,74.1596],[-57.1975,74.1347],[-66.731,75.9741]]]}}
