{"type":"Feature","properties":{"id":99,"name":"Gulf of Maine","featurecla":"gulf","scalerank":4,"wikidataid":"Q876470","source":"Natural Earth 5.2.0-pre ne_10m_geography_marine_polys (public domain)"},"geometry":{"type":"Polygon","coordinates":[[[-65.7403,43.5595],[-69.9451,41.6857],[-69.934,41.7106],[-69.9414,41.8079],[-69.9779,41.9614],[-70.1092,42.0783],[-70.1599,42.0974],[-70.2033,42.1011],[-70.2409,42.091],[-70.2399,42.0852],[-70.6145,42.6234],[-70.6129,42.6234],[-70.6039,42.6498],[-70.624,42.6715],[-70.6547,42.6742],[-70.697,42.6646],[-70.7357,42.6694],[-70.7812,42.7213],[-70.8002,42.7742],[-70.8288,42.8255],[-70.7775,42.9404],[-70.733,43.07],[-70.6912,43.1092],[-70.6426,43.1345],[-70.5208,43.3489],[-70.3594,43.4801],[-70.2028,43.6261],[-70.2377,43.6563],[-70.2695,43.6717],[-70.179,43.7664],[-70.0626,43.8346],[-69.9652,43.8553],[-69.9747,43.8182],[-69.9742,43.7881],[-69.9255,43.7971],[-69.8726,43.8193],[-69.8403,43.7897],[-69.8086,43.7722],[-69.7917,43.805],[-69.8033,43.8669],[-69.7953,43.9108],[-69.7721,43.8992],[-69.762,43.8606],[-69.7297,43.8521],[-69.699,43.9553],[-69.653,43.9939],[-69.6366,43.9489],[-69.6239,43.8807],[-69.59,43.8865],[-69.5567,43.9828],[-69.5414,43.9627],[-69.5207,43.8976],[-69.481,43.905],[-69.435,43.9563],[-69.3445,44.0008],[-69.226,43.9865],[-69.1371,44.0378],[-69.0683,44.0976],[-69.0635,44.1722],[-68.9561,44.3479],[-68.9614,44.4336],[-68.8476,44.485],[-68.8,44.5495],[-68.763,44.5707],[-68.7656,44.5098],[-68.7947,44.4543],[-68.7772,44.4458],[-68.736,44.4543],[-68.71,44.4426],[-68.7937,44.3818],[-68.8122,44.3395],[-68.7233,44.3421],[-68.6121,44.3103],[-68.5724,44.2707],[-68.5328,44.2585],[-68.5142,44.304],[-68.5217,44.3802],[-68.4793,44.4458],[-68.4508,44.5077],[-68.4169,44.4691],[-68.374,44.4453],[-68.3169,44.4739],[-68.2772,44.5072],[-68.246,44.5146],[-68.1983,44.5151],[-68.1523,44.5019],[-68.1174,44.4908],[-68.0936,44.4389],[-68.0565,44.3844],[-68.0142,44.4008],[-67.9851,44.4204],[-67.9628,44.4643],[-67.9068,44.4537],[-67.839,44.576],[-67.7904,44.5855],[-67.7268,44.5665],[-67.6528,44.5622],[-67.5993,44.577],[-67.5559,44.6448],[-67.458,44.6564],[-67.3638,44.6967],[-67.1913,44.6755],[-67.1866,44.6792],[-66.1917,44.1468],[-66.1933,44.1437],[-66.1928,44.0796],[-66.1256,43.814],[-66.0377,43.742],[-66.0023,43.778],[-65.9785,43.8151],[-65.8869,43.795],[-65.8351,43.7346],[-65.7382,43.5605],[-65.7403,43.5595]]]}}
