{"type":"Feature","properties":{"id":100,"name":"Chesapeake Bay","featurecla":"bay","scalerank":4,"wikidataid":"Q216868","source":"Natural Earth 5.2.0-pre ne_10m_geography_marine_polys (public domain)"},"geometry":{"type":"Polygon","coordinates":[[[-76.0014,36.9126],[-76.1438,36.9306],[-76.2443,36.9528],[-76.3994,36.8898],[-76.4877,36.8973],[-76.5047,36.9613],[-76.6338,37.0475],[-76.6719,37.173],[-76.7655,37.1841],[-76.9254,37.2248],[-77.0021,37.2709],[-77.1963,37.2957],[-77.227,37.3089],[-77.2508,37.3291],[-77.0068,37.3174],[-76.7036,37.2179],[-76.6311,37.2216],[-76.6026,37.1428],[-76.5068,37.0724],[-76.4618,37.0306],[-76.4009,36.9914],[-76.3385,37.0131],[-76.2835,37.0528],[-76.3009,37.111],[-76.3269,37.1491],[-76.4009,37.2126],[-76.4973,37.247],[-76.611,37.3227],[-76.738,37.4486],[-76.756,37.4793],[-76.7576,37.5053],[-76.5385,37.3095],[-76.4539,37.2735],[-76.393,37.2999],[-76.4057,37.3317],[-76.4009,37.3862],[-76.2633,37.3571],[-76.2544,37.4307],[-76.2686,37.4952],[-76.3676,37.5301],[-76.3057,37.5714],[-76.484,37.6291],[-76.5496,37.6693],[-76.62,37.755],[-76.7153,37.8101],[-76.8492,37.9402],[-76.9254,38.0328],[-77.1111,38.1657],[-77.0709,38.1673],[-76.9402,38.0953],[-76.8285,37.9614],[-76.7931,37.9381],[-76.4925,37.682],[-76.4364,37.6704],[-76.3443,37.6757],[-76.3057,37.7217],[-76.293,37.7942],[-76.2618,37.8482],[-76.2644,37.8937],[-76.3549,37.963],[-76.4719,38.0111],[-76.5496,38.0948],[-76.6449,38.1339],[-76.9063,38.1969],[-77.0465,38.3567],[-77.11,38.3699],[-77.2317,38.3403],[-77.273,38.3519],[-77.3138,38.3964],[-77.2836,38.5292],[-77.2603,38.6001],[-77.1645,38.6768],[-77.092,38.7197],[-77.0455,38.7758],[-77.0301,38.889],[-77.018,38.7779],[-77.0539,38.706],[-77.1349,38.6504],[-77.2211,38.5409],[-77.2418,38.4948],[-77.2323,38.4075],[-77.1561,38.3969],[-77.0767,38.4419],[-77.001,38.4451],[-76.9883,38.3937],[-76.9502,38.3472],[-76.8899,38.2921],[-76.8677,38.3371],[-76.8682,38.39],[-76.7692,38.263],[-76.5936,38.2281],[-76.4544,38.1736],[-76.402,38.1249],[-76.3411,38.0868],[-76.3327,38.1408],[-76.3655,38.1969],[-76.4089,38.2683],[-76.6422,38.4546],[-76.6687,38.5377],[-76.6772,38.6118],[-76.6592,38.5795],[-76.647,38.5387],[-76.5724,38.4355],[-76.5099,38.4038],[-76.4385,38.3615],[-76.3941,38.3689],[-76.4163,38.4202],[-76.4586,38.4747],[-76.5015,38.5324],[-76.537,38.7424],[-76.5211,38.7885],[-76.5158,38.8404],[-76.5195,38.8986],[-76.4935,38.9451],[-76.5189,39.0012],[-76.5586,39.0653],[-76.5465,39.0679],[-76.4729,39.0308],[-76.42,39.0737],[-76.4274,39.1261],[-76.4893,39.1589],[-76.574,39.2542],[-76.5703,39.2695],[-76.421,39.225],[-76.4025,39.2526],[-76.4057,39.3039],[-76.3591,39.3245],[-76.3448,39.3648],[-76.347,39.3875],[-76.3306,39.4039],[-76.2766,39.3229],[-76.257,39.3521],[-76.2475,39.4388],[-76.2231,39.4203],[-76.2157,39.3801],[-76.1411,39.4034],[-76.0972,39.433],[-76.0808,39.47],[-76.085,39.5272],[-76.0628,39.5611],[-76.0062,39.5685],[-75.9591,39.5849],[-75.9702,39.5045],[-75.8728,39.5108],[-75.9136,39.4685],[-75.9549,39.4595],[-76.003,39.4108],[-75.939,39.3986],[-75.876,39.3759],[-75.976,39.3674],[-76.0744,39.369],[-76.1533,39.315],[-76.2358,39.1917],[-76.2168,39.0637],[-76.1332,39.1229],[-76.1353,39.0822],[-76.1856,38.9906],[-76.2448,39.0092],[-76.3126,39.0092],[-76.3295,38.9525],[-76.3306,38.9086],[-76.2406,38.943],[-76.1909,38.9155],[-76.1681,38.8525],[-76.247,38.8229],[-76.3004,38.8181],[-76.3411,38.7097],[-76.3083,38.7229],[-76.2782,38.7726],[-76.2131,38.7583],[-76.175,38.7065],[-76.057,38.6213],[-76.0168,38.625],[-76.0009,38.6017],[-76.1131,38.6017],[-76.1983,38.6186],[-76.2644,38.6001],[-76.2951,38.4948],[-76.2644,38.4366],[-76.2115,38.3615],[-76.1163,38.3175],[-76.0512,38.2794],[-76.0205,38.2948],[-76.0067,38.3228],[-75.9855,38.3318],[-75.9676,38.2916],[-75.9374,38.3096],[-75.8887,38.3556],[-75.8585,38.362],[-75.8766,38.3186],[-75.8638,38.2614],[-75.885,38.2138],[-75.9279,38.1694],[-75.8914,38.1471],[-75.8554,38.1403],[-75.7956,38.0868],[-75.8289,38.0328],[-75.8506,37.9715],[-75.7352,37.9736],[-75.659,37.954],[-75.7194,37.8212],[-75.7924,37.7561],[-75.8882,37.619],[-75.975,37.3984],[-75.9972,37.264],[-75.9845,37.2121],[-75.939,37.1576],[-76.0014,36.9126]]]}}
