{"type":"Feature","properties":{"id":101,"name":"Strait of Gibraltar","featurecla":"strait","scalerank":4,"wikidataid":"Q36124","source":"Natural Earth 5.2.0-pre ne_10m_geography_marine_polys (public domain)"},"geometry":{"type":"MultiPolygon","coordinates":[[[[-5.2837,35.8991],[-5.4011,35.927],[-5.4141,35.9209],[-5.3974,35.93],[-5.2856,35.9047],[-5.2837,35.8991]]],[[[-5.4475,36.1496],[-5.4073,36.165],[-5.3677,36.1345],[-5.3815,36.1342],[-5.4074,36.1591],[-5.4434,36.1506],[-5.4511,36.1195],[-5.4475,36.1496]]],[[[-5.6295,35.8282],[-5.63,35.828],[-5.6419,35.8269],[-5.6295,35.8282]]],[[[-5.9249,35.786],[-5.7482,35.8162],[-5.7406,35.8169],[-5.9237,35.7786],[-5.9253,35.7847],[-5.9249,35.786]]],[[[-5.8085,36.0882],[-5.9609,36.1818],[-6.0345,36.1882],[-6.035,36.1898],[-5.9608,36.1836],[-5.8093,36.0908],[-5.7421,36.0655],[-5.8085,36.0882]]]]}}
