{"type":"Feature","properties":{"id":102,"name":"Golfo San Jorge","featurecla":"gulf","scalerank":4,"wikidataid":"Q1536292","source":"Natural Earth 5.2.0-pre ne_10m_geography_marine_polys (public domain)"},"geometry":{"type":"Polygon","coordinates":[[[-65.8441,-47.1646],[-65.8457,-47.1662],[-65.8536,-47.1567],[-65.9986,-47.0937],[-66.6505,-47.0455],[-66.777,-47.0058],[-67.3866,-46.5539],[-67.5067,-46.4428],[-67.5633,-46.3454],[-67.5861,-46.2697],[-67.6088,-46.1666],[-67.5993,-46.0528],[-67.5565,-45.9703],[-67.3929,-45.7755],[-67.2575,-45.5771],[-66.9416,-45.2574],[-66.8823,-45.2278],[-66.5849,-45.1828],[-66.5336,-45.158],[-66.4934,-45.1178],[-66.3478,-45.0336],[-66.1901,-44.9649],[-65.7578,-45.0072],[-65.6446,-45.0077],[-65.8441,-47.1646]]]}}
