{"type":"Feature","properties":{"id":103,"name":"Balearic Sea","featurecla":"sea","scalerank":4,"wikidataid":"Q200712","source":"Natural Earth 5.2.0-pre ne_10m_geography_marine_polys (public domain)"},"geometry":{"type":"Polygon","coordinates":[[[4.2816,39.8161],[3.1836,39.3171],[1.5797,38.6594],[1.5728,38.6599],[1.594,38.6721],[1.5929,38.7017],[1.4971,38.7118],[1.4363,38.7684],[1.4173,38.7398],[1.4019,38.7112],[1.4056,38.671],[1.5051,38.671],[1.5628,38.6604],[0.2282,38.7403],[0.2018,38.7594],[0.1552,38.8245],[-0.0343,38.8912],[-0.1338,38.9695],[-0.2052,39.0626],[-0.329,39.4171],[-0.3269,39.5198],[-0.075,39.8759],[0.043,40.014],[0.1584,40.1066],[0.3637,40.3189],[0.596,40.6147],[0.6272,40.6221],[0.66,40.6136],[0.7209,40.6305],[0.859,40.6861],[0.8912,40.7226],[0.796,40.8036],[0.7145,40.8226],[0.8172,40.8914],[1.0331,41.0623],[1.2061,41.0978],[1.5664,41.1957],[2.0824,41.2872],[2.1454,41.3206],[2.311,41.4666],[3.0048,41.7677],[3.1471,41.8608],[3.2482,41.9444],[3.2471,41.9614],[3.272,41.963],[4.1282,40.0575],[4.0594,40.0749],[3.8535,40.0633],[3.8456,40.0363],[3.8429,39.9765],[3.8673,39.9585],[3.9679,39.9458],[4.2753,39.8304],[4.2816,39.8161]],[[2.4994,39.478],[2.5761,39.5309],[2.6343,39.5563],[2.7005,39.542],[2.746,39.5103],[2.7698,39.4103],[2.8,39.3849],[2.9,39.3685],[3.073,39.3013],[3.1545,39.333],[3.2445,39.3865],[3.2932,39.4769],[3.3487,39.5558],[3.4149,39.6272],[3.4619,39.6976],[3.4487,39.7611],[3.3958,39.7775],[3.3424,39.7865],[3.2413,39.7569],[3.1455,39.7902],[3.1588,39.8368],[3.191,39.8617],[3.1984,39.8897],[3.1672,39.9077],[3.1645,39.9241],[3.1974,39.9611],[3.1588,39.9707],[2.9047,39.9082],[2.7851,39.8548],[2.3714,39.6129],[2.3703,39.5722],[2.3941,39.5405],[2.4586,39.5304],[2.4994,39.478]],[[1.4088,38.8573],[1.4453,38.9187],[1.4945,38.9324],[1.6236,39.0388],[1.6131,39.0875],[1.5644,39.1208],[1.3485,39.0806],[1.3024,39.0314],[1.2998,38.9817],[1.2564,38.9732],[1.2236,38.9039],[1.2569,38.879],[1.4088,38.8573]]]}}
