{"type":"Feature","properties":{"id":104,"name":"Aegean Sea","featurecla":"sea","scalerank":4,"wikidataid":"Q34575","source":"Natural Earth 5.2.0-pre ne_10m_geography_marine_polys (public domain)"},"geometry":{"type":"Polygon","coordinates":[[[26.1849,39.9918],[26.1849,39.9913],[26.1812,39.9902],[26.15,39.8728],[26.1547,39.6569],[26.1013,39.569],[26.096,39.5209],[26.1129,39.4674],[26.3505,39.4844],[26.4839,39.5209],[26.8268,39.5627],[26.8993,39.5494],[26.9109,39.5171],[26.8135,39.4193],[26.7109,39.3399],[26.6818,39.2923],[26.7193,39.2605],[26.8537,39.1155],[26.8495,39.0568],[26.8083,39.0139],[26.8151,38.961],[26.8665,38.9229],[26.9205,38.934],[26.9702,38.9192],[27.0136,38.8869],[26.9093,38.7758],[26.7903,38.7361],[26.7638,38.7097],[26.7876,38.6604],[26.7956,38.6266],[26.8379,38.5578],[26.9067,38.4816],[26.9702,38.4477],[27.1443,38.4519],[27.0987,38.416],[26.8617,38.3731],[26.7696,38.3885],[26.7273,38.4186],[26.6966,38.4054],[26.6744,38.3355],[26.641,38.3525],[26.595,38.4186],[26.6103,38.4869],[26.5865,38.5572],[26.5135,38.6292],[26.4415,38.6414],[26.3781,38.6239],[26.3722,38.562],[26.4294,38.4408],[26.4167,38.3678],[26.3436,38.3699],[26.2907,38.2773],[26.333,38.2424],[26.4278,38.2144],[26.5246,38.1625],[26.5823,38.1493],[26.6209,38.1762],[26.6828,38.1985],[26.8072,38.1382],[26.8786,38.0551],[26.9437,38.063],[27.1586,37.9868],[27.2321,37.9789],[27.2549,37.8825],[27.2242,37.7254],[27.0781,37.6878],[27.0681,37.6576],[27.148,37.6037],[27.2041,37.4915],[27.2194,37.3894],[27.2898,37.3486],[27.376,37.3407],[27.4004,37.3068],[27.52,37.2491],[27.5353,37.164],[27.3681,37.1222],[27.3004,37.1269],[27.2496,37.0793],[27.2628,36.9766],[27.311,36.9819],[27.3491,37.0195],[27.6687,37.0073],[28.1338,37.0295],[28.2423,37.029],[28.2243,36.9962],[28.083,36.9205],[28.0052,36.8322],[27.9343,36.8094],[27.6306,36.7867],[27.5544,36.7592],[27.4671,36.7464],[27.4665,36.7448],[27.3041,36.8507],[27.1929,36.8089],[27.1511,36.7777],[27.0337,36.7708],[26.9495,36.7269],[26.9183,36.7258],[26.9463,36.7623],[26.4542,36.5919],[26.4606,36.5856],[26.3817,36.5618],[26.3314,36.5115],[26.2701,36.5469],[26.2701,36.5904],[25.4001,36.7057],[25.3816,36.6739],[25.3642,36.6586],[25.2885,36.7216],[25.2752,36.739],[24.7403,36.9343],[24.7207,36.9216],[24.7027,36.9168],[24.6763,36.9592],[24.6736,36.9771],[24.5069,37.1185],[24.4863,37.11],[24.4249,37.1322],[24.4413,37.1867],[24.4439,37.1883],[24.4011,37.3158],[24.3984,37.3248],[24.3789,37.3142],[24.3894,37.3534],[24.3307,37.5471],[24.3222,37.5524],[24.2889,37.528],[24.2809,37.5767],[24.056,37.7122],[24.0624,37.7746],[24.0614,37.818],[24.0328,37.955],[24.0243,38.1397],[24.0052,38.227],[23.9671,38.2752],[23.8359,38.3255],[23.6841,38.3525],[23.5698,38.4895],[23.3692,38.5255],[23.2528,38.661],[23.1379,38.6678],[23.0205,38.7419],[22.7739,38.8001],[22.6876,38.8494],[22.6342,38.8509],[22.5691,38.8673],[22.5966,38.8906],[22.677,38.8991],[22.8025,38.9017],[22.9305,38.9478],[23.0665,39.0377],[22.9655,39.0308],[22.939,39.1113],[22.8861,39.17],[22.8389,39.2584],[22.9215,39.3065],[22.9929,39.3309],[23.1618,39.2579],[23.1686,39.2102],[23.1194,39.133],[23.1549,39.1012],[23.2184,39.1044],[23.3279,39.1748],[23.2882,39.2886],[23.2332,39.3584],[23.1035,39.4923],[22.9787,39.5637],[22.9189,39.6288],[22.8358,39.8008],[22.5924,40.0368],[22.5691,40.1194],[22.6056,40.2765],[22.6426,40.3665],[22.6246,40.4284],[22.6294,40.4956],[22.7422,40.5363],[22.8115,40.5787],[22.922,40.5908],[22.8929,40.5242],[22.8511,40.4908],[22.8967,40.3998],[23.0983,40.3046],[23.312,40.2162],[23.3284,40.0897],[23.3957,39.9897],[23.6274,39.9241],[23.6576,39.9347],[23.674,39.959],[23.4671,40.0738],[23.4332,40.1156],[23.3867,40.222],[23.4264,40.2638],[23.6645,40.2236],[23.8354,40.0225],[23.947,39.9654],[23.982,39.9939],[24.0005,40.0246],[23.9677,40.1146],[23.9174,40.1553],[23.8237,40.2051],[23.7205,40.286],[23.728,40.3299],[23.8232,40.3681],[23.9132,40.3585],[24.056,40.3035],[24.1587,40.2802],[24.2322,40.2151],[24.3434,40.1479],[24.2926,40.2416],[24.2127,40.3278],[24.0307,40.4093],[23.9322,40.4056],[23.8666,40.4183],[23.8322,40.4813],[23.8788,40.5443],[23.7788,40.6279],[23.7433,40.6771],[23.7629,40.748],[23.946,40.7485],[24.0825,40.7242],[24.2344,40.7861],[24.3836,40.9126],[24.4773,40.9475],[24.5567,40.9353],[24.6789,40.8697],[24.7932,40.8575],[25.0049,40.9676],[25.1043,40.9946],[25.2499,40.9327],[25.3255,40.9433],[25.497,40.8877],[25.8558,40.8443],[26.0108,40.7692],[26.0389,40.7268],[26.0679,40.6834],[26.1055,40.6115],[26.2241,40.6178],[26.3611,40.6062],[26.578,40.6247],[26.7918,40.6268],[26.7204,40.5443],[26.4474,40.4448],[26.3553,40.3903],[26.2537,40.3146],[26.2526,40.2479],[26.26,40.2024],[26.2262,40.1416],[26.2029,40.0754],[26.2177,40.0802],[26.1849,39.9918]],[[26.7882,37.6571],[26.8447,37.645],[26.9781,37.7005],[27.0554,37.7095],[27.0395,37.7698],[26.9813,37.782],[26.9474,37.7783],[26.8246,37.8116],[26.7432,37.8095],[26.6384,37.781],[26.5813,37.7238],[26.613,37.7106],[26.7204,37.7053],[26.7882,37.6571]],[[26.0267,39.2848],[25.9097,39.2875],[25.8441,39.2002],[25.8558,39.1785],[25.906,39.1388],[26.0722,39.0954],[26.1759,39.1944],[26.2733,39.1976],[26.2452,39.1642],[26.1076,39.0811],[26.1606,39.0261],[26.3902,38.9737],[26.4685,38.9727],[26.5474,38.9943],[26.5029,39.0314],[26.4886,39.0748],[26.5315,39.0642],[26.5839,39.0314],[26.5955,39.0489],[26.578,39.1097],[26.531,39.1716],[26.3928,39.27],[26.4103,39.3293],[26.3479,39.3833],[26.1653,39.3737],[26.1648,39.3319],[26.0886,39.3044],[26.0267,39.2848]],[[25.9987,38.1614],[26.0939,38.2181],[26.1034,38.2339],[26.1108,38.2794],[26.1568,38.3027],[26.1494,38.4684],[26.141,38.4863],[26.1606,38.5409],[26.1103,38.5445],[26.0124,38.6017],[25.8462,38.5742],[25.8515,38.5086],[25.96,38.416],[25.9912,38.3535],[25.9526,38.3027],[25.8743,38.2694],[25.8917,38.2435],[25.9987,38.1614]],[[25.362,37.0703],[25.3959,36.9846],[25.4568,36.9295],[25.5457,36.9676],[25.5843,37.0391],[25.588,37.1523],[25.5642,37.1851],[25.5256,37.1962],[25.362,37.0703]],[[25.3483,39.985],[25.2858,39.9564],[25.234,40.0056],[25.0583,39.9998],[25.0525,39.9765],[25.0652,39.9098],[25.062,39.8521],[25.1266,39.8257],[25.1853,39.8299],[25.2033,39.8495],[25.2239,39.8923],[25.2493,39.8939],[25.252,39.8542],[25.2636,39.823],[25.2985,39.8061],[25.3573,39.8082],[25.3721,39.8913],[25.4001,39.9495],[25.4377,39.9833],[25.4493,40.0347],[25.3737,40.0156],[25.3483,39.985]],[[24.7001,37.9614],[24.7143,37.899],[24.7667,37.8709],[24.7985,37.8238],[24.8842,37.7704],[24.962,37.6926],[24.9916,37.7598],[24.9805,37.7968],[24.9482,37.8577],[24.9562,37.9048],[24.8551,37.9138],[24.7906,37.99],[24.7635,37.9873],[24.7001,37.9614]],[[24.7741,40.6152],[24.7689,40.6591],[24.7863,40.7041],[24.7736,40.73],[24.7191,40.7861],[24.6233,40.793],[24.5858,40.7686],[24.5164,40.6871],[24.5154,40.6469],[24.6461,40.5792],[24.7741,40.6152]],[[23.3126,39.0351],[23.2581,39.0314],[23.1459,39.0028],[22.9861,38.916],[22.8702,38.8705],[22.8813,38.8478],[22.9358,38.8398],[23.029,38.8732],[23.1438,38.8446],[23.2523,38.8012],[23.3639,38.7351],[23.4655,38.6557],[23.5052,38.6128],[23.5533,38.5821],[23.6174,38.5525],[23.6507,38.443],[23.7587,38.4011],[23.8862,38.4006],[24.0402,38.39],[24.0418,38.3742],[24.0635,38.3371],[24.1026,38.317],[24.1439,38.2429],[24.1889,38.2043],[24.1926,38.1519],[24.2121,38.1175],[24.318,38.0604],[24.3593,38.0186],[24.4164,38.0164],[24.4455,38.0048],[24.4725,37.9805],[24.5022,37.9699],[24.5365,37.9799],[24.5783,38.0202],[24.5884,38.1239],[24.5635,38.1477],[24.4641,38.145],[24.3598,38.1625],[24.2757,38.2202],[24.2201,38.3387],[24.1873,38.4636],[24.2111,38.5043],[24.1995,38.5409],[24.1545,38.5885],[24.1275,38.6483],[24.0989,38.671],[23.8783,38.6864],[23.6883,38.7647],[23.6364,38.77],[23.5248,38.8134],[23.4719,38.8499],[23.4152,38.9589],[23.3126,39.0351]]]}}
