{"type":"Feature","properties":{"id":105,"name":"Gulf of Mannar","featurecla":"gulf","scalerank":4,"wikidataid":"Q622811","source":"Natural Earth 5.2.0-pre ne_10m_geography_marine_polys (public domain)"},"geometry":{"type":"Polygon","coordinates":[[[77.3014,8.1455],[77.5178,8.0783],[77.5871,8.1296],[77.7702,8.19],[78.0602,8.3847],[78.1263,8.5112],[78.1358,8.6636],[78.1925,8.8911],[78.2745,8.9901],[78.4216,9.1049],[78.9799,9.2684],[79.2127,9.2562],[79.4117,9.1922],[79.4069,9.1975],[79.7646,9.0742],[79.7477,9.1044],[79.8599,9.0657],[79.8747,9.0509],[79.9038,8.9752],[79.8826,8.9885],[79.9387,8.9133],[79.9286,8.899],[79.9281,8.8467],[79.9435,8.7414],[79.9419,8.6916],[79.8509,8.4117],[79.8318,8.3043],[79.8091,8.0503],[79.7836,8.0185],[79.7498,8.0487],[79.7498,8.2942],[79.7127,8.1826],[79.708,8.0656],[79.7599,7.7963],[79.7921,7.5851],[79.8159,7.3158],[77.3014,8.1455]]]}}
