{"type":"Feature","properties":{"id":106,"name":"Shelikhova Gulf","featurecla":"gulf","scalerank":4,"wikidataid":"Q639399","source":"Natural Earth 5.2.0-pre ne_10m_geography_marine_polys (public domain)"},"geometry":{"type":"Polygon","coordinates":[[[155.1598,59.1884],[155.1598,59.19],[155.1603,59.19],[155.1529,59.2704],[155.1666,59.3604],[154.9713,59.4498],[154.5824,59.5403],[154.3575,59.4816],[154.2723,59.4752],[154.213,59.4831],[154.1496,59.5287],[154.2094,59.6001],[154.2687,59.6583],[154.2665,59.7303],[154.293,59.8335],[154.3898,59.8768],[154.4406,59.8837],[154.5782,60.0949],[154.9708,60.3769],[155.428,60.5499],[155.7159,60.6822],[155.8535,60.777],[156.0561,60.9955],[156.344,61.1553],[156.4827,61.2061],[156.6297,61.2723],[156.68,61.4807],[156.7906,61.5294],[156.8916,61.5654],[157.0843,61.6755],[157.3706,61.7469],[157.4695,61.7988],[157.7992,61.7951],[158.0702,61.7538],[158.1517,61.7649],[158.3337,61.8258],[158.5469,61.811],[158.8242,61.8501],[159.0766,61.9221],[159.1893,61.9295],[159.2951,61.9141],[159.4232,61.8083],[159.4962,61.7813],[159.5524,61.7194],[159.7222,61.7586],[160.1826,61.903],[160.2376,61.9041],[160.3091,61.8946],[160.3217,61.8384],[160.3175,61.7935],[160.2471,61.6475],[160.1625,61.5374],[159.9307,61.3241],[159.8831,61.2918],[159.9138,61.2347],[159.9492,61.1289],[159.8344,61.014],[159.7905,60.9569],[159.8831,60.9436],[160.0042,61.0077],[160.1842,61.0479],[160.2816,61.0447],[160.3789,61.0257],[160.226,60.8315],[160.2011,60.7299],[160.1773,60.6907],[160.1736,60.6383],[160.2873,60.6669],[160.3683,60.7087],[160.4821,60.7399],[160.7668,60.7531],[160.915,60.8928],[161.0372,60.9627],[162.1881,61.5406],[162.3924,61.6623],[162.5067,61.6702],[162.6078,61.6501],[162.6988,61.6527],[162.7179,61.695],[162.7522,61.7115],[162.8559,61.7051],[162.9216,61.5977],[162.994,61.5443],[163.0475,61.5543],[163.0851,61.5707],[163.1391,61.6115],[163.1977,61.6448],[163.2581,61.6993],[163.2078,61.7363],[163.0094,61.7914],[163.0179,61.8908],[163.1311,62.0501],[163.1183,62.1528],[163.1634,62.2597],[163.2131,62.3137],[163.2581,62.3369],[163.3021,62.3729],[163.2443,62.4555],[163.2872,62.5116],[163.3317,62.5507],[164.2556,62.6968],[164.4186,62.7047],[164.5672,62.6756],[164.7921,62.5714],[165.0441,62.5169],[165.3964,62.4941],[165.4171,62.447],[165.2806,62.4629],[165.2139,62.4481],[165.2256,62.4057],[165.2081,62.374],[165.1239,62.4116],[164.888,62.4317],[164.6704,62.474],[164.5985,62.4703],[164.2873,62.3465],[164.2074,62.292],[164.0741,62.0448],[164.0677,61.8739],[164.0196,61.7109],[163.8825,61.64],[163.837,61.558],[163.8042,61.4612],[163.973,61.4199],[163.9921,61.3881],[164.0053,61.3437],[163.8936,61.2405],[163.6196,61.1114],[163.5893,61.0844],[163.5534,61.0257],[163.71,60.9167],[163.5851,60.877],[163.4666,60.85],[163.3523,60.8002],[162.9728,60.7828],[162.713,60.6595],[162.2664,60.5367],[162.068,60.4663],[162.0035,60.4203],[161.8458,60.2324],[161.7537,60.1526],[161.4494,60.0271],[161.2187,59.8456],[160.8552,59.6271],[160.7113,59.6017],[160.5472,59.5472],[160.3503,59.3943],[159.8471,59.127],[159.5915,58.8037],[159.4529,58.6957],[159.3083,58.6105],[159.2105,58.5195],[159.0369,58.4237],[158.6872,58.2814],[158.4496,58.1629],[158.321,58.0835],[158.2754,58.0089],[158.2103,58.0253],[157.9744,57.9861],[157.6664,58.02],[157.4505,57.7993],[157.2166,57.7766],[156.9859,57.83],[156.8721,57.8036],[156.8298,57.7798],[156.815,57.7676],[155.1598,59.1884]]]}}
