{"type":"Feature","properties":{"id":107,"name":"Bo Hai","featurecla":"sea","scalerank":4,"wikidataid":"Q181969","source":"Natural Earth 5.2.0-pre ne_10m_geography_marine_polys (public domain)"},"geometry":{"type":"Polygon","coordinates":[[[121.1597,38.7155],[120.8956,37.8344],[120.8788,37.7873],[120.7501,37.8339],[120.3702,37.7011],[120.2845,37.6921],[120.257,37.6788],[120.2871,37.6566],[120.3114,37.6227],[120.1559,37.4952],[119.8828,37.3507],[119.8802,37.2957],[119.8876,37.2534],[119.7606,37.1549],[119.45,37.1248],[119.2875,37.1386],[119.1118,37.201],[118.9981,37.2772],[118.9526,37.3312],[118.9547,37.4941],[118.9906,37.6413],[119.0335,37.6609],[119.0891,37.7005],[119.07,37.7487],[119.0383,37.7767],[119.0277,37.9037],[118.9399,38.0429],[118.8002,38.1265],[118.6673,38.1265],[118.5435,38.0948],[118.0149,38.1837],[117.7667,38.3117],[117.6561,38.4244],[117.5577,38.625],[117.554,38.6917],[117.6169,38.8531],[117.7847,39.1346],[117.8656,39.1912],[118.0408,39.2267],[118.1477,39.1949],[118.2979,39.0668],[118.4721,39.1182],[118.6266,39.1769],[118.7525,39.1605],[118.8266,39.1721],[118.9124,39.1663],[118.9769,39.1827],[119.0399,39.2224],[119.2246,39.4082],[119.2611,39.5611],[119.3225,39.6616],[119.3912,39.7526],[119.5913,39.9024],[119.8505,39.9876],[120.3692,40.204],[120.4792,40.231],[120.7708,40.5893],[120.8412,40.649],[120.9221,40.6829],[121.0031,40.7491],[121.0862,40.8417],[121.1745,40.9015],[121.537,40.8782],[121.5989,40.8432],[121.7291,40.8459],[121.7656,40.8761],[121.8085,40.9687],[121.8349,40.9745],[121.8587,40.8422],[122.1403,40.6882],[122.1789,40.6025],[122.2752,40.5416],[122.2641,40.5003],[122.2032,40.3961],[122.1911,40.358],[121.9826,40.1358],[121.8688,40.0463],[121.8011,39.9506],[121.5174,39.8447],[121.4741,39.7548],[121.5143,39.6854],[121.5174,39.6389],[121.4693,39.6399],[121.4063,39.6214],[121.2677,39.5447],[121.2862,39.5193],[121.3,39.4521],[121.2756,39.3849],[121.3555,39.3769],[121.5126,39.3748],[121.7852,39.4007],[121.8185,39.3865],[121.7577,39.3473],[121.6645,39.269],[121.6275,39.2203],[121.6799,39.1086],[121.2634,38.9605],[121.1883,38.9467],[121.1068,38.9208],[121.1216,38.8134],[121.1634,38.7319],[121.1597,38.7155]]]}}
