{"type":"Feature","properties":{"id":108,"name":"Gulf of Kutch","featurecla":"gulf","scalerank":4,"wikidataid":"Q844917","source":"Natural Earth 5.2.0-pre ne_10m_geography_marine_polys (public domain)"},"geometry":{"type":"Polygon","coordinates":[[[68.9908,22.4378],[68.8013,23.0638],[68.8024,23.0654],[68.8172,23.0537],[69.2358,22.8484],[69.6644,22.759],[69.7395,22.7754],[69.8496,22.8564],[70.1184,22.9468],[70.1915,22.9659],[70.2512,22.9706],[70.3396,22.9399],[70.3682,22.9733],[70.3963,23.0299],[70.4343,23.077],[70.4894,23.0897],[70.5095,23.04],[70.5137,23.0024],[70.4407,22.9701],[70.328,22.8156],[70.1771,22.5727],[70.084,22.5537],[70.0057,22.5478],[69.8189,22.4515],[69.7274,22.4653],[69.6554,22.4034],[69.5491,22.4087],[69.2765,22.2854],[69.239,22.3002],[69.1945,22.3362],[69.1315,22.4161],[69.0516,22.4372],[69.0135,22.4081],[68.9908,22.4378]]]}}
