{"type":"Feature","properties":{"id":109,"name":"Golfo de Panamá","featurecla":"gulf","scalerank":4,"wikidataid":"Q645012","source":"Natural Earth 5.2.0-pre ne_10m_geography_marine_polys (public domain)"},"geometry":{"type":"Polygon","coordinates":[[[-80.0114,7.4999],[-80.04,7.6],[-80.075,7.6672],[-80.2607,7.8518],[-80.3655,7.9979],[-80.4094,8.0286],[-80.4581,8.0773],[-80.466,8.1402],[-80.4591,8.2138],[-80.4078,8.2625],[-80.3686,8.2889],[-80.2004,8.3138],[-80.1257,8.3498],[-79.7506,8.5953],[-79.8157,8.6392],[-79.7585,8.7117],[-79.731,8.7752],[-79.6876,8.8509],[-79.5722,8.9033],[-79.5072,8.9699],[-79.4415,9.0059],[-79.2468,9.0202],[-79.0865,8.9969],[-78.9552,8.9324],[-78.8483,8.8424],[-78.7695,8.8112],[-78.7102,8.753],[-78.67,8.7424],[-78.6208,8.7138],[-78.5139,8.6281],[-78.4695,8.4466],[-78.4361,8.4032],[-78.4097,8.3551],[-78.3795,8.3588],[-78.3694,8.4048],[-78.388,8.4434],[-78.3991,8.5059],[-78.3742,8.4895],[-78.3504,8.4598],[-78.2562,8.4535],[-78.2509,8.4212],[-78.2229,8.3969],[-78.1906,8.4175],[-78.162,8.4535],[-78.0996,8.4969],[-78.0572,8.3974],[-78.0123,8.3254],[-77.853,8.2164],[-77.7604,8.1334],[-77.8334,8.1513],[-77.9519,8.2302],[-78.0477,8.2847],[-78.1139,8.3794],[-78.1419,8.3863],[-78.18,8.3302],[-78.2811,8.2476],[-78.2546,8.1386],[-78.2874,8.0921],[-78.3155,8.0672],[-78.3678,8.0704],[-78.4213,8.0609],[-78.3784,7.9],[-78.17,7.5439],[-78.1334,7.4999],[-80.0114,7.4999]]]}}
