{"type":"Feature","properties":{"id":110,"name":"Amundsen Gulf","featurecla":"gulf","scalerank":4,"wikidataid":"Q1974744","source":"Natural Earth 5.2.0-pre ne_10m_geography_marine_polys (public domain)"},"geometry":{"type":"Polygon","coordinates":[[[-125.8024,71.9635],[-125.7669,71.9609],[-125.2965,71.9731],[-125.2144,71.9545],[-125.1261,71.9239],[-124.7599,71.8349],[-124.008,71.6773],[-123.9534,71.6524],[-123.7555,71.528],[-123.682,71.4931],[-123.5952,71.4233],[-123.3936,71.219],[-123.3147,71.1693],[-123.2105,71.1232],[-123.0957,71.0936],[-122.9364,71.0878],[-122.8401,71.0973],[-122.72,71.128],[-122.5496,71.1936],[-122.1564,71.2661],[-121.7495,71.4449],[-121.7008,71.4513],[-121.622,71.4476],[-121.5468,71.4069],[-121.4722,71.3889],[-121.16,71.4148],[-120.9303,71.446],[-120.6192,71.5058],[-120.5197,71.5577],[-120.4721,71.5963],[-118.974,71.7514],[-118.9523,71.7317],[-118.8682,71.6868],[-118.6729,71.6609],[-118.6745,71.6492],[-118.2194,71.4725],[-118.2263,71.4672],[-118.2221,71.4492],[-118.204,71.4423],[-118.3237,71.0121],[-118.3527,70.9999],[-118.3766,70.9677],[-118.2639,70.8883],[-117.5881,70.6301],[-117.1928,70.0617],[-118.7803,69.2415],[-118.7803,69.241],[-118.8687,69.2574],[-119.8529,69.3426],[-120.1397,69.3807],[-120.2927,69.4204],[-120.8144,69.6167],[-120.9626,69.6606],[-121.3362,69.7416],[-121.5309,69.7759],[-121.7421,69.7977],[-122.0701,69.8162],[-122.3876,69.8082],[-122.7046,69.8172],[-122.7856,69.8082],[-122.9565,69.8188],[-123.0258,69.8098],[-123.0766,69.7823],[-123.0872,69.7686],[-124.1323,69.6691],[-124.1244,69.6902],[-124.3493,69.7347],[-124.4069,69.7675],[-124.472,69.9183],[-124.4673,69.9823],[-124.4413,70.0617],[-124.4445,70.1104],[-124.5027,70.1411],[-124.5551,70.1511],[-124.6398,70.1416],[-124.7065,70.1168],[-124.7451,70.0802],[-124.9525,70.0416],[-124.9906,70.0268],[-124.9626,70.0125],[-124.9202,70.0056],[-124.8626,70.0056],[-124.7678,69.9903],[-124.7938,69.9686],[-124.889,69.9358],[-124.9684,69.8945],[-125.0308,69.8442],[-125.0795,69.8178],[-125.1139,69.8151],[-125.2012,69.8289],[-125.2277,69.7569],[-125.2192,69.7326],[-125.3457,69.6622],[-125.3568,69.6262],[-125.3552,69.6252],[-125.8923,69.4156],[-125.9077,69.4188],[-126.0638,69.4669],[-126.2506,69.5453],[-126.612,69.7305],[-126.685,69.777],[-126.7586,69.8532],[-126.8337,69.959],[-126.9268,70.0617],[-127.1385,70.2395],[-127.2258,70.2961],[-127.3766,70.3686],[-127.7529,70.5173],[-127.8619,70.5491],[-127.9762,70.5713],[-125.8024,71.9635]]]}}
