{"type":"Feature","properties":{"id":111,"name":"Viscount Melville Sound","featurecla":"sound","scalerank":4,"wikidataid":"Q5605258","source":"Natural Earth 5.2.0-pre ne_10m_geography_marine_polys (public domain)"},"geometry":{"type":"Polygon","coordinates":[[[-104.8632,75.1153],[-105.2543,73.76],[-105.3178,73.7669],[-105.5125,73.7659],[-106.3624,73.7188],[-106.6137,73.6955],[-106.6947,73.6701],[-106.8312,73.5992],[-106.9497,73.5103],[-106.9307,73.4891],[-107.0,73.2573],[-107.0323,73.2452],[-107.0746,73.1975],[-107.1132,73.1923],[-107.4964,73.2886],[-107.7202,73.3288],[-108.0292,73.3489],[-108.0896,73.3039],[-108.0774,73.2812],[-107.9869,73.233],[-107.9361,73.2171],[-107.98,73.2066],[-108.1181,73.2018],[-108.2044,73.1833],[-108.2372,73.1499],[-108.2382,73.106],[-108.2324,73.0949],[-108.7394,72.5366],[-108.7547,72.5509],[-108.7976,72.5673],[-108.9505,72.5827],[-108.9944,72.5959],[-108.9854,72.6367],[-108.968,72.6541],[-108.9876,72.671],[-109.0431,72.6869],[-109.122,72.7266],[-109.3569,72.7753],[-109.4691,72.8086],[-109.6099,72.8758],[-110.0083,72.9838],[-110.0946,72.9922],[-110.5095,72.9991],[-110.6608,73.0081],[-110.6814,72.9626],[-111.2894,72.7192],[-111.4556,72.7657],[-112.0482,72.888],[-112.4536,72.9367],[-112.7536,72.9859],[-113.0738,72.9954],[-113.1711,72.9848],[-114.1178,73.2161],[-114.1268,73.2309],[-114.1639,73.2701],[-114.2062,73.2976],[-114.302,73.3309],[-114.638,73.3727],[-114.6422,73.3722],[-115.3968,73.5135],[-115.4074,73.542],[-115.4344,73.5664],[-114.348,74.6528],[-114.2681,74.6041],[-114.175,74.5739],[-113.8368,74.4887],[-113.6717,74.4533],[-113.514,74.43],[-113.0172,74.4019],[-112.5192,74.4167],[-111.7287,74.502],[-111.2873,74.585],[-110.9407,74.6385],[-110.7492,74.6877],[-110.6248,74.7528],[-110.5433,74.7803],[-110.3867,74.8141],[-110.1761,74.8401],[-109.503,74.8829],[-109.0024,75.0105],[-108.8315,75.065],[-108.6658,75.0401],[-108.6335,75.0232],[-108.6701,75.0068],[-108.7515,74.992],[-108.5944,74.9597],[-108.4748,74.947],[-108.3547,74.9428],[-108.2266,74.9518],[-108.0234,74.9867],[-107.8202,74.9999],[-107.462,74.9523],[-107.1535,74.9274],[-107.0556,74.9279],[-106.9614,74.9401],[-106.5883,75.0152],[-106.0925,75.0893],[-105.9718,75.1316],[-105.9089,75.1661],[-104.8632,75.1153]]]}}
