{"type":"Feature","properties":{"id":112,"name":"Ungava Bay","featurecla":"bay","scalerank":4,"wikidataid":"Q1165951","source":"Natural Earth 5.2.0-pre ne_10m_geography_marine_polys (public domain)"},"geometry":{"type":"Polygon","coordinates":[[[-64.8847,60.2885],[-64.8894,60.2864],[-64.9313,60.252],[-65.0736,60.062],[-65.1048,59.9933],[-65.1715,59.9081],[-65.1815,59.8668],[-65.1593,59.8303],[-65.1133,59.8017],[-65.0281,59.7705],[-65.0546,59.753],[-65.2122,59.8096],[-65.289,59.8181],[-65.3578,59.8091],[-65.4059,59.7954],[-65.4334,59.7763],[-65.4811,59.6901],[-65.4864,59.6488],[-65.4752,59.617],[-65.4075,59.5392],[-65.3456,59.5112],[-65.263,59.4953],[-65.171,59.4625],[-65.0688,59.4117],[-65.0381,59.3879],[-65.0741,59.3778],[-65.2736,59.4641],[-65.3498,59.4789],[-65.4752,59.4704],[-65.4895,59.4477],[-65.4075,59.3302],[-65.4117,59.3149],[-65.5128,59.3503],[-65.5451,59.3196],[-65.5779,59.245],[-65.607,59.2133],[-65.661,59.2297],[-65.6917,59.2292],[-65.7001,59.2133],[-65.6657,59.1529],[-65.6398,59.1276],[-65.6065,59.1106],[-65.4959,59.0916],[-65.3837,59.0603],[-65.3964,59.0386],[-65.5266,59.036],[-65.544,59.0117],[-65.6954,59.0323],[-65.7208,59.0238],[-65.7218,59.0027],[-65.7038,58.9704],[-65.7949,58.9804],[-65.8414,58.9773],[-65.9208,58.9148],[-65.9187,58.8958],[-65.8361,58.8603],[-65.8547,58.8466],[-65.9668,58.8391],[-66.043,58.8206],[-66.0494,58.7878],[-66.0213,58.7349],[-65.9499,58.6497],[-65.9282,58.6111],[-65.9229,58.5719],[-65.9314,58.5349],[-66.0023,58.4312],[-66.0171,58.4306],[-66.0293,58.5666],[-66.0446,58.6058],[-66.0907,58.6592],[-66.1684,58.727],[-66.2372,58.7725],[-66.2986,58.7947],[-66.3627,58.791],[-66.4801,58.7307],[-66.5151,58.6973],[-66.5579,58.6365],[-66.6077,58.5492],[-66.722,58.491],[-66.9003,58.4629],[-67.0193,58.4328],[-67.1627,58.3703],[-67.3818,58.2999],[-67.5697,58.2137],[-67.5962,58.1862],[-67.6173,58.1401],[-67.6321,58.0761],[-67.6782,57.9909],[-67.6977,58.0089],[-67.6808,58.1068],[-67.6882,58.1401],[-67.6898,58.2438],[-67.7369,58.3856],[-67.7559,58.4047],[-67.8052,58.3656],[-67.8231,58.31],[-67.856,58.2724],[-68.0089,58.1523],[-68.0639,58.1391],[-67.9115,58.2671],[-67.8882,58.2957],[-67.8877,58.3296],[-67.9814,58.4613],[-68.0211,58.4851],[-68.111,58.4735],[-68.1756,58.4026],[-68.2893,58.1777],[-68.3518,58.0909],[-68.4137,58.0518],[-68.4952,58.0115],[-68.7809,57.9761],[-69.0408,57.9025],[-69.0355,57.9258],[-68.9455,57.9687],[-68.8259,57.9999],[-68.5968,58.0369],[-68.4682,58.0761],[-68.3565,58.1634],[-68.3147,58.2269],[-68.2338,58.3994],[-68.2296,58.4846],[-68.2354,58.528],[-68.2528,58.5566],[-68.3264,58.5952],[-68.3809,58.7434],[-68.4142,58.7825],[-68.4751,58.8233],[-68.5629,58.8661],[-68.6375,58.8931],[-68.6984,58.9048],[-68.9413,58.8889],[-69.0635,58.8984],[-69.1736,58.8968],[-69.271,58.8841],[-69.3821,58.8508],[-69.6504,58.728],[-69.7901,58.6894],[-69.8784,58.6968],[-70.033,58.7449],[-70.1541,58.7608],[-70.1599,58.7894],[-69.979,58.8164],[-69.8673,58.8561],[-69.8414,58.881],[-69.8287,58.9053],[-69.8287,58.9286],[-69.8139,58.9455],[-69.7842,58.9556],[-69.753,58.9397],[-69.6773,58.8312],[-69.6482,58.8206],[-69.608,58.8296],[-69.5318,58.8693],[-69.5001,58.9206],[-69.4747,59.0],[-69.4482,59.0492],[-69.4202,59.0683],[-69.4144,59.0868],[-69.4599,59.1524],[-69.4503,59.1799],[-69.3503,59.2773],[-69.344,59.3032],[-69.4001,59.3376],[-69.6821,59.3419],[-69.7107,59.3927],[-69.6922,59.4884],[-69.6562,59.5652],[-69.6022,59.6228],[-69.5795,59.6752],[-69.5874,59.7223],[-69.6303,59.8218],[-69.6736,59.871],[-69.734,59.9181],[-69.8059,59.9451],[-70.3266,59.9716],[-70.4669,59.971],[-70.6198,59.9843],[-70.6547,60.0261],[-70.5092,60.0149],[-69.9626,60.0176],[-69.7959,60.0298],[-69.6736,60.0758],[-69.6297,60.1224],[-69.6234,60.1457],[-69.6287,60.1986],[-69.6329,60.2203],[-69.7086,60.2859],[-69.7403,60.3324],[-69.7557,60.3886],[-69.7594,60.4404],[-69.7514,60.4875],[-69.7213,60.5674],[-69.6403,60.6896],[-69.5742,60.7425],[-69.49,60.7796],[-69.4334,60.8145],[-69.4117,60.8394],[-68.2047,60.4902],[-68.2348,60.4558],[-68.338,60.3605],[-68.3677,60.315],[-68.365,60.2542],[-68.3243,60.233],[-68.2338,60.2409],[-68.0121,60.3044],[-67.9221,60.3399],[-67.8443,60.3917],[-67.8353,60.4124],[-64.8847,60.2885]]]}}
