{"type":"Feature","properties":{"id":113,"name":"Great Barrier Reef","featurecla":"reef","scalerank":4,"wikidataid":"Q7343","source":"Natural Earth 5.2.0-pre ne_10m_geography_marine_polys (public domain)"},"geometry":{"type":"MultiPolygon","coordinates":[[[[152.9134,-25.4322],[152.917,-25.5646],[152.9169,-25.5646],[152.9134,-25.4322]]],[[[143.2541,-9.8701],[143.3517,-9.8742],[143.4487,-9.885],[143.5448,-9.9023],[143.6395,-9.9263],[143.7324,-9.9566],[143.8229,-9.9932],[143.9108,-10.0359],[143.9955,-10.0845],[144.0767,-10.1388],[144.154,-10.1985],[144.2271,-10.2633],[144.2955,-10.333],[144.359,-10.4072],[144.4173,-10.4856],[144.4701,-10.5678],[144.5172,-10.6533],[144.5583,-10.7419],[144.5932,-10.8331],[144.6219,-10.9265],[144.6441,-11.0216],[144.6597,-11.118],[144.6688,-11.2153],[144.6711,-11.3129],[144.6668,-11.4105],[144.6062,-11.52],[144.553,-11.6332],[144.5075,-11.7497],[144.4697,-11.8689],[144.44,-11.9904],[144.4185,-12.1137],[144.4051,-12.238],[144.4001,-12.363],[144.4034,-12.4881],[144.4113,-12.5673],[144.4242,-12.646],[144.4422,-12.7236],[144.465,-12.7999],[144.4928,-12.8746],[144.5252,-12.9474],[144.5623,-13.0179],[144.6037,-13.0859],[144.6495,-13.1512],[144.6993,-13.2133],[144.753,-13.2722],[144.8104,-13.3275],[144.8712,-13.379],[144.9351,-13.4265],[145.002,-13.4698],[145.1236,-13.5079],[145.2426,-13.5535],[145.3586,-13.6062],[145.4711,-13.6661],[145.5797,-13.7327],[145.684,-13.806],[145.7835,-13.8855],[145.878,-13.971],[145.9671,-14.0621],[146.0503,-14.1586],[146.1274,-14.26],[146.2292,-14.5009],[146.3168,-14.7472],[146.39,-14.9983],[146.4485,-15.2531],[146.4922,-15.5109],[146.5209,-15.7708],[146.5345,-16.032],[146.5698,-16.2631],[146.6219,-16.491],[146.6903,-16.7146],[146.7749,-16.9325],[146.8751,-17.1438],[146.9904,-17.3472],[147.1202,-17.5416],[147.2638,-17.7261],[147.4205,-17.8997],[147.7653,-18.0826],[148.1127,-18.2605],[148.4627,-18.4334],[148.8152,-18.601],[149.1701,-18.7636],[149.5274,-18.9209],[149.8868,-19.073],[150.2832,-19.2993],[150.6846,-19.5166],[151.0908,-19.7245],[151.5018,-19.9231],[151.9171,-20.1123],[152.3367,-20.2919],[152.7603,-20.4618],[152.8434,-20.5286],[152.9219,-20.6007],[152.9956,-20.6778],[153.064,-20.7596],[153.127,-20.8456],[153.1842,-20.9356],[153.2354,-21.0291],[153.2804,-21.1257],[153.319,-21.2251],[153.351,-21.3269],[153.3763,-21.4304],[153.3947,-21.5355],[153.4063,-21.6414],[153.4109,-21.748],[153.4085,-21.8546],[153.3991,-21.9608],[153.3829,-22.0661],[153.4057,-22.1788],[153.4207,-22.2927],[153.4276,-22.4075],[153.4265,-22.5224],[153.4174,-22.6369],[153.4004,-22.7506],[153.3754,-22.8628],[153.3426,-22.973],[153.3023,-23.0806],[153.2545,-23.1851],[153.1996,-23.286],[153.1377,-23.3829],[153.0692,-23.4752],[152.9945,-23.5625],[152.9138,-23.6444],[152.8276,-23.7204],[152.7363,-23.7902],[152.6123,-23.8508],[152.4863,-23.9071],[152.3585,-23.9592],[152.229,-24.0068],[152.0979,-24.0501],[151.9655,-24.0888],[151.8318,-24.1231],[151.691,-24.0384],[151.5752,-24.0336],[151.5006,-24.0125],[151.2365,-23.8252],[151.1539,-23.7839],[151.0878,-23.696],[150.9889,-23.6018],[150.9312,-23.532],[150.8433,-23.4579],[150.783,-23.1764],[150.783,-22.9028],[150.764,-22.5763],[150.6724,-22.4181],[150.6227,-22.3673],[150.5687,-22.3842],[150.5645,-22.4864],[150.5798,-22.5557],[150.5412,-22.5588],[150.4051,-22.4689],[150.2348,-22.3731],[150.1432,-22.2657],[150.076,-22.1646],[150.0204,-22.1683],[149.9813,-22.1842],[149.9416,-22.308],[150.0057,-22.5218],[149.9744,-22.5509],[149.9204,-22.5012],[149.8226,-22.3901],[149.7718,-22.426],[149.704,-22.4403],[149.6453,-22.3281],[149.5956,-22.2578],[149.5241,-22.0239],[149.4601,-21.7656],[149.4543,-21.5788],[149.3294,-21.4762],[149.2802,-21.2994],[149.2416,-21.2502],[149.205,-21.1248],[149.0605,-20.9613],[148.9124,-20.8454],[148.7897,-20.7359],[148.6838,-20.5803],[148.7298,-20.4676],[148.805,-20.4919],[148.8849,-20.4808],[148.8209,-20.3665],[148.7594,-20.2893],[148.6007,-20.1453],[148.5266,-20.1088],[148.3668,-20.0877],[148.1895,-19.9559],[148.081,-19.8987],[148.0043,-19.8897],[147.9154,-19.8691],[147.853,-19.7945],[147.7424,-19.7702],[147.5863,-19.6225],[147.5096,-19.4743],[147.4709,-19.4193],[147.4186,-19.378],[147.3413,-19.4029],[147.2783,-19.414],[147.1386,-19.3934],[147.0926,-19.3325],[147.0026,-19.2558],[146.8291,-19.2357],[146.692,-19.1875],[146.5873,-19.1394],[146.4809,-19.0785],[146.3834,-18.9769],[146.2967,-18.8409],[146.3116,-18.6668],[146.3332,-18.5536],[146.2232,-18.5097],[146.0322,-18.2726],[146.0226,-18.1758],[146.0739,-17.9774],[146.1258,-17.6355],[146.0496,-17.381],[145.9019,-17.0703],[145.912,-16.9127],[145.838,-16.9105],[145.7549,-16.8793],[145.6384,-16.7259],[145.55,-16.6253],[145.4903,-16.5322],[145.4262,-16.4062],[145.4363,-16.3052],[145.4517,-16.2369],[145.458,-16.0564],[145.3754,-15.8813],[145.3495,-15.7014],[145.2717,-15.4765],[145.2929,-15.3273],[145.276,-15.204],[145.2516,-15.0976],[145.277,-15.0293],[145.2876,-14.9431],[145.1802,-14.8568],[145.0643,-14.7912],[144.9156,-14.6742],[144.6478,-14.4928],[144.5865,-14.3546],[144.4732,-14.2319],[144.3219,-14.2795],[144.2097,-14.3017],[144.106,-14.3943],[143.962,-14.4631],[143.8224,-14.4012],[143.7562,-14.3488],[143.707,-14.1647],[143.6435,-13.9636],[143.589,-13.8625],[143.5482,-13.7408],[143.5868,-13.4434],[143.5297,-13.3037],[143.5123,-13.0947],[143.4577,-12.8555],[143.3974,-12.7359],[143.4016,-12.6402],[143.2895,-12.4989],[143.254,-12.3978],[143.1905,-12.3613],[143.1101,-12.3036],[143.099,-12.2258],[143.1048,-12.1697],[143.1529,-12.0761],[143.1789,-11.9544],[143.0667,-11.9242],[142.9884,-11.9189],[142.9339,-11.8808],[142.8724,-11.8216],[142.8508,-11.6326],[142.8529,-11.4321],[142.837,-11.3072],[142.8031,-11.214],[142.7798,-11.1151],[142.9594,-9.8984],[142.9628,-9.8977],[143.0592,-9.8818],[143.1564,-9.8726],[143.2541,-9.8701]],[[151.2741,-23.6685],[151.2291,-23.5949],[151.2402,-23.5299],[151.2121,-23.5129],[151.1809,-23.5161],[151.1466,-23.4907],[151.0598,-23.4605],[151.0333,-23.5304],[151.1841,-23.7405],[151.2381,-23.7759],[151.2614,-23.7622],[151.2958,-23.7204],[151.2741,-23.6685]]]]}}
