{"type":"Feature","properties":{"id":114,"name":"Yucatan Channel","featurecla":"channel","scalerank":5,"wikidataid":"Q193260","source":"Natural Earth 5.2.0-pre ne_10m_geography_marine_polys (public domain)"},"geometry":{"type":"MultiPolygon","coordinates":[[[[-84.8872,21.8568],[-84.8871,21.857],[-84.8536,21.8371],[-84.8872,21.8568]]],[[[-84.8846,21.8673],[-84.8801,21.8834],[-84.8863,21.8602],[-84.8846,21.8673]]],[[[-86.9118,21.4631],[-86.8239,21.4217],[-86.9117,21.4628],[-86.9899,21.5307],[-87.0347,21.5922],[-86.9118,21.4631]]]]}}
