{"type":"Feature","properties":{"id":115,"name":"Bering Sea","featurecla":"sea","scalerank":2,"wikidataid":"Q44725","source":"Natural Earth 5.2.0-pre ne_10m_geography_marine_polys (public domain)"},"geometry":{"type":"MultiPolygon","coordinates":[[[[179.9597,50.9868],[178.2145,51.0646],[175.7803,51.4351],[173.1874,51.9113],[170.3299,52.8638],[167.0491,54.1338],[164.7736,55.1921],[163.3062,56.1886],[163.2962,56.2012],[163.3354,56.2325],[163.2941,56.4478],[163.2433,56.5648],[163.2565,56.6881],[163.1655,56.7257],[163.0465,56.7415],[162.9221,56.7225],[162.8501,56.7569],[162.8025,56.8114],[162.7914,56.8754],[162.8147,57.0236],[162.8083,57.1029],[162.7618,57.2437],[162.7623,57.2839],[162.7792,57.3575],[162.957,57.4776],[163.1089,57.5649],[163.1877,57.6374],[163.2136,57.6866],[163.2168,57.7142],[163.2338,57.712],[166.2606,59.8192],[166.2579,59.8552],[166.2733,59.8562],[166.332,59.8726],[166.4527,59.9472],[166.9638,60.3071],[167.2269,60.4065],[167.6259,60.469],[167.746,60.5092],[168.1376,60.5738],[168.4629,60.5923],[168.6704,60.5627],[168.7884,60.5637],[169.2266,60.596],[169.2758,60.5568],[169.6181,60.4378],[169.815,60.2653],[169.8542,60.2504],[169.887,60.2182],[169.8976,60.1478],[169.9272,60.1044],[169.9828,60.0668],[170.1542,59.9858],[170.3511,59.9657],[170.3966,60.0097],[170.4235,60.0478],[170.5125,60.2594],[170.5886,60.343],[170.5897,60.3938],[170.6082,60.4351],[170.7992,60.4965],[170.9495,60.523],[171.4898,60.7256],[171.7295,60.8431],[171.8306,60.8373],[171.9179,60.8643],[171.9978,60.9008],[172.0672,60.9156],[172.2132,60.9976],[172.3926,61.0616],[172.3624,61.1167],[172.3962,61.1675],[172.4974,61.186],[172.5847,61.1902],[172.6969,61.2495],[172.69,61.295],[172.7307,61.3146],[172.7889,61.3109],[172.8678,61.2929],[172.9079,61.3114],[172.8376,61.3754],[172.8069,61.4363],[172.8567,61.4691],[173.0546,61.4061],[173.1318,61.4067],[173.3906,61.5569],[173.6234,61.7162],[173.8224,61.6792],[174.1389,61.7951],[174.2849,61.8173],[174.5145,61.8236],[174.6103,61.8676],[174.7151,61.948],[174.7976,61.939],[175.1924,62.0343],[175.2681,62.1025],[175.366,62.1216],[175.4422,62.1279],[175.6142,62.1845],[176.3285,62.3459],[176.4365,62.411],[176.7026,62.5057],[176.9074,62.5359],[177.1593,62.5608],[177.1895,62.5915],[177.0079,62.6264],[176.9646,62.6587],[176.9635,62.6931],[176.99,62.7222],[177.0233,62.7772],[177.091,62.7894],[177.1725,62.7502],[177.2588,62.7502],[177.2985,62.7841],[177.3392,62.7814],[177.3599,62.737],[177.3159,62.6851],[177.2958,62.6444],[177.2927,62.5989],[177.3514,62.5872],[177.6631,62.583],[178.0192,62.547],[178.9638,62.3555],[179.0448,62.3237],[179.1204,62.3205],[179.1342,62.3962],[179.1771,62.4692],[179.2887,62.5105],[179.4771,62.6132],[179.5279,62.6534],[179.9999,62.6534],[179.9999,50.9868],[179.9597,50.9868]],[[179.2781,51.3721],[179.4517,51.3726],[179.4156,51.4006],[179.2945,51.4208],[179.1818,51.47],[179.0844,51.5277],[178.9082,51.6155],[178.6923,51.6557],[178.6479,51.6441],[178.7468,51.5869],[178.9257,51.535],[179.2781,51.3721]],[[177.3286,51.8409],[177.4155,51.8827],[177.5943,51.9478],[177.5959,51.9939],[177.653,52.06],[177.6694,52.1029],[177.6366,52.114],[177.5636,52.1103],[177.5202,52.0182],[177.4784,51.9917],[177.3805,51.9759],[177.2503,51.9028],[177.2603,51.8838],[177.3286,51.8409]],[[172.935,52.7521],[173.0805,52.8146],[173.1588,52.8109],[173.3027,52.8257],[173.3483,52.8246],[173.3948,52.8347],[173.4361,52.8521],[173.2514,52.9427],[173.1022,52.9956],[172.9842,52.9802],[172.8117,53.013],[172.6778,53.0077],[172.4947,52.9379],[172.5952,52.9072],[172.7217,52.8855],[172.7756,52.7971],[172.935,52.7521]],[[168.0815,54.5127],[168.0391,54.5651],[167.8825,54.6905],[167.7105,54.7704],[167.5925,54.7979],[167.5116,54.8572],[167.4417,54.8561],[167.4883,54.7947],[167.6771,54.6979],[168.0815,54.5127]],[[166.6453,54.6942],[166.6501,54.8392],[166.5776,54.9075],[166.4797,54.9498],[166.404,55.0059],[166.2479,55.1657],[166.2299,55.2424],[166.2759,55.3117],[166.2119,55.3239],[165.9315,55.3514],[165.8303,55.307],[165.7509,55.2948],[165.9918,55.1906],[166.0664,55.1355],[166.0823,55.0768],[166.1199,55.0302],[166.2299,54.9365],[166.3246,54.8646],[166.3818,54.8381],[166.4638,54.827],[166.5215,54.7677],[166.6453,54.6942]]],[[[-165.0512,53.6157],[-168.0722,52.7051],[-170.6297,52.0309],[-173.8047,51.5054],[-176.8426,51.207],[-178.8847,51.1001],[-180.0,51.0821],[-180.0,61.6538],[-173.6988,64.3293],[-173.6951,64.3605],[-173.666,64.3573],[-173.6036,64.3652],[-173.475,64.4287],[-173.3956,64.479],[-173.3273,64.5393],[-173.3094,64.4875],[-173.3094,64.4425],[-173.3755,64.4102],[-173.3755,64.3547],[-173.2755,64.2896],[-173.1575,64.2795],[-173.0093,64.2975],[-172.9601,64.3277],[-172.9156,64.3695],[-172.949,64.5076],[-172.903,64.5261],[-172.7913,64.4991],[-172.7558,64.4599],[-172.7389,64.4123],[-172.6945,64.407],[-172.4013,64.4139],[-172.3785,64.4314],[-172.3939,64.4748],[-172.4368,64.5155],[-172.4876,64.5441],[-172.6162,64.578],[-172.7468,64.6033],[-172.8543,64.6097],[-172.9008,64.6288],[-172.8892,64.6642],[-172.9241,64.705],[-172.9024,64.7293],[-172.8114,64.7611],[-172.8008,64.7907],[-172.8971,64.8261],[-172.9982,64.8373],[-173.086,64.8171],[-173.0665,64.8473],[-172.9993,64.8764],[-172.8971,64.8891],[-172.7924,64.8828],[-172.5929,64.9082],[-172.3986,64.9648],[-172.3045,65.0023],[-172.2134,65.0479],[-172.2235,65.1288],[-172.2859,65.2056],[-172.3785,65.2267],[-172.4823,65.222],[-172.5733,65.2283],[-172.6617,65.2484],[-172.3092,65.2754],[-172.2701,65.3029],[-172.2113,65.4252],[-172.233,65.4559],[-172.3055,65.4479],[-172.4177,65.4495],[-172.3918,65.4744],[-172.3542,65.4961],[-172.5564,65.612],[-172.7834,65.6813],[-172.7193,65.6924],[-172.6077,65.6903],[-172.4357,65.6696],[-172.3224,65.6178],[-172.2822,65.5823],[-172.2341,65.5707],[-172.1314,65.567],[-171.9573,65.5421],[-171.9473,65.5077],[-171.9071,65.4961],[-171.7901,65.5104],[-171.4663,65.5331],[-171.3636,65.5273],[-171.216,65.5029],[-171.1699,65.5019],[-171.1059,65.5109],[-171.054,65.5501],[-171.1345,65.6278],[-171.3033,65.6982],[-171.4017,65.7516],[-171.4509,65.794],[-171.4213,65.8104],[-171.3768,65.804],[-171.2318,65.7368],[-171.1191,65.695],[-171.0017,65.6649],[-170.8969,65.6427],[-170.6662,65.6215],[-170.5608,65.6564],[-170.5413,65.7104],[-170.563,65.8236],[-170.5407,65.8654],[-170.401,65.9284],[-170.2725,65.9707],[-170.1592,66.0083],[-170.0036,66.0337],[-169.9492,66.0311],[-169.8915,66.0062],[-169.8317,65.9988],[-169.7333,66.0559],[-168.0838,65.6617],[-168.0886,65.658],[-168.0351,65.5955],[-167.987,65.568],[-167.5869,65.468],[-167.4039,65.422],[-166.6651,65.3384],[-166.6096,65.3527],[-166.1973,65.3056],[-166.1571,65.286],[-166.1217,65.2606],[-166.2799,65.2738],[-166.4519,65.2474],[-166.5313,65.1548],[-166.7625,65.1352],[-166.8567,65.1473],[-166.9064,65.1637],[-166.9287,65.1569],[-166.8271,65.096],[-166.5508,64.9531],[-166.4154,64.9267],[-166.4085,64.8272],[-166.4783,64.7976],[-166.4815,64.7282],[-166.3249,64.6256],[-166.1429,64.5827],[-165.4459,64.5129],[-165.138,64.4653],[-164.9787,64.4536],[-164.9633,64.4547],[-164.9633,64.4526],[-164.4357,63.2],[-164.4633,63.1852],[-164.5252,63.1275],[-164.3749,63.054],[-164.3844,63.0307],[-164.4284,63.0402],[-164.6776,63.0206],[-164.7638,62.9709],[-164.7998,62.918],[-164.8453,62.801],[-164.8189,62.6772],[-164.7929,62.6232],[-164.6892,62.6767],[-164.5892,62.7095],[-164.5961,62.6867],[-164.6882,62.6084],[-164.8443,62.5809],[-164.7961,62.5116],[-164.758,62.4968],[-164.7792,62.4814],[-164.8919,62.5174],[-164.9998,62.5338],[-165.1157,62.5126],[-165.1946,62.4734],[-165.4475,62.3041],[-165.7073,62.1004],[-165.7439,62.0115],[-165.7253,61.9591],[-165.7057,61.9274],[-165.6126,61.8692],[-165.8338,61.8369],[-165.9915,61.8342],[-166.0788,61.803],[-166.0201,61.7485],[-165.8089,61.6961],[-165.8343,61.6792],[-166.1005,61.6453],[-166.1312,61.6575],[-166.1682,61.6506],[-166.1635,61.5892],[-166.1529,61.5458],[-166.0942,61.5067],[-165.9613,61.5511],[-165.8455,61.5363],[-165.7973,61.4913],[-165.9063,61.404],[-165.864,61.3357],[-165.6915,61.2998],[-165.6274,61.1654],[-165.5661,61.1024],[-165.4803,61.095],[-165.3809,61.1061],[-165.3793,61.1685],[-165.392,61.2125],[-165.3338,61.2659],[-165.2734,61.2749],[-165.2438,61.2686],[-165.311,61.2278],[-165.3449,61.1977],[-165.2798,61.1696],[-165.2036,61.1527],[-165.1501,61.1871],[-165.1279,61.1923],[-165.138,61.1299],[-165.0771,61.0945],[-164.9411,61.1151],[-164.8692,61.1119],[-164.8755,61.0865],[-164.9998,61.0437],[-165.1755,60.9659],[-165.1147,60.9331],[-165.0655,60.9209],[-164.8062,60.9299],[-164.8051,60.8918],[-164.8998,60.8733],[-165.0163,60.7399],[-165.3539,60.541],[-165.2247,60.5235],[-165.1131,60.5261],[-165.0263,60.5007],[-165.0485,60.4642],[-165.0612,60.4124],[-164.92,60.3483],[-164.7998,60.3071],[-164.6622,60.3039],[-164.4707,60.1494],[-164.1315,59.9943],[-164.141,59.9488],[-164.1426,59.897],[-163.9071,59.807],[-163.6806,59.8017],[-163.2192,59.8456],[-162.8779,59.9229],[-162.7324,59.9938],[-162.571,59.9896],[-162.5355,60.0382],[-162.5006,60.1266],[-162.5271,60.1991],[-162.5477,60.2309],[-162.6847,60.269],[-162.5996,60.297],[-162.4688,60.3949],[-162.2651,60.5954],[-162.2,60.6341],[-162.1381,60.6854],[-162.0683,60.695],[-161.9619,60.6955],[-161.9466,60.6849],[-162.1387,60.6145],[-162.2879,60.4568],[-162.4212,60.2838],[-162.2424,60.1785],[-162.1381,59.98],[-161.9085,59.7144],[-161.8285,59.5885],[-161.8317,59.5144],[-161.8725,59.4281],[-161.9201,59.3657],[-162.0233,59.2842],[-161.981,59.1461],[-161.891,59.0762],[-161.7947,59.1095],[-161.6444,59.1095],[-161.7889,59.0164],[-161.7905,58.9497],[-161.7804,58.8974],[-161.7243,58.7942],[-161.8566,58.7169],[-162.0085,58.6852],[-162.145,58.6444],[-162.1318,58.6434],[-161.438,55.9684],[-161.6973,55.907],[-161.9365,55.824],[-162.1572,55.7192],[-162.3493,55.5948],[-162.5133,55.4498],[-162.6588,55.3509],[-162.7863,55.2969],[-162.8573,55.253],[-162.8716,55.2186],[-162.9065,55.1953],[-162.962,55.1837],[-163.0081,55.1868],[-163.0451,55.2048],[-163.1144,55.1937],[-163.279,55.1218],[-163.3039,55.0958],[-163.306,55.0588],[-163.2859,55.0101],[-163.2965,54.9493],[-163.3377,54.8762],[-163.3351,54.8392],[-163.379,54.8154],[-163.4759,54.9805],[-163.5108,55.0143],[-163.5531,55.0376],[-163.6076,55.0509],[-163.8071,55.0493],[-163.868,55.0392],[-164.1452,54.9551],[-164.2738,54.9],[-164.4241,54.9133],[-164.4786,54.9069],[-164.53,54.881],[-164.7062,54.6921],[-164.7517,54.663],[-164.8877,54.6079],[-164.9035,54.5682],[-164.9041,54.545],[-164.866,54.4614],[-164.8236,54.419],[-164.7437,54.4074],[-164.5908,54.4042],[-164.4633,54.4275],[-164.4035,54.4476],[-164.3469,54.4825],[-164.2347,54.5714],[-164.1712,54.6032],[-164.0733,54.6212],[-163.5833,54.6254],[-163.5309,54.6381],[-163.3579,54.7355],[-163.0906,54.6704],[-163.0922,54.664],[-162.961,54.3005],[-165.0512,53.6157]],[[-166.3641,60.3647],[-166.4201,60.3817],[-166.4757,60.3827],[-166.599,60.3388],[-166.7307,60.3161],[-166.7842,60.2965],[-166.8366,60.2171],[-167.252,60.2335],[-167.3446,60.2245],[-167.4367,60.2065],[-167.2948,60.0959],[-167.1387,60.0086],[-166.9853,59.9837],[-166.6276,59.8647],[-166.3429,59.8345],[-166.2614,59.8149],[-166.1873,59.7737],[-166.1487,59.7641],[-166.1069,59.7752],[-166.1312,59.8197],[-166.1,59.8499],[-165.9465,59.8901],[-165.7693,59.8932],[-165.592,59.9134],[-165.6052,59.9726],[-165.6306,60.0282],[-165.7121,60.0695],[-165.7068,60.1007],[-165.7142,60.1727],[-165.6894,60.224],[-165.6957,60.2817],[-165.7296,60.3139],[-165.7846,60.3356],[-165.8407,60.3462],[-165.9947,60.3314],[-166.0439,60.334],[-166.1354,60.3838],[-166.1852,60.397],[-166.2471,60.3912],[-166.3641,60.3647]],[[-165.9666,54.2111],[-166.0413,54.1915],[-166.0878,54.1693],[-166.1058,54.1449],[-166.1026,54.1137],[-166.0566,54.0544],[-166.0365,54.047],[-165.9328,54.0592],[-165.91,54.0491],[-165.8793,54.0529],[-165.8418,54.0708],[-165.738,54.0809],[-165.6931,54.0999],[-165.7042,54.1201],[-165.7645,54.1523],[-165.8931,54.2068],[-165.9666,54.2111]],[[-167.0271,53.7692],[-166.9731,53.7708],[-166.8895,53.7586],[-166.7773,53.7332],[-166.7413,53.7131],[-166.8038,53.6856],[-166.8091,53.6459],[-166.8186,53.6411],[-166.8382,53.648],[-166.8943,53.6972],[-167.016,53.6983],[-167.0424,53.6544],[-167.0922,53.6358],[-167.1361,53.5263],[-167.2038,53.4951],[-167.4234,53.4374],[-167.5303,53.3935],[-167.6388,53.3866],[-167.7102,53.3707],[-167.8087,53.3236],[-167.7806,53.3004],[-167.6695,53.2602],[-167.6288,53.2596],[-167.5922,53.2728],[-167.5224,53.276],[-167.4801,53.2919],[-167.4287,53.3258],[-167.3811,53.3422],[-167.3372,53.3411],[-167.3007,53.3506],[-167.271,53.3707],[-167.1536,53.4078],[-166.9609,53.4475],[-166.8509,53.4528],[-166.7704,53.476],[-166.7022,53.5369],[-166.5223,53.6094],[-166.4439,53.6517],[-166.3545,53.6734],[-166.3095,53.6972],[-166.3387,53.7179],[-166.3847,53.7205],[-166.5493,53.7009],[-166.5455,53.7263],[-166.4889,53.7856],[-166.3191,53.874],[-166.2307,53.9327],[-166.3355,53.9708],[-166.3725,53.9989],[-166.4,53.9782],[-166.4429,53.9248],[-166.4974,53.8835],[-166.572,53.8534],[-166.6154,53.9009],[-166.6276,53.9957],[-166.6731,54.0057],[-166.7339,54.002],[-166.8488,53.9777],[-166.9779,53.9629],[-167.0382,53.9422],[-167.0906,53.9057],[-167.1181,53.8724],[-167.1213,53.8433],[-167.1054,53.8131],[-167.0715,53.7835],[-167.0271,53.7692]],[[-167.9859,53.5581],[-168.0732,53.557],[-168.1928,53.5332],[-168.2876,53.5004],[-168.3574,53.4575],[-168.3966,53.4088],[-168.4056,53.3538],[-168.3971,53.3221],[-168.3632,53.3035],[-168.3802,53.2834],[-168.4368,53.257],[-168.5723,53.2654],[-168.6389,53.2559],[-168.6897,53.2273],[-168.7596,53.1749],[-168.7776,53.149],[-168.7829,53.0792],[-168.7961,53.0448],[-168.8363,53.0199],[-168.9093,52.9511],[-168.9739,52.9098],[-169.0734,52.8643],[-169.0887,52.832],[-169.066,52.8342],[-168.7411,52.9569],[-168.6987,52.9633],[-168.5977,53.0162],[-168.549,53.0363],[-168.5056,53.0432],[-168.4458,53.0845],[-168.3701,53.1596],[-168.2706,53.2379],[-167.9642,53.3453],[-167.8653,53.3871],[-167.8431,53.4348],[-167.8044,53.4851],[-167.8283,53.5078],[-167.9859,53.5581]],[[-171.5192,63.3318],[-171.4012,63.3392],[-171.2874,63.372],[-171.1757,63.4164],[-171.0615,63.4461],[-170.954,63.4529],[-170.8482,63.4445],[-170.527,63.3794],[-170.4243,63.3492],[-170.3233,63.3111],[-170.2725,63.2841],[-170.2428,63.2323],[-170.1894,63.1963],[-170.1153,63.1937],[-169.9883,63.173],[-169.8634,63.1402],[-169.8184,63.1222],[-169.7777,63.0936],[-169.72,62.9899],[-169.6761,62.9561],[-169.6226,62.9688],[-169.5713,62.9968],[-169.5592,63.0582],[-169.4708,63.1212],[-169.365,63.1709],[-169.1088,63.1847],[-168.8522,63.1714],[-168.7612,63.2138],[-168.7162,63.3106],[-168.9961,63.3471],[-169.221,63.3487],[-169.2951,63.3577],[-169.4274,63.3482],[-169.5544,63.3736],[-169.5872,63.4064],[-169.6242,63.4307],[-169.7777,63.4482],[-170.0174,63.4916],[-170.056,63.527],[-170.0825,63.5768],[-170.1217,63.6175],[-170.1714,63.6408],[-170.2994,63.6805],[-170.4302,63.699],[-170.5519,63.6884],[-170.6725,63.6689],[-170.8747,63.5942],[-171.035,63.5852],[-171.1969,63.6091],[-171.3435,63.6196],[-171.4477,63.6159],[-171.4631,63.6403],[-171.6467,63.7271],[-171.7462,63.7032],[-171.8033,63.5805],[-171.8182,63.5297],[-171.8192,63.4773],[-171.7912,63.4249],[-171.7377,63.3942],[-171.6319,63.3514],[-171.5192,63.3318]],[[-172.6357,60.3287],[-172.3971,60.3309],[-172.232,60.2991],[-172.2775,60.3436],[-172.3875,60.3986],[-172.5262,60.3917],[-172.7421,60.4573],[-172.8601,60.5055],[-172.9241,60.6071],[-173.0474,60.5684],[-173.0739,60.4933],[-172.9585,60.4626],[-172.6357,60.3287]],[[-173.7793,52.1182],[-173.7941,52.1044],[-173.9391,52.1314],[-173.9925,52.1235],[-173.9893,52.1034],[-173.9301,52.0722],[-173.8787,52.0536],[-173.8359,52.0483],[-173.6724,52.0626],[-173.4612,52.0415],[-173.3686,52.0457],[-173.2321,52.0679],[-173.1786,52.0626],[-173.0231,52.079],[-173.0241,52.0907],[-173.1136,52.1002],[-173.3575,52.0955],[-173.5533,52.1362],[-173.657,52.1436],[-173.7793,52.1182]],[[-174.9159,52.0944],[-175.1175,52.0473],[-175.2144,52.0383],[-175.2953,52.0219],[-175.2138,51.9939],[-174.6772,52.0351],[-174.3433,52.078],[-174.1206,52.1351],[-174.1793,52.2002],[-174.1634,52.2235],[-174.055,52.2463],[-174.0301,52.2897],[-174.0184,52.332],[-174.0454,52.3675],[-174.1687,52.4204],[-174.3068,52.378],[-174.3656,52.342],[-174.4354,52.3172],[-174.4063,52.296],[-174.2587,52.269],[-174.3063,52.2161],[-174.474,52.1838],[-174.6677,52.1351],[-174.9159,52.0944]],[[-176.6981,51.9859],[-176.7452,51.8949],[-176.7362,51.8399],[-176.7738,51.8187],[-176.8743,51.7907],[-176.9617,51.6039],[-176.8373,51.6758],[-176.7712,51.6298],[-176.5574,51.7118],[-176.5108,51.7457],[-176.4695,51.7314],[-176.4526,51.7356],[-176.4373,51.7541],[-176.4373,51.8203],[-176.4732,51.8372],[-176.5881,51.833],[-176.5933,51.8669],[-176.5516,51.9198],[-176.55,51.9441],[-176.5971,51.9817],[-176.6981,51.9859]],[[-177.6549,51.6764],[-177.5776,51.6943],[-177.4744,51.7012],[-177.3823,51.7049],[-177.23,51.6933],[-177.177,51.7039],[-177.1485,51.7166],[-177.1352,51.807],[-177.1215,51.8356],[-177.0797,51.8663],[-177.0633,51.9018],[-177.1098,51.9288],[-177.1315,51.9298],[-177.1664,51.9092],[-177.2098,51.8415],[-177.2575,51.805],[-177.3347,51.7764],[-177.6676,51.7213],[-177.6702,51.7012],[-177.6549,51.6764]],[[-177.8268,51.6859],[-177.7707,51.778],[-177.7247,51.8018],[-177.6443,51.8261],[-177.7999,51.8399],[-177.866,51.8605],[-177.9539,51.9182],[-178.1168,51.9161],[-178.1682,51.9028],[-178.1946,51.8822],[-178.1533,51.8483],[-178.0449,51.8012],[-177.9861,51.7642],[-177.9771,51.7377],[-177.9999,51.7176],[-178.0787,51.6912],[-178.0592,51.6727],[-177.9253,51.6176],[-177.9015,51.6166],[-177.8792,51.6499],[-177.8268,51.6859]]]]}}
