{"type":"Feature","properties":{"id":116,"name":"East Siberian Sea","featurecla":"sea","scalerank":5,"wikidataid":"Q163434","source":"Natural Earth 5.2.0-pre ne_10m_geography_marine_polys (public domain)"},"geometry":{"type":"Polygon","coordinates":[[[156.0424,77.4701],[179.5279,71.4402],[179.2352,71.3243],[178.8913,71.2312],[178.8289,71.1777],[178.6838,71.1058],[178.6283,71.0476],[178.6484,71.0005],[178.6494,70.9994],[175.6216,69.903],[175.6226,69.8919],[175.2956,69.8601],[174.7854,69.8559],[174.3193,69.8818],[173.9483,69.8744],[173.7335,69.8913],[173.4387,69.9469],[173.3535,69.9241],[173.2773,69.8236],[173.0561,69.8649],[172.8694,69.9199],[172.5598,69.9686],[171.9703,70.0003],[171.2469,70.076],[170.8681,70.0961],[170.4865,70.1078],[170.5256,69.9379],[170.5029,69.8564],[170.3595,69.7511],[170.2013,69.6833],[170.1674,69.6352],[169.4308,69.8373],[169.4208,69.8559],[169.3748,69.8829],[168.3577,70.0157],[168.1963,70.0083],[168.0597,69.9749],[167.8645,69.9009],[167.8142,69.8728],[167.7889,69.8368],[167.8211,69.8194],[167.9926,69.7759],[168.1444,69.7135],[168.2852,69.6796],[168.1502,69.5765],[168.1497,69.5775],[168.0476,69.6257],[167.9502,69.6992],[167.8571,69.7284],[167.628,69.7405],[167.0734,69.5543],[166.8845,69.4997],[166.8204,69.4997],[165.9806,69.5458],[165.7606,69.5844],[164.5133,69.6093],[164.1593,69.7193],[163.946,69.7352],[163.7052,69.7019],[163.4978,69.6934],[163.2015,69.7146],[162.9449,69.6828],[162.3754,69.649],[162.1658,69.6114],[161.9452,69.5453],[161.5367,69.3796],[161.4801,69.3002],[161.4801,69.2018],[161.5658,69.0637],[161.5658,68.9049],[161.4954,68.8499],[161.3653,68.8229],[161.2303,68.6541],[161.1044,68.5626],[160.8562,68.5382],[160.9964,68.6076],[161.1287,68.6536],[161.3404,68.9049],[161.3097,68.9822],[161.1409,69.0388],[161.0356,69.0981],[160.9821,69.3346],[160.9287,69.4584],[160.9107,69.6061],[160.7393,69.6553],[160.1191,69.7299],[159.8322,69.785],[159.7296,69.8702],[159.8392,69.9897],[159.8312,70.0813],[159.89,70.1586],[159.983,70.2215],[160.0064,70.3099],[159.9587,70.4237],[159.9116,70.5062],[159.8047,70.6052],[159.7281,70.6496],[159.3507,70.7909],[158.702,70.9348],[158.0368,71.0391],[157.4473,71.0745],[156.6848,71.0936],[155.8952,71.0957],[155.5958,71.0386],[155.0296,71.0343],[154.4142,70.9745],[153.794,70.8798],[153.4606,70.8787],[152.7986,70.8354],[152.5086,70.8343],[151.762,70.9825],[151.9995,71.0026],[152.0927,71.0232],[151.7599,71.2179],[151.5825,71.2867],[151.1455,71.3735],[150.9677,71.3804],[150.8216,71.3629],[150.2427,71.2671],[150.0977,71.2264],[150.3845,71.3386],[150.5253,71.3857],[150.6676,71.455],[150.6348,71.4989],[150.5999,71.5201],[150.0607,71.5106],[150.0263,71.5212],[149.9125,71.581],[149.857,71.6016],[149.4982,71.664],[149.2378,71.6878],[148.9679,71.6905],[148.9234,71.7148],[148.9547,71.7439],[148.9653,71.763],[149.0489,71.7958],[149.2796,71.8254],[149.8813,71.8429],[150.0168,71.8958],[149.9983,71.9503],[149.9633,71.9921],[149.7659,72.0911],[149.5013,72.1641],[148.9648,72.2525],[148.4022,72.3117],[147.4339,72.3408],[147.2619,72.3281],[147.149,72.298],[146.8248,72.279],[146.8317,72.2953],[146.5941,72.3022],[146.2364,72.2927],[146.2348,72.3498],[146.2528,72.4425],[146.0835,72.4715],[145.7141,72.4975],[145.4855,72.5419],[145.1992,72.57],[144.5685,72.6102],[144.3039,72.643],[143.6811,72.6731],[143.6271,72.6811],[143.6287,72.6917],[143.5286,73.2235],[143.4514,73.2314],[143.4911,73.2463],[143.4641,73.459],[143.4107,73.5209],[143.344,73.5685],[142.6391,73.8029],[142.4349,73.8516],[142.1845,73.8961],[141.9316,73.9151],[141.6818,73.904],[141.312,73.8717],[141.1898,73.8765],[141.085,73.8659],[140.9834,73.8315],[140.8839,73.7775],[140.6976,73.6294],[140.5933,73.5648],[140.3807,73.4828],[140.1552,73.4574],[139.9203,73.4484],[139.7224,73.4293],[139.6911,73.4484],[140.432,73.8717],[140.4336,73.9209],[140.5071,73.9188],[141.0103,73.9993],[141.0468,74.0506],[141.0977,74.168],[141.0797,74.2093],[141.0384,74.2427],[140.9442,74.2649],[140.849,74.2739],[140.4076,74.2665],[140.3002,74.2575],[140.1933,74.2368],[140.1875,74.2331],[139.3112,74.6829],[139.3255,74.6866],[139.4303,74.7491],[139.5122,74.838],[139.5477,74.9041],[139.6059,74.9454],[139.6811,74.9639],[139.7583,74.9639],[140.0108,74.8946],[140.268,74.847],[140.4637,74.8559],[140.6606,74.8819],[141.3104,74.9232],[141.53,74.947],[141.7485,74.9825],[141.9872,74.9914],[142.0999,74.9512],[142.1841,74.8994],[142.2872,74.8502],[142.3783,74.8285],[142.473,74.8205],[142.6259,74.8374],[142.7783,74.8676],[143.1281,74.9703],[142.9296,75.0623],[142.6968,75.1031],[142.6169,75.1332],[142.2645,75.346],[142.1988,75.3926],[142.1513,75.4576],[142.0861,75.6608],[142.3079,75.6915],[142.5512,75.7212],[142.9418,75.7132],[143.0027,75.6598],[142.9862,75.6333],[142.8677,75.5719],[142.7344,75.5444],[142.6994,75.4486],[142.7296,75.3375],[142.8201,75.2677],[142.9222,75.2174],[143.1704,75.1168],[143.3963,75.083],[143.626,75.084],[144.0197,75.0449],[144.216,75.0592],[144.4076,75.102],[144.8833,75.2687],[144.814,75.3243],[144.7267,75.3656],[144.8034,75.4158],[145.0235,75.4899],[145.3601,75.5306],[145.3098,75.564],[145.2554,75.5857],[143.6858,75.8635],[143.5599,75.8603],[143.3112,75.8222],[143.1852,75.8138],[142.927,75.827],[142.6698,75.8635],[142.4603,75.9037],[142.0015,76.0434],[141.7422,76.108],[141.4856,76.1371],[141.2993,76.0635],[141.0326,75.9889],[140.9855,75.9646],[140.95,75.9275],[140.9257,75.8667],[140.9267,75.7989],[140.9405,75.7497],[140.9442,75.7005],[140.8892,75.6518],[140.8161,75.6307],[140.6569,75.6344],[140.6018,75.6439],[140.5468,75.6629],[140.496,75.6899],[140.3891,75.7958],[140.2743,75.8222],[140.152,75.8095],[140.0488,75.8291],[139.7435,75.9529],[139.5287,76.0133],[139.2112,76.081],[139.1091,76.1085],[139.0175,76.1604],[138.9196,76.1969],[138.8428,76.199],[138.8445,76.253],[156.0424,77.4701]],[[161.4224,68.8997],[161.4669,68.9007],[161.5066,68.9277],[161.5171,68.9695],[161.4949,69.0161],[161.3944,69.1066],[161.3775,69.1944],[161.3727,69.2929],[161.351,69.3696],[161.3743,69.4135],[161.5405,69.4368],[161.6092,69.5008],[161.6177,69.5923],[161.5209,69.6341],[161.505,69.6394],[161.4097,69.5955],[161.3235,69.541],[161.1108,69.4696],[161.0827,69.4055],[161.1647,69.3336],[161.1255,69.1971],[161.1367,69.1103],[161.1827,69.0817],[161.3642,69.0446],[161.4611,68.9954],[161.4563,68.9658],[161.4224,68.8997]],[[150.757,75.1623],[150.6904,75.1555],[150.6126,75.12],[150.5306,75.0999],[150.4173,75.1343],[150.2808,75.1639],[150.1041,75.219],[149.6453,75.2444],[149.0833,75.2618],[148.8923,75.228],[148.5901,75.2364],[148.4748,75.2724],[148.4891,75.3095],[148.5187,75.3365],[148.5086,75.3872],[148.4325,75.4137],[147.4969,75.4407],[147.4434,75.438],[147.0603,75.3645],[146.7952,75.3709],[146.7481,75.4285],[146.7508,75.5106],[146.5375,75.582],[146.4385,75.5582],[146.3427,75.4809],[146.2576,75.3936],[146.1861,75.2957],[146.1486,75.1983],[146.7031,75.1142],[146.9248,75.0623],[147.1439,74.9983],[147.2572,74.984],[147.627,74.9591],[147.7408,74.9322],[147.9721,74.8576],[148.0922,74.8258],[148.297,74.8004],[149.05,74.7724],[149.5971,74.7724],[149.8379,74.7951],[150.3311,74.8665],[150.5803,74.9189],[150.6465,74.9443],[150.8221,75.1565],[150.757,75.1623]],[[149.4066,76.7821],[148.7197,76.7467],[148.4483,76.6768],[148.3985,76.6483],[149.15,76.6599],[149.205,76.6768],[149.2685,76.7472],[149.4066,76.7821]]]}}
