{"type":"Feature","properties":{"id":117,"name":"Lincoln Sea","featurecla":"sea","scalerank":5,"wikidataid":"Q243125","source":"Natural Earth 5.2.0-pre ne_10m_geography_marine_polys (public domain)"},"geometry":{"type":"Polygon","coordinates":[[[-69.8589,83.1321],[-40.3583,83.4671],[-38.7613,83.4851],[-38.7497,83.3708],[-38.7476,83.3327],[-38.6428,83.2861],[-38.5396,83.2581],[-37.993,83.1851],[-37.9348,83.1607],[-38.0147,83.0946],[-38.0369,83.0464],[-38.0988,83.0136],[-38.1565,82.9988],[-38.2782,82.9988],[-38.9312,83.1755],[-39.3159,83.2041],[-39.5884,83.2554],[-39.8863,83.2988],[-40.3568,83.3321],[-40.6896,83.275],[-40.9796,83.1851],[-41.3003,83.1009],[-41.522,83.1268],[-41.6834,83.13],[-41.8199,83.148],[-42.0543,83.2052],[-42.2596,83.2321],[-42.7756,83.2586],[-43.0095,83.2644],[-43.1947,83.2549],[-44.1975,83.1469],[-44.6568,83.129],[-45.1219,83.0787],[-45.4145,83.0178],[-45.9088,83.0612],[-46.1691,83.0639],[-46.4782,82.9517],[-46.1368,82.8586],[-45.8733,82.8548],[-45.3029,82.8649],[-45.0277,82.8855],[-44.7621,82.8834],[-44.2393,82.857],[-41.4347,82.7786],[-41.3696,82.7501],[-41.3574,82.7051],[-41.8765,82.6802],[-41.9765,82.6892],[-42.0548,82.7099],[-42.2332,82.7257],[-42.6507,82.7416],[-45.0674,82.785],[-45.3595,82.7707],[-45.5564,82.7469],[-45.5526,82.7252],[-44.5774,82.5426],[-44.3266,82.4717],[-44.2387,82.368],[-44.3334,82.3109],[-44.5472,82.2601],[-44.6372,82.1045],[-44.6277,82.0256],[-44.5911,81.9569],[-44.5271,81.8971],[-44.5324,81.8489],[-44.6076,81.8129],[-44.7293,81.7796],[-44.8912,81.788],[-45.2912,81.8288],[-46.6173,82.0971],[-47.3576,82.1738],[-48.861,82.4056],[-50.0373,82.4723],[-50.8195,82.4738],[-50.9898,82.4601],[-50.9353,82.3828],[-50.7131,82.2373],[-50.3951,82.1209],[-49.6944,81.9722],[-49.541,81.9182],[-49.6489,81.8976],[-49.867,81.8928],[-50.3601,81.9092],[-50.8946,81.895],[-51.3518,82.0256],[-51.7539,82.078],[-52.7758,82.322],[-53.0224,82.322],[-53.1107,82.2511],[-53.1017,82.1188],[-52.9255,82.0384],[-52.9684,81.9669],[-53.0414,81.8711],[-53.1451,81.7997],[-53.2801,81.7537],[-53.4304,81.6886],[-53.5558,81.6531],[-53.5907,81.6769],[-53.5955,81.7383],[-53.5822,82.0616],[-53.6711,82.1643],[-53.8531,82.2368],[-53.9876,82.2791],[-54.277,82.3262],[-54.549,82.3506],[-54.7257,82.3516],[-55.3438,82.2998],[-55.4862,82.2828],[-55.5486,82.2458],[-56.2122,82.2209],[-56.5895,82.2273],[-57.3451,82.1881],[-57.3462,82.2077],[-61.217,82.3315],[-61.207,82.341],[-61.3028,82.3998],[-61.3927,82.4421],[-61.4769,82.4675],[-61.697,82.4887],[-62.4754,82.5194],[-63.2469,82.45],[-63.2506,82.467],[-63.0871,82.5326],[-63.0855,82.5654],[-63.3856,82.6533],[-63.5925,82.694],[-63.6427,82.713],[-63.6205,82.7294],[-63.5639,82.7485],[-63.4729,82.7713],[-63.4988,82.7924],[-63.6411,82.8125],[-63.9835,82.8289],[-64.1343,82.8231],[-64.4333,82.7776],[-64.5042,82.7786],[-64.6349,82.8189],[-64.7767,82.8765],[-64.9048,82.9009],[-64.9837,82.9025],[-65.1133,82.8887],[-65.1625,82.8702],[-65.2466,82.8183],[-65.299,82.7998],[-65.4001,82.8025],[-65.5498,82.8268],[-65.7277,82.8427],[-66.1203,82.8072],[-66.6119,82.7421],[-66.8659,82.7189],[-66.9977,82.7162],[-67.3972,82.6681],[-67.7358,82.6522],[-68.1729,82.6458],[-68.4693,82.6533],[-68.3576,82.677],[-66.8363,82.8178],[-66.6002,82.8612],[-66.4246,82.9062],[-66.4225,82.9268],[-66.5918,82.9443],[-67.4056,82.9538],[-67.6247,82.9644],[-67.9248,82.9559],[-68.1068,82.9612],[-68.4089,83.0051],[-68.6735,82.9988],[-69.489,83.0168],[-69.5694,83.0247],[-69.7821,83.0924],[-69.8636,83.1083],[-69.8589,83.1321]],[[-46.7517,82.3484],[-46.1612,82.2775],[-45.4907,82.1717],[-45.0674,82.0658],[-44.8647,82.0839],[-44.7764,82.2426],[-44.7499,82.4014],[-44.9176,82.4807],[-45.4114,82.5776],[-46.3993,82.6924],[-46.7872,82.6659],[-47.2724,82.6569],[-47.3513,82.5993],[-47.3074,82.5336],[-46.7517,82.3484]]]}}
