{"type":"Feature","properties":{"id":118,"name":"Bass Strait","featurecla":"strait","scalerank":5,"wikidataid":"Q171846","source":"Natural Earth 5.2.0-pre ne_10m_geography_marine_polys (public domain)"},"geometry":{"type":"Polygon","coordinates":[[[148.161,-40.5108],[148.1171,-40.5214],[148.1271,-40.5442],[148.1429,-40.5569],[148.0541,-40.7892],[148.0329,-40.7807],[147.9689,-40.7796],[147.8731,-40.8728],[147.8176,-40.8717],[147.6217,-40.8447],[147.5794,-40.8754],[147.5006,-40.9643],[147.4545,-41.0019],[147.3879,-40.9855],[147.3207,-40.9564],[147.2688,-40.9596],[147.2191,-40.9834],[147.1058,-40.9945],[146.9899,-40.9924],[146.9195,-41.0178],[146.8566,-41.0585],[146.8359,-41.1093],[146.8481,-41.1681],[146.7862,-41.1136],[146.7232,-41.0781],[146.6507,-41.1162],[146.5745,-41.1427],[146.3173,-41.1633],[146.111,-41.1183],[145.8215,-41.0246],[145.7755,-40.9971],[145.7337,-40.9622],[145.6861,-40.9389],[145.5765,-40.904],[145.5337,-40.8638],[145.485,-40.8521],[145.4294,-40.858],[145.3495,-40.8262],[145.2828,-40.7701],[145.2241,-40.7654],[145.1585,-40.7907],[145.0431,-40.7865],[144.8188,-40.7214],[144.7187,-40.6722],[144.7076,-40.6357],[143.9869,-40.0954],[143.9869,-40.0949],[144.0351,-40.078],[144.1118,-40.0219],[144.1409,-39.9536],[144.106,-39.8743],[144.1208,-39.7853],[144.0912,-39.6383],[144.0007,-39.58],[143.9499,-39.5837],[143.5535,-38.8154],[143.6869,-38.7667],[143.8117,-38.699],[144.1017,-38.4624],[144.3287,-38.3481],[144.4478,-38.3037],[144.5436,-38.2841],[144.6653,-38.21],[144.5897,-38.1576],[144.5177,-38.1666],[144.3955,-38.137],[144.4652,-38.1026],[144.5383,-38.0772],[144.8912,-37.8999],[144.9849,-37.9523],[145.0495,-38.0111],[145.1199,-38.0915],[145.0669,-38.2047],[145.0204,-38.2582],[144.9114,-38.3439],[144.7801,-38.3471],[144.7177,-38.3402],[144.8474,-38.4365],[144.9595,-38.5005],[145.1913,-38.3836],[145.249,-38.2915],[145.2929,-38.2375],[145.3665,-38.2259],[145.476,-38.2439],[145.5183,-38.3116],[145.5422,-38.3936],[145.4628,-38.4164],[145.4241,-38.4772],[145.3972,-38.5355],[145.5353,-38.6095],[145.6062,-38.6566],[145.6919,-38.6556],[145.7908,-38.6672],[145.8654,-38.7762],[145.9353,-38.9017],[146.0184,-38.8672],[146.0697,-38.8339],[146.1581,-38.8656],[146.2544,-38.9646],[146.3322,-39.0768],[146.3401,-39.1239],[146.3999,-39.1456],[146.4565,-39.1122],[146.484,-39.0652],[146.4814,-38.9778],[146.4666,-38.8403],[146.4269,-38.8196],[146.3364,-38.8942],[146.2856,-38.8403],[146.2163,-38.7826],[146.2174,-38.7276],[146.2925,-38.6995],[146.3565,-38.7116],[146.4359,-38.7116],[146.8566,-38.6635],[147.3958,-38.219],[147.6312,-38.0555],[147.8768,-37.9343],[148.1308,-37.856],[148.2626,-37.8306],[148.9442,-37.7883],[149.2981,-37.802],[149.4394,-37.7782],[149.4437,-37.8047],[147.9514,-39.7345],[147.9329,-39.7261],[147.8393,-39.8314],[147.7672,-39.8705],[147.8122,-39.9102],[147.8763,-39.9055],[147.9059,-39.9716],[147.8906,-40.0145],[148.025,-40.1722],[148.0467,-40.2129],[148.0737,-40.241],[148.1054,-40.2621],[148.1594,-40.2473],[148.1716,-40.3579],[148.0588,-40.3569],[148.0102,-40.3806],[148.0202,-40.4039],[148.1028,-40.4516],[148.1821,-40.4558],[148.161,-40.5108]]]}}
