{"type":"Feature","properties":{"id":120,"name":"Dixon Entrance","featurecla":"channel","scalerank":5,"wikidataid":"Q1231779","source":"Natural Earth 5.2.0-pre ne_10m_geography_marine_polys (public domain)"},"geometry":{"type":"Polygon","coordinates":[[[-133.0541,54.1603],[-132.8191,54.7122],[-132.817,54.7154],[-132.8075,54.709],[-132.7059,54.6841],[-132.7059,54.6804],[-132.1682,54.7159],[-132.1645,54.7249],[-132.1344,54.7127],[-132.0645,54.7133],[-132.0217,54.7265],[-132.0195,54.7307],[-131.6824,54.1439],[-131.6824,54.1423],[-131.6957,54.1433],[-131.8195,54.0772],[-131.9407,54.0417],[-132.1243,54.0348],[-132.1243,54.037],[-132.2831,54.0899],[-132.2841,54.0883],[-132.3032,54.0989],[-132.3444,54.1063],[-132.564,54.0687],[-132.6556,54.1274],[-132.8932,54.1407],[-132.9916,54.1576],[-133.0482,54.1587],[-133.0503,54.1566],[-133.0541,54.1603]]]}}
