{"type":"Feature","properties":{"id":121,"name":"M'Clure Strait","featurecla":"strait","scalerank":5,"wikidataid":"Q1135336","source":"Natural Earth 5.2.0-pre ne_10m_geography_marine_polys (public domain)"},"geometry":{"type":"Polygon","coordinates":[[[-122.8803,76.1376],[-122.6845,76.1625],[-122.6242,76.1672],[-122.593,76.1619],[-122.5877,76.1529],[-122.6094,76.1403],[-122.6088,76.1212],[-122.548,76.0974],[-122.5464,76.0805],[-122.6072,76.0387],[-122.6459,76.0312],[-122.6406,76.009],[-122.5908,75.973],[-122.5332,75.9508],[-122.4004,75.9445],[-122.303,75.9598],[-122.0575,76.018],[-121.9082,76.0349],[-121.6944,76.0201],[-121.4277,75.981],[-121.3203,75.9773],[-121.2134,75.9836],[-121.0192,76.0201],[-120.9002,76.1635],[-120.8483,76.1826],[-120.8134,76.1794],[-120.7716,76.1662],[-120.7287,76.1339],[-120.6372,76.0339],[-120.5631,76.0085],[-120.5139,75.9582],[-120.4583,75.8704],[-120.4091,75.8254],[-120.3652,75.8249],[-120.1604,75.8519],[-119.918,75.8587],[-119.918,75.8561],[-119.3444,75.6476],[-119.3947,75.6175],[-119.383,75.601],[-119.3063,75.5852],[-119.0867,75.5693],[-118.8174,75.5222],[-118.6136,75.5153],[-118.3284,75.5799],[-118.2983,75.5889],[-117.5971,75.2888],[-117.6003,75.2719],[-117.5654,75.2333],[-117.5018,75.2036],[-117.005,75.156],[-116.8409,75.1518],[-116.4763,75.1719],[-116.1424,75.0417],[-115.7286,74.9682],[-115.6831,74.974],[-115.609,75.0094],[-115.5741,75.056],[-115.5371,75.0808],[-115.4783,75.1042],[-115.4132,75.1153],[-115.3429,75.1131],[-115.2799,75.1015],[-115.174,75.0486],[-115.1285,75.0094],[-115.0772,74.9851],[-115.0418,74.9798],[-114.3655,74.6787],[-114.3771,74.6707],[-114.348,74.6528],[-115.4344,73.5664],[-115.4556,73.5849],[-115.5106,73.6188],[-115.6344,73.6653],[-115.9577,73.7479],[-116.7224,74.0273],[-116.9505,74.1014],[-117.1986,74.1712],[-117.5151,74.2315],[-117.7077,74.2522],[-117.9659,74.266],[-118.1998,74.2665],[-118.5438,74.2448],[-118.6253,74.2326],[-118.7443,74.1919],[-119.0259,74.0448],[-119.0825,74.0209],[-119.1179,74.0157],[-119.1317,74.0278],[-119.1386,74.1273],[-119.1497,74.168],[-119.1714,74.186],[-119.2058,74.1982],[-119.3148,74.2061],[-119.4709,74.2014],[-119.7286,74.1083],[-119.7365,74.1125],[-119.7371,74.1299],[-119.7153,74.1538],[-119.5624,74.2326],[-119.9434,74.2538],[-120.5546,74.3527],[-120.8816,74.421],[-121.1288,74.4903],[-121.315,74.53],[-121.5039,74.5453],[-121.7479,74.5406],[-122.6231,74.4644],[-123.4682,74.4363],[-124.6863,74.3485],[-122.8803,76.1376]],[[-120.9139,75.9376],[-120.9928,75.9275],[-121.0425,75.9032],[-121.0182,75.8836],[-121.0155,75.8677],[-121.0261,75.8476],[-121.2208,75.7772],[-121.2409,75.7518],[-121.1541,75.7407],[-121.0764,75.7455],[-121.0065,75.7656],[-120.9552,75.7889],[-120.9213,75.8143],[-120.897,75.8444],[-120.8785,75.9069],[-120.888,75.9281],[-120.9139,75.9376]]]}}
