{"type":"Feature","properties":{"id":122,"name":"Boca Grande","featurecla":"bay","scalerank":5,"source":"Natural Earth 5.2.0-pre ne_10m_geography_marine_polys (public domain)"},"geometry":{"type":"Polygon","coordinates":[[[-60.3307,8.6281],[-60.3402,8.6286],[-60.4042,8.6101],[-60.4815,8.5472],[-60.8011,8.5921],[-60.8651,8.5789],[-61.0361,8.4932],[-61.1938,8.4874],[-61.3038,8.4106],[-61.4425,8.5085],[-61.5271,8.5461],[-61.6187,8.5974],[-61.2472,8.6006],[-61.1758,8.7255],[-61.1223,8.8435],[-61.0932,8.9657],[-61.0535,9.0351],[-61.053,9.0954],[-61.0233,9.1546],[-60.971,9.215],[-60.8408,9.2636],[-60.7937,9.3578],[-60.3307,8.6281]]]}}
