{"type":"Feature","properties":{"id":123,"name":"Baía de Marajó","featurecla":"bay","scalerank":7,"source":"Natural Earth 5.2.0-pre ne_10m_geography_marine_polys (public domain)"},"geometry":{"type":"Polygon","coordinates":[[[-48.035,-0.7058],[-48.0688,-0.7138],[-48.1149,-0.7376],[-48.1286,-0.7953],[-48.2017,-0.8281],[-48.2662,-0.8953],[-48.3175,-0.9604],[-48.3064,-1.0398],[-48.4498,-1.1456],[-48.4086,-1.2292],[-48.4779,-1.3239],[-48.4678,-1.3938],[-48.4514,-1.4356],[-48.3498,-1.4821],[-48.4456,-1.5203],[-48.4631,-1.6139],[-48.5297,-1.5673],[-48.6001,-1.4885],[-48.7102,-1.488],[-48.9912,-1.8298],[-49.1547,-1.8785],[-49.2108,-1.9166],[-49.4076,-2.3441],[-49.4574,-2.5045],[-49.5241,-2.5971],[-49.5759,-2.6315],[-49.6368,-2.6569],[-49.5992,-2.5839],[-49.5531,-2.5198],[-49.5071,-2.2801],[-49.46,-2.1918],[-49.3986,-1.9716],[-49.3134,-1.7319],[-49.5854,-1.8674],[-49.7193,-1.9267],[-49.7378,-1.9208],[-49.7886,-1.78],[-49.7489,-1.7552],[-49.6505,-1.7382],[-49.5881,-1.7123],[-49.5256,-1.6303],[-49.5066,-1.5118],[-49.4066,-1.5557],[-49.3447,-1.5954],[-49.2341,-1.5996],[-49.2049,-1.5589],[-49.1817,-1.4848],[-49.1727,-1.4128],[-49.0869,-1.5049],[-49.0383,-1.5139],[-48.9859,-1.5049],[-48.9287,-1.4821],[-48.8335,-1.39],[-48.8038,-1.3271],[-48.8292,-1.2763],[-48.8398,-1.2265],[-48.7901,-1.1731],[-48.7287,-1.1318],[-48.7044,-1.1064],[-48.6239,-0.9869],[-48.571,-0.8927],[-48.5493,-0.8476],[-48.5398,-0.8011],[-48.5668,-0.6847],[-48.5234,-0.6916],[-48.4974,-0.6651],[-48.4641,-0.535],[-48.4281,-0.4413],[-48.3794,-0.3529],[-48.389,-0.3122],[-48.035,-0.7058]]]}}
