{"type":"Feature","properties":{"id":124,"name":"Golfo San Matías","featurecla":"gulf","scalerank":5,"wikidataid":"Q1459954","source":"Natural Earth 5.2.0-pre ne_10m_geography_marine_polys (public domain)"},"geometry":{"type":"Polygon","coordinates":[[[-63.403,-41.1691],[-63.7856,-42.1195],[-63.7957,-42.1137],[-63.893,-42.1248],[-64.083,-42.183],[-64.2285,-42.2185],[-64.2529,-42.2508],[-64.0613,-42.2661],[-64.0624,-42.3534],[-64.101,-42.3952],[-64.2645,-42.4216],[-64.4206,-42.4338],[-64.5709,-42.4158],[-64.5741,-42.356],[-64.5243,-42.2994],[-64.5116,-42.2703],[-64.5376,-42.2544],[-64.6222,-42.2608],[-64.6995,-42.2211],[-64.8979,-42.1618],[-64.9863,-42.102],[-65.0593,-41.9697],[-65.0069,-41.7448],[-65.018,-41.567],[-65.1281,-41.239],[-65.1551,-41.1056],[-65.1519,-40.9469],[-65.1334,-40.8807],[-65.0694,-40.8051],[-64.917,-40.7315],[-64.8693,-40.7357],[-64.8043,-40.7564],[-64.8196,-40.7934],[-64.8529,-40.814],[-64.6217,-40.8542],[-64.3836,-40.9225],[-64.1232,-41.0077],[-63.7729,-41.15],[-63.6216,-41.1596],[-63.403,-41.1559],[-63.403,-41.1691]]]}}
