{"type":"Feature","properties":{"id":125,"name":"Golfo Corcovado","featurecla":"gulf","scalerank":5,"wikidataid":"Q2328243","source":"Natural Earth 5.2.0-pre ne_10m_geography_marine_polys (public domain)"},"geometry":{"type":"Polygon","coordinates":[[[-73.5487,-41.793],[-73.5482,-41.7909],[-73.5212,-41.7972],[-73.2418,-41.7808],[-73.1741,-41.7464],[-73.0148,-41.5438],[-72.9529,-41.5147],[-72.8799,-41.5178],[-72.8053,-41.5443],[-72.6698,-41.6596],[-72.601,-41.684],[-72.5423,-41.6909],[-72.428,-41.6459],[-72.3597,-41.5141],[-72.3184,-41.4988],[-72.3602,-41.6491],[-72.4862,-41.7221],[-72.6597,-41.7427],[-72.7439,-41.8004],[-72.7836,-41.847],[-72.8243,-41.9089],[-72.7814,-41.9597],[-72.7381,-41.9946],[-72.6238,-42.0105],[-72.4994,-41.9808],[-72.4602,-42.2068],[-72.4121,-42.3883],[-72.4301,-42.4338],[-72.5486,-42.256],[-72.6312,-42.2],[-72.7074,-42.2206],[-72.7735,-42.2576],[-72.7851,-42.3016],[-72.7164,-42.4105],[-72.6317,-42.5095],[-72.655,-42.5164],[-72.774,-42.5053],[-72.8481,-42.6693],[-72.845,-42.8079],[-72.7661,-42.9085],[-72.7555,-42.9931],[-72.7582,-43.0397],[-72.8777,-43.0482],[-72.9153,-43.1334],[-72.9402,-43.2112],[-73.0762,-43.3233],[-73.1011,-43.4551],[-72.9968,-43.6313],[-73.0688,-43.862],[-73.2244,-43.898],[-73.2408,-44.0658],[-73.2651,-44.1684],[-73.1407,-44.2372],[-73.001,-44.2922],[-72.8275,-44.3954],[-72.664,-44.4362],[-72.6798,-44.5939],[-72.7391,-44.7341],[-73.0783,-44.9204],[-73.2566,-44.9611],[-73.3625,-44.9781],[-73.4048,-45.1024],[-73.445,-45.2384],[-73.2265,-45.2553],[-73.064,-45.3596],[-72.9756,-45.3924],[-72.9407,-45.4173],[-72.9338,-45.4522],[-72.9783,-45.4511],[-73.2021,-45.3538],[-73.2662,-45.3464],[-73.3783,-45.3829],[-73.5498,-45.4839],[-73.7239,-45.4802],[-73.8361,-45.3363],[-73.8403,-45.3321],[-73.8345,-45.3268],[-73.8297,-45.2834],[-73.771,-45.2765],[-73.7519,-45.267],[-73.7281,-45.1961],[-73.7218,-45.1574],[-73.7271,-45.1188],[-73.7863,-45.0336],[-73.7953,-44.9786],[-73.7922,-44.9458],[-73.8281,-44.8399],[-73.8773,-44.7288],[-73.9186,-44.6547],[-74.0022,-44.5907],[-73.9959,-44.5378],[-73.9832,-44.4949],[-73.8625,-44.4452],[-73.7847,-44.4378],[-73.7355,-44.3944],[-73.7038,-44.3256],[-73.7032,-44.2742],[-73.8176,-44.2351],[-73.8647,-44.1854],[-73.9001,-44.1346],[-73.9027,-44.1346],[-73.9557,-43.9218],[-73.9382,-43.9144],[-73.9043,-43.8753],[-73.8334,-43.8832],[-73.7895,-43.8763],[-73.8107,-43.8271],[-73.8414,-43.789],[-73.8567,-43.7837],[-73.8551,-43.7742],[-73.8673,-43.3683],[-73.8488,-43.3668],[-73.7736,-43.3461],[-73.7376,-43.2916],[-73.7498,-43.1593],[-73.6498,-43.127],[-73.5408,-43.0736],[-73.4725,-42.9931],[-73.4365,-42.9366],[-73.5106,-42.8471],[-73.5683,-42.7614],[-73.6731,-42.7042],[-73.7668,-42.6217],[-73.7895,-42.5857],[-73.7149,-42.5449],[-73.6535,-42.5286],[-73.6339,-42.5084],[-73.5493,-42.4925],[-73.4709,-42.4661],[-73.5244,-42.3926],[-73.5329,-42.3142],[-73.4392,-42.2777],[-73.4228,-42.193],[-73.4546,-42.1661],[-73.4778,-42.047],[-73.517,-41.9808],[-73.5281,-41.8962],[-73.5376,-41.8951],[-73.5487,-41.793]],[[-73.208,-44.3351],[-73.2598,-44.3505],[-73.2715,-44.3944],[-73.2662,-44.4404],[-73.282,-44.4896],[-73.3148,-44.5314],[-73.4038,-44.596],[-73.445,-44.641],[-73.4201,-44.7246],[-73.3969,-44.7743],[-73.3498,-44.8331],[-73.2286,-44.8601],[-72.9862,-44.7802],[-72.8973,-44.7119],[-72.8455,-44.6383],[-72.764,-44.5489],[-72.7761,-44.5087],[-72.8423,-44.4579],[-73.0286,-44.3843],[-73.208,-44.3351]],[[-73.7239,-44.5442],[-73.7794,-44.5589],[-73.817,-44.614],[-73.8186,-44.6521],[-73.8001,-44.6838],[-73.735,-44.7516],[-73.725,-44.7971],[-73.6948,-44.831],[-73.6646,-44.8331],[-73.6323,-44.8214],[-73.6165,-44.7532],[-73.6281,-44.6807],[-73.6413,-44.6108],[-73.6863,-44.5463],[-73.7239,-44.5442]]]}}
