{"type":"Feature","properties":{"id":126,"name":"Wrigley Gulf","featurecla":"gulf","scalerank":5,"wikidataid":"Q281638","source":"Natural Earth 5.2.0-pre ne_10m_geography_marine_polys (public domain)"},"geometry":{"type":"Polygon","coordinates":[[[-124.8827,-74.7241],[-125.3536,-74.7146],[-126.3839,-74.7426],[-127.02,-74.6977],[-127.8635,-74.7193],[-128.9408,-74.8204],[-129.2382,-74.8289],[-129.7907,-74.8913],[-130.1955,-74.8908],[-130.8575,-74.8262],[-131.7068,-74.8109],[-132.0492,-74.7659],[-132.3513,-74.7892],[-132.9916,-74.8061],[-133.4747,-74.8516],[-133.7965,-74.8548],[-134.1172,-74.83],[-134.4654,-74.776],[-134.8405,-74.6939],[-134.94,-74.6934],[-127.2676,-73.3038],[-127.3941,-73.3821],[-127.429,-73.4467],[-127.4142,-73.5165],[-127.3322,-73.5673],[-127.2327,-73.5853],[-127.2316,-73.7134],[-127.2115,-73.7245],[-127.1221,-73.7341],[-127.0062,-73.7261],[-126.9014,-73.6769],[-126.8385,-73.6573],[-126.7109,-73.6536],[-126.5829,-73.67],[-126.5384,-73.68],[-126.4961,-73.7002],[-126.4654,-73.7462],[-126.4718,-73.8123],[-126.2442,-73.8907],[-125.887,-73.9547],[-125.6828,-74.0356],[-125.5494,-74.0627],[-125.4208,-74.0701],[-125.0896,-74.1822],[-124.9351,-74.2007],[-124.8827,-74.7241]],[[-128.1333,-74.3272],[-128.0963,-74.4664],[-128.0704,-74.478],[-128.0,-74.4897],[-127.9153,-74.5426],[-127.8169,-74.5749],[-127.5179,-74.6405],[-127.366,-74.6225],[-127.2322,-74.5786],[-127.1454,-74.4802],[-127.2295,-74.4251],[-127.4867,-74.405],[-127.8529,-74.332],[-128.0429,-74.3124],[-128.1333,-74.3272]],[[-131.7629,-74.3235],[-131.938,-74.3489],[-132.1624,-74.4256],[-132.0492,-74.4638],[-132.0248,-74.4886],[-131.9523,-74.5146],[-131.8407,-74.5426],[-131.5978,-74.5537],[-131.1787,-74.6051],[-131.0665,-74.5839],[-130.9676,-74.5151],[-130.957,-74.4563],[-130.9813,-74.414],[-131.2337,-74.4135],[-131.5597,-74.3674],[-131.5941,-74.3299],[-131.7629,-74.3235]],[[-132.5524,-74.3865],[-132.8318,-74.4214],[-132.8572,-74.4617],[-132.5461,-74.4987],[-132.391,-74.4421],[-132.3624,-74.4098],[-132.5524,-74.3865]]]}}
