{"type":"Feature","properties":{"id":127,"name":"Sulzberger Bay","featurecla":"bay","scalerank":5,"wikidataid":"Q281737","source":"Natural Earth 5.2.0-pre ne_10m_geography_marine_polys (public domain)"},"geometry":{"type":"Polygon","coordinates":[[[-148.4639,-76.1195],[-148.6317,-76.1682],[-148.7804,-76.238],[-148.8947,-76.2719],[-149.2852,-76.3111],[-149.654,-76.3651],[-149.3397,-76.419],[-149.046,-76.4582],[-148.601,-76.4931],[-147.3405,-76.4386],[-146.7764,-76.5069],[-146.1663,-76.6577],[-145.7503,-76.7492],[-145.6757,-76.7969],[-145.6858,-76.8847],[-145.6292,-76.954],[-145.8064,-77.0122],[-145.934,-77.0291],[-145.9668,-77.0688],[-145.8641,-77.0943],[-145.753,-77.1033],[-145.563,-77.1614],[-145.5159,-77.199],[-145.6345,-77.2212],[-145.808,-77.2731],[-145.7943,-77.3303],[-145.7138,-77.3382],[-145.6498,-77.3985],[-145.6006,-77.4551],[-145.6773,-77.4879],[-146.0737,-77.4869],[-146.3906,-77.4726],[-146.9277,-77.2599],[-147.2072,-77.2858],[-147.4421,-77.3207],[-147.5665,-77.3255],[-147.73,-77.3096],[-148.1962,-77.2112],[-148.5724,-77.1054],[-148.7777,-77.125],[-148.8391,-77.2022],[-148.8439,-77.2837],[-148.7444,-77.3435],[-148.5592,-77.3615],[-148.2597,-77.4128],[-148.1559,-77.4626],[-148.3401,-77.5514],[-149.1259,-77.6424],[-149.4741,-77.7149],[-149.5884,-77.7742],[-149.7175,-77.7975],[-150.0842,-77.7711],[-150.3054,-77.7314],[-150.9563,-77.5737],[-151.7188,-77.426],[-151.9982,-77.4128],[-153.0772,-77.4425],[-153.4608,-77.416],[-153.573,-77.3631],[-153.6064,-77.3102],[-153.7127,-77.2741],[-153.9101,-77.2271],[-154.815,-77.127],[-155.1018,-77.1196],[-155.359,-77.1334],[-155.9193,-77.0979],[-156.2114,-77.1059],[-156.3681,-77.135],[-156.6676,-77.2128],[-157.1391,-77.2419],[-157.4656,-77.2313],[-157.8418,-77.0794],[-158.0032,-77.0911],[-148.4639,-76.1195]],[[-147.0442,-76.9297],[-147.0791,-76.9927],[-146.9812,-77.0059],[-146.6065,-76.9614],[-146.1642,-76.9487],[-146.2446,-76.8831],[-146.8664,-76.8371],[-147.0865,-76.8371],[-147.1156,-76.8662],[-147.1013,-76.8863],[-147.0442,-76.9297]],[[-146.9076,-76.7138],[-146.7902,-76.6334],[-146.878,-76.5635],[-147.1352,-76.5317],[-147.2786,-76.5524],[-147.3553,-76.619],[-147.2214,-76.6709],[-146.9076,-76.7138]],[[-148.6698,-76.8021],[-148.3708,-76.7947],[-148.321,-76.7714],[-148.384,-76.7445],[-148.6624,-76.7206],[-148.928,-76.7301],[-149.3333,-76.7175],[-149.4688,-76.7572],[-149.2386,-76.818],[-148.9841,-76.8455],[-148.8148,-76.8408],[-148.6698,-76.8021]],[[-149.2381,-76.9001],[-149.3026,-76.9159],[-149.245,-76.9932],[-149.0148,-77.0191],[-148.5957,-77.0069],[-148.4745,-76.9979],[-148.4396,-76.9773],[-148.5089,-76.9545],[-148.7042,-76.9355],[-149.2381,-76.9001]],[[-148.9291,-77.3869],[-149.218,-77.3361],[-149.2492,-77.3149],[-149.3757,-77.28],[-149.5185,-77.2747],[-149.6625,-77.3011],[-149.4387,-77.3705],[-148.9291,-77.3869]],[[-149.8561,-77.0995],[-149.817,-77.1144],[-149.7286,-77.1286],[-149.2936,-77.1366],[-149.2307,-77.1207],[-149.2883,-77.0932],[-149.4164,-77.0789],[-149.4418,-77.0492],[-149.5059,-77.0017],[-149.7424,-76.927],[-149.79,-76.8895],[-149.8704,-76.8752],[-150.3933,-76.899],[-150.4758,-76.9259],[-150.6801,-76.9482],[-150.7885,-76.9815],[-150.7356,-77.0043],[-150.4621,-77.0757],[-149.8561,-77.0995]],[[-150.1774,-76.6915],[-150.8378,-76.7143],[-150.8738,-76.7365],[-150.8303,-76.7614],[-150.6552,-76.7889],[-150.2324,-76.7762],[-150.0848,-76.735],[-150.1038,-76.719],[-150.1774,-76.6915]],[[-150.4748,-77.3736],[-150.397,-77.3694],[-150.3562,-77.3488],[-150.4991,-77.335],[-151.0214,-77.2202],[-151.2182,-77.2266],[-151.5114,-77.2736],[-151.3447,-77.2964],[-150.4748,-77.3736]]]}}
