{"type":"Feature","properties":{"id":128,"name":"Ronne Entrance","featurecla":"channel","scalerank":5,"wikidataid":"Q281730","source":"Natural Earth 5.2.0-pre ne_10m_geography_marine_polys (public domain)"},"geometry":{"type":"Polygon","coordinates":[[[-75.3828,-71.828],[-75.3532,-71.8782],[-75.259,-71.9137],[-75.1299,-71.964],[-75.024,-71.9883],[-74.9082,-72.0333],[-74.7859,-72.0635],[-74.6632,-72.0698],[-74.4293,-72.0555],[-74.3218,-72.0724],[-74.2091,-72.1423],[-74.153,-72.1587],[-73.9953,-72.1698],[-73.899,-72.1523],[-73.7705,-72.1063],[-74.2758,-72.9514],[-74.3356,-72.9191],[-74.4737,-72.8937],[-75.377,-72.8202],[-75.6908,-72.8726],[-75.3828,-71.828]]]}}
