{"type":"Feature","properties":{"id":129,"name":"Bransfield Strait","featurecla":"strait","scalerank":5,"wikidataid":"Q898839","source":"Natural Earth 5.2.0-pre ne_10m_geography_marine_polys (public domain)"},"geometry":{"type":"Polygon","coordinates":[[[-57.4234,-61.9299],[-55.2999,-61.2462],[-55.2972,-61.2484],[-55.1655,-61.2203],[-55.0749,-61.1768],[-54.1839,-61.2695],[-55.075,-63.3242],[-55.1062,-63.2491],[-55.1565,-63.2047],[-55.2157,-63.1988],[-55.466,-63.1994],[-55.528,-63.1735],[-55.5285,-63.157],[-55.5899,-63.1285],[-56.0423,-63.157],[-56.3852,-63.2343],[-56.4662,-63.2835],[-56.4603,-63.302],[-56.4752,-63.3185],[-56.5053,-63.3343],[-56.499,-63.3576],[-56.4646,-63.4153],[-57.1684,-63.2348],[-57.3896,-63.2264],[-57.8679,-63.319],[-58.2156,-63.4513],[-58.6733,-63.5344],[-58.8723,-63.5518],[-59.0363,-63.6703],[-59.2179,-63.7137],[-59.51,-63.8206],[-59.9899,-63.9095],[-60.2772,-63.9238],[-60.8641,-64.0736],[-60.9223,-64.108],[-60.8868,-64.1498],[-61.0821,-64.3149],[-61.1737,-64.3625],[-61.3959,-64.427],[-61.47,-64.4758],[-61.5007,-64.5456],[-61.6319,-64.6048],[-61.7563,-64.6096],[-61.8827,-64.6255],[-62.1399,-64.7265],[-62.2431,-64.7466],[-62.3383,-64.7292],[-62.4045,-64.6435],[-62.5034,-64.6567],[-62.5765,-64.7557],[-62.5278,-64.8335],[-62.6643,-64.8578],[-62.7749,-64.8419],[-63.1199,-64.9424],[-63.0855,-65.0282],[-63.0326,-65.0801],[-63.0591,-65.1393],[-63.1781,-65.1261],[-63.2644,-65.0732],[-63.4824,-65.0848],[-63.7602,-65.0335],[-63.8041,-64.7917],[-63.7697,-64.8086],[-63.7396,-64.8345],[-63.647,-64.8028],[-63.5586,-64.734],[-63.4581,-64.7276],[-63.3549,-64.734],[-63.2755,-64.7175],[-63.2025,-64.6805],[-63.0257,-64.6107],[-62.8363,-64.572],[-62.9283,-64.5191],[-63.0321,-64.535],[-63.1305,-64.5725],[-63.2771,-64.5731],[-63.1808,-64.4694],[-63.2707,-64.3805],[-63.2295,-64.3239],[-63.3337,-64.2662],[-63.4856,-64.2604],[-62.6151,-63.0692],[-62.4114,-62.9718],[-62.3442,-62.9179],[-61.0636,-62.6787],[-60.9953,-62.6792],[-60.7958,-62.6623],[-60.6969,-62.6205],[-60.6196,-62.6332],[-60.3778,-62.6162],[-60.354,-62.6792],[-60.3217,-62.7078],[-60.2212,-62.7454],[-59.8497,-62.6152],[-60.0026,-62.6183],[-59.5412,-62.4421],[-59.5253,-62.4517],[-59.3893,-62.4442],[-59.3533,-62.413],[-59.3824,-62.3813],[-59.1744,-62.3019],[-59.0596,-62.348],[-58.8379,-62.3024],[-58.8786,-62.268],[-58.9623,-62.2638],[-58.9771,-62.2559],[-58.7575,-62.2051],[-58.7553,-62.2061],[-58.7458,-62.2178],[-58.6442,-62.2252],[-58.594,-62.2479],[-58.5622,-62.2437],[-58.5072,-62.2257],[-58.4664,-62.1373],[-58.3415,-62.1194],[-58.1828,-62.1702],[-58.1331,-62.1458],[-58.1722,-62.1178],[-58.1473,-62.0632],[-57.9627,-62.0776],[-57.8066,-62.0119],[-57.6393,-62.0204],[-57.6367,-61.9982],[-57.6547,-61.9728],[-57.4234,-61.9299]],[[-56.6143,-63.0449],[-56.6006,-63.0618],[-56.5461,-63.0983],[-56.354,-63.1687],[-56.2588,-63.1729],[-56.0598,-63.0787],[-56.0508,-63.0549],[-56.0582,-63.0184],[-56.0619,-63.0126],[-56.1402,-63.0052],[-56.4884,-62.9824],[-56.6143,-63.0449]],[[-60.7778,-63.9021],[-60.6529,-63.8666],[-60.6551,-63.8503],[-60.6889,-63.8079],[-60.6561,-63.7587],[-60.5624,-63.6957],[-60.7149,-63.6688],[-60.7969,-63.7169],[-60.8101,-63.8365],[-60.972,-63.8492],[-60.8524,-63.891],[-60.7778,-63.9021]],[[-62.4516,-64.0122],[-62.5447,-64.0455],[-62.5855,-64.0757],[-62.6108,-64.1164],[-62.5902,-64.1397],[-62.4796,-64.2106],[-62.504,-64.2535],[-62.6431,-64.3916],[-62.7209,-64.4445],[-62.7469,-64.4715],[-62.7818,-64.4789],[-62.7268,-64.4959],[-62.5796,-64.5144],[-62.5082,-64.454],[-62.4553,-64.4715],[-62.396,-64.4646],[-62.3256,-64.4244],[-62.3039,-64.4016],[-62.1859,-64.3688],[-62.1743,-64.2958],[-62.0939,-64.2344],[-62.0584,-64.1381],[-62.2685,-64.09],[-62.2674,-64.0402],[-62.3288,-64.0138],[-62.4516,-64.0122]]]}}
