{"type":"Feature","properties":{"id":130,"name":"McMurdo Sound","featurecla":"sound","scalerank":5,"wikidataid":"Q1056751","source":"Natural Earth 5.2.0-pre ne_10m_geography_marine_polys (public domain)"},"geometry":{"type":"Polygon","coordinates":[[[165.534,-78.1536],[165.524,-78.0637],[165.4176,-78.042],[165.2742,-78.1288],[165.0504,-78.2261],[164.6281,-78.3156],[164.2974,-78.2362],[163.9778,-78.224],[164.1079,-78.1468],[164.4297,-78.042],[164.4916,-77.9542],[164.4207,-77.8832],[164.2318,-77.8769],[164.0365,-77.8531],[164.045,-77.7747],[163.7661,-77.7001],[163.619,-77.5821],[163.6074,-77.3879],[163.4587,-77.2694],[163.2502,-77.1265],[163.0866,-77.0324],[162.8501,-77.0233],[162.6792,-77.0069],[162.4501,-76.9556],[162.4892,-76.8694],[162.6093,-76.8286],[162.7628,-76.7455],[162.7453,-76.6577],[162.6744,-76.5693],[162.8247,-76.4635],[162.7274,-76.2254],[162.4982,-76.2079],[162.4363,-76.155],[162.648,-76.0492],[162.7453,-75.9517],[162.8157,-75.8459],[162.7538,-75.793],[162.5776,-75.7581],[162.3522,-75.6866],[162.2389,-75.6216],[162.1897,-75.4671],[161.9034,-75.4041],[161.2272,-75.3861],[161.0329,-75.3961],[160.9107,-75.3348],[161.6796,-75.2178],[161.9103,-75.2337],[162.0876,-75.2617],[162.2257,-75.2347],[162.4099,-75.2374],[162.5337,-75.167],[162.6041,-74.8231],[162.7522,-74.7363],[162.9612,-74.6559],[163.1671,-74.6019],[163.2655,-74.4262],[163.3978,-74.3823],[163.5566,-74.4172],[163.7354,-74.5638],[163.936,-74.5675],[164.1741,-74.523],[164.4106,-74.5336],[164.689,-74.5685],[164.853,-74.5786],[165.0012,-74.5627],[165.3028,-74.5939],[165.4086,-74.5585],[165.3997,-74.4791],[165.2631,-74.4262],[165.0372,-74.2637],[164.7758,-74.0282],[164.9059,-74.0029],[164.98,-73.9261],[164.888,-73.8378],[164.7498,-73.5589],[164.8128,-73.397],[165.0048,-73.3747],[165.1292,-73.3827],[165.2446,-73.5711],[165.2499,-73.7822],[165.3467,-73.8796],[165.5489,-73.8462],[165.7335,-73.8669],[165.9135,-73.8229],[166.1061,-73.7351],[165.9706,-73.6309],[165.86,-73.5928],[166.0013,-73.5769],[166.1596,-73.534],[166.4289,-73.5271],[166.9961,-73.544],[167.2967,-73.4398],[167.5343,-73.4472],[167.7089,-73.3943],[167.6158,-73.3366],[167.2258,-73.2758],[166.8342,-73.2244],[166.467,-72.9975],[166.4527,-72.9361],[166.8829,-73.0112],[167.1554,-73.1472],[167.8529,-73.1223],[168.2042,-73.1297],[168.3815,-73.0657],[168.736,-73.0911],[169.0334,-73.2001],[169.5377,-73.0524],[169.7113,-73.3308],[169.6716,-73.3462],[169.6451,-73.379],[169.6594,-73.4181],[169.4795,-73.5393],[169.5224,-73.5615],[169.7092,-73.6255],[169.8436,-73.6049],[169.8589,-73.5679],[169.2758,-77.4546],[168.4508,-77.3863],[167.4608,-77.3943],[167.084,-77.3218],[167.085,-77.3075],[167.1067,-77.2705],[166.9872,-77.1863],[166.7162,-77.162],[166.5061,-77.1895],[166.413,-77.2519],[166.4691,-77.289],[166.6072,-77.3355],[166.6262,-77.3768],[166.458,-77.4435],[166.3786,-77.4943],[166.2167,-77.5245],[166.2368,-77.5472],[166.3236,-77.5922],[165.534,-78.1536]],[[163.8444,-74.8326],[163.9762,-74.8326],[164.0593,-74.7527],[164.0984,-74.732],[164.2085,-74.6077],[164.0021,-74.6288],[163.7418,-74.7114],[163.737,-74.7336],[163.7635,-74.8029],[163.8444,-74.8326]]]}}
