{"type":"Feature","properties":{"id":131,"name":"Baía de São Marcos","featurecla":"bay","scalerank":7,"wikidataid":"Q2060432","source":"Natural Earth 5.2.0-pre ne_10m_geography_marine_polys (public domain)"},"geometry":{"type":"Polygon","coordinates":[[[-44.5451,-1.9547],[-43.3884,-2.3817],[-43.4344,-2.4135],[-43.455,-2.5019],[-43.7286,-2.5182],[-43.8646,-2.5955],[-43.9329,-2.5834],[-44.0133,-2.6421],[-44.1927,-2.8098],[-44.225,-2.7548],[-44.1916,-2.6997],[-44.1128,-2.5987],[-44.1012,-2.56],[-44.1054,-2.4934],[-44.1795,-2.4712],[-44.2287,-2.4712],[-44.308,-2.5352],[-44.3811,-2.7384],[-44.4377,-2.9442],[-44.6229,-3.1379],[-44.7229,-3.2046],[-44.7213,-3.1421],[-44.6388,-2.7627],[-44.6107,-2.677],[-44.589,-2.5733],[-44.5621,-2.5241],[-44.5208,-2.4812],[-44.5202,-2.4055],[-44.3816,-2.3653],[-44.3911,-2.2695],[-44.4356,-2.1679],[-44.5202,-2.1901],[-44.579,-2.2304],[-44.6626,-2.3732],[-44.7007,-2.3203],[-44.7563,-2.2653],[-44.7076,-2.2409],[-44.6589,-2.2277],[-44.6171,-2.1521],[-44.58,-2.114],[-44.5377,-2.0526],[-44.5462,-1.9547],[-44.5451,-1.9547]]]}}
