{"type":"Feature","properties":{"id":132,"name":"Cumberland Sound","featurecla":"sound","scalerank":5,"wikidataid":"Q938327","source":"Natural Earth 5.2.0-pre ne_10m_geography_marine_polys (public domain)"},"geometry":{"type":"Polygon","coordinates":[[[-64.4333,63.7276],[-64.4984,63.7906],[-64.5762,63.8974],[-64.6365,63.9181],[-64.7683,63.9054],[-64.7979,63.916],[-64.6863,63.961],[-64.6698,64.0096],[-64.6783,64.0282],[-64.7878,64.0329],[-64.9117,64.026],[-65.0106,64.0091],[-65.1699,64.0282],[-65.1874,64.0382],[-65.1508,64.0673],[-65.1498,64.0869],[-65.1927,64.1298],[-65.2821,64.1816],[-65.3477,64.2324],[-65.5805,64.2938],[-65.5938,64.3113],[-65.5075,64.3181],[-65.3398,64.315],[-65.2128,64.3033],[-65.0747,64.4367],[-65.0948,64.4848],[-65.1784,64.5097],[-65.4901,64.5097],[-65.5292,64.505],[-65.5128,64.5261],[-65.3493,64.5885],[-65.2747,64.6314],[-65.4318,64.7267],[-65.5133,64.7065],[-65.6054,64.7425],[-65.6266,64.7706],[-65.7679,64.8537],[-65.9388,64.8859],[-66.0303,64.8468],[-66.1076,64.7912],[-66.1526,64.7351],[-66.2145,64.7224],[-66.2822,64.7552],[-66.3013,64.778],[-66.2097,64.8282],[-66.224,64.8542],[-66.3452,64.9097],[-66.5177,64.9722],[-66.6357,65.0002],[-66.6669,64.9738],[-66.677,64.8134],[-66.6976,64.815],[-66.7325,64.86],[-66.7997,65.0198],[-66.831,65.0743],[-66.8606,65.0918],[-66.8876,65.0939],[-66.9114,65.0812],[-66.9701,65.0849],[-66.9855,65.105],[-66.9849,65.1378],[-66.9987,65.1727],[-67.0664,65.2442],[-67.1776,65.304],[-67.2982,65.3421],[-67.3363,65.3468],[-67.3263,65.3564],[-67.1347,65.4204],[-67.1178,65.4405],[-67.3035,65.4829],[-67.3305,65.5093],[-67.3464,65.5495],[-67.3998,65.5881],[-67.4903,65.6263],[-67.5697,65.6437],[-67.6379,65.6405],[-67.7173,65.6252],[-67.9062,65.5633],[-67.9369,65.5649],[-67.9618,65.5818],[-67.9544,65.6231],[-67.8665,65.7739],[-67.8941,65.7935],[-67.9681,65.7972],[-68.1152,65.8279],[-68.1867,65.8713],[-68.2571,65.9385],[-68.2608,65.9945],[-68.1983,66.039],[-68.2174,66.0787],[-68.4672,66.1734],[-68.5719,66.1888],[-68.7143,66.1924],[-68.7487,66.1999],[-68.528,66.2485],[-68.4597,66.2491],[-68.1475,66.13],[-67.9581,66.0136],[-67.8279,65.9649],[-67.5506,65.9215],[-67.3987,65.9215],[-67.3506,65.93],[-67.2728,65.9554],[-67.1834,66.0342],[-67.2966,66.0903],[-67.5474,66.1871],[-67.7046,66.2686],[-67.8004,66.3671],[-67.8835,66.4676],[-67.8687,66.4904],[-67.7406,66.4581],[-67.5596,66.4004],[-67.3686,66.3173],[-67.3114,66.3036],[-67.2252,66.3104],[-67.1897,66.3216],[-67.1919,66.4327],[-67.3178,66.5205],[-67.3072,66.5697],[-67.1897,66.5332],[-67.077,66.5253],[-66.9691,66.547],[-66.9707,66.5819],[-67.0146,66.6221],[-66.9866,66.6274],[-66.8627,66.5952],[-66.7876,66.5555],[-66.7595,66.5083],[-66.7124,66.4602],[-66.4769,66.2798],[-66.4193,66.2544],[-66.2774,66.229],[-66.2087,66.2062],[-66.0637,66.1327],[-65.9398,66.1274],[-65.8557,66.1422],[-65.7589,66.1713],[-65.6885,66.2131],[-65.6562,66.2046],[-65.8573,66.0866],[-65.8912,66.02],[-65.8255,65.9972],[-65.5435,65.9871],[-65.4154,65.9945],[-65.3054,66.0083],[-65.0043,66.0776],[-64.8873,66.1374],[-64.7614,66.2311],[-64.655,66.2872],[-64.5042,66.3253],[-64.4455,66.3173],[-64.564,66.2723],[-64.673,66.1924],[-64.7725,66.0787],[-64.8535,66.0157],[-65.0323,65.9887],[-65.1847,65.94],[-65.2768,65.8908],[-65.3779,65.822],[-65.4017,65.7638],[-65.3377,65.7098],[-65.3112,65.7014],[-65.2821,65.6765],[-65.2069,65.5897],[-65.1757,65.568],[-65.1085,65.4638],[-64.9794,65.3749],[-64.8471,65.2997],[-64.7646,65.2341],[-64.6651,65.169],[-64.555,65.1166],[-64.4698,65.2527],[-64.3402,65.3643],[-64.2857,65.4003],[-64.2698,65.4008],[-64.31,65.3246],[-64.3455,65.1722],[-64.2502,65.1145],[-64.1518,65.0664],[-64.0613,65.1219],[-63.9761,65.1214],[-63.8957,65.1093],[-63.8332,65.0833],[-63.7893,65.0516],[-63.7369,64.9891],[-63.6311,64.9394],[-64.4333,63.7276]]]}}
