{"type":"Feature","properties":{"id":133,"name":"Frobisher Bay","featurecla":"bay","scalerank":5,"wikidataid":"Q1004067","source":"Natural Earth 5.2.0-pre ne_10m_geography_marine_polys (public domain)"},"geometry":{"type":"Polygon","coordinates":[[[-65.5022,62.8296],[-65.9859,62.2126],[-66.0155,62.2301],[-66.0949,62.2465],[-66.2812,62.3026],[-66.3574,62.3518],[-66.459,62.4629],[-66.5304,62.51],[-66.6447,62.602],[-66.714,62.6317],[-66.9215,62.6783],[-66.9797,62.701],[-67.2125,62.8433],[-67.2686,62.8576],[-67.3665,62.9143],[-67.4681,62.9481],[-67.7369,63.0095],[-67.7237,63.0339],[-67.6649,63.0725],[-67.676,63.0936],[-67.7972,63.0979],[-67.9152,63.1138],[-68.1412,63.1725],[-68.2078,63.2148],[-68.374,63.3524],[-68.555,63.4588],[-68.6704,63.5138],[-68.7894,63.5953],[-68.9111,63.7032],[-68.8587,63.7519],[-68.6328,63.7414],[-68.4936,63.7255],[-68.2433,63.6371],[-67.838,63.4493],[-67.7586,63.4196],[-67.7226,63.4228],[-67.7427,63.4895],[-67.8216,63.635],[-67.893,63.7339],[-67.8443,63.7144],[-67.7094,63.6339],[-67.4951,63.4815],[-67.2612,63.3408],[-67.1797,63.3048],[-67.0178,63.3164],[-67.0003,63.3053],[-66.9749,63.2556],[-66.923,63.2275],[-66.8315,63.2011],[-66.7733,63.1625],[-66.7484,63.1111],[-66.723,63.0804],[-66.6976,63.0693],[-66.6362,63.0799],[-66.6309,63.119],[-66.66,63.235],[-66.6548,63.2646],[-66.6002,63.2191],[-66.4965,63.0973],[-66.4145,63.027],[-66.2928,62.9968],[-66.2288,62.991],[-66.2013,63.0063],[-66.2261,63.0762],[-66.2494,63.1084],[-66.224,63.1074],[-65.979,63.0005],[-65.9203,62.9688],[-65.8642,62.9211],[-65.8335,62.9084],[-65.8054,62.9116],[-65.78,62.9301],[-65.7403,62.9317],[-65.5726,62.8687],[-65.4996,62.8354],[-65.5022,62.8296]]]}}
