{"type":"Feature","properties":{"id":134,"name":"Disko Bay","featurecla":"bay","scalerank":5,"wikidataid":"Q1135227","source":"Natural Earth 5.2.0-pre ne_10m_geography_marine_polys (public domain)"},"geometry":{"type":"Polygon","coordinates":[[[-54.2569,70.5284],[-54.1357,70.4686],[-54.0146,70.4215],[-53.7685,70.3888],[-53.3573,70.3533],[-53.0229,70.302],[-52.7652,70.2342],[-52.5715,70.1723],[-52.336,70.0781],[-52.2545,70.0591],[-51.5979,70.0046],[-51.4989,69.9871],[-51.419,69.9892],[-51.1899,70.0516],[-51.1057,70.0575],[-50.9729,70.04],[-50.8025,70.003],[-50.6099,70.0152],[-50.4363,70.0395],[-50.3231,70.0273],[-50.2919,70.0146],[-50.3374,69.994],[-50.4601,69.9665],[-50.4998,69.9358],[-50.3432,69.8252],[-50.3495,69.7961],[-50.4591,69.7696],[-50.7205,69.7252],[-50.8041,69.6633],[-50.8104,69.5992],[-50.875,69.4743],[-50.8925,69.4119],[-51.0576,69.2748],[-51.0771,69.2092],[-50.8512,69.2061],[-50.6713,69.2346],[-50.5363,69.2479],[-50.4596,69.2055],[-50.2987,69.1854],[-50.2972,69.1706],[-50.3924,69.1373],[-50.7924,69.1166],[-51.0851,69.1283],[-51.1195,69.0907],[-51.156,68.9383],[-51.2497,68.7399],[-51.1491,68.7399],[-51.0301,68.7563],[-50.8078,68.8171],[-50.8004,68.7912],[-50.9459,68.6827],[-51.0697,68.6192],[-51.1332,68.5986],[-51.4788,68.5472],[-51.6233,68.5351],[-51.7804,68.5483],[-52.3027,68.7012],[-52.6048,68.7086],[-52.8938,68.6615],[-53.0393,68.6107],[-53.042,68.6076],[-53.3203,69.2955],[-53.0033,69.3426],[-52.7705,69.3637],[-52.1127,69.4892],[-51.9884,69.55],[-51.9,69.6051],[-51.9079,69.6368],[-51.9815,69.6638],[-52.0074,69.686],[-51.9852,69.7035],[-51.9773,69.7225],[-51.9836,69.7426],[-52.0106,69.7818],[-52.0455,69.8072],[-52.3985,69.8633],[-52.7313,69.9448],[-53.1028,70.1411],[-53.297,70.2051],[-53.3753,70.2215],[-54.0071,70.2967],[-54.2723,70.3115],[-54.2569,70.5284]],[[-51.0946,69.9241],[-51.2089,69.9141],[-51.3502,69.8548],[-51.319,69.804],[-51.3391,69.732],[-51.3147,69.6738],[-51.2338,69.5521],[-51.202,69.5251],[-51.1703,69.5172],[-51.0137,69.5527],[-50.9702,69.5828],[-50.9777,69.6177],[-50.9671,69.6643],[-50.9115,69.7569],[-50.7544,69.7977],[-50.6977,69.8289],[-50.6792,69.8485],[-50.9401,69.9088],[-51.0946,69.9241]]]}}
