{"type":"Feature","properties":{"id":135,"name":"Hamilton Inlet","featurecla":"bay","scalerank":7,"source":"Natural Earth 5.2.0-pre ne_10m_geography_marine_polys (public domain)"},"geometry":{"type":"Polygon","coordinates":[[[-57.397,54.1603],[-57.406,54.1518],[-57.416,54.1629],[-57.615,54.191],[-58.1923,54.228],[-58.3098,54.2015],[-58.3564,54.1719],[-58.3606,54.1544],[-58.3177,54.1142],[-58.1775,54.1312],[-58.0648,54.1269],[-57.9283,54.1036],[-57.9362,54.0909],[-58.0881,54.0894],[-58.3267,54.0518],[-58.6522,53.9777],[-58.9194,53.8756],[-59.1295,53.7438],[-59.3221,53.6438],[-59.4983,53.575],[-59.6211,53.5369],[-59.829,53.5046],[-59.8819,53.4803],[-59.9873,53.393],[-60.1481,53.3067],[-60.3296,53.2659],[-60.3455,53.2893],[-60.2725,53.3173],[-60.2513,53.3437],[-60.3058,53.3602],[-60.2905,53.3914],[-60.1571,53.4496],[-60.1005,53.4871],[-60.1603,53.53],[-60.3693,53.6073],[-60.3952,53.6533],[-60.2635,53.6099],[-60.145,53.5962],[-60.1174,53.6099],[-60.1005,53.6343],[-60.0814,53.7009],[-60.0566,53.7332],[-60.0142,53.7618],[-59.8735,53.8078],[-59.8232,53.8343],[-59.7497,53.8422],[-59.6528,53.8311],[-59.4967,53.8343],[-59.2014,53.929],[-59.039,53.9634],[-59.0125,53.9761],[-58.9787,54.0105],[-58.9205,54.0332],[-58.8411,54.0444],[-58.7194,54.0396],[-58.6331,54.0497],[-58.5585,54.1031],[-58.4352,54.228],[-58.359,54.2534],[-58.2198,54.2862],[-58.1622,54.3201],[-58.1516,54.3502],[-57.8891,54.3841],[-57.6991,54.3867],[-57.5727,54.4365],[-57.397,54.1603]]]}}
