{"type":"Feature","properties":{"id":136,"name":"Storfjorden","featurecla":"fjord","scalerank":5,"wikidataid":"Q2097444","source":"Natural Earth 5.2.0-pre ne_10m_geography_marine_polys (public domain)"},"geometry":{"type":"Polygon","coordinates":[[[17.0319,76.6461],[17.0626,76.6588],[17.0356,76.7202],[16.98,76.7795],[16.9769,76.8117],[17.142,76.8948],[17.2488,76.9695],[17.188,77.0107],[17.1525,77.0488],[17.3488,77.1568],[17.4425,77.2251],[17.6235,77.3992],[17.8474,77.4965],[18.1373,77.5071],[18.2278,77.5225],[18.2987,77.5785],[18.3617,77.6822],[18.404,77.7939],[18.439,77.9421],[18.4305,77.9907],[18.439,78.0252],[18.5744,78.0479],[18.7125,78.04],[18.8221,78.0415],[18.9951,78.0817],[19.0088,78.132],[18.9575,78.1823],[18.984,78.2342],[19.0554,78.3188],[19.1507,78.3792],[19.3809,78.4797],[19.6185,78.5622],[19.655,78.5977],[19.6767,78.6093],[19.7687,78.6226],[20.1847,78.6363],[20.1852,78.6247],[20.2424,78.4818],[20.228,78.4776],[20.3725,78.412],[20.5604,78.4194],[20.5281,78.3257],[20.7864,78.2521],[20.8451,78.1659],[21.0356,78.059],[21.2102,78.0056],[21.6531,77.9235],[21.6086,77.9161],[21.4309,77.8119],[21.334,77.7717],[21.2514,77.7108],[21.2012,77.6193],[20.8731,77.5653],[20.9282,77.4595],[20.9853,77.451],[20.9811,77.424],[17.0446,76.616],[17.0319,76.6461]]]}}
