{"type":"Feature","properties":{"id":137,"name":"Vestfjorden","featurecla":"fjord","scalerank":5,"wikidataid":"Q1753121","source":"Natural Earth 5.2.0-pre ne_10m_geography_marine_polys (public domain)"},"geometry":{"type":"Polygon","coordinates":[[[16.6313,68.616],[16.58,68.5928],[16.5144,68.5324],[16.5255,68.4906],[16.5848,68.4663],[17.2023,68.4594],[17.4262,68.4822],[17.4801,68.4742],[17.5023,68.461],[17.5711,68.4472],[17.5531,68.4261],[17.4785,68.4261],[17.3362,68.4102],[17.0943,68.3684],[16.9515,68.3546],[16.8652,68.3552],[16.6186,68.4065],[16.3879,68.3895],[16.2037,68.3165],[16.1747,68.2811],[16.2599,68.1445],[16.3191,68.1017],[16.3922,68.0916],[16.372,68.062],[16.3085,68.0355],[16.2588,68.0011],[16.3122,67.8815],[16.2609,67.8863],[16.1206,68.0276],[16.0646,68.2001],[16.0381,68.2181],[16.0079,68.2287],[15.8513,68.1821],[15.6566,68.1641],[15.4867,68.1027],[15.3158,68.0689],[15.2931,68.0366],[15.3571,68.0038],[15.6058,67.9879],[15.6217,67.9482],[15.5068,67.926],[15.401,67.9197],[15.2746,67.9609],[15.1343,67.9726],[15.0486,67.9556],[14.7988,67.8096],[14.821,67.7498],[14.7814,67.6746],[14.8549,67.6635],[15.0407,67.6826],[15.3042,67.7651],[15.346,67.7344],[15.2841,67.708],[15.2184,67.6556],[15.2486,67.6022],[15.3539,67.5439],[15.4873,67.5148],[15.6613,67.5429],[15.6915,67.5212],[15.5756,67.4439],[15.5947,67.3487],[15.5529,67.3519],[15.4655,67.4508],[15.4095,67.4741],[15.2893,67.4831],[15.1206,67.5551],[14.9618,67.5741],[14.7549,67.499],[14.5787,67.3862],[14.5369,67.3397],[14.4485,67.2979],[14.4416,67.2714],[14.4792,67.2561],[14.5813,67.2672],[14.8242,67.2682],[15.2999,67.2571],[15.4349,67.2465],[15.4158,67.2026],[14.7755,67.1947],[14.6009,67.1741],[14.4728,67.1428],[14.3406,67.1587],[14.2056,67.1111],[14.1088,67.119],[14.0225,67.073],[13.8802,66.965],[13.8082,66.9608],[13.7267,66.9381],[13.6516,66.9068],[13.7039,66.8518],[13.9172,66.8195],[13.9595,66.7941],[13.7881,66.7825],[13.6209,66.7946],[13.5203,66.7417],[13.4505,66.7153],[13.3119,66.702],[13.2346,66.655],[12.8314,67.8239],[12.9716,67.8742],[12.9832,67.881],[13.3521,68.0096],[13.3913,68.0212],[13.4045,68.0609],[13.424,68.0826],[13.4955,68.0514],[13.5839,68.0937],[13.6564,68.1049],[13.7786,68.1049],[13.8241,68.1213],[13.8813,68.1636],[14.2839,68.1869],[14.3495,68.1784],[14.629,68.1985],[14.9269,68.3065],[15.0375,68.2827],[15.0978,68.289],[15.1877,68.3102],[15.2798,68.3737],[15.337,68.3784],[15.3412,68.3255],[15.4375,68.3128],[15.6825,68.3562],[15.7635,68.4091],[15.8376,68.4091],[15.8725,68.3943],[15.9127,68.389],[15.9751,68.4022],[16.0487,68.4636],[16.1942,68.5382],[16.3382,68.5679],[16.5191,68.633],[16.5255,68.6515],[16.6313,68.616]]]}}
