{"type":"Feature","properties":{"id":138,"name":"Skagerrak","featurecla":"fjord","scalerank":5,"wikidataid":"Q1695","source":"Natural Earth 5.2.0-pre ne_10m_geography_marine_polys (public domain)"},"geometry":{"type":"Polygon","coordinates":[[[7.1254,58.039],[7.1942,58.0475],[7.4661,58.0211],[7.8757,58.0798],[8.0371,58.147],[8.1663,58.1454],[8.3123,58.2243],[8.5213,58.3005],[8.9282,58.5698],[9.178,58.6751],[9.1939,58.7116],[9.2388,58.7391],[9.323,58.7476],[9.396,58.8058],[9.3097,58.8566],[9.5511,58.9328],[9.6183,58.946],[9.6569,58.9714],[9.6961,59.0095],[9.6272,59.0678],[9.5574,59.1127],[9.6352,59.118],[9.8003,59.027],[9.8426,58.9588],[9.9596,58.9683],[10.0829,59.0286],[10.1792,59.009],[10.2051,59.0386],[10.2432,59.0619],[10.4311,59.2794],[10.4544,59.3773],[10.4464,59.4435],[10.4073,59.4556],[10.3983,59.5191],[10.4935,59.5414],[10.5697,59.5869],[10.5338,59.6959],[10.5951,59.7647],[10.6047,59.68],[10.6343,59.6027],[10.6311,59.4281],[10.6449,59.389],[10.7427,59.2958],[10.8343,59.1842],[10.9988,59.1646],[11.0909,59.1418],[11.1322,59.1434],[11.3661,59.1048],[11.3862,59.0656],[11.3883,59.0365],[11.2952,59.0868],[11.1957,59.0783],[11.1672,59.0455],[11.1471,58.9884],[11.1693,58.9228],[11.2079,58.8667],[11.2237,58.6799],[11.2714,58.4756],[11.2518,58.4243],[11.2481,58.3693],[11.2566,58.3703],[10.5808,57.7364],[10.5332,57.7353],[10.2591,57.6173],[9.9622,57.5808],[9.8151,57.4787],[9.5542,57.2326],[9.4336,57.1744],[9.2986,57.1464],[9.0362,57.1553],[8.952,57.1506],[8.8113,57.1098],[8.6187,57.1114],[8.4271,56.9844],[8.2842,56.8521],[8.279,56.841],[7.1254,58.039]]]}}
