{"type":"Feature","properties":{"id":139,"name":"Karskiye Strait","featurecla":"strait","scalerank":7,"source":"Natural Earth 5.2.0-pre ne_10m_geography_marine_polys (public domain)"},"geometry":{"type":"MultiPolygon","coordinates":[[[[58.7943,70.4332],[59.0054,70.465],[59.011,70.4644],[59.0444,70.4547],[58.9009,70.4435],[58.7918,70.4316],[58.7943,70.4332]]],[[[58.7424,70.4004],[58.7151,70.3731],[58.6865,70.3651],[58.7424,70.4004]]],[[[58.6154,70.3506],[58.6552,70.3564],[58.5249,70.32],[58.6154,70.3506]]],[[[58.4731,70.267],[58.4768,70.2708],[58.5201,70.3183],[58.5236,70.3195],[58.4843,70.2605],[58.4763,70.2632],[58.4731,70.267]]],[[[57.447,70.6613],[57.3563,70.6487],[57.5787,70.716],[57.5179,70.78],[57.5565,70.766],[57.6254,70.729],[57.447,70.6613]]]]}}
