{"type":"Feature","properties":{"id":140,"name":"Vil'kitskogo Strait","featurecla":"strait","scalerank":5,"source":"Natural Earth 5.2.0-pre ne_10m_geography_marine_polys (public domain)"},"geometry":{"type":"Polygon","coordinates":[[[100.9127,76.998],[100.0068,77.9442],[100.0047,77.9691],[100.082,77.9749],[100.5413,78.0474],[101.0398,78.1432],[101.2043,78.1918],[101.6922,78.1945],[102.1806,78.205],[102.6172,78.2246],[102.6733,78.2019],[102.7341,78.1897],[102.7966,78.1881],[103.0029,78.2558],[103.7194,78.2585],[104.2973,78.3352],[104.5195,78.349],[104.7418,78.34],[104.8328,78.3527],[105.3128,78.4998],[105.3366,78.5749],[105.4011,78.5548],[105.8245,77.5494],[105.8155,77.5044],[105.7102,77.5251],[105.3091,77.5494],[104.9651,77.5949],[104.8143,77.6521],[104.1851,77.7304],[104.0147,77.7304],[103.5607,77.632],[103.331,77.641],[103.1316,77.6267],[102.6103,77.5087],[101.5176,77.1981],[101.2927,77.1018],[101.1858,77.0287],[100.99,76.9906],[100.9577,76.9562],[100.9127,76.998]]]}}
