{"type":"Feature","properties":{"id":141,"name":"Sognefjorden","featurecla":"fjord","scalerank":7,"wikidataid":"Q208495","source":"Natural Earth 5.2.0-pre ne_10m_geography_marine_polys (public domain)"},"geometry":{"type":"Polygon","coordinates":[[[4.8701,61.0717],[4.959,61.0844],[4.9733,61.1484],[4.9568,61.1627],[5.0325,61.2421],[5.1066,61.1876],[5.3246,61.1082],[5.4511,61.1024],[5.6469,61.1474],[6.0824,61.1675],[6.3835,61.1336],[6.4925,61.1548],[6.5433,61.2447],[6.5999,61.2897],[6.6258,61.2791],[6.6105,61.2289],[6.657,61.2067],[6.7941,61.1902],[6.9428,61.1606],[7.1735,61.1659],[7.2762,61.1807],[7.2979,61.2135],[7.2762,61.2839],[7.3312,61.3723],[7.4423,61.4347],[7.4524,61.4194],[7.3466,61.3008],[7.4037,61.222],[7.6048,61.2103],[7.545,61.177],[7.0402,61.0913],[7.0465,61.0151],[7.0777,60.9664],[7.0386,60.9532],[6.9804,60.9939],[6.9719,61.0558],[6.9031,61.1024],[6.7777,61.1426],[6.61,61.1368],[6.4179,61.0844],[6.2925,61.0812],[5.984,61.1172],[5.5051,61.0564],[5.2881,61.0474],[5.1923,61.0537],[5.0955,61.0712],[5.0087,61.0384],[5.0246,60.9362],[4.8701,61.0717]]]}}
