{"type":"Feature","properties":{"id":142,"name":"Trondheimsfjorden","featurecla":"fjord","scalerank":7,"wikidataid":"Q279579","source":"Natural Earth 5.2.0-pre ne_10m_geography_marine_polys (public domain)"},"geometry":{"type":"Polygon","coordinates":[[[9.6506,63.8218],[9.6146,63.7948],[9.5675,63.7064],[9.5945,63.6789],[9.6574,63.6974],[9.7675,63.6995],[9.832,63.6165],[9.8929,63.5762],[9.9241,63.5218],[10.0548,63.5128],[10.339,63.571],[10.9348,63.7704],[11.0476,63.8451],[10.9666,63.9017],[10.9142,63.9213],[11.0751,63.988],[11.2137,64.0303],[11.3068,64.0488],[11.4291,64.0245],[11.4577,64.0028],[11.2947,63.9483],[11.1756,63.899],[11.2137,63.8779],[11.3079,63.8757],[11.3481,63.8377],[11.3709,63.8048],[11.2259,63.7636],[11.1179,63.7191],[10.9523,63.698],[10.7793,63.6514],[10.7253,63.6249],[10.6734,63.5582],[10.7068,63.5366],[10.7602,63.4614],[10.7046,63.4635],[10.5909,63.4471],[10.3401,63.4694],[10.1887,63.4545],[10.0808,63.4328],[10.021,63.391],[9.9792,63.3953],[9.9363,63.4789],[9.9135,63.4858],[9.8913,63.4921],[9.832,63.5244],[9.6971,63.6244],[9.6024,63.6096],[9.5209,63.5858],[9.3235,63.5704],[9.1563,63.4593],[9.0843,63.4635],[9.0759,63.5006],[9.1579,63.5662],[9.1356,63.5937],[8.8425,63.6461],[8.7806,63.6376],[8.7637,63.7006],[8.7864,63.7032],[8.815,63.726],[8.8102,63.762],[9.6506,63.8218]]]}}
