{"type":"Feature","properties":{"id":143,"name":"Kattegat","featurecla":"sea","scalerank":5,"wikidataid":"Q131716","source":"Natural Earth 5.2.0-pre ne_10m_geography_marine_polys (public domain)"},"geometry":{"type":"Polygon","coordinates":[[[11.2566,58.3703],[11.3301,58.3804],[11.4317,58.3402],[11.4492,58.1184],[11.5492,58.001],[11.7032,57.9734],[11.7349,57.7178],[11.8789,57.6792],[11.8852,57.6126],[11.917,57.522],[11.9614,57.4263],[12.0535,57.4469],[12.1519,57.2268],[12.4213,56.9066],[12.5726,56.8236],[12.7176,56.6627],[12.7933,56.6489],[12.8837,56.6177],[12.9198,56.5156],[12.8573,56.4526],[12.7732,56.4558],[12.6562,56.4404],[12.6911,56.3843],[12.7419,56.3468],[12.8017,56.2637],[12.7531,56.242],[12.7065,56.2351],[12.507,56.2928],[12.471,56.2907],[12.5213,56.2457],[12.5927,56.1378],[12.643,56.0844],[12.5866,56.0562],[12.579,56.0642],[12.526,56.0832],[12.4282,56.106],[12.3234,56.1219],[12.2191,56.1187],[12.0398,56.052],[11.8662,55.9684],[11.9127,55.9372],[11.9344,55.8959],[11.9222,55.8282],[11.8852,55.8081],[11.8582,55.7721],[11.8196,55.6975],[11.7836,55.7017],[11.691,55.7292],[11.682,55.8293],[11.6958,55.9081],[11.6275,55.9568],[11.4746,55.9436],[11.4649,55.9197],[10.8989,56.3702],[10.9264,56.4431],[10.883,56.4928],[10.8459,56.5219],[10.4903,56.5203],[10.3834,56.5547],[10.2829,56.6204],[10.2967,56.7807],[10.2872,56.823],[10.2961,56.9992],[10.3385,57.0215],[10.4369,57.1723],[10.5242,57.2432],[10.5173,57.3792],[10.5369,57.4485],[10.4448,57.5623],[10.4602,57.6146],[10.4808,57.6485],[10.6099,57.7369],[10.5808,57.7364],[11.2566,58.3703]]]}}
