{"type":"Feature","properties":{"id":144,"name":"Gulf of Khambhät","featurecla":"gulf","scalerank":5,"wikidataid":"Q654010","source":"Natural Earth 5.2.0-pre ne_10m_geography_marine_polys (public domain)"},"geometry":{"type":"Polygon","coordinates":[[[72.6531,19.8385],[70.8572,20.7127],[70.8582,20.718],[70.8799,20.7143],[71.0249,20.7391],[71.3963,20.8699],[71.571,20.9704],[72.0155,21.1556],[72.0764,21.2239],[72.2541,21.5308],[72.2568,21.661],[72.2102,21.7282],[72.1711,21.7742],[72.1028,21.7948],[72.0372,21.8229],[72.0753,21.8631],[72.0943,21.9197],[72.1615,21.9848],[72.2441,22.0277],[72.2743,22.0896],[72.3065,22.1891],[72.2425,22.2452],[72.1827,22.2695],[72.3325,22.27],[72.4558,22.2483],[72.5902,22.278],[72.7018,22.2637],[72.8092,22.2335],[72.7087,22.2071],[72.6277,22.1997],[72.5531,22.16],[72.5224,21.9763],[72.6177,21.9615],[72.7002,21.9721],[72.6441,21.9382],[72.5923,21.8774],[72.543,21.6964],[72.8399,21.6874],[72.9791,21.7049],[73.1125,21.7504],[73.0225,21.6996],[72.8108,21.6197],[72.7177,21.5514],[72.6134,21.462],[72.6685,21.4556],[72.7346,21.471],[72.6864,21.4355],[72.624,21.372],[72.6923,21.1778],[72.7516,21.1292],[72.814,21.117],[72.8246,21.0836],[72.8404,20.9524],[72.8791,20.8286],[72.8939,20.673],[72.8812,20.5629],[72.7092,20.0782],[72.669,19.8359],[72.6531,19.8385]]]}}
