{"type":"Feature","properties":{"id":145,"name":"Palk Strait","featurecla":"strait","scalerank":7,"wikidataid":"Q186299","source":"Natural Earth 5.2.0-pre ne_10m_geography_marine_polys (public domain)"},"geometry":{"type":"Polygon","coordinates":[[[80.2123,9.8044],[80.1811,9.8103],[80.0784,9.8076],[79.9821,9.8129],[79.9673,9.7928],[79.9541,9.7425],[79.9794,9.6992],[80.0456,9.6499],[80.2578,9.6113],[80.3853,9.5489],[80.4282,9.4811],[80.3678,9.4806],[80.3181,9.4653],[80.2562,9.4949],[80.1959,9.5383],[80.0864,9.578],[80.1107,9.4531],[80.1181,9.3266],[80.0996,9.2102],[80.0647,9.0959],[79.9387,8.9133],[79.8826,8.9885],[79.9038,8.9752],[79.8747,9.0509],[79.8599,9.0657],[79.7477,9.1044],[79.7646,9.0742],[79.4069,9.1975],[79.3561,9.252],[79.2757,9.2848],[79.1068,9.3091],[79.0201,9.3335],[78.9534,9.3938],[78.919,9.4531],[78.9402,9.5658],[78.9962,9.6833],[79.2577,10.0352],[79.2534,10.1749],[79.3148,10.2569],[79.3905,10.3061],[79.5318,10.3299],[79.5884,10.3124],[79.6673,10.2998],[79.7567,10.3045],[79.8382,10.3225],[79.8387,10.3347],[80.2123,9.8044]]]}}
