{"type":"Feature","properties":{"id":146,"name":"Kronotskiy Gulf","featurecla":"gulf","scalerank":5,"wikidataid":"Q2326240","source":"Natural Earth 5.2.0-pre ne_10m_geography_marine_polys (public domain)"},"geometry":{"type":"Polygon","coordinates":[[[161.5076,54.4973],[160.0481,53.1051],[160.0249,53.1294],[160.0022,53.275],[159.8979,53.3808],[159.899,53.4475],[159.9561,53.5522],[159.9143,53.621],[159.8709,53.6729],[159.8439,53.7835],[159.9217,54.0084],[160.0101,54.1306],[160.0746,54.1894],[160.289,54.2883],[160.517,54.4307],[160.7726,54.5413],[160.9355,54.5783],[161.1298,54.5984],[161.2939,54.5206],[161.5076,54.518],[161.5076,54.4973]]]}}
