{"type":"Feature","properties":{"id":147,"name":"Uda Bay","featurecla":"bay","scalerank":5,"wikidataid":"Q1141758","source":"Natural Earth 5.2.0-pre ne_10m_geography_marine_polys (public domain)"},"geometry":{"type":"Polygon","coordinates":[[[138.2095,55.0334],[137.6512,54.2841],[137.5253,54.291],[137.3776,54.2825],[137.1416,54.1825],[137.0961,54.1285],[137.1723,54.0571],[137.258,54.0253],[137.1554,53.8216],[137.0189,53.848],[136.8866,53.8396],[136.8024,53.7819],[136.7188,53.8041],[136.6829,53.9311],[136.7294,54.0608],[136.7701,54.3534],[136.8204,54.4524],[136.8236,54.5614],[136.7971,54.6212],[136.7146,54.6243],[136.5802,54.6137],[136.2378,54.6143],[135.8515,54.5841],[135.4377,54.6926],[135.3255,54.7074],[135.2577,54.7312],[135.2117,54.8408],[135.235,54.9032],[135.2625,54.9434],[135.5403,55.1138],[135.751,55.1609],[136.1753,55.3525],[136.351,55.5102],[136.4601,55.5768],[136.7934,55.6943],[137.0119,55.7954],[137.1898,55.8922],[137.384,55.9748],[137.5728,56.1123],[137.6914,56.1393],[138.074,56.433],[138.1237,56.4817],[138.2095,55.0334]],[[138.1719,55.0598],[138.0311,55.0535],[137.9407,55.0927],[137.9105,55.1101],[137.5771,55.1969],[137.5438,55.163],[137.4358,55.0159],[137.3845,55.0006],[137.275,54.891],[137.2326,54.7905],[137.276,54.7926],[137.4628,54.8736],[137.5258,54.826],[137.6612,54.6534],[137.7216,54.6635],[137.7904,54.6968],[137.8703,54.7497],[137.9597,54.7889],[137.9915,54.8207],[138.0169,54.9011],[138.0967,54.9911],[138.2063,55.0334],[138.1719,55.0598]],[[137.1559,55.108],[137.0776,55.0916],[136.9955,55.0927],[136.7956,55.0096],[136.7146,54.9561],[136.7654,54.9461],[136.9024,54.9604],[136.9697,54.9239],[137.0554,54.927],[137.1786,55.1006],[137.1559,55.108]]]}}
