{"type":"Feature","properties":{"id":148,"name":"Uchiura Bay","featurecla":"bay","scalerank":5,"wikidataid":"Q1036267","source":"Natural Earth 5.2.0-pre ne_10m_geography_marine_polys (public domain)"},"geometry":{"type":"Polygon","coordinates":[[[143.2456,42.0069],[141.6919,40.4189],[141.6464,40.4739],[141.5422,40.5305],[141.4628,40.611],[141.4305,40.7231],[141.4135,40.8395],[141.3998,41.0962],[141.4199,41.2512],[141.4554,41.4047],[141.4639,41.4116],[141.1522,41.8058],[141.1511,41.8053],[141.1077,41.8481],[140.9125,41.9778],[140.7336,42.1164],[140.6844,42.1233],[140.5775,42.1185],[140.5277,42.1318],[140.4166,42.2006],[140.3267,42.2932],[140.315,42.3344],[140.3235,42.3763],[140.3505,42.435],[140.3854,42.4874],[140.4807,42.5593],[140.5479,42.5694],[140.6167,42.5715],[140.7098,42.5556],[140.7875,42.5001],[140.9484,42.3598],[140.9859,42.3424],[141.4067,42.5472],[141.8512,42.5789],[142.0877,42.4715],[142.5084,42.2577],[142.9063,42.1185],[143.1117,42.0222],[143.2366,42.0],[143.245,42.0074],[143.2456,42.0069]]]}}
