{"type":"Feature","properties":{"id":149,"name":"Tsugaru Strait","featurecla":"strait","scalerank":7,"wikidataid":"Q271521","source":"Natural Earth 5.2.0-pre ne_10m_geography_marine_polys (public domain)"},"geometry":{"type":"Polygon","coordinates":[[[140.1441,41.4243],[140.1489,41.4232],[140.2701,41.456],[140.3849,41.5195],[140.4315,41.5672],[140.4891,41.6719],[140.5928,41.7688],[140.66,41.8153],[140.8161,41.7603],[140.9077,41.7434],[140.9992,41.7376],[141.0786,41.7598],[141.1511,41.8053],[141.1522,41.8058],[141.4639,41.4116],[141.4554,41.4047],[141.2686,41.3539],[141.2294,41.3724],[141.1056,41.456],[141.05,41.4756],[140.9368,41.5058],[140.8913,41.4798],[140.8595,41.4253],[140.8019,41.2539],[140.8003,41.1391],[141.0701,41.193],[141.1151,41.2084],[141.1553,41.2369],[141.2003,41.2438],[141.2442,41.2057],[141.2623,41.1026],[141.2252,40.9882],[141.1834,40.9242],[141.1182,40.8824],[140.9363,40.9406],[140.8759,40.9295],[140.8458,40.875],[140.8007,40.8343],[140.7484,40.8306],[140.7024,40.8581],[140.6796,40.8935],[140.6394,41.1555],[140.6277,41.1957],[140.5643,41.2121],[140.4981,41.2057],[140.4415,41.2094],[140.3859,41.2295],[140.3446,41.2031],[140.315,41.1607],[140.3177,41.1465],[140.1441,41.4243]]]}}
