{"type":"Feature","properties":{"id":150,"name":"Tatar Strait","featurecla":"strait","scalerank":7,"wikidataid":"Q110802","source":"Natural Earth 5.2.0-pre ne_10m_geography_marine_polys (public domain)"},"geometry":{"type":"Polygon","coordinates":[[[141.3479,51.9102],[141.367,51.9208],[141.3855,52.0573],[141.485,52.1785],[141.4088,52.2341],[141.3294,52.2711],[141.1697,52.3685],[141.1326,52.4357],[141.2453,52.55],[141.2659,52.6527],[141.2559,52.84],[141.0871,52.8977],[140.8744,53.04],[140.84,53.0876],[140.887,53.0913],[141.1813,53.0151],[141.3278,53.0972],[141.4019,53.1839],[141.3739,53.2924],[141.8448,53.3766],[141.8237,53.3395],[141.839,53.1384],[141.8734,53.039],[141.8555,52.7934],[141.8036,52.5558],[141.7475,52.4548],[141.6824,52.359],[141.6606,52.2727],[141.6686,51.9335],[141.6829,51.9102],[141.3479,51.9102]]]}}
