{"type":"Feature","properties":{"id":151,"name":"Shark Bay","featurecla":"bay","scalerank":5,"wikidataid":"Q217487","source":"Natural Earth 5.2.0-pre ne_10m_geography_marine_polys (public domain)"},"geometry":{"type":"Polygon","coordinates":[[[113.4127,-24.2538],[113.4175,-24.4358],[113.5037,-24.5946],[113.5694,-24.693],[113.671,-24.9771],[113.7922,-25.1655],[113.9927,-25.545],[114.2144,-25.8519],[114.2287,-25.9688],[114.2033,-26.1265],[114.2155,-26.2895],[114.1758,-26.3376],[114.0906,-26.3937],[113.9921,-26.3218],[113.9424,-26.2588],[113.88,-26.0276],[113.8541,-26.0143],[113.8117,-26.1159],[113.7657,-26.1598],[113.7239,-26.1297],[113.6916,-26.0916],[113.6836,-26.0519],[113.6979,-26.0043],[113.7133,-25.8307],[113.6212,-25.7317],[113.5392,-25.6254],[113.4513,-25.5989],[113.3974,-25.6471],[113.4127,-24.2538]]]}}
