{"type":"Feature","properties":{"id":152,"name":"Gulf of Gabès","featurecla":"gulf","scalerank":5,"wikidataid":"Q323760","source":"Natural Earth 5.2.0-pre ne_10m_geography_marine_polys (public domain)"},"geometry":{"type":"Polygon","coordinates":[[[10.7078,33.6884],[10.4544,33.6624],[10.3051,33.7281],[10.1591,33.8503],[10.049,34.0562],[10.04,34.1403],[10.0649,34.2117],[10.1183,34.28],[10.2003,34.3461],[10.5348,34.5446],[10.6909,34.6785],[10.866,34.8843],[10.956,35.0335],[11.1126,35.2309],[11.1878,34.7705],[11.1528,34.7446],[11.1237,34.6816],[11.182,34.7086],[10.9264,33.89],[10.9222,33.8932],[10.7454,33.8889],[10.7337,33.8556],[10.7221,33.7387],[10.747,33.7233],[10.7078,33.6884]]]}}
