{"type":"Feature","properties":{"id":153,"name":"Mackenzie Bay","featurecla":"bay","scalerank":5,"wikidataid":"Q4275770","source":"Natural Earth 5.2.0-pre ne_10m_geography_marine_polys (public domain)"},"geometry":{"type":"Polygon","coordinates":[[[-139.0395,69.5775],[-138.8786,69.5897],[-138.9315,69.6167],[-138.9506,69.6209],[-134.4601,69.6527],[-134.4738,69.6325],[-134.4955,69.5717],[-134.4913,69.5453],[-134.4569,69.4775],[-134.4939,69.468],[-134.8527,69.486],[-135.1411,69.468],[-135.1988,69.4495],[-135.23,69.4251],[-135.2549,69.324],[-135.293,69.3077],[-135.4993,69.3373],[-135.6147,69.2912],[-135.6914,69.3114],[-135.91,69.1113],[-135.8496,69.0812],[-135.7427,69.0494],[-135.6512,69.0314],[-135.5755,69.0272],[-135.5898,69.0081],[-135.6951,69.0008],[-135.8729,69.0013],[-135.9248,68.9928],[-135.9391,68.9743],[-135.8946,68.9266],[-135.8761,68.9171],[-135.638,68.8923],[-135.4348,68.842],[-135.4067,68.8288],[-135.231,68.6944],[-135.2586,68.6843],[-135.3623,68.6965],[-135.8666,68.8325],[-136.1222,68.8822],[-136.4989,68.8976],[-136.7175,68.8891],[-137.0704,68.951],[-137.2599,68.9642],[-137.8695,69.0928],[-138.1282,69.1521],[-138.2912,69.2193],[-138.6897,69.3166],[-139.1728,69.5119],[-139.0395,69.5775]]]}}
