{"type":"Feature","properties":{"id":154,"name":"Norton Sound","featurecla":"sound","scalerank":5,"wikidataid":"Q1973692","source":"Natural Earth 5.2.0-pre ne_10m_geography_marine_polys (public domain)"},"geometry":{"type":"Polygon","coordinates":[[[-164.9633,64.4526],[-164.9633,64.4547],[-164.8993,64.4605],[-164.8575,64.4801],[-164.8295,64.5113],[-164.7649,64.5298],[-164.7273,64.5235],[-164.6919,64.5076],[-164.304,64.5838],[-163.7129,64.588],[-163.4864,64.5499],[-163.2668,64.4753],[-163.1446,64.424],[-163.1044,64.4785],[-163.052,64.5198],[-163.1742,64.533],[-163.2483,64.5631],[-163.3028,64.606],[-163.2039,64.652],[-162.8763,64.5166],[-162.807,64.3742],[-162.7112,64.3774],[-162.6355,64.451],[-162.3344,64.6129],[-162.1725,64.678],[-161.8682,64.7425],[-161.7592,64.8161],[-161.6338,64.7923],[-161.4666,64.7949],[-161.1867,64.924],[-161.1301,64.9256],[-161.0634,64.9039],[-160.9676,64.8394],[-160.8872,64.7955],[-160.8559,64.7558],[-160.8358,64.6817],[-160.8935,64.6129],[-160.9321,64.579],[-161.0486,64.5346],[-161.193,64.5166],[-161.4147,64.5266],[-161.4909,64.434],[-161.3856,64.4398],[-161.22,64.3965],[-160.9877,64.2515],[-160.9041,64.0313],[-160.8406,63.935],[-160.7787,63.8191],[-160.8263,63.7292],[-160.9269,63.6604],[-161.0999,63.5577],[-161.266,63.4969],[-161.5052,63.4683],[-161.9741,63.4529],[-162.0561,63.4715],[-162.1127,63.5344],[-162.1931,63.5408],[-162.2826,63.5291],[-162.3598,63.4524],[-162.6213,63.2656],[-162.8075,63.2064],[-162.9477,63.1148],[-163.062,63.0799],[-163.288,63.0466],[-163.3589,63.046],[-163.4229,63.0847],[-163.5044,63.1058],[-163.6494,63.0566],[-163.7378,63.0164],[-163.7489,63.0302],[-163.7256,63.0476],[-163.6637,63.0704],[-163.6335,63.0905],[-163.6161,63.1254],[-163.7362,63.1926],[-163.9431,63.2471],[-164.1077,63.2619],[-164.4093,63.2148],[-164.4357,63.2],[-164.9633,64.4526]]]}}
