{"type":"Feature","properties":{"id":155,"name":"Kotzebue Sound","featurecla":"sound","scalerank":5,"wikidataid":"Q943234","source":"Natural Earth 5.2.0-pre ne_10m_geography_marine_polys (public domain)"},"geometry":{"type":"Polygon","coordinates":[[[-163.7621,67.2259],[-163.7574,67.2307],[-163.7203,67.1957],[-163.532,67.1026],[-163.0017,67.0275],[-162.7615,67.0365],[-162.5831,67.0185],[-162.4096,67.1042],[-162.4117,67.0603],[-162.3916,67.0201],[-162.3667,67.0216],[-161.9656,67.0497],[-161.7201,67.0206],[-161.6222,66.9793],[-161.7312,66.9227],[-161.8788,66.8042],[-161.8566,66.7005],[-161.6809,66.6454],[-161.5719,66.5914],[-161.3978,66.5518],[-161.0512,66.6528],[-160.8639,66.6708],[-160.6438,66.6052],[-160.3606,66.6126],[-160.2627,66.5724],[-160.2273,66.5083],[-160.2315,66.4205],[-160.6506,66.3729],[-160.7845,66.3845],[-161.048,66.4745],[-161.156,66.4951],[-161.3359,66.4962],[-161.3888,66.4888],[-161.591,66.4597],[-161.9095,66.5597],[-162.0508,66.6671],[-162.0175,66.7841],[-162.1312,66.8015],[-162.2535,66.9184],[-162.3614,66.9476],[-162.4784,66.9306],[-162.6075,66.8947],[-162.5435,66.8052],[-162.4673,66.7359],[-162.3175,66.7338],[-162.191,66.693],[-161.8878,66.493],[-161.9169,66.412],[-161.828,66.3708],[-161.5444,66.4073],[-161.1205,66.3343],[-161.0697,66.2946],[-161.0343,66.1888],[-161.1094,66.2395],[-161.201,66.2194],[-161.3449,66.247],[-161.4555,66.2814],[-161.5571,66.2507],[-161.8164,66.0538],[-161.9339,66.0427],[-162.2143,66.0713],[-162.5868,66.0506],[-162.7218,66.0596],[-162.8864,66.0993],[-163.1716,66.0755],[-163.6955,66.084],[-164.0336,66.2157],[-163.9648,66.2575],[-163.8939,66.2872],[-163.9029,66.3782],[-163.7939,66.4925],[-163.7753,66.5311],[-163.8383,66.5618],[-163.8939,66.5761],[-163.8156,66.5835],[-163.6383,66.5745],[-163.7277,66.6163],[-164.0585,66.611],[-164.0807,66.61],[-163.7621,67.2259]]]}}
