{"type":"Feature","properties":{"id":156,"name":"Gulf of Boothia","featurecla":"gulf","scalerank":5,"wikidataid":"Q919520","source":"Natural Earth 5.2.0-pre ne_10m_geography_marine_polys (public domain)"},"geometry":{"type":"Polygon","coordinates":[[[-91.5674,70.1522],[-89.4206,71.0317],[-89.4163,71.0396],[-89.41,71.0359],[-89.3714,70.9962],[-89.2576,70.8105],[-89.2084,70.7597],[-88.8485,70.5226],[-88.7829,70.4946],[-88.6628,70.4708],[-88.4019,70.4427],[-88.1781,70.3686],[-87.9008,70.2517],[-87.8384,70.2464],[-87.7897,70.258],[-87.6701,70.3099],[-87.6177,70.3189],[-87.5023,70.3258],[-87.2377,70.3099],[-87.0631,70.3252],[-87.0742,70.3448],[-87.1557,70.3776],[-87.1721,70.3998],[-87.1224,70.412],[-86.8091,70.3882],[-86.7043,70.3909],[-86.6244,70.4014],[-86.3969,70.4655],[-86.4308,70.4443],[-86.4652,70.4062],[-86.5001,70.3506],[-86.4832,70.2887],[-86.3614,70.1728],[-86.3218,70.1453],[-86.1979,70.1051],[-85.7799,70.0368],[-85.7174,70.0501],[-85.7164,70.0443],[-85.4851,69.8464],[-85.5074,69.8453],[-85.5349,69.8352],[-85.4973,69.8188],[-85.446,69.7776],[-85.4481,69.7479],[-85.5026,69.6516],[-85.482,69.6188],[-85.4301,69.5807],[-85.4158,69.5479],[-85.4396,69.5198],[-85.437,69.4881],[-85.4089,69.4527],[-85.4021,69.4267],[-85.4164,69.4109],[-85.4317,69.3537],[-85.4275,69.3183],[-85.3867,69.232],[-85.2756,69.1722],[-85.2428,69.1627],[-85.1137,69.1658],[-84.8898,69.0928],[-84.8623,69.0738],[-84.8925,69.0209],[-84.8951,68.9886],[-84.9163,68.9621],[-85.0084,68.9494],[-85.0835,68.9081],[-85.1042,68.8711],[-85.1068,68.8441],[-84.8676,68.7907],[-84.8676,68.7732],[-85.2751,68.7414],[-85.338,68.7462],[-85.4248,68.7743],[-85.491,68.7743],[-85.518,68.77],[-85.5624,68.7287],[-85.6434,68.6996],[-85.6899,68.6711],[-85.7339,68.6303],[-85.745,68.5785],[-85.7227,68.5155],[-85.7312,68.4451],[-85.7889,68.3282],[-85.9524,68.0726],[-85.9847,68.0456],[-86.3699,67.8249],[-86.398,67.8],[-86.4757,67.7133],[-86.5033,67.6493],[-86.5366,67.5164],[-86.5609,67.482],[-86.6091,67.4508],[-86.6821,67.4222],[-86.7499,67.4064],[-86.8128,67.4021],[-86.924,67.3561],[-87.0832,67.2677],[-87.2663,67.1841],[-87.3203,67.173],[-87.3595,67.1772],[-87.3917,67.191],[-87.4182,67.2143],[-87.4706,67.3249],[-87.4991,67.3556],[-87.9971,67.6254],[-88.1961,67.7657],[-88.3141,67.9503],[-88.3252,67.989],[-88.3194,68.1657],[-88.3606,68.2599],[-88.3469,68.2885],[-88.2352,68.3393],[-88.2093,68.3351],[-88.1458,68.2662],[-88.1114,68.2514],[-87.9907,68.2419],[-87.8928,68.2483],[-87.8532,68.2668],[-87.8278,68.3001],[-87.8135,68.3456],[-87.8103,68.4044],[-87.8278,68.4483],[-87.8659,68.4774],[-87.9114,68.5647],[-87.9643,68.7092],[-88.0415,68.8118],[-88.2236,68.915],[-88.3157,68.9547],[-88.6379,69.0589],[-88.8147,69.1357],[-88.9533,69.2203],[-89.0565,69.2659],[-89.1983,69.2695],[-89.2798,69.2553],[-89.3518,69.2272],[-89.5518,69.0849],[-89.6666,69.0145],[-89.7201,68.9314],[-89.7508,68.8123],[-89.783,68.7362],[-89.8841,68.6256],[-89.8968,68.5943],[-89.8793,68.5213],[-89.8979,68.4906],[-90.0053,68.398],[-90.1164,68.3387],[-90.1566,68.3054],[-90.1746,68.2699],[-90.2048,68.2573],[-90.2476,68.2673],[-90.2852,68.2916],[-90.317,68.3303],[-90.3598,68.3467],[-90.4228,68.3948],[-90.5281,68.4324],[-90.5736,68.4747],[-90.5255,68.6113],[-90.5101,68.689],[-90.5424,68.7859],[-90.5392,68.8198],[-90.4683,68.8637],[-90.4789,68.8811],[-90.5874,68.9468],[-90.7445,69.106],[-91.2372,69.2854],[-91.2181,69.3024],[-91.1478,69.3024],[-91.0578,69.3183],[-91.025,69.315],[-91.0493,69.2929],[-91.0049,69.277],[-90.8922,69.2675],[-90.8223,69.2907],[-90.7948,69.3468],[-90.7488,69.3923],[-90.6842,69.4278],[-90.6054,69.4452],[-90.5133,69.4452],[-90.4154,69.4569],[-90.4503,69.4754],[-90.5551,69.5045],[-90.6668,69.5156],[-90.7858,69.5087],[-90.9504,69.5156],[-91.288,69.5431],[-91.4399,69.5257],[-91.4266,69.5378],[-91.3049,69.5812],[-91.1705,69.6204],[-91.1509,69.6373],[-91.2017,69.6447],[-91.3843,69.6495],[-91.5325,69.6151],[-91.724,69.5458],[-91.9119,69.5315],[-92.2093,69.6035],[-92.2585,69.6341],[-92.231,69.6532],[-92.3119,69.6728],[-92.4934,69.6833],[-92.6427,69.659],[-92.8025,69.6516],[-92.8543,69.6548],[-92.8877,69.668],[-92.7511,69.7141],[-92.2849,69.8919],[-92.0691,69.9839],[-91.977,70.0384],[-92.0579,70.0713],[-92.1272,70.0845],[-92.4458,70.0834],[-92.5119,70.104],[-92.4548,70.1506],[-92.3632,70.2009],[-92.3204,70.2353],[-92.2902,70.2401],[-92.2087,70.1977],[-92.1209,70.1697],[-91.9949,70.1432],[-91.8584,70.1326],[-91.6161,70.148],[-91.5716,70.1617],[-91.5674,70.1522]],[[-86.834,68.2297],[-86.8848,68.1906],[-86.8985,68.1631],[-86.9494,68.1186],[-86.9599,68.1001],[-86.9377,68.0678],[-86.8472,68.0101],[-86.8943,67.9382],[-86.9086,67.9022],[-86.9081,67.8673],[-86.8927,67.8366],[-86.861,67.8106],[-86.7059,67.7503],[-86.6382,67.735],[-86.5953,67.736],[-86.5461,67.7524],[-86.4895,67.7837],[-86.4472,67.817],[-86.3964,67.889],[-86.3826,67.9271],[-86.3906,67.989],[-86.4202,68.0742],[-86.4302,68.1387],[-86.4213,68.1832],[-86.4519,68.2255],[-86.5699,68.288],[-86.7022,68.3054],[-86.834,68.2297]],[[-86.6911,70.1152],[-86.7985,70.1051],[-86.9128,70.1131],[-87.1071,70.1469],[-87.1679,70.1273],[-87.3229,70.1025],[-87.3235,70.0802],[-87.2637,70.0437],[-87.1906,70.0183],[-87.0435,69.9998],[-86.9838,70.0109],[-86.8552,69.9855],[-86.7345,69.9765],[-86.5578,69.9951],[-86.5154,70.0173],[-86.5308,70.0474],[-86.5636,70.0771],[-86.6128,70.1056],[-86.6911,70.1152]],[[-90.2529,69.4177],[-90.3223,69.4288],[-90.3773,69.4161],[-90.4551,69.3907],[-90.4921,69.3701],[-90.4646,69.3288],[-90.3641,69.2627],[-90.3302,69.2521],[-90.2953,69.2579],[-90.2672,69.2727],[-90.1773,69.3569],[-90.2,69.4193],[-90.2286,69.4363],[-90.2529,69.4177]]]}}
