{"type":"Feature","properties":{"id":157,"name":"Kane Basin","featurecla":"bay","scalerank":5,"wikidataid":"Q1510928","source":"Natural Earth 5.2.0-pre ne_10m_geography_marine_polys (public domain)"},"geometry":{"type":"Polygon","coordinates":[[[-74.5388,78.6474],[-74.5351,78.6591],[-74.433,78.7242],[-74.4864,78.7501],[-74.6182,78.7575],[-75.0987,78.8581],[-75.3998,78.8813],[-75.7951,78.8898],[-75.9527,78.9591],[-76.0771,78.9851],[-76.256,79.0068],[-76.5242,79.0242],[-76.8248,79.0179],[-77.5106,78.9787],[-77.6985,78.9544],[-77.8826,78.9422],[-78.0366,78.9639],[-78.2218,79.0152],[-78.4218,79.0486],[-78.5589,79.0544],[-78.5816,79.075],[-78.2578,79.0824],[-77.9736,79.0761],[-77.7292,79.057],[-77.3979,79.0576],[-76.7714,79.0872],[-76.5317,79.0866],[-76.3803,79.1041],[-76.1575,79.1004],[-75.912,79.1179],[-75.6389,79.0877],[-75.5146,79.0612],[-75.2331,79.0353],[-74.6409,79.0353],[-74.5324,79.0528],[-74.4811,79.2295],[-74.7272,79.2353],[-75.0934,79.2041],[-75.3537,79.2285],[-75.603,79.2396],[-75.9475,79.3115],[-76.1163,79.3264],[-76.2956,79.4137],[-76.6708,79.4783],[-76.855,79.4883],[-76.8989,79.5121],[-76.3761,79.4946],[-76.067,79.4729],[-75.7739,79.4311],[-75.5035,79.4142],[-75.2595,79.4211],[-74.7981,79.4587],[-74.406,79.4534],[-74.1885,79.465],[-74.0155,79.4904],[-73.8657,79.5015],[-73.4662,79.4952],[-73.3614,79.5042],[-73.2937,79.5216],[-73.2402,79.5523],[-73.2011,79.5968],[-73.2291,79.6439],[-73.4058,79.7322],[-73.4725,79.7566],[-73.6419,79.7709],[-74.0509,79.7783],[-74.5409,79.8159],[-74.66,79.8354],[-74.3943,79.8741],[-74.144,79.8799],[-73.8048,79.8465],[-73.4482,79.827],[-72.4364,79.6941],[-72.2158,79.6867],[-71.9644,79.701],[-71.3876,79.7619],[-71.2987,79.7825],[-71.1103,79.8476],[-71.1061,79.8756],[-71.2776,79.9063],[-71.3559,79.9111],[-70.7574,79.9984],[-70.5589,80.0709],[-70.5685,80.0937],[-70.7584,80.1185],[-70.877,80.1222],[-71.6162,80.0709],[-71.9485,80.0862],[-72.0628,80.1053],[-72.056,80.1233],[-71.9279,80.1392],[-71.7961,80.1434],[-71.6607,80.136],[-71.4702,80.146],[-71.1003,80.1868],[-70.2647,80.2334],[-70.2129,80.2778],[-70.668,80.5053],[-70.7124,80.5397],[-70.6389,80.5276],[-70.4028,80.4588],[-70.1435,80.3979],[-69.9493,80.3736],[-69.734,80.3667],[-69.5509,80.3831],[-69.4001,80.4228],[-68.9593,80.5868],[-68.6307,80.6789],[-67.7745,80.8594],[-67.7512,80.8636],[-67.1934,80.2746],[-67.2014,80.2222],[-67.1411,80.1667],[-67.0606,80.1233],[-66.9596,80.0921],[-66.8437,80.0762],[-66.4479,80.0804],[-66.2912,80.0725],[-65.9817,80.0296],[-65.8102,80.0238],[-65.5536,80.0482],[-65.3948,80.0778],[-65.2223,80.0857],[-64.982,80.0826],[-64.7355,80.1042],[-64.5444,80.137],[-64.4397,80.1418],[-64.3269,80.1334],[-64.2052,80.1122],[-64.1793,80.0995],[-64.4656,80.072],[-64.6323,80.0407],[-64.7921,80.0005],[-64.8392,79.9693],[-64.9048,79.8815],[-64.9895,79.737],[-65.117,79.5888],[-65.2879,79.4375],[-65.4197,79.3401],[-65.5599,79.2766],[-65.8255,79.174],[-65.9679,79.1322],[-66.0753,79.1184],[-66.2425,79.1179],[-66.5838,79.1374],[-67.3543,79.1232],[-67.4824,79.1168],[-67.7078,79.0803],[-67.8681,79.0681],[-68.0676,79.066],[-68.3772,79.038],[-68.8296,78.9798],[-69.0307,78.9427],[-69.0122,78.9231],[-68.9238,78.8819],[-68.9296,78.867],[-68.9937,78.8575],[-69.9737,78.7776],[-70.414,78.7247],[-70.6256,78.6903],[-70.7542,78.6559],[-70.9055,78.6385],[-71.3945,78.6427],[-71.5157,78.639],[-71.6512,78.6231],[-72.0237,78.5527],[-72.3957,78.5046],[-72.4724,78.4818],[-72.6798,78.3998],[-72.6984,78.3797],[-74.5388,78.6474]]]}}
