{"type":"Feature","properties":{"id":158,"name":"Foxe Basin","featurecla":"bay","scalerank":5,"wikidataid":"Q845217","source":"Natural Earth 5.2.0-pre ne_10m_geography_marine_polys (public domain)"},"geometry":{"type":"Polygon","coordinates":[[[-85.7164,65.9168],[-85.9984,66.0226],[-86.0429,66.0226],[-86.0122,66.0485],[-85.9588,66.1189],[-85.964,66.1544],[-86.0011,66.1866],[-86.1133,66.2253],[-86.3011,66.2697],[-86.5848,66.3221],[-86.6853,66.3602],[-86.7472,66.4168],[-86.7382,66.4327],[-86.7001,66.4427],[-86.6885,66.4575],[-86.7372,66.511],[-86.7081,66.5232],[-86.6334,66.5311],[-86.063,66.5205],[-85.7915,66.5327],[-85.6037,66.5682],[-85.4423,66.5375],[-85.3068,66.4401],[-85.1915,66.3697],[-85.0962,66.3253],[-84.9084,66.2713],[-84.6279,66.2078],[-84.4781,66.1792],[-84.4596,66.1861],[-84.3982,66.2586],[-84.3241,66.2909],[-84.2929,66.2919],[-84.0119,66.2311],[-83.9051,66.212],[-83.8691,66.2136],[-83.7976,66.2385],[-83.8257,66.2898],[-83.9643,66.4205],[-84.094,66.5264],[-84.1527,66.5904],[-84.1829,66.6481],[-84.2231,66.6824],[-84.3189,66.7116],[-84.5893,66.8566],[-84.6025,66.8751],[-84.6385,66.9021],[-84.738,66.9338],[-84.8576,66.9407],[-84.8988,66.9264],[-84.9782,66.8814],[-85.0184,66.8719],[-85.111,66.891],[-85.1137,66.9068],[-85.0401,66.956],[-84.8459,67.0285],[-84.6924,67.0164],[-84.5385,66.973],[-84.5305,66.9613],[-84.466,66.9275],[-84.3104,66.8629],[-84.2728,66.8391],[-84.3612,66.8227],[-84.3665,66.811],[-84.3241,66.7819],[-84.2077,66.7364],[-84.1543,66.7317],[-84.0501,66.7396],[-83.9982,66.7285],[-83.9204,66.6793],[-83.7394,66.5343],[-83.6511,66.4845],[-83.6283,66.4608],[-83.5902,66.3877],[-83.523,66.3687],[-83.4066,66.3713],[-83.2986,66.3919],[-83.1986,66.4316],[-82.9489,66.5507],[-82.6414,66.5877],[-82.5536,66.6216],[-82.3747,66.7094],[-82.2604,66.7391],[-82.1985,66.7645],[-82.1133,66.8253],[-82.0048,66.9206],[-81.9254,66.9746],[-81.8746,66.9878],[-81.7222,66.9862],[-81.6302,67.0021],[-81.4677,67.0698],[-81.4429,67.0931],[-81.3873,67.1884],[-81.301,67.3571],[-81.2703,67.4598],[-81.2942,67.4974],[-81.4122,67.5953],[-81.4926,67.6371],[-81.7085,67.7223],[-81.8694,67.8027],[-81.9763,67.862],[-82.0625,67.9281],[-82.1006,67.99],[-82.1022,68.0191],[-82.0921,68.0514],[-82.0133,68.1736],[-82.0128,68.1938],[-82.0339,68.1959],[-82.0779,68.1795],[-82.1514,68.1398],[-82.1863,68.1345],[-82.2223,68.1451],[-82.3927,68.2853],[-82.4229,68.2964],[-82.4308,68.3065],[-82.3927,68.3382],[-82.4128,68.3573],[-82.4641,68.3827],[-82.5525,68.4467],[-82.5488,68.4684],[-82.4985,68.4785],[-82.3975,68.4774],[-82.2101,68.5065],[-82.1064,68.4986],[-82.0064,68.4626],[-81.9149,68.4589],[-81.8313,68.4869],[-81.6397,68.5245],[-81.527,68.5557],[-81.2814,68.6573],[-81.2592,68.6922],[-81.2523,68.743],[-81.2635,68.7806],[-81.3312,68.8282],[-81.3809,68.8499],[-81.4762,68.8658],[-81.6868,68.879],[-81.9577,68.8838],[-81.9514,68.9092],[-81.7582,68.9568],[-81.6117,69.0029],[-81.3285,69.1198],[-81.3217,69.1388],[-81.3778,69.1854],[-81.4122,69.1981],[-81.7323,69.2579],[-81.9519,69.2759],[-82.1503,69.2489],[-82.2276,69.2489],[-82.2467,69.2648],[-82.208,69.2971],[-82.2318,69.3325],[-82.3096,69.4098],[-82.6419,69.4584],[-82.7547,69.4944],[-82.6335,69.5183],[-82.4959,69.532],[-82.3901,69.6008],[-82.3742,69.6415],[-82.3932,69.6453],[-82.2149,69.8236],[-82.2154,69.8389],[-82.1387,69.8411],[-81.9577,69.8686],[-81.5646,69.9427],[-80.9216,69.731],[-80.8401,69.7712],[-80.7264,69.7405],[-80.7777,69.7103],[-80.7946,69.6892],[-80.7782,69.677],[-80.448,69.6495],[-80.3977,69.6325],[-80.3295,69.5865],[-80.2998,69.5828],[-80.2686,69.5998],[-80.2443,69.5934],[-80.2273,69.5622],[-80.1617,69.5357],[-80.0469,69.514],[-79.9781,69.5098],[-79.9543,69.5236],[-79.9712,69.5564],[-80.0474,69.6341],[-79.8818,69.6087],[-79.5527,69.631],[-79.4024,69.6849],[-79.3648,69.7125],[-79.3902,69.7305],[-79.4304,69.7876],[-79.5939,69.8104],[-79.5881,69.8924],[-79.5156,69.8876],[-79.3034,69.895],[-79.0928,69.9252],[-78.8896,69.9776],[-78.8187,70.0104],[-78.778,70.0474],[-78.7748,70.1035],[-78.8097,70.1787],[-78.8626,70.2416],[-78.9341,70.2935],[-79.0177,70.3252],[-79.3473,70.3723],[-79.405,70.4009],[-79.3971,70.4374],[-79.3468,70.4819],[-79.2531,70.5348],[-79.16,70.575],[-79.0664,70.6036],[-78.9796,70.5814],[-78.8997,70.5083],[-78.8309,70.4633],[-78.7727,70.4454],[-78.6213,70.3533],[-78.5748,70.3464],[-78.4906,70.3157],[-78.2827,70.2289],[-78.2313,70.2189],[-78.1567,70.2189],[-77.8424,70.2469],[-77.7741,70.2385],[-77.7217,70.1707],[-77.6747,70.0416],[-77.663,69.9659],[-77.6355,69.9003],[-77.5916,69.8458],[-77.4942,69.8363],[-77.2323,69.8548],[-77.0158,69.8363],[-76.9624,69.8247],[-76.8587,69.7754],[-76.8687,69.7453],[-77.0185,69.6892],[-77.1053,69.6707],[-77.1285,69.6527],[-77.0899,69.6352],[-77.0195,69.6167],[-76.9153,69.6114],[-76.7423,69.5728],[-76.6867,69.5913],[-76.5899,69.6564],[-76.5131,69.6839],[-76.4237,69.6871],[-76.2343,69.6622],[-76.2311,69.6537],[-76.4634,69.6199],[-76.5163,69.5907],[-76.5248,69.5489],[-76.5205,69.5167],[-76.465,69.4696],[-76.4078,69.441],[-76.3163,69.4214],[-76.1898,69.4109],[-76.0464,69.3865],[-75.7871,69.3188],[-75.749,69.2997],[-75.6479,69.2124],[-75.668,69.159],[-75.7633,69.1029],[-75.8585,69.0605],[-75.9538,69.0309],[-76.0893,69.0261],[-76.3808,69.0526],[-76.4951,69.0304],[-76.5571,69.0097],[-76.5877,68.9743],[-76.5745,68.8468],[-76.5819,68.8161],[-76.6036,68.7917],[-76.6163,68.76],[-76.6195,68.7213],[-76.5851,68.6986],[-76.4036,68.6922],[-76.2348,68.7282],[-75.8421,68.8404],[-75.6231,68.8875],[-75.5225,68.9526],[-75.4569,68.9611],[-75.3627,68.9484],[-75.2135,68.9092],[-75.1045,68.9404],[-74.9542,69.0245],[-74.8547,69.0658],[-74.8055,69.0642],[-74.7166,69.0457],[-74.7695,69.0209],[-74.9172,68.9827],[-74.9542,68.9611],[-74.9251,68.9409],[-74.8161,68.9362],[-74.7431,68.9134],[-74.7526,68.8923],[-74.9103,68.8229],[-74.8928,68.8081],[-74.8081,68.796],[-74.7462,68.7965],[-74.7002,68.8081],[-74.6806,68.7901],[-74.696,68.7557],[-74.6478,68.7076],[-74.4224,68.5801],[-74.3499,68.5562],[-74.27,68.5414],[-74.1827,68.5356],[-73.9895,68.5488],[-73.9663,68.579],[-74.1181,68.7007],[-74.0731,68.715],[-73.935,68.7108],[-73.8514,68.7012],[-73.8223,68.6859],[-73.7985,68.6589],[-73.7805,68.6192],[-73.7826,68.5779],[-73.8345,68.497],[-73.8731,68.4641],[-73.8795,68.4292],[-73.8207,68.3631],[-73.7493,68.325],[-73.6445,68.2943],[-73.5799,68.298],[-73.3069,68.3679],[-73.2847,68.3567],[-73.3313,68.3091],[-73.3281,68.2668],[-73.0635,68.107],[-72.9042,67.9451],[-72.7253,67.8117],[-72.5766,67.6588],[-72.3528,67.3418],[-72.301,67.3074],[-72.2343,67.2847],[-72.22,67.2545],[-72.365,67.1333],[-72.4851,67.0979],[-72.6677,67.0704],[-72.7889,67.0307],[-72.9465,66.883],[-72.9746,66.8285],[-72.9852,66.7655],[-73.0333,66.728],[-73.2011,66.6994],[-73.281,66.6751],[-73.3572,66.6364],[-73.4307,66.583],[-73.5842,66.5068],[-73.9334,66.3581],[-74.3748,66.2083],[-74.4166,66.167],[-74.434,66.139],[-74.4012,66.0972],[-74.2763,66.0125],[-74.0329,65.8771],[-73.826,65.8051],[-73.7461,65.7665],[-73.6435,65.6532],[-73.5609,65.5432],[-73.5509,65.4855],[-73.6752,65.4844],[-73.8779,65.5188],[-73.9895,65.5172],[-74.1388,65.5035],[-74.2367,65.4839],[-74.3906,65.3976],[-74.4949,65.3717],[-74.5748,65.3638],[-74.6653,65.3669],[-74.8499,65.3892],[-74.9817,65.3812],[-75.0479,65.3638],[-75.1093,65.3315],[-75.1664,65.2839],[-75.3167,65.2749],[-75.7088,65.3156],[-75.7988,65.2976],[-75.7728,65.2569],[-75.5045,65.1352],[-75.4458,65.0997],[-75.3966,65.0574],[-75.3569,65.0087],[-75.3627,64.969],[-75.4135,64.9383],[-75.4352,64.9008],[-75.4273,64.8558],[-75.4522,64.8415],[-75.5559,64.8791],[-75.5892,64.905],[-75.5908,64.9277],[-75.5611,64.9468],[-75.5014,65.0129],[-75.5199,65.0558],[-75.6479,65.141],[-75.8284,65.2272],[-76.067,65.2855],[-76.4819,65.3696],[-76.7788,65.414],[-76.9587,65.4183],[-77.0942,65.431],[-77.2513,65.4627],[-77.3265,65.4532],[-77.3582,65.4352],[-77.4275,65.3722],[-77.4603,65.3558],[-77.4614,65.3283],[-77.364,65.2198],[-77.3609,65.1966],[-77.4476,65.1616],[-77.8762,65.0727],[-77.9948,65.0225],[-78.0551,64.9828],[-78.0959,64.9394],[-78.1446,64.8076],[-78.1895,64.7521],[-78.2012,64.715],[-78.1975,64.6647],[-78.1747,64.6177],[-78.1673,64.6108],[-80.2834,63.7646],[-80.2914,63.7726],[-80.2612,63.8022],[-80.4507,63.8631],[-80.6681,63.9017],[-80.5792,63.9091],[-80.5687,63.9319],[-80.6078,63.9721],[-80.6941,64.025],[-80.829,64.0901],[-80.9211,64.1006],[-81.0052,64.0335],[-81.0238,64.0313],[-81.1042,64.0372],[-81.3354,64.0758],[-81.7159,64.0218],[-81.8873,64.0165],[-81.9027,64.0313],[-81.7212,64.1186],[-81.681,64.1456],[-81.6672,64.1705],[-81.6762,64.2129],[-81.7873,64.4261],[-81.9292,64.5594],[-82.0498,64.6441],[-82.1588,64.6907],[-82.2715,64.7214],[-82.5858,64.7621],[-82.6679,64.7801],[-82.9907,64.9039],[-83.2007,64.9595],[-83.2224,64.968],[-83.4071,65.104],[-83.4907,65.132],[-83.7225,65.169],[-83.9003,65.1812],[-84.085,65.2177],[-84.1336,65.2452],[-84.1802,65.3161],[-84.2665,65.3675],[-84.5009,65.4585],[-84.5681,65.4606],[-84.6126,65.4474],[-84.7713,65.305],[-84.8422,65.2558],[-84.8851,65.2489],[-84.9195,65.2611],[-85.056,65.4373],[-85.2401,65.5104],[-85.2428,65.5262],[-85.2264,65.5458],[-85.1301,65.5918],[-85.1052,65.6225],[-85.1306,65.6929],[-85.1761,65.7469],[-85.2412,65.7956],[-85.4423,65.8453],[-85.4957,65.8998],[-85.5232,65.9146],[-85.5545,65.9189],[-85.6989,65.8834],[-85.7164,65.9168]],[[-74.1091,67.7826],[-73.6218,67.7837],[-73.4075,67.7932],[-73.3985,67.8297],[-73.4016,67.8789],[-73.435,67.9699],[-73.4593,67.99],[-73.4937,68.0006],[-73.5842,68.0154],[-73.8805,68.0218],[-74.1112,68.0604],[-74.3795,68.0932],[-74.7065,68.0673],[-74.7314,68.0488],[-74.7494,68.0186],[-74.7462,67.9847],[-74.6785,67.9054],[-74.5732,67.8286],[-74.4806,67.8048],[-74.3742,67.7895],[-74.1091,67.7826]],[[-74.9595,68.3424],[-74.8806,68.3488],[-74.8452,68.3658],[-74.8187,68.3943],[-74.8129,68.4133],[-74.8277,68.4239],[-74.8309,68.4409],[-74.7981,68.4578],[-74.8187,68.4943],[-74.8849,68.5446],[-74.9838,68.6478],[-75.0748,68.6848],[-75.1997,68.6959],[-75.2876,68.688],[-75.3701,68.6361],[-75.3961,68.589],[-75.4035,68.5499],[-75.4003,68.5256],[-75.3103,68.4742],[-75.0727,68.4044],[-74.9595,68.3424]],[[-75.1272,67.9652],[-75.1241,67.9853],[-75.0727,68.0488],[-75.0622,68.0752],[-75.0637,68.1414],[-75.078,68.1731],[-75.1029,68.2017],[-75.1537,68.234],[-75.676,68.3223],[-75.8665,68.3366],[-75.9829,68.3324],[-76.0882,68.3139],[-76.1729,68.3086],[-76.3644,68.3186],[-76.5957,68.2789],[-76.6883,68.2546],[-76.7401,68.2313],[-76.9449,68.0911],[-77.1259,67.9472],[-77.2286,67.8503],[-77.3058,67.7059],[-77.3042,67.6852],[-77.2243,67.508],[-77.1571,67.4085],[-77.0762,67.3196],[-77.0047,67.2672],[-76.9444,67.2503],[-76.8587,67.2407],[-76.6941,67.2359],[-76.3327,67.2582],[-76.049,67.2619],[-75.7802,67.2836],[-75.4003,67.3667],[-75.3146,67.4005],[-75.2019,67.4593],[-75.1272,67.5371],[-75.0907,67.6349],[-75.0865,67.7514],[-75.1272,67.9652]],[[-77.1217,69.132],[-76.9952,69.1436],[-76.9111,69.1748],[-76.8693,69.2251],[-76.8105,69.2669],[-76.6872,69.3278],[-76.6698,69.3484],[-76.6687,69.3664],[-76.684,69.3802],[-76.746,69.404],[-76.9941,69.4119],[-77.109,69.4373],[-77.1873,69.4399],[-77.3185,69.4161],[-77.3408,69.404],[-77.3513,69.3786],[-77.3582,69.3114],[-77.3794,69.2738],[-77.3217,69.1933],[-77.2757,69.1616],[-77.2148,69.1383],[-77.1217,69.132]],[[-78.6621,69.5024],[-78.5525,69.4918],[-78.47,69.5024],[-78.307,69.5516],[-78.0398,69.6082],[-77.9694,69.6389],[-77.9779,69.6648],[-78.0292,69.7151],[-78.1451,69.7395],[-78.2006,69.7395],[-78.2626,69.7167],[-78.2673,69.6871],[-78.2954,69.667],[-78.344,69.6749],[-78.4017,69.6506],[-78.5785,69.6389],[-78.7891,69.523],[-78.8483,69.4828],[-78.7954,69.4796],[-78.6621,69.5024]],[[-78.5954,69.0791],[-78.5605,69.106],[-78.5515,69.1288],[-78.533,69.1463],[-78.4388,69.1992],[-78.2869,69.2627],[-78.2292,69.304],[-78.234,69.3145],[-78.2726,69.3611],[-78.3006,69.3786],[-78.3324,69.386],[-78.4578,69.3897],[-78.5965,69.3706],[-78.6504,69.351],[-78.6891,69.3251],[-78.6891,69.2997],[-78.6504,69.2754],[-78.6621,69.2621],[-78.7716,69.2521],[-78.8039,69.2352],[-78.9002,69.1357],[-78.9304,69.123],[-79.1452,69.0875],[-79.2426,69.0494],[-79.305,68.9923],[-79.3548,68.9557],[-79.3913,68.9399],[-79.4056,68.923],[-79.3907,68.8901],[-79.3616,68.8579],[-79.2796,68.8388],[-79.2108,68.8457],[-79.0536,68.8827],[-78.8526,68.9155],[-78.779,68.9505],[-78.7055,69.0134],[-78.5954,69.0791]],[[-78.9526,68.353],[-79.1537,68.3351],[-79.1748,68.2647],[-79.1743,68.235],[-79.0642,68.1816],[-78.9827,68.1927],[-78.8287,68.2684],[-78.869,68.3102],[-78.9526,68.353]],[[-84.0088,65.7516],[-83.9389,65.7585],[-83.8135,65.7876],[-83.7865,65.7702],[-83.7019,65.7564],[-83.7982,65.7098],[-83.8093,65.6781],[-83.7876,65.6691],[-83.6495,65.658],[-83.6304,65.6622],[-83.6442,65.6786],[-83.6362,65.6913],[-83.6066,65.7014],[-83.5833,65.6987],[-83.5373,65.6691],[-83.4955,65.6559],[-83.3817,65.6299],[-83.3325,65.631],[-83.2637,65.6681],[-83.2341,65.6966],[-83.2335,65.7151],[-83.2632,65.7231],[-83.4696,65.7353],[-83.5976,65.7575],[-83.7262,65.7966],[-83.7653,65.831],[-83.7151,65.8607],[-83.6934,65.8903],[-83.7013,65.9199],[-83.7871,65.9659],[-83.9506,66.0273],[-84.122,66.0776],[-84.4072,66.1311],[-84.4564,66.1062],[-84.4676,66.0882],[-84.4506,66.0644],[-84.3702,66.012],[-84.2707,65.9908],[-84.2231,65.9697],[-84.1935,65.9422],[-84.1432,65.9162],[-84.1299,65.8776],[-84.1183,65.7718],[-84.0088,65.7516]],[[-84.602,65.6315],[-84.6025,65.6575],[-84.6919,65.7929],[-84.7575,65.8591],[-84.8697,65.9416],[-84.8893,65.9718],[-84.92,65.9972],[-84.9385,66.0083],[-85.0317,66.0252],[-85.1497,66.0152],[-85.1756,65.9723],[-85.174,65.9438],[-85.1438,65.8855],[-85.1364,65.821],[-85.0962,65.7564],[-85.0719,65.7374],[-84.9311,65.6892],[-84.8687,65.6506],[-84.83,65.5993],[-84.7829,65.5702],[-84.7269,65.5638],[-84.675,65.5749],[-84.6263,65.604],[-84.602,65.6315]]]}}
