{"type":"Feature","properties":{"id":159,"name":"Golfo de Tehuantepec","featurecla":"gulf","scalerank":5,"wikidataid":"Q2272405","source":"Natural Earth 5.2.0-pre ne_10m_geography_marine_polys (public domain)"},"geometry":{"type":"Polygon","coordinates":[[[-96.2135,15.693],[-95.7716,15.8878],[-95.4642,15.9745],[-95.1345,16.1772],[-94.9493,16.21],[-94.7995,16.2095],[-94.7858,16.2291],[-94.8461,16.2465],[-95.0207,16.2777],[-95.0234,16.3063],[-94.9345,16.3793],[-94.9006,16.4174],[-94.8588,16.4196],[-94.7927,16.3645],[-94.7974,16.327],[-94.7905,16.2873],[-94.753,16.291],[-94.6508,16.3518],[-94.617,16.3476],[-94.5873,16.3159],[-94.6821,16.228],[-94.6614,16.2021],[-94.4709,16.1867],[-94.001,16.019],[-94.0285,16.0618],[-94.1937,16.1454],[-94.2497,16.1677],[-94.3027,16.1693],[-94.3704,16.1952],[-94.4265,16.2264],[-94.409,16.2873],[-94.3741,16.2846],[-94.3111,16.2391],[-94.2397,16.2053],[-94.0788,16.1454],[-93.9158,16.0534],[-93.7343,15.8883],[-93.5412,15.7502],[-93.1671,15.448],[-93.0242,15.3104],[-96.2135,15.693]]]}}
