{"type":"Feature","properties":{"id":160,"name":"Golfo de Guayaquil","featurecla":"gulf","scalerank":5,"wikidataid":"Q1138929","source":"Natural Earth 5.2.0-pre ne_10m_geography_marine_polys (public domain)"},"geometry":{"type":"Polygon","coordinates":[[[-80.9592,-2.2637],[-80.9412,-2.2531],[-80.9322,-2.269],[-80.8391,-2.3489],[-80.6851,-2.3971],[-80.4501,-2.6257],[-80.3787,-2.668],[-80.2845,-2.7067],[-80.2554,-2.6648],[-80.2485,-2.6304],[-80.1273,-2.5283],[-80.0532,-2.3907],[-80.0067,-2.3537],[-80.03,-2.5569],[-79.9892,-2.5786],[-79.9257,-2.5484],[-79.8802,-2.4235],[-79.8934,-2.1457],[-79.8421,-2.0674],[-79.8326,-2.1108],[-79.84,-2.1679],[-79.8225,-2.3563],[-79.7453,-2.4849],[-79.7299,-2.5791],[-79.8225,-2.777],[-79.9215,-3.0903],[-79.9633,-3.1575],[-80.0268,-3.2279],[-80.1004,-3.2739],[-80.1596,-3.3242],[-80.303,-3.375],[-80.3247,-3.3876],[-80.5036,-3.4962],[-80.6528,-3.638],[-80.7983,-3.7311],[-80.801,-3.7358],[-80.9592,-2.2637]],[[-80.0808,-2.6691],[-80.1459,-2.6966],[-80.2237,-2.7532],[-80.2496,-2.8119],[-80.2723,-2.9517],[-80.2728,-2.9961],[-80.2459,-3.0082],[-80.1506,-3.012],[-80.1316,-2.9734],[-80.0935,-2.8458],[-80.0713,-2.8336],[-80.013,-2.8194],[-79.9088,-2.7257],[-79.9972,-2.6738],[-80.0808,-2.6691]]]}}
