{"type":"Feature","properties":{"id":161,"name":"Gulf of Masira","featurecla":"gulf","scalerank":5,"source":"Natural Earth 5.2.0-pre ne_10m_geography_marine_polys (public domain)"},"geometry":{"type":"Polygon","coordinates":[[[57.8111,19.0204],[57.7904,19.1458],[57.7639,19.2532],[57.7608,19.4321],[57.7153,19.6067],[57.7142,19.6787],[57.7412,19.8046],[57.8021,19.9544],[57.8439,20.1179],[57.8619,20.2439],[57.9471,20.3439],[58.1032,20.5703],[58.1693,20.5894],[58.245,20.5994],[58.2318,20.5068],[58.209,20.4238],[58.2661,20.3952],[58.3487,20.3867],[58.4741,20.4068],[58.481,20.4174],[58.6413,20.3375],[58.6408,20.2105],[58.6482,20.2079],[57.8111,19.0204]]]}}
