{"type":"Feature","properties":{"id":162,"name":"Gulf of Yana","featurecla":"gulf","scalerank":5,"wikidataid":"Q2363133","source":"Natural Earth 5.2.0-pre ne_10m_geography_marine_polys (public domain)"},"geometry":{"type":"Polygon","coordinates":[[[136.9135,75.2613],[136.9622,75.2703],[137.0061,75.2348],[137.2178,75.1237],[137.4469,75.0544],[137.5681,75.0406],[137.6829,75.0084],[137.9153,74.8708],[138.0015,74.8269],[138.0925,74.7972],[138.8657,74.7009],[138.9815,74.6734],[139.099,74.6565],[139.2154,74.6596],[139.3112,74.6829],[140.1875,74.2331],[140.1018,74.1845],[140.1833,74.0045],[140.4092,73.9215],[140.4336,73.9209],[140.432,73.8717],[139.6911,73.4484],[139.7224,73.4293],[139.6853,73.4256],[139.7853,73.3553],[139.8435,73.3553],[140.6436,72.8663],[140.66,72.8526],[140.6521,72.843],[140.9727,72.7171],[140.9834,72.6298],[141.0792,72.5869],[140.705,72.5192],[140.4505,72.4933],[139.6012,72.4959],[139.4736,72.4662],[139.1408,72.3297],[139.145,72.2646],[139.1762,72.1636],[139.4303,72.1636],[139.5054,72.2075],[139.617,72.2255],[140.1346,72.2096],[140.1875,72.1911],[140.0139,72.162],[139.8473,72.1487],[139.6403,71.9984],[139.3594,71.9514],[139.5525,71.9265],[139.7229,71.8847],[139.6949,71.7006],[139.9388,71.5577],[139.9843,71.4915],[139.6319,71.4894],[139.3202,71.4449],[139.2096,71.4449],[139.0048,71.5561],[138.7804,71.6291],[138.6698,71.6349],[138.5253,71.563],[138.3179,71.6027],[138.2343,71.5963],[138.1185,71.5661],[138.0486,71.5259],[137.9957,71.4635],[137.9274,71.4296],[137.9184,71.3841],[138.0221,71.3634],[138.0973,71.3587],[138.3143,71.3254],[138.0904,71.3074],[138.0327,71.2857],[138.0126,71.2608],[137.8438,71.2269],[137.9021,71.1941],[137.9735,71.1687],[137.9915,71.1428],[137.9396,71.1333],[137.7977,71.164],[137.6507,71.2084],[137.4173,71.2989],[137.3157,71.3592],[137.1157,71.4158],[136.4061,71.5709],[136.0902,71.6196],[135.8849,71.6307],[135.5594,71.6106],[135.3594,71.5434],[135.0223,71.5148],[134.8138,71.4608],[134.7027,71.3868],[134.1026,71.3788],[133.6888,71.4344],[133.4264,71.491],[133.1311,71.6069],[132.8395,71.7551],[132.8035,71.7678],[132.7686,71.799],[132.7157,71.8715],[132.6617,71.9186],[132.6887,71.9493],[136.0965,73.9003],[136.1214,73.8849],[136.1976,73.9135],[136.2589,73.9849],[136.2446,73.9918],[136.9135,75.2613]],[[137.2655,71.4561],[137.3443,71.4603],[137.403,71.4772],[137.4575,71.4836],[137.5121,71.4746],[137.6131,71.4339],[137.712,71.4233],[137.9597,71.5074],[137.9338,71.5429],[137.8576,71.5831],[137.8168,71.5878],[137.2818,71.5799],[137.1681,71.5571],[137.1294,71.5561],[137.0818,71.5429],[137.0638,71.5302],[137.0786,71.5021],[137.2655,71.4561]]]}}
