{"type":"Feature","properties":{"id":163,"name":"Dmitriy Laptev Strait","featurecla":"strait","scalerank":7,"wikidataid":"Q1149827","source":"Natural Earth 5.2.0-pre ne_10m_geography_marine_polys (public domain)"},"geometry":{"type":"Polygon","coordinates":[[[143.5286,73.2235],[143.6287,72.6917],[143.6271,72.6811],[143.516,72.698],[142.0613,72.7208],[141.5184,72.7885],[141.3099,72.8578],[140.8082,72.8912],[140.7081,72.8901],[140.6759,72.8716],[140.66,72.8526],[140.6436,72.8663],[139.8435,73.3553],[139.925,73.3553],[140.0271,73.3616],[140.3923,73.4352],[140.6627,73.4521],[140.7542,73.4463],[141.1829,73.3891],[141.5967,73.3108],[142.1263,73.2817],[142.3422,73.2531],[142.5867,73.2531],[142.8418,73.2447],[143.1932,73.2209],[143.4514,73.2314],[143.5286,73.2235]]]}}
