{"type":"Feature","properties":{"id":164,"name":"La Pérouse Strait","featurecla":"strait","scalerank":5,"wikidataid":"Q208054","source":"Natural Earth 5.2.0-pre ne_10m_geography_marine_polys (public domain)"},"geometry":{"type":"MultiPolygon","coordinates":[[[[142.0771,45.9169],[142.077,45.917],[142.078,45.9179],[142.0771,45.9169]]],[[[142.0158,45.9619],[141.9618,46.0132],[141.954,46.0318],[141.9564,46.0368],[142.0384,45.9452],[142.0158,45.9619]]],[[[141.7782,45.419],[141.8295,45.4385],[141.8787,45.4835],[141.938,45.5094],[141.9464,45.5041],[141.9685,45.4909],[141.9036,45.4909],[141.8653,45.4333],[141.6925,45.395],[141.6897,45.4049],[141.7782,45.419]]]]}}
