{"type":"Feature","properties":{"id":165,"name":"East Korea Bay","featurecla":"bay","scalerank":5,"wikidataid":"Q52060","source":"Natural Earth 5.2.0-pre ne_10m_geography_marine_polys (public domain)"},"geometry":{"type":"Polygon","coordinates":[[[128.313,38.6943],[128.2495,38.7451],[128.1627,38.7864],[128.123,38.8165],[127.9717,38.898],[127.7859,39.0843],[127.6992,39.1251],[127.5812,39.143],[127.497,39.1795],[127.3944,39.2081],[127.3833,39.296],[127.4224,39.3737],[127.4573,39.4007],[127.5229,39.3774],[127.5489,39.4611],[127.5473,39.5627],[127.5272,39.6955],[127.568,39.7817],[127.8669,39.896],[127.9664,39.9955],[128.1061,40.0326],[128.3046,40.0357],[128.313,40.041],[128.313,38.6943]]]}}
