{"type":"Feature","properties":{"id":166,"name":"Qiongzhou Strait","featurecla":"strait","scalerank":7,"wikidataid":"Q1075679","namealt":"Hainan Strait","source":"Natural Earth 5.2.0-pre ne_10m_geography_marine_polys (public domain)"},"geometry":{"type":"Polygon","coordinates":[[[110.2166,20.1968],[110.5695,20.4084],[110.6711,20.137],[110.6515,20.1375],[110.5981,20.0978],[110.5933,20.0846],[110.478,20.0269],[110.4176,20.055],[110.3938,20.0592],[110.388,20.0179],[110.388,20.0163],[110.3621,20.0153],[110.3441,20.0391],[110.2134,20.056],[110.1716,20.0539],[110.0959,20.002],[109.7578,19.9851],[109.8636,20.3026],[110.2166,20.1968]]]}}
