{"type":"Feature","properties":{"id":167,"name":"Cook Strait","featurecla":"strait","scalerank":7,"wikidataid":"Q5023","source":"Natural Earth 5.2.0-pre ne_10m_geography_marine_polys (public domain)"},"geometry":{"type":"Polygon","coordinates":[[[175.24,-41.5914],[174.2864,-41.747],[174.2812,-41.7443],[174.2833,-41.7406],[174.2171,-41.6777],[174.1701,-41.657],[174.0838,-41.6708],[174.1611,-41.5618],[174.0922,-41.5051],[174.0727,-41.4718],[174.0695,-41.4295],[174.1023,-41.3659],[174.1695,-41.3268],[174.2373,-41.312],[174.297,-41.2644],[174.3674,-41.1882],[174.3701,-41.1035],[174.2833,-41.1718],[174.1382,-41.2485],[174.0388,-41.2421],[174.1028,-41.2173],[174.1997,-41.1601],[174.2134,-41.1257],[174.2738,-41.0686],[174.3024,-41.0194],[174.224,-41.0241],[174.2119,-40.9855],[174.1531,-40.9908],[174.1214,-41.0045],[174.0806,-41.0061],[175.0522,-40.7923],[175.0167,-40.8474],[174.8479,-41.059],[174.6849,-41.2178],[174.6563,-41.2511],[174.6352,-41.2892],[174.6431,-41.3125],[174.6696,-41.3263],[174.7569,-41.3252],[174.841,-41.2908],[174.8199,-41.2628],[174.8315,-41.231],[174.8654,-41.2231],[174.9003,-41.2426],[174.8749,-41.2781],[174.8755,-41.4046],[174.8812,-41.4242],[174.9062,-41.4332],[175.0537,-41.3914],[175.1654,-41.4173],[175.1845,-41.449],[175.2045,-41.5348],[175.222,-41.5745],[175.2432,-41.5835],[175.24,-41.5914]]]}}
