{"type":"Feature","properties":{"id":168,"name":"Torres Strait","featurecla":"strait","scalerank":5,"wikidataid":"Q179188","source":"Natural Earth 5.2.0-pre ne_10m_geography_marine_polys (public domain)"},"geometry":{"type":"Polygon","coordinates":[[[142.7798,-11.1151],[142.7233,-11.0103],[142.5529,-10.8743],[142.5656,-10.8193],[142.6053,-10.7484],[142.5449,-10.7071],[142.4566,-10.7071],[142.4068,-10.8023],[142.3264,-10.8844],[142.1681,-10.9468],[142.1676,-10.95],[142.156,-10.9489],[141.1871,-9.2434],[141.185,-9.217],[141.2173,-9.2143],[141.2935,-9.1683],[141.4057,-9.1508],[141.5189,-9.19],[141.6216,-9.2112],[141.7274,-9.2127],[141.9788,-9.1979],[142.2295,-9.1699],[142.2925,-9.1831],[142.3962,-9.2191],[142.4354,-9.2371],[142.5359,-9.3032],[142.6471,-9.3275],[142.8592,-9.2027],[143.0783,-9.0926],[142.7798,-11.1151]]]}}
