{"type":"Feature","properties":{"id":169,"name":"Geographe Bay","featurecla":"bay","scalerank":5,"wikidataid":"Q1503116","source":"Natural Earth 5.2.0-pre ne_10m_geography_marine_polys (public domain)"},"geometry":{"type":"Polygon","coordinates":[[[115.0166,-30.308],[115.078,-30.5604],[115.177,-30.808],[115.2944,-30.962],[115.4548,-31.3023],[115.6982,-31.6944],[115.7379,-31.8881],[115.7252,-32.4008],[115.7077,-32.568],[115.6543,-32.5966],[115.6188,-32.667],[115.6707,-33.002],[115.6828,-33.193],[115.6046,-33.3724],[115.5151,-33.5311],[115.359,-33.6401],[115.1817,-33.6433],[115.0992,-33.5803],[115.0166,-33.5295],[115.0166,-30.308]]]}}
