{"type":"Feature","properties":{"id":170,"name":"Gulf of Papua","featurecla":"gulf","scalerank":5,"wikidataid":"Q1254743","source":"Natural Earth 5.2.0-pre ne_10m_geography_marine_polys (public domain)"},"geometry":{"type":"Polygon","coordinates":[[[143.3736,-8.9429],[143.3874,-8.9084],[143.3922,-8.8021],[143.3773,-8.7624],[143.3069,-8.6608],[143.2228,-8.5724],[143.1117,-8.4746],[143.0646,-8.455],[143.0138,-8.4439],[142.7979,-8.3449],[142.5761,-8.3359],[142.4751,-8.3693],[142.3909,-8.3126],[142.3608,-8.2502],[142.3253,-8.1983],[142.2068,-8.1957],[142.2761,-8.174],[142.3475,-8.1676],[142.3767,-8.2079],[142.3994,-8.2544],[142.4476,-8.3163],[142.5243,-8.3216],[142.6148,-8.2878],[142.7084,-8.2724],[142.8085,-8.2872],[142.9053,-8.3142],[143.0948,-8.311],[143.2821,-8.2639],[143.4498,-8.2396],[143.6138,-8.2004],[143.5821,-8.1126],[143.5424,-8.029],[143.5181,-8.0004],[143.5514,-7.9845],[143.6652,-7.9956],[143.7795,-8.0284],[143.8335,-8.029],[143.8879,-8.0179],[143.8409,-7.9417],[143.8922,-7.9517],[143.9425,-7.9443],[143.7419,-7.5496],[143.6551,-7.4602],[143.7234,-7.4982],[143.779,-7.5501],[143.834,-7.6157],[143.898,-7.6739],[143.9737,-7.7062],[144.143,-7.757],[144.2256,-7.765],[144.27,-7.7142],[144.3261,-7.6766],[144.352,-7.667],[144.4033,-7.6835],[144.4314,-7.6792],[144.4499,-7.5982],[144.5097,-7.5675],[144.5981,-7.5887],[144.6844,-7.6247],[144.7733,-7.6427],[144.8643,-7.6316],[144.8855,-7.7337],[144.9209,-7.7766],[144.9738,-7.802],[145.0823,-7.8279],[145.1945,-7.8411],[145.2876,-7.8618],[145.4675,-7.9301],[145.5632,-7.9438],[145.7289,-7.9523],[145.7718,-7.9665],[145.811,-7.993],[146.0332,-8.0761],[146.0787,-8.1142],[146.1089,-8.1687],[146.1427,-8.2105],[146.184,-8.2465],[146.2507,-8.3438],[146.2967,-8.4555],[146.456,-8.6433],[146.5243,-8.7497],[146.6264,-8.9429],[143.3736,-8.9429]]]}}
