{"type":"Feature","properties":{"id":171,"name":"Gulf of Olen‘k","featurecla":"gulf","scalerank":5,"source":"Natural Earth 5.2.0-pre ne_10m_geography_marine_polys (public domain)"},"geometry":{"type":"Polygon","coordinates":[[[118.9367,73.4748],[123.3309,73.5569],[123.305,73.533],[123.3224,73.4309],[123.3552,73.4023],[123.3838,73.3473],[123.5008,73.2616],[123.6225,73.1933],[123.5722,73.1774],[123.5219,73.1727],[123.4616,73.1441],[123.4044,73.0859],[123.3012,73.0017],[123.1605,72.9547],[122.9991,72.9647],[122.6149,73.0277],[122.5266,73.0166],[122.5022,72.9706],[122.7308,72.9314],[122.752,72.9065],[122.6922,72.8906],[122.5377,72.878],[122.2604,72.8806],[122.0297,72.897],[121.8863,72.961],[121.7476,72.9695],[121.3545,72.9711],[120.9973,72.9367],[120.5977,72.9811],[119.9215,72.9716],[119.7506,72.979],[119.4251,73.0642],[118.9605,73.1171],[118.4302,73.2468],[118.3768,73.3674],[118.4573,73.4643],[118.7546,73.4643],[118.9367,73.4812],[118.9367,73.4748]],[[119.7924,73.0452],[120.0077,73.0452],[120.2612,73.0896],[120.2369,73.1071],[120.0786,73.1568],[119.9643,73.1679],[119.7617,73.1552],[119.6405,73.1245],[119.7924,73.0452]]]}}
