{"type":"Feature","properties":{"id":172,"name":"Gulf of Riga","featurecla":"gulf","scalerank":5,"wikidataid":"Q174731","source":"Natural Earth 5.2.0-pre ne_10m_geography_marine_polys (public domain)"},"geometry":{"type":"Polygon","coordinates":[[[23.4772,59.026],[23.5152,58.9995],[23.4899,58.9603],[23.4322,58.9206],[23.4973,58.8196],[23.5036,58.79],[23.5338,58.782],[23.6809,58.7873],[23.6475,58.754],[23.5306,58.7164],[23.5094,58.6587],[23.5629,58.5756],[23.6915,58.5058],[23.7063,58.4328],[23.7677,58.3608],[24.0111,58.3068],[24.1148,58.2661],[24.2355,58.2893],[24.2873,58.328],[24.337,58.3814],[24.3921,58.3862],[24.5291,58.3544],[24.5497,58.3047],[24.5355,58.283],[24.4873,58.2618],[24.4641,58.1057],[24.3318,57.9099],[24.3227,57.8708],[24.3016,57.784],[24.363,57.6453],[24.4032,57.3252],[24.3826,57.25],[24.2815,57.1723],[24.0545,57.0659],[23.9312,57.0088],[23.6475,56.9712],[23.2872,57.0897],[23.1369,57.3236],[23.038,57.3919],[22.6485,57.5956],[22.6167,57.6512],[22.5548,57.7242],[22.2315,57.667],[21.9426,57.5977],[21.7399,57.5729],[21.7399,57.5734],[22.0219,57.9327],[22.0765,57.9358],[22.1526,57.9666],[22.2273,58.0518],[22.2696,58.1607],[22.3717,58.2174],[22.4982,58.2364],[22.7305,58.2306],[22.7569,58.2608],[22.885,58.311],[22.9797,58.364],[23.0353,58.3724],[23.0829,58.3983],[23.1268,58.4359],[23.3232,58.4507],[23.293,58.4836],[22.9644,58.6058],[22.8199,58.6217],[22.7538,58.6047],[22.6882,58.5968],[22.6173,58.6211],[22.5469,58.6275],[22.4744,58.6047],[22.4627,58.6026],[22.5072,58.6846],[22.5214,58.6968],[22.5421,58.6899],[22.6612,58.709],[22.7675,58.8212],[22.793,58.7973],[22.8416,58.7772],[22.9236,58.827],[23.0089,58.8339],[22.9818,58.9196],[22.9199,58.9809],[23.4772,59.026]]]}}
