{"type":"Feature","properties":{"id":173,"name":"Waddenzee","featurecla":"lagoon","scalerank":7,"wikidataid":"Q26080","source":"Natural Earth 5.2.0-pre ne_10m_geography_marine_polys (public domain)"},"geometry":{"type":"Polygon","coordinates":[[[4.7632,53.0077],[4.787,52.9998],[4.8859,53.0707],[4.8865,53.1834],[4.8812,53.1802],[4.9235,53.2347],[5.1087,53.3078],[5.0833,53.3088],[5.2325,53.3776],[5.3256,53.3856],[5.5828,53.4379],[5.5675,53.4416],[5.6749,53.4533],[5.7321,53.4427],[5.9263,53.4591],[6.085,53.4078],[6.0623,53.4073],[5.8734,53.375],[5.532,53.2686],[5.4458,53.2141],[5.3585,53.0966],[5.0611,52.9606],[4.8881,52.9082],[4.8394,52.9284],[4.769,52.9411],[4.7129,52.8723],[4.7632,53.0077]]]}}
