{"type":"Feature","properties":{"id":174,"name":"Gulf of Sidra","featurecla":"gulf","scalerank":5,"wikidataid":"Q187274","source":"Natural Earth 5.2.0-pre ne_10m_geography_marine_polys (public domain)"},"geometry":{"type":"Polygon","coordinates":[[[19.9841,32.0294],[19.9884,32.0273],[19.9735,31.9993],[19.9265,31.8173],[19.9613,31.5559],[20.0201,31.4108],[20.1037,31.3003],[20.1413,31.1955],[20.1508,31.0785],[20.1117,30.9637],[20.0132,30.8007],[19.7132,30.4885],[19.5899,30.4139],[19.2915,30.288],[19.1237,30.2663],[18.9363,30.2906],[18.6697,30.4155],[18.1902,30.7775],[17.9495,30.852],[17.8304,30.9277],[17.3494,31.0817],[16.7816,31.2145],[16.4509,31.2272],[16.1233,31.2643],[15.8323,31.3611],[15.7058,31.4262],[15.5957,31.531],[15.4962,31.6569],[15.4142,31.8342],[15.3629,31.9713],[15.3592,32.149],[19.9841,32.0294]]]}}
