{"type":"Feature","properties":{"id":175,"name":"Sea of Crete","featurecla":"sea","scalerank":5,"wikidataid":"Q193149","source":"Natural Earth 5.2.0-pre ne_10m_geography_marine_polys (public domain)"},"geometry":{"type":"Polygon","coordinates":[[[23.2216,35.7892],[23.0268,36.1506],[23.0422,36.1464],[23.0538,36.1898],[23.0972,36.2464],[23.0094,36.3189],[23.0766,36.4549],[23.0861,36.4676],[23.1067,36.4517],[23.1602,36.448],[23.1115,36.5475],[23.0411,36.6443],[23.0734,36.775],[23.0602,36.8533],[22.9951,37.0158],[22.8511,37.291],[22.7649,37.3931],[22.7252,37.5423],[22.7749,37.5852],[22.8511,37.5323],[22.9406,37.5169],[23.0152,37.482],[23.0967,37.4407],[23.0999,37.364],[23.1618,37.3338],[23.2031,37.3486],[23.2528,37.3772],[23.4893,37.4402],[23.4904,37.464],[23.4581,37.4968],[23.4089,37.5418],[23.3962,37.5799],[23.3475,37.5973],[23.2628,37.5952],[23.1977,37.6201],[23.1469,37.7164],[23.1469,37.7953],[23.0861,37.8529],[23.0364,37.8783],[23.0475,37.9027],[23.0871,37.9127],[23.1935,37.9588],[23.42,37.9921],[23.5015,38.035],[23.5369,38.0328],[23.5803,38.0106],[23.7327,37.8841],[23.8772,37.7778],[23.9714,37.6767],[24.0195,37.6778],[24.0555,37.7095],[24.056,37.7122],[24.2809,37.5767],[24.2889,37.528],[24.3222,37.5524],[24.3307,37.5471],[24.3894,37.3534],[24.3789,37.3142],[24.3984,37.3248],[24.4011,37.3158],[24.4439,37.1883],[24.4413,37.1867],[24.4249,37.1322],[24.4863,37.11],[24.5069,37.1185],[24.6736,36.9771],[24.6763,36.9592],[24.7027,36.9168],[24.7207,36.9216],[24.7403,36.9343],[25.2752,36.739],[25.2885,36.7216],[25.3642,36.6586],[25.3816,36.6739],[25.4001,36.7057],[26.2701,36.5904],[26.2701,36.5469],[26.3314,36.5115],[26.3817,36.5618],[26.4606,36.5856],[26.4542,36.5919],[26.9463,36.7623],[26.9183,36.7258],[26.9495,36.7269],[27.0337,36.7708],[27.1511,36.7777],[27.1929,36.8089],[27.3041,36.8507],[27.4665,36.7448],[27.4539,36.712],[27.5406,36.684],[27.656,36.6745],[27.8036,36.7364],[28.0841,36.7517],[28.0142,36.6702],[28.0195,36.6343],[28.0846,36.6427],[28.1359,36.4152],[27.9148,36.3453],[27.8152,36.2771],[27.7745,36.2136],[27.7163,36.1718],[27.7184,36.1411],[27.757,36.0691],[27.7158,35.9574],[27.738,35.9231],[27.1707,35.6125],[27.1702,35.6119],[27.1575,35.6294],[27.2073,35.7146],[27.2231,35.8204],[27.158,35.7886],[27.1559,35.7262],[27.0707,35.5976],[27.1157,35.5114],[27.0993,35.4563],[27.1067,35.4473],[26.3225,35.3113],[26.3193,35.3129],[26.3203,35.3151],[26.2855,35.3098],[26.1679,35.215],[26.0283,35.215],[25.8933,35.179],[25.8372,35.1325],[25.7912,35.123],[25.7452,35.1425],[25.7351,35.1838],[25.7557,35.3262],[25.7303,35.3484],[25.5695,35.3283],[25.4758,35.3061],[25.2969,35.3394],[25.1043,35.3468],[25.0033,35.4098],[24.7212,35.4246],[24.627,35.4098],[24.5344,35.3807],[24.445,35.3659],[24.354,35.3595],[24.3127,35.3637],[24.2751,35.386],[24.2577,35.423],[24.2556,35.4685],[24.1783,35.4595],[24.1233,35.4839],[24.1089,35.496],[24.1238,35.5108],[24.1979,35.5373],[24.1661,35.595],[24.0931,35.5939],[24.0344,35.5352],[24.0132,35.5294],[23.9206,35.5283],[23.8523,35.5357],[23.7936,35.5564],[23.7708,35.6341],[23.737,35.6553],[23.7153,35.6045],[23.7153,35.55],[23.673,35.514],[23.6264,35.5304],[23.6089,35.5664],[23.5777,35.541],[23.2216,35.7892]]]}}
