{"type":"Feature","properties":{"id":177,"name":"Alboran Sea","featurecla":"sea","scalerank":7,"wikidataid":"Q199408","source":"Natural Earth 5.2.0-pre ne_10m_geography_marine_polys (public domain)"},"geometry":{"type":"Polygon","coordinates":[[[-5.6175,36.0257],[-5.6175,36.0273],[-5.5514,36.0389],[-5.4625,36.0739],[-5.4434,36.1506],[-5.4074,36.1591],[-5.3815,36.1342],[-5.3609,36.1347],[-5.3296,36.2358],[-5.2307,36.3739],[-5.1714,36.4236],[-4.9354,36.502],[-4.674,36.5062],[-4.502,36.629],[-4.4348,36.7004],[-4.3671,36.7179],[-3.8278,36.756],[-3.5786,36.7396],[-3.431,36.7078],[-3.259,36.756],[-3.1489,36.7586],[-2.9018,36.7433],[-2.7875,36.7147],[-2.6706,36.7475],[-2.596,36.8068],[-2.4531,36.8311],[-2.3055,36.82],[-2.1874,36.7454],[-2.1112,36.7766],[-2.0911,36.7962],[-2.0726,36.7771],[-1.2524,35.4542],[-1.2498,35.4516],[-1.336,35.3643],[-1.4837,35.3029],[-1.6736,35.1833],[-1.9133,35.0944],[-2.0176,35.0849],[-2.2197,35.1044],[-2.424,35.1235],[-2.6367,35.1129],[-2.7314,35.1351],[-2.8399,35.1277],[-2.8695,35.1727],[-2.9261,35.287],[-2.9537,35.3151],[-2.9579,35.3632],[-2.9722,35.4071],[-3.0632,35.3172],[-3.2061,35.2394],[-3.3945,35.2119],[-3.5908,35.2283],[-3.6934,35.2801],[-3.7882,35.2447],[-3.9824,35.2436],[-4.33,35.1616],[-4.6285,35.2066],[-4.837,35.2812],[-5.1053,35.468],[-5.2529,35.6145],[-5.3376,35.7453],[-5.3376,35.8564],[-5.2778,35.903],[-5.3974,35.93],[-5.5222,35.8622],[-5.5842,35.8416],[-5.6175,36.0257]]]}}
