{"type":"Feature","properties":{"id":178,"name":"Bight of Benin","featurecla":"bay","scalerank":5,"wikidataid":"Q47530","source":"Natural Earth 5.2.0-pre ne_10m_geography_marine_polys (public domain)"},"geometry":{"type":"Polygon","coordinates":[[[5.5717,4.653],[0.9474,5.8098],[0.95,5.8103],[1.0082,5.9066],[1.0505,5.9939],[1.1055,6.0516],[1.187,6.0892],[1.3109,6.1469],[1.8184,6.2606],[2.2867,6.3278],[2.7063,6.3691],[2.7724,6.376],[3.3355,6.3972],[3.4302,6.5252],[3.5032,6.5316],[3.717,6.5977],[3.7514,6.5839],[3.5461,6.4776],[3.49,6.4575],[3.4508,6.4273],[3.4868,6.4088],[4.126,6.4114],[4.4314,6.3485],[4.6335,6.2172],[4.8611,6.0262],[5.042,5.7976],[5.0928,5.7669],[5.1061,5.7283],[5.1124,5.6415],[5.1727,5.6029],[5.2765,5.6415],[5.3055,5.6944],[5.3273,5.7076],[5.3251,5.6478],[5.3506,5.6235],[5.4183,5.6246],[5.4569,5.6119],[5.3939,5.5743],[5.2892,5.5775],[5.2156,5.5717],[5.1992,5.5335],[5.2325,5.4838],[5.386,5.4018],[5.5495,5.4743],[5.532,5.4261],[5.5008,5.3785],[5.4394,5.3653],[5.368,5.3378],[5.3643,5.2594],[5.3701,5.1949],[5.3881,5.1737],[5.476,5.1536],[5.4522,5.1266],[5.4035,5.1425],[5.3834,5.1287],[5.4479,4.9456],[5.4934,4.8387],[5.5537,4.7335],[5.5834,4.6578],[5.5717,4.653]]]}}
