{"type":"Feature","properties":{"id":179,"name":"Bight of Biafra","featurecla":"bay","scalerank":5,"wikidataid":"Q999031","source":"Natural Earth 5.2.0-pre ne_10m_geography_marine_polys (public domain)"},"geometry":{"type":"Polygon","coordinates":[[[6.6232,4.3207],[6.6332,4.3403],[6.7571,4.3435],[6.8602,4.3731],[6.7931,4.4694],[6.792,4.5927],[6.7862,4.652],[6.7676,4.725],[6.7878,4.725],[6.8248,4.6451],[6.8391,4.5234],[6.8677,4.4414],[6.9232,4.3906],[7.0132,4.3974],[7.155,4.5144],[7.164,4.6155],[7.0867,4.6858],[7.0767,4.716],[7.1439,4.6842],[7.2069,4.6123],[7.2841,4.5477],[7.4598,4.5551],[7.5095,4.5948],[7.5175,4.6456],[7.5307,4.6551],[7.5656,4.5609],[7.644,4.5255],[7.8006,4.5223],[8.0286,4.5551],[8.2932,4.5578],[8.3282,4.6562],[8.2339,4.9076],[8.2525,4.9239],[8.3419,4.825],[8.3938,4.8139],[8.4314,4.7461],[8.515,4.725],[8.5435,4.7578],[8.5705,4.752],[8.5329,4.6059],[8.5393,4.572],[8.5742,4.526],[8.6562,4.5165],[8.6896,4.5504],[8.6605,4.671],[8.7081,4.6456],[8.7621,4.58],[8.807,4.5736],[8.8563,4.5795],[8.8896,4.5726],[8.9182,4.5535],[8.9028,4.435],[8.9134,4.3577],[8.9319,4.29],[8.9769,4.2302],[9.0002,4.0916],[9.114,4.0413],[9.2489,3.9979],[9.2976,3.973],[9.3108,3.9402],[9.3621,3.9259],[9.4251,3.9222],[9.4622,3.9423],[9.5008,4.0006],[9.4838,4.0662],[9.5119,4.0609],[9.5506,4.0286],[9.6003,4.027],[9.6696,4.0768],[9.6886,4.0567],[9.6495,4.0085],[9.64,3.9651],[9.7363,3.8799],[9.7394,3.8529],[9.6283,3.8698],[9.5929,3.8143],[9.5563,3.7979],[9.6156,3.6963],[9.6421,3.6116],[9.7659,3.6238],[9.6723,3.5375],[9.876,3.31],[9.9151,3.2396],[9.9485,3.0793],[9.8961,2.9449],[8.6949,3.1941],[8.6912,3.2222],[8.7039,3.2237],[8.7637,3.3047],[8.7923,3.4005],[8.9463,3.6275],[8.9504,3.7053],[8.9102,3.7582],[8.7605,3.7545],[8.7356,3.7582],[8.6758,3.736],[8.6377,3.6688],[8.6229,3.5799],[8.5774,3.4825],[8.5499,3.4677],[8.4647,3.4507],[8.4515,3.4227],[8.4446,3.3878],[6.6232,4.3207]]]}}
