{"type":"Feature","properties":{"id":180,"name":"Strait of Belle Isle","featurecla":"strait","scalerank":7,"wikidataid":"Q815831","source":"Natural Earth 5.2.0-pre ne_10m_geography_marine_polys (public domain)"},"geometry":{"type":"Polygon","coordinates":[[[-55.6936,52.1404],[-55.3888,51.9663],[-55.3951,51.942],[-55.3999,51.9383],[-55.4195,51.9002],[-55.4094,51.8896],[-55.4899,51.5901],[-55.492,51.5869],[-55.4962,51.5896],[-55.5216,51.5964],[-55.6666,51.579],[-55.7005,51.5594],[-55.6597,51.5112],[-55.6904,51.4716],[-55.8656,51.5081],[-55.9021,51.5642],[-56.0254,51.5684],[-56.2074,51.4885],[-56.518,51.3991],[-56.6191,51.3626],[-56.6826,51.3329],[-56.7503,51.2747],[-56.7514,51.2726],[-56.7604,51.2763],[-57.0313,51.4377],[-57.0319,51.4462],[-57.0181,51.4467],[-56.9758,51.4578],[-56.5487,51.6811],[-56.2826,51.797],[-56.0175,51.9293],[-55.6952,52.1378],[-55.6941,52.1404],[-55.6936,52.1404]]]}}
