{"type":"Feature","properties":{"id":181,"name":"Prince William Sound","featurecla":"sound","scalerank":7,"wikidataid":"Q631282","source":"Natural Earth 5.2.0-pre ne_10m_geography_marine_polys (public domain)"},"geometry":{"type":"Polygon","coordinates":[[[-147.9226,60.0901],[-147.9141,60.0922],[-148.0797,60.1515],[-148.176,60.1271],[-148.1993,60.1663],[-148.1977,60.1679],[-148.2184,60.2679],[-148.2157,60.3229],[-148.2036,60.3647],[-148.1819,60.3933],[-148.129,60.4145],[-148.0459,60.4283],[-147.9908,60.452],[-147.9639,60.4849],[-147.984,60.5235],[-148.0506,60.5674],[-148.1194,60.5753],[-148.1893,60.5473],[-148.2962,60.532],[-148.4396,60.5298],[-148.5491,60.515],[-148.6243,60.4864],[-148.6401,60.4896],[-148.5967,60.524],[-148.5094,60.5653],[-148.4676,60.5722],[-148.3385,60.5701],[-148.3052,60.5833],[-148.284,60.6092],[-148.2565,60.6754],[-148.2681,60.6997],[-148.3411,60.7246],[-148.3988,60.7341],[-148.5576,60.8029],[-148.556,60.8272],[-148.4708,60.8357],[-148.3935,60.832],[-148.3443,60.8537],[-148.293,60.94],[-148.2089,61.0299],[-148.2258,61.0442],[-148.2872,61.0362],[-148.3957,61.0071],[-148.411,61.0114],[-148.3888,61.0368],[-148.3417,61.0606],[-148.2702,61.0818],[-148.2089,61.0881],[-148.1581,61.0796],[-148.0496,61.0828],[-147.9866,61.1066],[-147.8448,61.1865],[-147.7739,61.2178],[-147.7517,61.2188],[-147.9713,61.0193],[-148.0051,60.9685],[-147.9908,60.9484],[-147.8914,60.8897],[-147.8077,60.8854],[-147.6559,60.9093],[-147.6231,60.9331],[-147.5924,60.9796],[-147.5675,60.995],[-147.5231,60.9701],[-147.4336,60.9505],[-147.3908,60.9182],[-147.3611,60.9145],[-147.3209,60.9256],[-147.2855,60.9468],[-147.2548,60.978],[-147.195,60.9971],[-147.1061,61.0024],[-147.0341,60.996],[-146.9801,60.978],[-146.8738,61.005],[-146.7161,61.0775],[-146.5827,61.1278],[-146.3843,61.1357],[-146.2848,61.1124],[-146.5991,61.0537],[-146.6362,60.9923],[-146.6383,60.8971],[-146.6034,60.8711],[-146.5319,60.8389],[-146.3922,60.8108],[-146.4954,60.7569],[-146.5462,60.7452],[-146.5706,60.7293],[-146.5028,60.7007],[-146.3473,60.7383],[-146.2509,60.7489],[-146.1822,60.7346],[-146.1673,60.7156],[-146.1663,60.6923],[-146.1488,60.6605],[-145.6747,60.651],[-145.69,60.6219],[-145.7599,60.5621],[-145.8107,60.5245],[-145.8895,60.4827],[-146.106,60.4134],[-146.1245,60.424],[-146.1795,60.4288],[-146.3716,60.4219],[-146.3938,60.4494],[-146.5605,60.4806],[-146.606,60.4679],[-146.67,60.4325],[-146.7023,60.4087],[-146.7023,60.4044],[-146.7028,60.4044],[-146.96,60.2864],[-146.9579,60.2891],[-147.0198,60.3324],[-147.1198,60.3632],[-147.1807,60.3584],[-147.205,60.3113],[-147.3368,60.1853],[-147.4659,60.097],[-147.6067,60.0366],[-147.7337,59.9536],[-147.7675,59.9435],[-147.7681,59.9435],[-147.9226,60.0901]],[[-147.7374,60.4473],[-147.7601,60.4388],[-147.7744,60.4452],[-147.7792,60.4663],[-147.7945,60.46],[-147.8374,60.3711],[-147.8416,60.3515],[-147.8548,60.3214],[-147.8914,60.2997],[-147.8713,60.2298],[-147.8051,60.2309],[-147.8215,60.2028],[-147.8157,60.1853],[-147.7876,60.178],[-147.7601,60.1901],[-147.7321,60.2219],[-147.712,60.2727],[-147.6601,60.3526],[-147.6903,60.3991],[-147.6585,60.424],[-147.6585,60.4505],[-147.6887,60.4912],[-147.703,60.487],[-147.7374,60.4473]]]}}
