{"type":"Feature","properties":{"id":182,"name":"Estrecho de Magellanes","featurecla":"strait","scalerank":6,"wikidataid":"Q48365","source":"Natural Earth 5.2.0-pre ne_10m_geography_marine_polys (public domain)"},"geometry":{"type":"Polygon","coordinates":[[[-74.0218,-52.6346],[-74.0165,-52.633],[-74.0144,-52.6393],[-73.9149,-52.688],[-73.7107,-52.6615],[-73.5858,-52.6859],[-73.3821,-52.5949],[-73.2439,-52.624],[-73.1783,-52.5626],[-73.1836,-52.488],[-73.1238,-52.488],[-73.073,-52.5351],[-73.145,-52.6017],[-73.2408,-52.7071],[-73.3461,-52.7541],[-73.645,-52.8372],[-73.5075,-52.9034],[-73.4598,-52.9648],[-73.3381,-53.0547],[-73.1312,-53.0727],[-73.0439,-53.2331],[-73.0529,-53.2436],[-72.9984,-53.2908],[-72.727,-53.4198],[-72.5491,-53.4606],[-72.5465,-53.4468],[-72.3803,-53.4616],[-72.3766,-53.4712],[-72.1745,-53.6326],[-72.1009,-53.6659],[-71.8718,-53.7226],[-71.694,-53.803],[-71.4437,-53.8411],[-71.2977,-53.8834],[-71.0828,-53.8252],[-70.996,-53.7791],[-70.9479,-53.5707],[-70.9849,-53.4484],[-70.9844,-53.3738],[-70.9521,-53.2272],[-70.8214,-52.9632],[-70.8389,-52.8896],[-70.7949,-52.769],[-70.6801,-52.7123],[-70.5632,-52.6732],[-70.3912,-52.661],[-69.907,-52.5134],[-69.7631,-52.5055],[-69.6202,-52.4647],[-69.5604,-52.4213],[-69.4466,-52.2694],[-69.2408,-52.2054],[-69.1339,-52.2112],[-69.0074,-52.2625],[-68.6963,-52.3144],[-68.7608,-52.5727],[-68.7624,-52.5816],[-68.7899,-52.5769],[-69.0799,-52.6743],[-69.1672,-52.6674],[-69.4138,-52.4864],[-69.4985,-52.4912],[-69.5721,-52.5493],[-69.6631,-52.6462],[-69.7636,-52.7314],[-69.8832,-52.7992],[-69.9356,-52.8214],[-69.9938,-52.8214],[-70.088,-52.7685],[-70.1896,-52.7234],[-70.3351,-52.7335],[-70.3801,-52.752],[-70.2975,-52.8171],[-70.2589,-52.8573],[-70.1626,-52.8991],[-70.1393,-52.9192],[-70.1309,-52.9426],[-70.161,-52.97],[-70.1965,-52.9901],[-70.2562,-53.0039],[-70.3198,-53.0007],[-70.3907,-53.0267],[-70.4436,-53.0854],[-70.46,-53.1436],[-70.4605,-53.2061],[-70.4171,-53.3013],[-70.4235,-53.3045],[-70.5314,-53.6278],[-70.5314,-53.6273],[-70.6187,-53.6553],[-70.6955,-53.7273],[-70.6447,-53.8231],[-70.8675,-53.8839],[-70.8569,-53.9956],[-70.8627,-54.0982],[-70.8643,-54.0982],[-71.0225,-54.1379],[-71.022,-54.112],[-71.1685,-54.1125],[-71.3903,-54.0326],[-71.5543,-53.9559],[-71.7051,-53.9236],[-71.9967,-53.885],[-72.0152,-53.894],[-72.211,-53.8025],[-72.3068,-53.7252],[-72.3729,-53.6876],[-72.4592,-53.5987],[-72.4825,-53.5881],[-72.6857,-53.558],[-72.8095,-53.5654],[-72.882,-53.5781],[-72.8963,-53.5627],[-72.9233,-53.4817],[-72.9471,-53.4426],[-72.9709,-53.423],[-73.0222,-53.4146],[-73.0534,-53.3945],[-73.0741,-53.3966],[-73.0831,-53.4035],[-73.1751,-53.3574],[-73.1751,-53.3558],[-73.1355,-53.3537],[-73.1434,-53.341],[-73.3027,-53.2595],[-73.3106,-53.2479],[-73.4508,-53.1441],[-73.5048,-53.1399],[-73.5493,-53.1256],[-73.6541,-53.0695],[-73.7816,-53.0563],[-73.8795,-53.0124],[-74.0657,-52.9653],[-74.2748,-52.9457],[-74.3298,-52.9293],[-74.3695,-52.9314],[-74.3859,-52.9225],[-74.4224,-52.86],[-74.4748,-52.8356],[-74.5716,-52.7711],[-74.6346,-52.7473],[-74.0218,-52.6346]]]}}
