{"type":"Feature","properties":{"id":183,"name":"Bahía Blanca","featurecla":"bay","scalerank":5,"source":"Natural Earth 5.2.0-pre ne_10m_geography_marine_polys (public domain)"},"geometry":{"type":"Polygon","coordinates":[[[-61.4081,-38.9863],[-62.0738,-39.4652],[-62.0769,-39.4652],[-62.0769,-39.4615],[-62.1304,-39.4313],[-62.1796,-39.3805],[-62.0536,-39.3737],[-62.1267,-39.3096],[-62.2092,-39.262],[-62.295,-39.2435],[-62.3383,-39.1509],[-62.3034,-38.9879],[-62.3743,-38.853],[-62.3346,-38.8001],[-62.1891,-38.8133],[-62.0669,-38.9191],[-61.8478,-38.962],[-61.6028,-38.999],[-61.4081,-38.9831],[-61.4081,-38.9863]]]}}
