{"type":"Feature","properties":{"id":184,"name":"Golfo de Penas","featurecla":"gulf","scalerank":5,"wikidataid":"Q1536356","source":"Natural Earth 5.2.0-pre ne_10m_geography_marine_polys (public domain)"},"geometry":{"type":"Polygon","coordinates":[[[-75.5014,-46.946],[-75.4977,-46.9397],[-75.4966,-46.9402],[-75.4305,-46.9344],[-75.4014,-46.9058],[-75.3865,-46.8629],[-75.4458,-46.7508],[-75.5278,-46.7466],[-75.5649,-46.7285],[-75.5405,-46.6989],[-75.4786,-46.6624],[-75.3373,-46.647],[-75.1458,-46.5999],[-75.0187,-46.5105],[-74.9844,-46.5121],[-75.0526,-46.628],[-75.0315,-46.6952],[-75.0061,-46.7412],[-74.8108,-46.7995],[-74.6907,-46.864],[-74.5123,-46.8851],[-74.4801,-46.8857],[-74.4668,-46.8645],[-74.4896,-46.8343],[-74.4843,-46.7952],[-74.4541,-46.7667],[-74.3134,-46.7884],[-74.2097,-46.8846],[-74.152,-46.9746],[-74.2081,-47.0831],[-74.1583,-47.1825],[-74.2155,-47.2096],[-74.4033,-47.3275],[-74.4827,-47.4302],[-74.3234,-47.5313],[-74.243,-47.5598],[-74.1912,-47.5683],[-74.134,-47.5911],[-74.152,-47.6265],[-74.243,-47.6795],[-74.3224,-47.6668],[-74.4033,-47.6006],[-74.4668,-47.5779],[-74.534,-47.5678],[-74.5885,-47.6181],[-74.6547,-47.7022],[-74.651,-47.7064],[-74.9267,-47.7234],[-75.0039,-47.6948],[-75.0897,-47.6906],[-75.2029,-47.7281],[-75.2516,-47.7578],[-75.5014,-46.946]]]}}
