{"type":"Feature","properties":{"id":185,"name":"Bahía Grande","featurecla":"bay","scalerank":5,"source":"Natural Earth 5.2.0-pre ne_10m_geography_marine_polys (public domain)"},"geometry":{"type":"Polygon","coordinates":[[[-67.9099,-49.984],[-68.3989,-52.3012],[-68.4936,-52.1975],[-68.691,-52.0133],[-68.917,-51.7149],[-68.9651,-51.6773],[-69.0323,-51.636],[-69.1799,-51.6625],[-69.3133,-51.6011],[-69.4091,-51.6101],[-69.4657,-51.5847],[-69.3604,-51.5593],[-69.218,-51.5614],[-69.0582,-51.5471],[-69.0355,-51.4889],[-69.0297,-51.4466],[-69.0656,-51.3037],[-69.1434,-51.0968],[-69.2011,-50.9936],[-69.2678,-51.0063],[-69.3519,-51.046],[-69.3588,-51.028],[-69.235,-50.9507],[-69.1551,-50.8645],[-69.1413,-50.7523],[-69.09,-50.583],[-69.045,-50.4988],[-68.9397,-50.3825],[-68.7497,-50.2814],[-68.5894,-50.2253],[-68.4656,-50.1946],[-68.4216,-50.1581],[-68.4735,-50.0914],[-68.5328,-50.0364],[-68.5978,-50.0093],[-68.7529,-49.9877],[-68.9794,-50.003],[-68.9132,-49.9686],[-68.6619,-49.9358],[-68.6386,-49.8628],[-68.6725,-49.7935],[-68.6677,-49.7527],[-68.5693,-49.867],[-68.4878,-49.9781],[-68.4047,-50.0427],[-68.2571,-50.1046],[-68.1454,-50.0914],[-67.9142,-49.9845],[-67.911,-49.9824],[-67.9099,-49.984]]]}}
