{"type":"Feature","properties":{"id":186,"name":"Marguerite Bay","featurecla":"bay","scalerank":5,"wikidataid":"Q141727","source":"Natural Earth 5.2.0-pre ne_10m_geography_marine_polys (public domain)"},"geometry":{"type":"Polygon","coordinates":[[[-67.5025,-67.1375],[-67.5506,-67.2692],[-67.5856,-67.4354],[-67.5649,-67.5031],[-67.5443,-67.5348],[-67.4871,-67.547],[-67.1241,-67.4851],[-66.923,-67.4914],[-66.705,-67.5269],[-66.6775,-67.5603],[-66.7701,-67.5936],[-66.9156,-67.6926],[-67.0215,-67.8317],[-67.1067,-67.9301],[-67.1501,-68.0243],[-66.9775,-68.1465],[-66.7934,-68.2402],[-66.8934,-68.2979],[-67.041,-68.4529],[-67.1167,-68.5747],[-67.0543,-68.6715],[-67.1336,-68.771],[-67.2993,-68.771],[-67.3903,-68.8615],[-67.1876,-68.9747],[-67.0215,-69.0287],[-66.9749,-69.161],[-67.1104,-69.2483],[-67.3046,-69.3176],[-67.3718,-69.4124],[-68.1406,-69.3478],[-68.4613,-69.3843],[-68.5799,-69.4129],[-68.7079,-69.4325],[-68.6804,-69.4695],[-69.4276,-69.5737],[-69.7075,-69.3208],[-69.8552,-69.2769],[-69.9133,-69.2673],[-70.0795,-69.3107],[-70.0509,-69.189],[-70.0525,-69.1398],[-70.1055,-68.9594],[-70.1541,-68.9229],[-70.3118,-68.8323],[-70.4007,-68.7959],[-69.1371,-67.519],[-69.1201,-67.5777],[-69.0974,-67.6026],[-68.9826,-67.6798],[-68.9016,-67.7444],[-68.8185,-67.7534],[-68.7339,-67.7455],[-68.664,-67.7227],[-68.6222,-67.7227],[-68.5804,-67.7328],[-68.5068,-67.7073],[-68.4396,-67.656],[-68.3814,-67.5555],[-68.3253,-67.5322],[-68.2502,-67.5396],[-68.1751,-67.5581],[-68.0925,-67.5386],[-67.9882,-67.4745],[-67.9697,-67.4502],[-68.0068,-67.4179],[-68.1444,-67.3824],[-68.2348,-67.3719],[-68.1751,-67.3444],[-68.0301,-67.2999],[-67.9565,-67.2554],[-67.848,-67.2189],[-67.7083,-67.157],[-67.5025,-67.1375]],[[-67.4178,-67.5904],[-67.557,-67.6047],[-67.7432,-67.6613],[-67.7305,-67.6793],[-67.6898,-67.6878],[-67.6935,-67.7635],[-67.5448,-67.7852],[-67.349,-67.7661],[-67.2998,-67.737],[-67.2797,-67.7121],[-67.1495,-67.6502],[-67.1749,-67.6248],[-67.2469,-67.5989],[-67.4178,-67.5904]]]}}
