{"type":"Feature","properties":{"id":187,"name":"Prydz Bay","featurecla":"bay","scalerank":5,"wikidataid":"Q156116","source":"Natural Earth 5.2.0-pre ne_10m_geography_marine_polys (public domain)"},"geometry":{"type":"Polygon","coordinates":[[[79.1386,-68.1524],[79.0349,-68.1757],[78.7264,-68.2778],[78.5634,-68.3937],[78.4888,-68.626],[78.2284,-68.7562],[78.0152,-68.8922],[77.8173,-69.0689],[77.541,-69.1742],[77.1918,-69.206],[76.7701,-69.3398],[76.36,-69.4901],[76.1118,-69.4875],[75.8911,-69.5753],[75.8207,-69.7256],[75.6355,-69.8489],[75.4239,-69.8928],[75.1476,-69.8552],[74.5708,-69.8796],[74.2269,-69.8002],[73.9422,-69.7431],[73.676,-69.8256],[73.3247,-69.8489],[73.0416,-70.0097],[72.8219,-70.096],[72.7442,-70.2389],[72.7606,-70.3955],[72.6224,-70.4722],[72.4182,-70.5987],[72.2626,-70.6569],[71.9049,-70.7067],[71.7716,-70.8014],[71.634,-70.949],[71.4646,-71.1544],[71.3789,-71.3094],[71.3493,-71.5137],[71.2768,-71.6237],[71.1678,-71.6713],[71.0788,-71.737],[70.7317,-71.8221],[70.6164,-71.8423],[70.573,-71.9312],[70.2941,-72.0555],[69.9623,-72.1328],[69.7697,-72.2534],[69.5549,-72.3746],[69.3093,-72.409],[69.1569,-72.4185],[68.4198,-72.5148],[68.1071,-72.6508],[67.9716,-72.7503],[68.0155,-72.9181],[67.9716,-73.0858],[67.7488,-73.1683],[67.3218,-73.3001],[67.0032,-73.2366],[66.7646,-73.217],[66.5693,-73.2091],[66.4979,-73.1255],[66.7466,-73.0001],[66.8921,-72.9487],[67.1133,-72.6413],[67.2149,-72.4614],[67.281,-72.2905],[67.4324,-72.0031],[67.6938,-71.737],[67.8731,-71.5798],[68.0372,-71.3909],[68.3108,-71.2867],[68.4473,-71.2517],[68.6235,-71.1813],[68.768,-71.0909],[68.8728,-71.0353],[69.1882,-70.7046],[69.1966,-70.5855],[69.2501,-70.431],[69.1622,-70.3342],[69.0209,-70.3252],[68.7574,-70.3701],[68.5595,-70.4124],[67.9409,-70.423],[67.6588,-70.3262],[67.2678,-70.2733],[67.4165,-70.177],[67.5752,-70.0881],[67.9171,-69.9526],[68.0271,-69.8944],[68.178,-69.8372],[68.415,-69.9023],[68.7436,-69.9214],[68.9204,-69.9119],[69.0828,-69.8663],[69.1622,-69.7695],[69.1887,-69.6547],[69.1358,-69.578],[68.959,-69.5404],[68.8797,-69.4695],[68.9061,-69.3727],[69.0649,-69.3372],[69.3718,-69.3314],[69.5496,-69.2938],[69.6295,-69.2313],[69.6146,-69.1536],[69.5305,-69.0239],[69.6453,-68.9324],[69.5469,-68.8567],[69.5342,-68.7371],[69.7618,-68.5984],[69.9279,-68.5355],[69.9824,-68.464],[69.9073,-68.3794],[69.7887,-68.2794],[69.7046,-68.1609],[69.603,-68.0407],[69.6559,-67.8645],[69.5797,-67.7852],[79.1386,-68.1524]],[[71.6467,-70.3363],[71.6372,-70.4437],[71.6594,-70.4977],[71.726,-70.549],[71.8414,-70.622],[71.9292,-70.6331],[72.0023,-70.6326],[72.0779,-70.6093],[72.0975,-70.5744],[72.0737,-70.5246],[72.0557,-70.5008],[72.0001,-70.4569],[71.88,-70.4056],[71.8509,-70.3675],[71.8382,-70.3125],[71.7964,-70.2643],[71.7049,-70.2844],[71.6467,-70.3363]],[[68.4087,-72.3],[68.4616,-72.3],[68.6696,-72.2762],[68.8172,-72.2286],[68.8405,-72.1656],[68.7294,-72.0894],[68.6669,-72.1031],[68.5664,-72.1899],[68.4362,-72.2603],[68.4087,-72.3]]]}}
