{"type":"Feature","properties":{"id":188,"name":"Vincennes Bay","featurecla":"bay","scalerank":5,"wikidataid":"Q281808","source":"Natural Earth 5.2.0-pre ne_10m_geography_marine_polys (public domain)"},"geometry":{"type":"Polygon","coordinates":[[[110.9971,-66.0574],[110.9066,-66.0765],[110.587,-66.3125],[110.6224,-66.5242],[110.4372,-66.621],[109.8239,-66.8337],[109.463,-66.9088],[108.91,-66.8618],[108.3761,-66.7659],[108.1581,-66.639],[107.9919,-66.6723],[107.785,-66.6638],[107.6671,-66.5802],[107.5655,-66.5522],[107.1707,-66.4702],[106.387,-66.4109],[105.0005,-66.1643],[104.6672,-66.1368],[104.3603,-66.0574],[110.9971,-66.0574]]]}}
