{"type":"Feature","properties":{"id":189,"name":"Porpoise Bay","featurecla":"bay","scalerank":5,"wikidataid":"Q7230362","source":"Natural Earth 5.2.0-pre ne_10m_geography_marine_polys (public domain)"},"geometry":{"type":"Polygon","coordinates":[[[130.5784,-66.2088],[130.3006,-66.2686],[130.1206,-66.2913],[129.9757,-66.3447],[129.7412,-66.4686],[129.4999,-66.7527],[129.2369,-67.0416],[128.9824,-67.0983],[128.8163,-67.0803],[128.6278,-67.1073],[128.4304,-67.1189],[127.968,-67.0279],[127.5409,-67.0512],[127.3653,-66.9898],[126.8737,-66.7591],[126.6647,-66.4977],[126.4239,-66.4622],[130.5784,-66.2088]]]}}
