{"type":"Feature","properties":{"id":190,"name":"Davis Sea","featurecla":"sea","scalerank":5,"wikidataid":"Q509321","source":"Natural Earth 5.2.0-pre ne_10m_geography_marine_polys (public domain)"},"geometry":{"type":"Polygon","coordinates":[[[85.4193,-65.0726],[92.6355,-63.32],[99.5015,-63.155],[108.8762,-64.0466],[112.9645,-65.8113],[112.548,-65.8479],[112.13,-65.9003],[111.4532,-65.9611],[110.9971,-66.0574],[104.3603,-66.0574],[104.2889,-66.0389],[103.9512,-65.9881],[103.7633,-65.9897],[103.639,-65.9987],[103.1664,-65.9166],[102.6743,-65.8653],[102.3923,-65.9325],[102.1743,-65.9542],[101.4742,-65.9511],[101.3816,-65.9733],[101.3207,-66.0209],[101.3271,-66.1003],[100.889,-66.358],[100.591,-66.4252],[100.2116,-66.4739],[99.8243,-66.5485],[99.3702,-66.6485],[98.8591,-66.6707],[98.7199,-66.5532],[98.603,-66.5347],[98.4617,-66.4987],[98.2574,-66.4675],[97.7198,-66.6072],[97.3885,-66.5786],[97.1006,-66.4992],[96.789,-66.5506],[96.4238,-66.5998],[95.9915,-66.621],[95.5412,-66.631],[95.248,-66.5712],[95.084,-66.5273],[94.84,-66.5014],[94.5866,-66.5437],[94.3135,-66.6469],[94.0886,-66.6887],[93.9643,-66.6898],[93.7219,-66.6432],[93.3578,-66.5855],[93.0747,-66.5712],[92.7308,-66.6241],[92.5922,-66.6146],[92.4858,-66.604],[92.3122,-66.5585],[92.0735,-66.5077],[91.7772,-66.5374],[91.546,-66.5723],[91.0216,-66.603],[90.5474,-66.7342],[90.2929,-66.7697],[89.6986,-66.8231],[89.352,-66.8183],[89.0764,-66.7993],[88.7895,-66.7919],[88.3143,-66.8173],[87.9804,-66.7882],[87.0851,-66.94],[86.9465,-66.9856],[86.7501,-67.0369],[86.1183,-67.0549],[85.7109,-67.1613],[85.4288,-67.1607],[85.1166,-67.1258],[84.7483,-67.102],[84.4853,-67.1147],[84.1609,-67.2443],[83.9037,-67.292],[83.7386,-67.3518],[85.4193,-65.0726]],[[103.3374,-65.4685],[103.3972,-65.4452],[103.3792,-65.4267],[103.2612,-65.3775],[103.186,-65.3303],[103.1818,-65.3076],[103.1908,-65.2372],[103.1368,-65.1906],[102.8929,-65.1298],[102.796,-65.1361],[102.7595,-65.1679],[102.7886,-65.2361],[103.0543,-65.2854],[103.113,-65.3118],[103.1241,-65.3383],[103.1384,-65.4351],[103.176,-65.4547],[103.3374,-65.4685]],[[101.0789,-65.4028],[100.8831,-65.378],[100.6069,-65.3965],[100.545,-65.4092],[100.4095,-65.4658],[100.3243,-65.5209],[100.2703,-65.6034],[100.2926,-65.651],[100.3508,-65.6727],[100.5122,-65.6754],[100.5471,-65.7013],[100.9816,-65.6775],[101.2382,-65.5647],[101.2588,-65.5277],[101.2207,-65.4721],[101.0789,-65.4028]],[[96.3947,-66.2252],[96.934,-66.2008],[97.0155,-66.1638],[97.0186,-66.1394],[97.0054,-66.0966],[96.9318,-66.0584],[96.7276,-66.0606],[96.6127,-66.0357],[96.5,-66.0458],[96.399,-66.0802],[96.3069,-66.186],[96.3947,-66.2252]],[[92.4704,-65.8219],[92.6017,-65.8082],[92.6694,-65.7748],[92.6646,-65.7605],[92.634,-65.7309],[92.4963,-65.7023],[92.3016,-65.7066],[92.2482,-65.7399],[92.263,-65.76],[92.3328,-65.8071],[92.4704,-65.8219]],[[85.3405,-66.7231],[85.3145,-66.776],[85.359,-66.8543],[85.6172,-66.9506],[85.6225,-66.9655],[85.65,-66.9797],[85.8225,-66.9533],[85.9379,-66.894],[85.8061,-66.7744],[85.5526,-66.7284],[85.3405,-66.7231]]]}}
