{"type":"Feature","properties":{"id":191,"name":"Lützow-Holm Bay","featurecla":"bay","scalerank":5,"wikidataid":"Q156123","source":"Natural Earth 5.2.0-pre ne_10m_geography_marine_polys (public domain)"},"geometry":{"type":"Polygon","coordinates":[[[40.6523,-68.7286],[40.6523,-68.7307],[40.484,-68.7387],[40.2158,-68.8048],[40.0417,-68.8678],[39.8639,-68.9667],[39.7623,-69.1731],[39.7051,-69.4256],[39.4871,-69.6081],[39.2114,-69.7859],[39.0188,-69.9241],[38.8595,-70.0061],[38.9119,-70.0981],[38.8854,-70.1717],[38.4991,-70.0563],[38.1446,-69.824],[37.7869,-69.7256],[37.5599,-69.7182],[37.3746,-69.7478],[37.1148,-69.8103],[36.8556,-69.7256],[36.7185,-69.652],[36.5857,-69.6378],[36.3311,-69.6393],[36.0179,-69.6621],[35.5675,-69.66],[35.3569,-69.6811],[35.2247,-69.6372],[35.1315,-69.4869],[34.7494,-69.1679],[34.596,-69.0943],[34.0584,-69.1107],[33.8139,-69.099],[33.7721,-69.0202],[33.8848,-68.9795],[34.0742,-68.8853],[34.2192,-68.7906],[34.2007,-68.7286],[40.6523,-68.7286]]]}}
