{"type":"Feature","properties":{"id":192,"name":"Antongila Bay","featurecla":"bay","scalerank":7,"wikidataid":"Q803725","source":"Natural Earth 5.2.0-pre ne_10m_geography_marine_polys (public domain)"},"geometry":{"type":"Polygon","coordinates":[[[49.828,-16.2491],[49.7857,-16.1591],[49.7423,-16.1215],[49.7127,-16.0765],[49.7106,-15.9289],[49.6968,-15.8114],[49.6672,-15.6956],[49.6497,-15.567],[49.6645,-15.5215],[49.7439,-15.4495],[49.8535,-15.4394],[49.8926,-15.458],[49.9265,-15.5733],[50.0207,-15.8019],[50.0942,-15.8988],[50.1847,-15.958],[50.1948,-15.9591],[49.828,-16.2491]]]}}
