{"type":"Feature","properties":{"id":193,"name":"Hangzhou Bay","featurecla":"bay","scalerank":5,"wikidataid":"Q700024","source":"Natural Earth 5.2.0-pre ne_10m_geography_marine_polys (public domain)"},"geometry":{"type":"Polygon","coordinates":[[[122.0027,29.889],[121.9445,29.8943],[121.8122,29.9519],[121.6778,29.9789],[121.4328,30.2266],[121.3406,30.2821],[121.2582,30.3038],[121.1592,30.3017],[120.9047,30.1604],[120.6332,30.1329],[120.4946,30.3033],[120.3522,30.2472],[120.2606,30.2631],[120.2284,30.2493],[120.1945,30.2414],[120.2453,30.2837],[120.4496,30.388],[120.63,30.3906],[120.8216,30.3546],[120.8973,30.3927],[120.9385,30.47],[120.9978,30.5584],[121.31,30.6997],[121.419,30.7896],[121.5275,30.8409],[121.6751,30.8637],[121.7693,30.8706],[121.863,30.9108],[121.999,30.1425],[121.9693,30.143],[121.9778,30.0636],[122.0149,30.0228],[122.0027,29.889]]]}}
