{"type":"Feature","properties":{"id":194,"name":"Karaginskiy Gulf","featurecla":"gulf","scalerank":5,"wikidataid":"Q2391874","source":"Natural Earth 5.2.0-pre ne_10m_geography_marine_polys (public domain)"},"geometry":{"type":"Polygon","coordinates":[[[166.2606,59.8192],[163.2338,57.712],[163.2168,57.7142],[163.2258,57.7903],[163.1448,57.8375],[162.7184,57.9459],[162.6543,57.948],[162.522,57.9041],[162.467,57.766],[162.3914,57.7173],[162.3924,57.7448],[162.4115,57.7782],[162.1977,57.829],[162.0982,57.8745],[162.0394,57.9184],[162.0018,57.9809],[161.9601,58.0772],[162.049,58.273],[162.1416,58.4476],[162.4533,58.7085],[162.6432,58.8],[162.8475,58.9392],[162.9348,58.964],[162.9697,58.9863],[163.0041,59.0201],[162.9401,59.1143],[162.975,59.1371],[163.0099,59.1482],[163.0851,59.1312],[163.2729,59.3027],[163.2692,59.5202],[163.321,59.7054],[163.365,59.7816],[163.41,59.8351],[163.4936,59.8869],[163.5745,59.9139],[163.6899,59.9785],[163.7439,60.0282],[163.7798,60.0409],[163.9127,60.0372],[164.0175,60.0176],[164.1349,59.9843],[164.1132,59.8975],[164.2513,59.9737],[164.3768,60.0578],[164.4402,60.0726],[164.5254,60.0615],[164.6699,59.9975],[164.7795,59.8742],[164.8541,59.8408],[164.9536,59.8435],[165.0192,59.861],[165.0737,59.9456],[165.0848,60.0986],[165.1927,60.1245],[165.2853,60.1351],[165.416,60.2049],[165.5827,60.2367],[165.942,60.3568],[166.1802,60.4806],[166.3522,60.4849],[166.3082,60.4145],[166.2923,60.3462],[166.2299,60.1785],[166.1685,60.089],[166.1362,59.9795],[166.149,59.9218],[166.1865,59.8493],[166.2579,59.8552],[166.2606,59.8192]],[[164.2021,59.0963],[163.7608,59.0148],[163.7666,58.9725],[163.7846,58.9296],[163.7264,58.7984],[163.5767,58.6407],[163.4274,58.5788],[163.4317,58.546],[163.447,58.5248],[163.4713,58.5095],[163.6349,58.6031],[163.9597,58.7439],[164.2789,58.8381],[164.6159,58.8857],[164.6615,58.9709],[164.6292,59.1122],[164.5725,59.2212],[164.5175,59.2265],[164.2021,59.0963]]]}}
