{"type":"Feature","properties":{"id":195,"name":"Gulf of Kamchatka","featurecla":"gulf","scalerank":5,"wikidataid":"Q2450069","source":"Natural Earth 5.2.0-pre ne_10m_geography_marine_polys (public domain)"},"geometry":{"type":"Polygon","coordinates":[[[163.0337,55.9864],[162.1463,54.8355],[162.0918,54.8249],[162.0802,54.8863],[161.996,54.9979],[161.8241,55.1387],[161.7849,55.2054],[161.7293,55.3578],[161.724,55.4964],[161.7754,55.6546],[161.9241,55.8404],[162.085,56.0896],[162.1463,56.1282],[162.3342,56.1875],[162.4612,56.2357],[162.5284,56.2605],[162.4887,56.3992],[162.5892,56.4547],[162.6712,56.4902],[162.8776,56.4764],[162.9443,56.5082],[163.0385,56.5219],[162.975,56.4489],[162.893,56.3997],[162.713,56.3309],[162.6284,56.2325],[162.8401,56.0658],[162.9718,56.034],[163.0337,55.9864]]]}}
