{"type":"Feature","properties":{"id":197,"name":"Bab el Mandeb","featurecla":"strait","scalerank":7,"wikidataid":"Q83318","source":"Natural Earth 5.2.0-pre ne_10m_geography_marine_polys (public domain)"},"geometry":{"type":"MultiPolygon","coordinates":[[[[43.9053,12.6316],[43.9301,12.6239],[43.9249,12.6195],[43.9053,12.6316]]],[[[43.8352,12.6747],[43.7374,12.7086],[43.8427,12.6756],[43.8571,12.6612],[43.8352,12.6747]]],[[[43.4876,12.699],[43.4754,12.8392],[43.254,13.2287],[43.4771,12.8471],[43.4932,12.7048],[43.6259,12.7436],[43.6286,12.7428],[43.4876,12.699]]],[[[43.3537,12.3672],[43.4098,12.1899],[43.4097,12.1897],[43.4027,12.1838],[43.3541,12.365],[43.3509,12.3722],[43.3537,12.3672]]],[[[43.0828,12.8244],[43.1166,12.7085],[43.1309,12.6604],[43.2987,12.464],[43.3085,12.4469],[43.2635,12.5009],[43.2085,12.5689],[43.1276,12.6595],[43.0823,12.8115],[43.0046,12.8924],[43.0055,12.8939],[43.0828,12.8244]]]]}}
