{"type":"Feature","properties":{"id":198,"name":"Gulf St. Vincent","featurecla":"gulf","scalerank":5,"wikidataid":"Q1323629","source":"Natural Earth 5.2.0-pre ne_10m_geography_marine_polys (public domain)"},"geometry":{"type":"Polygon","coordinates":[[[135.669,-34.9265],[135.7123,-34.899],[135.7923,-34.863],[135.9192,-34.962],[135.9695,-34.9816],[135.9986,-34.944],[135.9504,-34.7667],[135.9028,-34.7239],[135.8912,-34.6609],[135.9504,-34.6159],[135.9796,-34.5619],[136.1214,-34.4286],[136.4304,-34.0301],[136.5257,-33.9841],[136.6357,-33.8968],[136.7833,-33.8296],[136.9368,-33.7502],[137.0342,-33.7195],[137.1305,-33.7031],[137.2374,-33.6295],[137.3543,-33.4301],[137.4422,-33.1935],[137.5364,-33.0892],[137.6803,-32.9781],[137.7909,-32.8231],[137.7819,-32.7019],[137.783,-32.5781],[137.8634,-32.6739],[137.9132,-32.7707],[137.9925,-33.0941],[137.9243,-33.165],[137.8523,-33.2009],[137.866,-33.3141],[137.9142,-33.4613],[137.9317,-33.5793],[137.7809,-33.7031],[137.6501,-33.8592],[137.4941,-34.1614],[137.4835,-34.2524],[137.4591,-34.3788],[137.4686,-34.49],[137.493,-34.5979],[137.4544,-34.7646],[137.3909,-34.9133],[137.3082,-34.917],[137.2522,-34.9117],[137.1284,-34.9249],[137.0141,-34.916],[136.8834,-35.2398],[136.9665,-35.2552],[137.03,-35.2366],[137.1442,-35.2366],[137.2723,-35.1784],[137.4597,-35.1313],[137.5665,-35.1482],[137.6914,-35.143],[137.874,-34.7275],[137.9195,-34.4561],[138.0121,-34.3339],[138.0412,-34.2497],[138.0894,-34.1699],[138.1862,-34.3074],[138.2645,-34.4402],[138.4365,-34.6561],[138.4899,-34.7636],[138.5111,-35.0244],[138.4,-35.3255],[138.3328,-35.4118],[138.2523,-35.4864],[138.1846,-35.6129],[138.2185,-35.6181],[138.0539,-35.7642],[138.0465,-35.7552],[137.929,-35.7261],[137.8359,-35.7621],[137.5967,-35.7388],[137.5983,-35.7224],[137.6354,-35.6563],[137.585,-35.6203],[137.5306,-35.6049],[137.3342,-35.5928],[137.0919,-35.6637],[136.6389,-35.7489],[136.5791,-35.8087],[136.5431,-35.8848],[135.669,-34.9265]]]}}
