{"type":"Feature","properties":{"id":199,"name":"Golfo de Urabá","featurecla":"gulf","scalerank":7,"wikidataid":"Q761784","source":"Natural Earth 5.2.0-pre ne_10m_geography_marine_polys (public domain)"},"geometry":{"type":"Polygon","coordinates":[[[-76.9206,8.5736],[-76.8724,8.5128],[-76.8185,8.4646],[-76.7719,8.3106],[-76.7423,8.0021],[-76.7867,7.9317],[-76.8671,7.918],[-76.8968,7.9397],[-76.9248,7.973],[-76.9121,8.0333],[-76.8693,8.0624],[-76.8518,8.0905],[-76.891,8.1281],[-76.9359,8.1471],[-76.992,8.2503],[-77.1301,8.4006],[-77.2614,8.4937],[-76.9206,8.5736]]]}}
