{"type":"Feature","properties":{"id":200,"name":"Baia de Maputo","featurecla":"bay","scalerank":5,"wikidataid":"Q1134899","source":"Natural Earth 5.2.0-pre ne_10m_geography_marine_polys (public domain)"},"geometry":{"type":"MultiPolygon","coordinates":[[[[32.9609,-25.4904],[32.7921,-25.6444],[32.7325,-25.7964],[32.7901,-25.6234],[32.9923,-25.4569],[32.9912,-25.4724],[32.9609,-25.4904]]],[[[32.9164,-26.0868],[32.9475,-26.0843],[32.9447,-26.123],[32.9021,-26.1144],[32.9164,-26.0868]]],[[[32.8487,-26.2683],[32.8571,-26.2428],[32.8496,-26.2776],[32.823,-26.2529],[32.8487,-26.2683]]],[[[32.7699,-26.2032],[32.7718,-26.2054],[32.7683,-26.2021],[32.7699,-26.2032]]],[[[32.7227,-25.8212],[32.7046,-25.843],[32.7298,-25.8032],[32.7227,-25.8212]]],[[[32.6391,-26.079],[32.5879,-26.0278],[32.5967,-26.0139],[32.6391,-26.079]]]]}}
