{"type":"Feature","properties":{"id":201,"name":"St. Helena Bay","featurecla":"bay","scalerank":5,"source":"Natural Earth 5.2.0-pre ne_10m_geography_marine_polys (public domain)"},"geometry":{"type":"MultiPolygon","coordinates":[[[[18.0368,-32.7749],[18.1252,-32.749],[18.2511,-32.6522],[18.3252,-32.505],[18.3293,-32.3023],[18.3372,-32.503],[18.2593,-32.6544],[18.1251,-32.7496],[18.0343,-32.7799],[18.0062,-32.7466],[18.0368,-32.7749]]],[[[18.3109,-32.1225],[18.2238,-31.7918],[18.229,-31.8064],[18.3155,-32.1049],[18.3244,-32.2273],[18.3109,-32.1225]]],[[[18.1638,-31.6552],[18.1015,-31.5801],[18.1814,-31.6723],[18.1976,-31.7181],[18.1638,-31.6552]]],[[[17.9653,-32.7088],[17.982,-32.7242],[17.9302,-32.7316],[17.9302,-32.7298],[17.9653,-32.7088]]]]}}
