{"type":"Feature","properties":{"id":202,"name":"Boknafjorden","featurecla":"fjord","scalerank":5,"wikidataid":"Q225004","source":"Natural Earth 5.2.0-pre ne_10m_geography_marine_polys (public domain)"},"geometry":{"type":"Polygon","coordinates":[[[5.3495,59.1662],[5.3622,59.1662],[5.4675,59.2038],[5.5638,59.2911],[5.6575,59.3101],[5.7178,59.3297],[5.8453,59.3535],[6.0173,59.4144],[6.1586,59.4895],[6.2787,59.5345],[6.4041,59.5609],[6.4152,59.5472],[6.3057,59.5054],[6.1988,59.4382],[6.0506,59.3683],[5.9517,59.299],[5.9374,59.2339],[5.9686,59.1863],[5.9485,59.1355],[5.8892,59.0979],[5.8892,59.0603],[6.0173,58.9878],[6.0993,58.9519],[6.321,59.0164],[6.3634,59.0011],[6.2141,58.9445],[6.1374,58.8746],[6.0988,58.8704],[5.8543,58.9593],[5.6119,59.0127],[5.5622,58.9799],[5.3495,59.1662]]]}}
