{"type":"Feature","properties":{"id":203,"name":"Joseph Bonaparte Gulf","featurecla":"gulf","scalerank":5,"wikidataid":"Q1706655","source":"Natural Earth 5.2.0-pre ne_10m_geography_marine_polys (public domain)"},"geometry":{"type":"Polygon","coordinates":[[[129.8185,-13.6106],[129.7973,-13.6482],[129.7894,-13.7202],[129.7619,-13.8117],[129.7185,-13.9208],[129.71,-13.98],[129.6195,-14.0382],[129.4592,-14.2133],[129.3787,-14.3922],[129.4841,-14.4896],[129.6079,-14.5594],[129.6979,-14.5573],[129.6989,-14.5753],[129.6047,-14.6473],[129.6629,-14.7209],[129.7534,-14.7896],[129.8084,-14.7997],[129.8486,-14.8288],[129.7634,-14.8452],[129.637,-14.851],[129.6126,-14.9256],[129.628,-15.0119],[129.6502,-15.087],[129.6349,-15.14],[129.5878,-15.1034],[129.5671,-15.0473],[129.4592,-14.933],[129.3814,-14.8986],[129.2676,-14.8716],[129.2337,-14.9061],[129.238,-15.0802],[129.2158,-15.1601],[129.175,-15.115],[129.165,-14.9876],[129.058,-14.8844],[128.6353,-14.7812],[128.576,-14.7748],[128.4776,-14.788],[128.4098,-14.8288],[128.4035,-14.869],[128.358,-14.9018],[128.285,-14.9388],[128.2183,-14.9955],[128.1749,-15.0431],[128.1728,-15.1024],[128.2273,-15.2135],[128.259,-15.2458],[128.2548,-15.2987],[128.2019,-15.2431],[128.1553,-15.2257],[128.1119,-15.3119],[128.0696,-15.3294],[128.0807,-15.0881],[128.1246,-14.924],[128.1601,-14.8272],[128.1992,-14.7515],[128.1801,-14.7118],[127.8876,-14.4854],[127.7637,-14.2996],[127.6727,-14.1954],[127.5309,-14.0948],[127.4573,-14.0313],[127.2933,-13.935],[127.0991,-13.8673],[127.0377,-13.808],[129.8185,-13.6106]]]}}
