{"type":"Feature","properties":{"id":204,"name":"Gulf of Martaban","featurecla":"gulf","scalerank":5,"wikidataid":"Q138708","source":"Natural Earth 5.2.0-pre ne_10m_geography_marine_polys (public domain)"},"geometry":{"type":"Polygon","coordinates":[[[95.5083,15.8052],[95.5555,15.838],[95.6793,15.9766],[95.7116,16.0735],[95.7634,16.1693],[96.0122,16.2539],[96.0323,16.2846],[96.0429,16.3402],[96.0809,16.3534],[96.1349,16.3423],[96.2931,16.41],[96.3243,16.4444],[96.2365,16.5672],[96.2376,16.6312],[96.1889,16.7683],[96.2201,16.7804],[96.2487,16.7651],[96.2619,16.6593],[96.282,16.5958],[96.3646,16.5206],[96.4313,16.5048],[96.5069,16.5143],[96.6222,16.564],[96.7651,16.7106],[96.8107,16.7783],[96.8577,16.9212],[96.9085,17.0307],[96.8509,17.2027],[96.9096,17.3049],[96.8778,17.3424],[96.8514,17.4012],[96.9699,17.3175],[97.0747,17.207],[97.1001,17.1646],[97.2001,17.0953],[97.1784,17.062],[97.2118,16.8926],[97.2673,16.7429],[97.3308,16.672],[97.3758,16.5228],[97.5049,16.5254],[97.6198,16.537],[97.6684,16.5519],[97.7261,16.5688],[97.6647,16.5206],[97.6335,16.4577],[97.6404,16.2539],[97.6092,16.1439],[97.5843,16.0195],[97.7102,15.8756],[97.7743,15.4311],[97.7436,15.3067],[97.7996,15.185],[97.8092,14.9448],[95.5083,15.8052]]]}}
