{"type":"Feature","properties":{"id":205,"name":"Gulf of Sakhalin","featurecla":"gulf","scalerank":5,"wikidataid":"Q715484","source":"Natural Earth 5.2.0-pre ne_10m_geography_marine_polys (public domain)"},"geometry":{"type":"Polygon","coordinates":[[[142.3349,54.2926],[142.3349,54.2809],[142.4666,54.1486],[142.6703,53.9682],[142.7057,53.8957],[142.6831,53.8158],[142.6428,53.7369],[142.6889,53.7301],[142.6793,53.6745],[142.5524,53.6528],[142.509,53.5877],[142.5836,53.5369],[142.5259,53.4475],[142.4237,53.411],[142.3703,53.4025],[142.319,53.4057],[142.1798,53.484],[142.1417,53.4956],[141.9644,53.4565],[141.8523,53.3893],[141.8448,53.3766],[141.3739,53.2924],[141.3739,53.2929],[141.2178,53.3348],[141.0151,53.4544],[141.0056,53.4946],[140.6876,53.5962],[140.3473,53.8126],[140.2415,54.001],[140.1785,54.0518],[139.8584,54.2052],[139.7953,54.2566],[139.7568,54.2656],[142.3349,54.2926]]]}}
