{"type":"Feature","properties":{"id":206,"name":"Kangertittivaq","featurecla":"fjord","scalerank":5,"wikidataid":"Q426453","namealt":"Scoresbysund","source":"Natural Earth 5.2.0-pre ne_10m_geography_marine_polys (public domain)"},"geometry":{"type":"Polygon","coordinates":[[[-21.6248,70.4681],[-22.2693,70.122],[-22.2847,70.1257],[-23.1731,70.1146],[-23.6674,70.1395],[-24.041,70.1813],[-24.749,70.2951],[-25.53,70.3533],[-25.6248,70.3469],[-26.1555,70.2454],[-26.4158,70.2215],[-26.7519,70.2422],[-27.0276,70.2014],[-27.1445,70.1411],[-27.2742,70.0379],[-27.3842,69.9913],[-27.6287,70.0284],[-27.561,70.1247],[-27.3281,70.2173],[-27.2033,70.2559],[-27.0726,70.2813],[-26.7704,70.3189],[-26.5767,70.357],[-26.5085,70.3967],[-26.5656,70.4374],[-26.6217,70.4633],[-26.6773,70.4739],[-26.7471,70.4755],[-27.5959,70.4067],[-27.8975,70.4036],[-28.015,70.4025],[-28.541,70.4771],[-28.6331,70.4776],[-28.9532,70.4475],[-29.0723,70.4448],[-29.0368,70.4617],[-28.5299,70.5475],[-28.4177,70.5734],[-28.1457,70.6555],[-28.07,70.6988],[-28.024,70.7565],[-27.9796,70.8396],[-27.9922,70.8952],[-28.1161,70.9248],[-28.2918,70.9491],[-28.3986,70.993],[-28.3029,71.0073],[-27.8891,71.0015],[-27.6885,70.9936],[-27.6091,70.9846],[-27.3356,70.9528],[-27.0673,70.9449],[-26.718,70.9507],[-26.5762,70.9687],[-26.1576,71.0502],[-26.0142,71.0931],[-25.7422,71.1836],[-25.6676,71.2656],[-25.6994,71.3682],[-25.7576,71.4397],[-25.8428,71.4804],[-26.074,71.4979],[-26.4518,71.4936],[-26.7371,71.5011],[-27.1069,71.5328],[-27.1625,71.6021],[-27.0874,71.6265],[-27.0106,71.6307],[-26.6884,71.5831],[-26.2116,71.5899],[-25.8851,71.572],[-25.656,71.5302],[-25.4459,71.4714],[-25.2549,71.3957],[-25.0331,71.3338],[-24.7813,71.2862],[-24.5622,71.2238],[-24.377,71.1465],[-24.2659,71.0465],[-24.2283,70.9232],[-24.1304,70.7909],[-23.9716,70.6496],[-23.7917,70.5554],[-23.3276,70.4512],[-23.1906,70.4427],[-22.9424,70.4506],[-22.6905,70.4374],[-22.6096,70.4935],[-22.5551,70.7216],[-22.5313,70.765],[-22.526,70.8078],[-22.437,70.8602],[-22.4222,70.6486],[-22.4011,70.612],[-22.4,70.5713],[-22.3847,70.5131],[-22.3841,70.4623],[-22.0693,70.4718],[-21.9433,70.4432],[-21.6253,70.4686],[-21.6248,70.4681]],[[-25.819,71.0438],[-26.3375,70.9195],[-26.6217,70.8756],[-26.9757,70.8629],[-27.2387,70.8676],[-27.3874,70.8756],[-27.6171,70.9137],[-27.7092,70.8973],[-27.7441,70.7898],[-27.7144,70.7126],[-27.8055,70.6422],[-27.9393,70.6152],[-27.9674,70.5946],[-28.0367,70.5141],[-28.0351,70.4866],[-28.0028,70.4671],[-27.8981,70.4538],[-27.6901,70.4787],[-27.1048,70.5316],[-26.6048,70.5533],[-26.3391,70.5115],[-26.274,70.4544],[-26.218,70.4538],[-26.0497,70.5089],[-25.9116,70.5729],[-25.8004,70.5988],[-25.4025,70.6528],[-25.3464,70.6935],[-25.3517,70.7142],[-25.3803,70.7406],[-25.4676,70.7798],[-25.421,70.7946],[-25.4015,70.8115],[-25.3935,70.8348],[-25.3972,70.8623],[-25.4321,70.9216],[-25.4581,70.9428],[-25.6126,70.9761],[-25.6607,70.9978],[-25.7269,71.0423],[-25.819,71.0438]]]}}
