{"type":"Feature","properties":{"id":207,"name":"Saint Lawrence River","featurecla":"channel","scalerank":6,"wikidataid":"Q134750","source":"Natural Earth 5.2.0-pre ne_10m_geography_marine_polys (public domain)"},"geometry":{"type":"Polygon","coordinates":[[[-64.5196,50.3021],[-64.5196,49.1057],[-64.5328,49.0834],[-64.5677,49.1046],[-64.8365,49.1919],[-65.3964,49.2623],[-65.5234,49.266],[-65.8827,49.2258],[-66.178,49.2131],[-66.5981,49.1263],[-67.1172,48.9644],[-67.5607,48.8559],[-67.8888,48.731],[-68.238,48.6262],[-68.4317,48.5416],[-68.5518,48.4574],[-68.746,48.3765],[-68.8159,48.3659],[-68.9873,48.2749],[-69.3064,48.0468],[-69.471,47.9674],[-69.581,47.8235],[-69.8022,47.6235],[-70.0171,47.4716],[-70.0695,47.3779],[-70.2176,47.2901],[-70.388,47.117],[-70.5193,47.0324],[-70.9934,46.8525],[-71.1521,46.8191],[-71.2611,46.7562],[-71.4389,46.7207],[-71.6713,46.654],[-71.9009,46.6318],[-72.1094,46.5514],[-72.1872,46.5117],[-72.2401,46.4424],[-72.366,46.4048],[-72.4962,46.3529],[-72.7333,46.182],[-72.9899,46.1037],[-73.1598,46.01],[-73.2529,45.8635],[-73.3688,45.7576],[-73.4651,45.6322],[-73.4842,45.5867],[-73.5186,45.4592],[-73.5583,45.4253],[-73.7646,45.3957],[-74.0499,45.2417],[-74.2689,45.1882],[-74.5663,45.0417],[-74.7087,45.0041],[-74.3583,45.2062],[-74.098,45.3242],[-73.9736,45.3454],[-73.9996,45.4332],[-74.2478,45.493],[-74.315,45.5311],[-74.0377,45.502],[-73.8974,45.5639],[-73.798,45.655],[-73.7117,45.7111],[-73.4768,45.738],[-73.2836,45.9],[-73.1455,46.0661],[-73.0217,46.1201],[-72.9809,46.2095],[-72.8428,46.2624],[-72.6804,46.2873],[-72.2565,46.4852],[-72.2047,46.5588],[-72.0284,46.6075],[-71.8797,46.6868],[-71.7575,46.6736],[-71.6247,46.6985],[-71.268,46.7959],[-71.1156,46.925],[-70.9727,47.0065],[-70.706,47.1398],[-70.4478,47.4234],[-70.3002,47.5028],[-69.9943,47.7399],[-69.9054,47.8325],[-69.8398,47.9526],[-69.7752,48.0981],[-69.8657,48.1722],[-69.971,48.2056],[-70.1451,48.2436],[-70.5007,48.3542],[-70.6711,48.3532],[-70.8389,48.3675],[-70.9225,48.4225],[-71.0183,48.4559],[-70.3838,48.3664],[-70.1107,48.278],[-70.0012,48.2712],[-69.8514,48.2071],[-69.762,48.1913],[-69.6736,48.1992],[-69.5503,48.2511],[-69.3752,48.3865],[-69.2307,48.5739],[-68.9291,48.8289],[-68.6693,48.9395],[-68.628,49.0072],[-68.5439,49.0559],[-68.4142,49.0993],[-68.2946,49.1141],[-68.2206,49.1496],[-68.282,49.1972],[-68.056,49.257],[-67.549,49.3321],[-67.4691,49.3348],[-67.3718,49.3485],[-67.2617,49.4512],[-67.2342,49.602],[-66.941,49.9936],[-66.741,50.0656],[-66.6219,50.1555],[-66.55,50.1614],[-66.4955,50.2116],[-66.4113,50.2243],[-66.369,50.2069],[-66.242,50.2201],[-66.1256,50.201],[-65.9552,50.2942],[-65.7626,50.2592],[-65.2689,50.3201],[-65.181,50.2979],[-64.8678,50.2756],[-64.5201,50.3079],[-64.5196,50.3021]],[[-73.6874,45.5613],[-73.853,45.5158],[-73.9604,45.4412],[-73.9202,45.4417],[-73.7752,45.4676],[-73.6435,45.4491],[-73.5667,45.4692],[-73.5519,45.4899],[-73.5387,45.5465],[-73.4762,45.7047],[-73.5223,45.701],[-73.6874,45.5613]]]}}
