{"type":"Feature","properties":{"id":208,"name":"Chaun Bay","featurecla":"bay","scalerank":6,"wikidataid":"Q915250","source":"Natural Earth 5.2.0-pre ne_10m_geography_marine_polys (public domain)"},"geometry":{"type":"Polygon","coordinates":[[[170.1674,69.6352],[170.1611,69.6267],[170.5823,69.5834],[170.7141,69.3881],[170.8839,69.2637],[170.9966,69.1346],[170.9956,69.0452],[170.5378,68.8256],[170.0658,68.7986],[169.6097,68.7859],[169.4144,68.9198],[169.3107,69.0796],[168.9461,69.1632],[168.5874,69.2283],[168.4228,69.2394],[168.3031,69.2717],[168.2302,69.4468],[168.1502,69.5765],[168.2852,69.6796],[168.3481,69.6643],[168.916,69.5712],[169.2007,69.5807],[169.2456,69.6013],[169.2636,69.6289],[169.2991,69.7347],[169.3324,69.7696],[169.4181,69.7792],[169.4335,69.8321],[169.4308,69.8373],[170.1674,69.6352]]]}}
