{"type":"Feature","properties":{"id":209,"name":"Khatanga Gulf","featurecla":"gulf","scalerank":6,"wikidataid":"Q939905","source":"Natural Earth 5.2.0-pre ne_10m_geography_marine_polys (public domain)"},"geometry":{"type":"Polygon","coordinates":[[[112.7745,74.0913],[112.8423,73.9781],[112.8397,73.9617],[112.8359,73.9622],[112.9396,73.8357],[112.856,73.7712],[112.7952,73.7463],[112.3999,73.7108],[112.1475,73.7087],[111.8035,73.7452],[111.4003,73.8278],[111.2992,73.8849],[111.2283,73.9686],[111.4601,74.0051],[111.5506,74.0284],[111.3416,74.0474],[111.131,74.0527],[111.0564,73.9394],[110.9198,73.9479],[110.2615,74.0172],[110.0838,73.9945],[109.8689,73.9304],[109.7742,73.8813],[109.6657,73.8003],[109.707,73.7437],[109.7525,73.7225],[110.0911,73.7087],[110.388,73.7262],[110.7224,73.7802],[110.7992,73.7595],[110.8679,73.7304],[110.7732,73.6891],[110.4287,73.6288],[109.8551,73.4727],[109.6371,73.4542],[109.3312,73.4876],[109.1656,73.3997],[109.09,73.3785],[108.5756,73.3192],[108.3512,73.3103],[108.2856,73.2658],[108.1507,73.2579],[108.0014,73.2357],[107.7501,73.1732],[107.3686,73.1632],[107.1087,73.1774],[106.478,73.1394],[106.315,73.1065],[106.2086,73.0605],[106.1594,73.0017],[106.0668,72.9499],[105.708,72.8367],[105.4027,72.7901],[105.1439,72.7769],[105.3927,72.8409],[105.6774,72.9594],[106.1885,73.3081],[106.6796,73.3309],[106.7944,73.3769],[107.167,73.5897],[107.2712,73.6209],[107.7654,73.6251],[108.1994,73.6939],[109.0751,74.0326],[109.5107,74.0887],[109.8102,74.1691],[109.8641,74.2088],[109.9113,74.2612],[109.8662,74.2929],[109.8403,74.322],[110.2261,74.3787],[110.3737,74.466],[110.8928,74.548],[111.2992,74.6586],[111.8681,74.7401],[112.1919,74.8533],[112.9248,75.0152],[113.6112,75.292],[113.6117,75.2909],[113.4196,74.4083],[113.3873,74.4004],[113.2862,74.4411],[112.9518,74.4797],[112.0845,74.549],[112.0078,74.5268],[111.9893,74.4961],[111.9829,74.4564],[111.9491,74.3887],[111.8797,74.3638],[111.6374,74.3744],[111.5702,74.3681],[111.5035,74.3532],[111.6432,74.2728],[111.912,74.2194],[112.1052,74.1633],[112.1957,74.1464],[112.7751,74.0956],[112.7745,74.0913]]]}}
