{"type":"Feature","properties":{"id":210,"name":"Garabogaz Bay","featurecla":"bay","scalerank":6,"wikidataid":"Q239379","source":"Natural Earth 5.2.0-pre ne_10m_geography_marine_polys (public domain)"},"geometry":{"type":"Polygon","coordinates":[[[52.92,41.0819],[52.9015,41.1004],[52.8501,41.2004],[52.8618,41.21],[52.83,41.3417],[52.8824,41.6137],[52.8835,41.6523],[52.8147,41.7116],[52.9052,41.8958],[52.9702,41.9762],[53.1084,42.0699],[53.1639,42.0937],[53.2851,42.082],[53.4957,42.1201],[53.6248,42.1365],[53.7524,42.1297],[53.8048,42.1175],[53.8466,42.091],[53.9539,41.8682],[53.9952,41.7725],[54.0397,41.6434],[54.0947,41.5195],[54.181,41.4317],[54.2847,41.364],[54.5922,41.1936],[54.6715,41.1221],[54.7038,41.0713],[54.7181,41.0131],[54.7234,40.9512],[54.7101,40.8909],[54.6853,40.8729],[54.6572,40.8586],[54.5472,40.8321],[54.3741,40.8713],[54.3196,40.8348],[54.336,40.7649],[54.3773,40.6935],[54.3297,40.6887],[54.2831,40.6935],[54.1932,40.7205],[54.0889,40.7073],[53.8698,40.6485],[53.764,40.6655],[53.6936,40.7464],[53.6153,40.8184],[53.5201,40.8311],[53.4237,40.793],[53.3327,40.7829],[53.192,40.8094],[53.1454,40.8247],[53.0597,40.8898],[52.9978,40.9597],[52.9433,41.038],[52.92,41.0819]]]}}
