{"type":"Feature","properties":{"id":211,"name":"Gulf of Suez","featurecla":"gulf","scalerank":6,"wikidataid":"Q168277","source":"Natural Earth 5.2.0-pre ne_10m_geography_marine_polys (public domain)"},"geometry":{"type":"Polygon","coordinates":[[[34.0002,27.5247],[33.9732,27.4775],[33.8387,27.2278],[33.8282,27.222],[33.8017,27.268],[33.6975,27.341],[33.6573,27.4305],[33.5498,27.6072],[33.5588,27.7014],[33.5472,27.8982],[33.4948,27.9744],[33.3721,28.0506],[33.2022,28.2083],[33.0228,28.4422],[32.8984,28.565],[32.8566,28.6306],[32.8297,28.7031],[32.7846,28.7867],[32.6587,28.928],[32.6317,28.992],[32.6381,29.182],[32.5989,29.3217],[32.5651,29.3863],[32.3973,29.5339],[32.3598,29.6308],[32.4084,29.7493],[32.4894,29.8514],[32.473,29.9255],[32.5656,29.9742],[32.6471,29.7985],[32.7217,29.5217],[32.7667,29.4498],[32.8117,29.4],[32.8704,29.2862],[33.0757,29.073],[33.1302,28.9783],[33.2037,28.7777],[33.2022,28.6957],[33.2477,28.5676],[33.416,28.3898],[33.5943,28.2554],[33.7605,28.0475],[34.0451,27.8289],[34.2055,27.7696],[34.0002,27.5247]]]}}
