{"type":"Feature","properties":{"id":212,"name":"Gulf of Ob","featurecla":"gulf","scalerank":6,"wikidataid":"Q745945","source":"Natural Earth 5.2.0-pre ne_10m_geography_marine_polys (public domain)"},"geometry":{"type":"Polygon","coordinates":[[[74.6867,72.8859],[74.7576,72.8293],[74.7867,72.8118],[74.8968,72.7102],[75.0079,72.6192],[75.0603,72.5488],[75.0968,72.4207],[75.09,72.263],[75.0534,72.199],[74.992,72.1451],[74.8042,72.0773],[74.4888,71.9969],[74.311,71.9577],[73.9395,71.9149],[73.6718,71.845],[73.086,71.4449],[73.1506,71.3852],[73.3654,71.3195],[73.5072,71.2635],[73.5765,71.2164],[73.7316,71.0687],[74.311,70.6539],[74.3433,70.5787],[74.2068,70.4454],[73.9374,70.2729],[73.83,70.1755],[73.5781,69.8029],[73.5601,69.7072],[73.6633,69.6172],[73.8326,69.504],[73.8909,69.4177],[73.7755,69.1981],[73.8358,69.1431],[73.9776,69.1145],[74.3629,69.1447],[74.8148,69.0907],[75.0534,69.1161],[75.4201,69.2389],[75.5609,69.2516],[76.0012,69.2352],[76.6452,69.1172],[77.3283,68.9584],[77.4664,68.9049],[77.6506,68.9028],[77.785,68.6303],[77.9067,68.4822],[77.9586,68.3769],[77.9951,68.2594],[77.8681,68.2345],[77.7569,68.2223],[77.6649,68.1906],[77.5358,68.0075],[77.5204,67.9096],[77.5882,67.7519],[78.1613,67.6784],[78.5592,67.6392],[78.8391,67.6312],[78.8878,67.6133],[78.9227,67.5889],[77.9856,67.5593],[77.7718,67.5704],[77.6749,67.5894],[77.5792,67.644],[77.3955,67.6985],[77.3251,67.7355],[77.1743,67.7783],[77.2484,67.9408],[77.2611,68.3155],[77.2384,68.4695],[77.1119,68.5959],[76.7351,68.7769],[76.606,68.8976],[76.4589,68.9785],[76.316,68.9917],[76.1075,68.9759],[75.5895,68.9012],[75.1249,68.8616],[74.5793,68.751],[74.4809,68.6589],[74.3915,68.4208],[74.511,68.3033],[74.6322,68.2181],[74.7428,68.0736],[74.7783,67.9858],[74.7872,67.8974],[74.7693,67.7662],[74.6761,67.6948],[74.0745,67.4143],[73.9861,67.3275],[73.8834,67.0852],[73.7919,66.9952],[73.5136,66.8613],[73.3416,66.8068],[72.4177,66.5607],[72.3838,66.5068],[72.3219,66.3322],[72.0674,66.2533],[71.9171,66.247],[71.5657,66.3337],[71.3577,66.3597],[71.1456,66.3665],[70.3396,66.3422],[69.9824,66.4015],[69.7009,66.4845],[69.412,66.511],[69.1945,66.5788],[69.1437,66.6406],[69.0913,66.7237],[69.0511,66.7666],[69.0135,66.7883],[69.0786,66.8158],[69.2178,66.8285],[69.7406,66.8147],[69.8771,66.8455],[69.9486,66.8301],[70.0935,66.7544],[70.0973,66.7529],[70.2835,66.6856],[70.4438,66.6973],[70.5793,66.7539],[70.6307,66.7544],[70.6904,66.7454],[70.5682,66.701],[70.4428,66.6682],[70.409,66.6475],[70.383,66.6025],[70.5614,66.5486],[70.7249,66.5195],[70.9397,66.548],[71.0656,66.6047],[71.3419,66.6867],[71.5397,66.683],[71.5514,66.7602],[71.4487,66.8788],[71.3651,66.9613],[71.6684,66.9396],[71.8472,67.0079],[72.5944,67.5868],[72.949,67.6963],[73.0669,67.7667],[73.1522,67.8652],[73.1728,67.9731],[73.1294,68.0911],[73.1394,68.1816],[73.2665,68.2943],[73.4654,68.4308],[73.5919,68.4816],[73.5734,68.5324],[73.5479,68.5748],[73.1908,68.707],[72.8119,68.815],[72.6785,68.8748],[72.5769,68.9685],[72.5272,69.0806],[72.5272,69.1542],[72.5574,69.3786],[72.6155,69.4839],[72.5992,69.7934],[72.5298,70.1723],[72.4695,70.275],[72.5621,70.3453],[72.6531,70.4036],[72.7002,70.4575],[72.7315,70.8227],[72.7045,70.9634],[72.5812,71.1513],[72.079,71.3068],[71.8673,71.4577],[71.8843,71.5116],[71.9118,71.5481],[72.1298,71.609],[72.2795,71.6958],[72.3748,71.8217],[72.5743,72.0128],[72.6245,72.0794],[72.7532,72.3429],[72.7875,72.4832],[72.8119,72.6917],[72.7595,72.7076],[72.7658,72.7293],[74.1036,72.9711],[74.3094,72.9409],[74.4348,72.9076],[74.5883,72.8811],[74.6386,72.8637],[74.6608,72.8732],[74.6761,72.8875],[74.6867,72.8859]],[[70.0766,66.6957],[69.9179,66.7116],[69.8004,66.7364],[69.6162,66.7391],[69.503,66.7512],[69.4691,66.7158],[69.6512,66.5655],[69.8449,66.4898],[70.0205,66.502],[70.0592,66.5174],[70.11,66.5692],[70.057,66.5994],[70.0576,66.6274],[70.0766,66.6957]]]}}
