{"type":"Feature","properties":{"id":213,"name":"Yenisey Gulf","featurecla":"gulf","scalerank":6,"wikidataid":"Q1338198","source":"Natural Earth 5.2.0-pre ne_10m_geography_marine_polys (public domain)"},"geometry":{"type":"Polygon","coordinates":[[[79.1899,73.1309],[80.2657,73.3426],[80.398,73.3568],[80.4192,73.2896],[80.4245,73.2309],[80.4557,73.1552],[80.5097,73.0859],[80.6388,73.0494],[80.7573,73.0251],[80.8415,72.9494],[80.7737,72.861],[80.6753,72.7594],[80.6562,72.7118],[80.7198,72.6478],[80.7975,72.5202],[80.8272,72.4885],[81.0981,72.3895],[81.2828,72.3588],[81.5865,72.3519],[81.7929,72.3265],[82.0935,72.2657],[82.1834,72.2377],[82.2094,72.2112],[82.2808,72.1054],[82.3189,72.072],[82.6454,71.9255],[82.7549,71.9027],[82.766,71.9021],[83.2005,71.8746],[83.3402,71.8276],[83.5344,71.6842],[83.5534,71.6497],[83.5714,71.5942],[83.5503,71.5439],[83.5312,71.5143],[83.4577,71.4677],[83.2661,71.2756],[83.1513,71.1036],[83.3339,70.9883],[83.5789,70.766],[83.6514,70.6724],[83.736,70.5464],[83.7006,70.4665],[83.6598,70.4184],[83.4968,70.3453],[83.2936,70.3215],[83.074,70.2765],[83.0941,70.221],[83.1322,70.157],[83.1095,70.1093],[83.0809,70.0929],[82.9613,70.0882],[82.8565,70.1046],[82.7671,70.1543],[82.6824,70.2178],[82.7422,70.2866],[82.92,70.4073],[83.0301,70.5803],[83.0587,70.6946],[83.0512,70.8153],[83.01,70.8952],[82.8692,70.9549],[82.738,70.9422],[82.5925,70.8899],[82.4517,70.6904],[82.2586,70.5438],[82.2316,70.4829],[82.2358,70.43],[82.221,70.3956],[82.1824,70.5115],[82.1633,70.5983],[82.2707,70.7068],[82.3358,70.8073],[82.3162,70.8793],[82.239,70.9978],[82.2543,71.056],[82.2771,71.0936],[82.3231,71.2597],[82.493,71.2931],[82.9179,71.4201],[82.9772,71.4513],[83.1058,71.5624],[83.1655,71.6021],[83.2338,71.6683],[83.1068,71.7206],[82.9862,71.7487],[82.7576,71.764],[82.5475,71.7587],[82.0797,71.7069],[81.6617,71.7159],[81.5114,71.7461],[80.8563,71.9704],[80.815,72.0546],[80.7626,72.0889],[80.6991,72.0985],[80.4742,72.153],[79.9541,72.2228],[79.4222,72.3805],[78.4824,72.3948],[78.2253,72.3773],[78.1136,72.3562],[78.1136,72.3901],[78.1771,72.4239],[78.365,72.4827],[78.3528,72.5044],[78.3411,72.5123],[78.3433,72.5134],[78.5724,72.8134],[78.638,72.8472],[78.6904,72.8033],[78.8804,72.7515],[79.4307,72.7107],[79.5016,72.7218],[79.5381,72.7695],[79.5413,72.9187],[79.4127,72.9832],[79.3566,73.0388],[79.1646,73.0944],[78.9619,73.0139],[79.1899,73.1309]]]}}
