{"type":"Feature","properties":{"id":215,"name":"Sea of Marmara","featurecla":"sea","scalerank":6,"wikidataid":"Q35367","source":"Natural Earth 5.2.0-pre ne_10m_geography_marine_polys (public domain)"},"geometry":{"type":"Polygon","coordinates":[[[28.9593,41.0089],[29.0445,41.0052],[29.0466,41.0068],[29.0821,40.9634],[29.1138,40.938],[29.2599,40.8475],[29.3646,40.8094],[29.8007,40.7602],[29.8494,40.7602],[29.8451,40.738],[29.5075,40.7083],[29.054,40.649],[28.9583,40.6305],[28.7879,40.5342],[28.8413,40.5035],[28.8948,40.4824],[28.9741,40.4676],[29.0551,40.4241],[29.0069,40.3898],[28.7386,40.3908],[28.6302,40.3765],[28.2888,40.403],[27.9624,40.3696],[27.929,40.3802],[27.9645,40.4353],[27.9947,40.4665],[27.9893,40.4892],[27.8751,40.5131],[27.7692,40.5099],[27.7317,40.4813],[27.8486,40.3818],[27.7893,40.3511],[27.728,40.3289],[27.4755,40.3199],[27.3327,40.376],[27.3141,40.4152],[27.2845,40.4554],[27.1215,40.4522],[27.012,40.3961],[26.7379,40.4004],[26.7363,40.3993],[26.7342,40.4019],[26.6796,40.4263],[26.7722,40.4982],[26.9744,40.5639],[27.2581,40.6871],[27.43,40.8401],[27.4993,40.9729],[27.7475,41.0131],[27.9253,40.9904],[28.0857,41.0613],[28.1719,41.0809],[28.2952,41.0713],[28.7804,40.974],[28.9561,41.0084],[28.9577,41.0105],[28.9593,41.0089]]]}}
