{"type":"Feature","properties":{"id":216,"name":"Gulf of Aqaba","featurecla":"gulf","scalerank":7,"wikidataid":"Q81611","source":"Natural Earth 5.2.0-pre ne_10m_geography_marine_polys (public domain)"},"geometry":{"type":"Polygon","coordinates":[[[34.5864,28.084],[34.506,27.9961],[34.4251,27.976],[34.3886,27.9993],[34.3997,28.0162],[34.4272,28.1067],[34.4462,28.3576],[34.6171,28.7581],[34.7362,29.2704],[34.8484,29.4323],[34.9045,29.4773],[34.9733,29.5551],[34.9823,29.4847],[34.9511,29.3535],[34.7992,28.7206],[34.7801,28.5073],[34.6833,28.2639],[34.6161,28.1485],[34.6225,28.0877],[34.5864,28.084]]]}}
