{"type":"Feature","properties":{"id":217,"name":"Lago de Maracaibo","featurecla":"lagoon","scalerank":6,"wikidataid":"Q182137","source":"Natural Earth 5.2.0-pre ne_10m_geography_marine_polys (public domain)"},"geometry":{"type":"Polygon","coordinates":[[[-71.5972,10.7247],[-71.5448,10.7786],[-71.5178,10.622],[-71.494,10.5331],[-71.4628,10.4691],[-71.3866,10.2638],[-71.2622,10.1436],[-71.2072,10.0145],[-71.0818,9.833],[-71.0527,9.706],[-71.0786,9.5108],[-71.086,9.3483],[-71.2056,9.2224],[-71.2416,9.1604],[-71.2982,9.1255],[-71.5368,9.0483],[-71.6194,9.0477],[-71.6866,9.0726],[-71.74,9.134],[-71.7813,9.2499],[-71.7607,9.3356],[-71.8057,9.3864],[-71.8729,9.4277],[-71.976,9.5531],[-71.9935,9.6415],[-72.1126,9.8156],[-71.9559,10.1082],[-71.8845,10.1675],[-71.7935,10.3162],[-71.6649,10.4437],[-71.5945,10.6575],[-71.5982,10.7247],[-71.5972,10.7247]]]}}
