{"type":"Feature","properties":{"id":218,"name":"Denmark Strait","featurecla":"strait","scalerank":6,"wikidataid":"Q152058","source":"Natural Earth 5.2.0-pre ne_10m_geography_marine_polys (public domain)"},"geometry":{"type":"Polygon","coordinates":[[[-30.9926,68.0609],[-30.9926,68.0631],[-30.9783,68.0615],[-30.8487,68.0731],[-30.6106,68.1181],[-30.6058,68.1625],[-30.7116,68.225],[-30.7201,68.2514],[-30.3179,68.1932],[-30.1957,68.199],[-30.0512,68.2721],[-29.9639,68.2985],[-29.8687,68.3118],[-29.7136,68.3107],[-29.4263,68.2895],[-29.2496,68.2985],[-29.0876,68.3319],[-28.8543,68.3599],[-28.4833,68.4255],[-28.4717,68.3604],[-23.551,66.2173],[-23.5277,66.1644],[-23.5298,66.1448],[-23.5525,66.1215],[-23.5986,66.1088],[-23.5933,66.0935],[-23.4848,66.0522],[-23.4345,66.0242],[-23.4891,66.0263],[-23.7372,66.0697],[-23.7573,66.0607],[-23.7706,66.0432],[-23.7774,66.0178],[-23.7663,65.9972],[-23.6674,65.9543],[-23.525,65.8802],[-23.7415,65.8845],[-23.8118,65.8691],[-23.8325,65.849],[-23.7732,65.8062],[-23.7049,65.7813],[-23.5695,65.7638],[-23.316,65.7622],[-23.2853,65.7501],[-23.3928,65.7262],[-23.4721,65.695],[-23.616,65.6797],[-23.9092,65.7654],[-24.0325,65.7823],[-24.0928,65.7765],[-24.1119,65.7596],[-24.0648,65.7104],[-24.0177,65.6908],[-24.006,65.6464],[-24.0097,65.6162],[-23.8568,65.5384],[-23.979,65.5548],[-24.1563,65.6077],[-24.2489,65.6151],[-24.341,65.6014],[-24.4754,65.5252],[-24.4548,65.5003],[-24.2241,65.4871],[-24.0187,65.4453],[-23.8997,65.4077],[-23.7965,65.4225],[-23.6044,65.4686],[-23.1223,65.5347],[-22.9027,65.5807],[-22.8128,65.5474],[-22.6434,65.568],[-22.3894,65.5352],[-22.3117,65.4807],[-22.0058,65.4934],[-21.8444,65.4474],[-21.8502,65.4215],[-21.9068,65.3998],[-22.1492,65.3437],[-22.3137,65.2918],[-22.4736,65.2267],[-22.509,65.1966],[-22.4006,65.1595],[-22.0994,65.1262],[-22.0402,65.1251],[-21.7798,65.1875],[-21.764,65.1738],[-21.8005,65.1061],[-21.8296,65.0791],[-21.892,65.0489],[-22.3085,65.0457],[-22.4947,65.0394],[-22.5995,65.0256],[-22.6842,65.0262],[-22.7879,65.0463],[-22.8196,65.0331],[-22.8276,65.0214],[-22.8996,65.0029],[-23.1091,64.9659],[-23.1377,64.9897],[-23.198,65.0023],[-23.2366,64.9934],[-23.3144,64.9579],[-23.3525,64.9526],[-23.4854,64.9457],[-23.6933,64.9129],[-23.8637,64.924],[-23.9246,64.9151],[-24.0071,64.8965],[-24.0214,64.8716],[-30.9926,68.0609]]]}}
