{"type":"Feature","properties":{"id":219,"name":"Massachusetts Bay","featurecla":"bay","scalerank":7,"wikidataid":"Q959127","source":"Natural Earth 5.2.0-pre ne_10m_geography_marine_polys (public domain)"},"geometry":{"type":"Polygon","coordinates":[[[-70.2399,42.0852],[-70.2367,42.0709],[-70.1965,42.0349],[-70.1727,42.063],[-70.1102,42.0302],[-70.0901,41.9799],[-70.006,41.8725],[-70.0012,41.8264],[-70.1351,41.7698],[-70.2954,41.7291],[-70.4267,41.7571],[-70.5145,41.8032],[-70.5489,41.9386],[-70.6563,41.9873],[-70.6452,42.0217],[-70.6177,42.0402],[-70.7383,42.2286],[-70.8177,42.2651],[-70.9966,42.3001],[-71.0463,42.3313],[-70.9304,42.4318],[-70.8706,42.4964],[-70.8309,42.5524],[-70.7521,42.5705],[-70.6616,42.6165],[-70.6145,42.6234],[-70.2399,42.0852]]]}}
