{"type":"Feature","properties":{"id":220,"name":"Delaware Bay","featurecla":"bay","scalerank":7,"wikidataid":"Q738808","source":"Natural Earth 5.2.0-pre ne_10m_geography_marine_polys (public domain)"},"geometry":{"type":"Polygon","coordinates":[[[-75.0886,38.7774],[-75.1849,38.8192],[-75.3103,38.9668],[-75.3923,39.0928],[-75.4125,39.2811],[-75.5199,39.4029],[-75.5739,39.4769],[-75.5675,39.5531],[-75.5818,39.5897],[-75.5876,39.641],[-75.5019,39.7172],[-75.4643,39.7807],[-75.4008,39.8315],[-75.3209,39.8648],[-75.1727,39.895],[-75.0743,39.9833],[-75.104,39.932],[-75.1537,39.8706],[-75.3532,39.8299],[-75.422,39.7897],[-75.4717,39.7124],[-75.5236,39.6018],[-75.5194,39.532],[-75.5241,39.4902],[-75.3532,39.3399],[-75.231,39.2843],[-75.1362,39.2081],[-75.05,39.2108],[-74.9754,39.188],[-74.8971,39.1457],[-74.9203,39.0473],[-74.9542,38.9499],[-74.9378,38.9451],[-75.0886,38.7774]]]}}
