{"type":"Feature","properties":{"id":221,"name":"Long Island Sound","featurecla":"sound","scalerank":7,"wikidataid":"Q867460","source":"Natural Earth 5.2.0-pre ne_10m_geography_marine_polys (public domain)"},"geometry":{"type":"Polygon","coordinates":[[[-73.8292,40.8459],[-73.7789,40.8782],[-73.6715,40.966],[-73.5831,41.0221],[-73.182,41.1756],[-73.0238,41.2163],[-72.9248,41.2851],[-72.8471,41.2661],[-72.4793,41.2756],[-72.3708,41.3121],[-72.2655,41.2915],[-72.2565,41.293],[-72.3126,41.1417],[-72.3724,41.1253],[-72.5439,41.0269],[-72.6253,40.9919],[-72.8285,40.9718],[-73.0339,40.966],[-73.1111,40.957],[-73.1857,40.93],[-73.2783,40.9242],[-73.3725,40.9438],[-73.4075,40.9411],[-73.4408,40.9269],[-73.4873,40.92],[-73.5736,40.9194],[-73.6096,40.9062],[-73.6429,40.8814],[-73.6524,40.838],[-73.6953,40.8702],[-73.7572,40.8337],[-73.8191,40.8125],[-73.8292,40.8459]]]}}
