{"type":"Feature","properties":{"id":222,"name":"Albemarle Sound","featurecla":"sound","scalerank":7,"wikidataid":"Q1441345","source":"Natural Earth 5.2.0-pre ne_10m_geography_marine_polys (public domain)"},"geometry":{"type":"Polygon","coordinates":[[[-75.6622,35.9172],[-75.7173,35.9463],[-75.6913,35.9035],[-75.7649,35.8691],[-75.7723,35.8998],[-75.812,35.9559],[-75.8538,35.9601],[-75.9787,35.8961],[-76.0014,35.722],[-76.0459,35.6913],[-76.0834,35.6908],[-76.0755,35.7876],[-76.0602,35.8786],[-76.0697,35.9702],[-76.2067,35.9913],[-76.2633,35.967],[-76.3581,35.9527],[-76.5036,35.9559],[-76.611,35.9437],[-76.7264,35.9574],[-76.719,36.0337],[-76.7401,36.1331],[-76.7338,36.2289],[-76.7174,36.1479],[-76.6788,36.0755],[-76.5592,36.0151],[-76.4787,36.0284],[-76.4242,36.0681],[-76.3835,36.1337],[-76.321,36.1379],[-76.2274,36.1162],[-76.2708,36.1898],[-76.2216,36.167],[-76.1501,36.1458],[-76.1411,36.2152],[-76.148,36.2792],[-76.0549,36.2347],[-75.9501,36.2088],[-75.8829,36.1755],[-75.8199,36.113],[-75.8665,36.2681],[-75.9247,36.3829],[-75.9787,36.4289],[-75.993,36.4739],[-75.9596,36.5713],[-75.9734,36.5999],[-75.9654,36.6374],[-75.9464,36.6591],[-75.9178,36.6327],[-75.8935,36.5665],[-75.8099,36.2712],[-75.7284,36.1035],[-75.6215,35.9363],[-75.6622,35.9172]]]}}
