{"type":"Feature","properties":{"id":223,"name":"Pamlico Sound","featurecla":"sound","scalerank":7,"wikidataid":"Q2033236","source":"Natural Earth 5.2.0-pre ne_10m_geography_marine_polys (public domain)"},"geometry":{"type":"Polygon","coordinates":[[[-75.504,35.7553],[-75.5045,35.7352],[-75.4813,35.5722],[-75.4881,35.4796],[-75.5363,35.2785],[-75.6903,35.2214],[-75.6855,35.2182],[-75.8649,35.1743],[-75.984,35.123],[-75.9639,35.1187],[-76.2565,34.9145],[-76.4369,34.7563],[-76.5174,34.6467],[-76.5465,34.6546],[-76.6221,34.6943],[-76.674,34.7002],[-76.6639,34.688],[-76.7333,34.707],[-76.7073,34.752],[-76.6179,34.77],[-76.5168,34.7774],[-76.4396,34.843],[-76.3623,34.9367],[-76.4565,34.9891],[-76.7449,34.9409],[-76.8989,34.97],[-76.9751,35.025],[-77.0703,35.1547],[-76.8608,35.0049],[-76.7793,34.9901],[-76.628,35.0732],[-76.6137,35.1039],[-76.6073,35.1531],[-76.566,35.215],[-76.5131,35.2706],[-76.5528,35.3055],[-76.5957,35.3299],[-76.9746,35.4585],[-77.0402,35.5272],[-76.8872,35.4632],[-76.7412,35.4315],[-76.6343,35.4532],[-76.611,35.5299],[-76.5772,35.5325],[-76.5327,35.5082],[-76.5158,35.4362],[-76.4893,35.3971],[-76.4465,35.4077],[-76.3904,35.4013],[-76.275,35.369],[-76.1739,35.3542],[-76.1035,35.3801],[-75.966,35.5082],[-75.7739,35.6468],[-75.7448,35.7654],[-75.7591,35.8432],[-75.7649,35.8691],[-75.6913,35.9035],[-75.7173,35.9463],[-75.6622,35.9172],[-75.6215,35.9363],[-75.5807,35.8723],[-75.504,35.7553]]]}}
