{"type":"Feature","properties":{"id":224,"name":"","featurecla":"generic","scalerank":8,"source":"Natural Earth 5.2.0-pre ne_10m_geography_marine_polys (public domain)"},"geometry":{"type":"Polygon","coordinates":[[[-129.3287,52.9844],[-129.3139,52.9924],[-129.3435,53.0527],[-129.451,53.1749],[-129.4716,53.1829],[-129.5012,53.1882],[-129.5145,53.1792],[-129.5631,53.2522],[-129.4626,53.3464],[-129.2843,53.393],[-129.2578,53.4179],[-129.2403,53.4792],[-129.2319,53.5766],[-129.2081,53.6417],[-129.0562,53.7777],[-129.0139,53.7972],[-128.9594,53.8417],[-128.944,53.8401],[-128.9276,53.8227],[-128.89,53.8295],[-128.7048,53.9184],[-128.6508,53.919],[-128.5323,53.8581],[-128.5604,53.8449],[-128.653,53.8317],[-128.7149,53.8099],[-128.7461,53.7803],[-128.7636,53.747],[-128.7678,53.7105],[-128.7509,53.6607],[-128.6757,53.5544],[-128.6006,53.5062],[-128.5117,53.4766],[-128.4699,53.4708],[-128.3693,53.4903],[-128.2074,53.4835],[-128.1154,53.4459],[-127.9502,53.33],[-127.928,53.275],[-128.0794,53.3697],[-128.1328,53.4179],[-128.291,53.4581],[-128.3582,53.4596],[-128.4784,53.4104],[-128.5424,53.4205],[-128.8329,53.5496],[-128.9054,53.5591],[-128.8503,53.6649],[-128.8546,53.7046],[-128.9356,53.7152],[-129.0213,53.6919],[-129.1144,53.6411],[-129.1716,53.5337],[-129.1298,53.4422],[-129.0811,53.367],[-128.8684,53.3279],[-128.6525,53.2438],[-128.5249,53.1406],[-128.4519,52.8765],[-128.3651,52.8257],[-128.1058,52.9067],[-128.0534,52.9109],[-128.109,52.858],[-128.1323,52.8056],[-128.1968,52.6236],[-128.2752,52.4357],[-128.2714,52.3632],[-128.2407,52.3685],[-128.1841,52.4077],[-128.0381,52.531],[-127.9434,52.5505],[-127.9402,52.5452],[-128.0211,52.4908],[-128.0513,52.4532],[-128.0603,52.4278],[-128.0291,52.3426],[-128.0376,52.3182],[-128.3553,52.1602],[-128.6789,52.2897],[-128.6239,52.3399],[-128.5768,52.4516],[-128.5101,52.5188],[-128.5064,52.6209],[-128.5524,52.94],[-128.6329,53.1125],[-128.7403,53.1787],[-128.8578,53.2284],[-128.9705,53.2744],[-129.0334,53.2797],[-129.0604,53.2406],[-129.0843,53.1395],[-129.1112,53.0908],[-129.1779,53.0178],[-129.1843,52.9908],[-129.1758,52.9649],[-129.0948,52.8918],[-129.0848,52.8225],[-129.0229,52.7559],[-128.8996,52.6738],[-128.8313,52.6786],[-128.7694,52.7511],[-128.7461,52.7632],[-128.7662,52.5982],[-128.7493,52.5558],[-128.7355,52.4674],[-128.7316,52.3752],[-128.9453,52.4981],[-128.9371,52.5098],[-128.9403,52.6008],[-128.9937,52.6617],[-129.1864,52.7913],[-129.2149,52.804],[-129.2462,52.8114],[-129.2636,52.8008],[-129.3287,52.9844]],[[-128.2471,52.7844],[-128.3651,52.7818],[-128.4397,52.6966],[-128.436,52.5606],[-128.4265,52.5029],[-128.4127,52.4727],[-128.4201,52.441],[-128.4455,52.3876],[-128.3688,52.4008],[-128.3434,52.4262],[-128.3238,52.459],[-128.2979,52.5484],[-128.2482,52.741],[-128.2471,52.7844]]]}}
