{"type":"Feature","properties":{"id":225,"name":"Smith Sound","featurecla":"sound","scalerank":8,"wikidataid":"Q7545320","source":"Natural Earth 5.2.0-pre ne_10m_geography_marine_polys (public domain)"},"geometry":{"type":"Polygon","coordinates":[[[-128.1021,51.7885],[-127.9952,51.9505],[-127.9021,52.151],[-127.8344,52.251],[-127.792,52.2891],[-127.7132,52.3188],[-127.5602,52.3431],[-127.5195,52.3595],[-127.1073,52.6326],[-127.066,52.6527],[-127.0348,52.6818],[-127.0131,52.7199],[-127.0062,52.7548],[-127.0195,52.8426],[-127.0083,52.8426],[-126.9665,52.7844],[-126.9512,52.7511],[-126.9512,52.7215],[-126.9951,52.6579],[-127.1872,52.5378],[-127.2084,52.4981],[-127.1941,52.4579],[-127.1607,52.3949],[-127.1269,52.3711],[-126.938,52.3087],[-126.9014,52.2653],[-126.8951,52.2256],[-126.7527,52.1124],[-126.7141,52.0605],[-126.7385,52.0648],[-126.8263,52.1251],[-126.8998,52.1886],[-126.9596,52.2547],[-127.0078,52.2907],[-127.1755,52.3151],[-127.2422,52.3949],[-127.438,52.3563],[-127.5497,52.2976],[-127.6735,52.2531],[-127.7952,52.1912],[-127.8434,52.0865],[-127.8587,51.9902],[-127.7275,51.9933],[-127.8301,51.879],[-127.8635,51.8208],[-127.8693,51.7753],[-127.8508,51.6732],[-127.819,51.6039],[-127.7476,51.5435],[-127.7285,51.5054],[-127.7142,51.4901],[-127.6687,51.4774],[-127.6449,51.4784],[-127.6095,51.5139],[-127.5756,51.5631],[-127.4428,51.679],[-127.3385,51.7076],[-127.0343,51.7166],[-126.6914,51.7033],[-126.7353,51.6928],[-126.9681,51.67],[-127.2809,51.6541],[-127.3465,51.6425],[-127.4195,51.6081],[-127.6327,51.4271],[-127.6894,51.3435],[-127.7047,51.2974],[-127.9413,51.4573],[-127.9248,51.4737],[-127.9164,51.506],[-127.9164,51.5853],[-127.9323,51.6055],[-127.9868,51.6737],[-127.9989,51.7039],[-128.0317,51.7086],[-128.0832,51.685],[-128.1021,51.7885]]]}}
