{"type":"Feature","properties":{"id":226,"name":"","featurecla":"generic","scalerank":8,"source":"Natural Earth 5.2.0-pre ne_10m_geography_marine_polys (public domain)"},"geometry":{"type":"Polygon","coordinates":[[[-134.6444,56.258],[-134.6299,56.3023],[-134.6315,56.4357],[-134.6569,56.523],[-134.6516,56.5558],[-134.6241,56.5786],[-134.6103,56.6034],[-134.6209,56.7182],[-134.6342,56.7622],[-134.677,56.8421],[-134.7686,57.0543],[-134.8231,57.1564],[-134.885,57.2416],[-134.9696,57.3517],[-135.0654,57.4168],[-135.1305,57.4316],[-135.3464,57.5332],[-135.4485,57.5342],[-135.4872,57.5162],[-135.5697,57.4247],[-135.5808,57.3898],[-135.6247,57.3543],[-135.6808,57.3326],[-135.7872,57.3173],[-135.7983,57.3062],[-135.9163,57.4501],[-135.9153,57.4511],[-135.911,57.4464],[-135.6919,57.4199],[-135.6179,57.4803],[-135.6205,57.5972],[-135.6083,57.6506],[-135.5644,57.6665],[-135.4977,57.6623],[-135.2205,57.5734],[-135.085,57.5109],[-134.9316,57.4813],[-134.8733,57.5893],[-134.8966,57.648],[-134.9786,57.7242],[-135.2496,57.7327],[-135.3385,57.7686],[-135.231,57.8157],[-135.1649,57.7962],[-135.1025,57.7935],[-134.9707,57.8173],[-134.9278,57.9528],[-134.9548,58.0152],[-135.0019,58.0512],[-135.1628,58.0957],[-135.3464,58.1243],[-135.375,58.1221],[-135.421,58.1026],[-135.5718,58.0084],[-135.6131,57.992],[-135.6713,58.0121],[-135.693,58.0385],[-135.6152,58.0576],[-135.5861,58.1243],[-135.5877,58.147],[-135.7306,58.2444],[-135.7872,58.2687],[-135.8819,58.247],[-135.9475,58.2058],[-135.9946,58.1967],[-136.0941,58.1983],[-136.1423,58.1539],[-136.1439,58.0983],[-136.2455,58.1576],[-136.3222,58.219],[-136.3693,58.1433],[-136.4545,58.1078],[-136.5085,58.0967],[-136.5947,58.2385],[-136.5952,58.2444],[-136.5825,58.2454],[-136.4624,58.328],[-136.1296,58.3502],[-136.0814,58.364],[-136.056,58.3841],[-136.0613,58.4529],[-136.1031,58.5063],[-136.2248,58.6021],[-136.3201,58.6243],[-136.4836,58.6174],[-136.4042,58.6799],[-136.41,58.7005],[-136.5333,58.7402],[-136.5492,58.7524],[-136.5682,58.7862],[-136.6137,58.8095],[-136.7402,58.8503],[-136.8789,58.8815],[-136.963,58.8836],[-137.0381,58.8667],[-137.0588,58.8735],[-136.9879,58.9249],[-136.9482,58.9349],[-136.953,58.9667],[-137.0022,59.0212],[-136.9889,59.0344],[-136.8307,58.9836],[-136.5661,58.9407],[-136.5111,58.9069],[-136.4778,58.8624],[-136.4513,58.8466],[-136.3804,58.8275],[-136.2989,58.7868],[-136.2259,58.7656],[-136.1862,58.7704],[-136.147,58.7889],[-136.1243,58.8196],[-136.1185,58.8624],[-136.1238,58.8937],[-136.1597,58.9466],[-136.1502,59.0482],[-136.1338,59.0397],[-136.1005,59.0],[-136.0491,58.8931],[-136.0169,58.8741],[-135.9317,58.9037],[-135.8264,58.8979],[-136.0433,58.8217],[-136.0454,58.7889],[-135.8893,58.6227],[-135.8618,58.5772],[-135.8962,58.464],[-135.8978,58.4],[-135.8735,58.3941],[-135.5718,58.4121],[-135.4501,58.3761],[-135.3633,58.2984],[-135.3025,58.256],[-135.1416,58.2333],[-135.0903,58.246],[-135.0607,58.2788],[-135.0496,58.3068],[-135.0622,58.3407],[-135.1517,58.5121],[-135.1845,58.5899],[-135.2072,58.6709],[-135.257,58.7778],[-135.3342,58.9095],[-135.3861,59.0873],[-135.5025,59.2021],[-135.4337,59.2106],[-135.4004,59.208],[-135.4168,59.2413],[-135.484,59.3085],[-135.4126,59.3186],[-135.4025,59.353],[-135.3639,59.4196],[-135.349,59.4101],[-135.3586,59.3249],[-135.3305,59.2392],[-135.2173,59.0768],[-135.1321,58.8429],[-135.0765,58.7968],[-134.986,58.7656],[-134.9649,58.7423],[-134.9427,58.6465],[-134.776,58.4539],[-134.6638,58.3846],[-134.4855,58.3671],[-134.3315,58.2994],[-134.2574,58.2444],[-134.2087,58.2327],[-134.1314,58.2793],[-134.0362,58.4153],[-133.9441,58.4984],[-133.9113,58.5153],[-133.8769,58.5179],[-133.8885,58.4989],[-133.9335,58.4677],[-134.0452,58.2893],[-134.0632,58.211],[-134.0568,58.1285],[-134.0309,58.0724],[-133.8944,57.993],[-133.8214,57.9364],[-133.7441,57.8544],[-133.7224,57.8443],[-133.6573,57.8411],[-133.6256,57.857],[-133.5594,57.9242],[-133.4975,57.9247],[-133.1943,57.8777],[-133.2123,57.8655],[-133.5113,57.8803],[-133.5366,57.8639],[-133.5351,57.8332],[-133.5155,57.775],[-133.4356,57.7268],[-133.117,57.566],[-133.143,57.5554],[-133.3425,57.6311],[-133.5541,57.6951],[-133.6033,57.6946],[-133.6271,57.6766],[-133.6488,57.6422],[-133.5388,57.5543],[-133.4367,57.3368],[-133.4658,57.1723],[-132.9133,57.0474],[-132.8244,57.0559],[-132.8143,57.0405],[-132.8387,56.9601],[-132.8297,56.9304],[-132.8022,56.895],[-132.7022,56.8225],[-132.6397,56.7966],[-132.4873,56.7664],[-132.4757,56.6495],[-132.4344,56.6341],[-132.3577,56.6256],[-132.3365,56.6029],[-132.3323,56.5579],[-132.3048,56.5198],[-132.2555,56.4891],[-132.182,56.4209],[-132.1333,56.3997],[-132.0222,56.3801],[-131.9624,56.3235],[-131.9275,56.2732],[-131.8878,56.2415],[-131.8444,56.2298],[-131.5512,56.2065],[-131.738,56.161],[-131.8439,56.16],[-132.0058,55.9303],[-132.0904,55.8393],[-132.1582,55.7806],[-132.2074,55.7536],[-132.2233,55.7213],[-132.1555,55.5996],[-132.119,55.5699],[-131.9835,55.535],[-131.9449,55.5541],[-131.8693,55.6472],[-131.8338,55.735],[-131.8031,55.7657],[-131.7989,55.7827],[-131.8264,55.8356],[-131.8153,55.8541],[-131.7841,55.8764],[-131.6354,55.9325],[-131.2877,56.0123],[-131.0326,56.088],[-131.0739,56.0446],[-131.1406,55.9975],[-131.1279,55.9599],[-130.9771,55.8118],[-130.9183,55.7361],[-130.8797,55.6118],[-130.8733,55.5509],[-130.8797,55.4594],[-130.8559,55.3551],[-130.8353,55.3318],[-130.7485,55.3181],[-130.7506,55.2969],[-130.984,55.244],[-131.0459,55.1794],[-131.0459,55.1789],[-131.1401,55.2339],[-131.0829,55.2668],[-131.0141,55.3795],[-130.9792,55.489],[-130.9649,55.5678],[-130.966,55.6694],[-130.9977,55.7277],[-131.1205,55.8568],[-131.2364,55.9488],[-131.2692,55.9552],[-131.6248,55.8319],[-131.6475,55.5853],[-131.7597,55.5033],[-131.846,55.4165],[-131.8417,55.3588],[-131.8205,55.2652],[-131.983,55.2135],[-132.0052,55.2308],[-132.1661,55.2181],[-132.2069,55.2244],[-132.2148,55.2366],[-132.1905,55.2551],[-132.1582,55.3001],[-132.1603,55.3229],[-132.2153,55.3837],[-132.2719,55.3985],[-132.418,55.4832],[-132.5916,55.4641],[-132.6313,55.4731],[-132.5815,55.5028],[-132.5482,55.5435],[-132.5286,55.5906],[-132.5111,55.5938],[-132.2958,55.5075],[-132.1963,55.4789],[-132.1725,55.4805],[-132.2148,55.5186],[-132.2889,55.5583],[-132.4302,55.6869],[-132.4968,55.798],[-132.5339,55.8425],[-132.5974,55.8949],[-132.7577,55.9949],[-133.0964,56.0901],[-133.1011,56.0997],[-133.08,56.1288],[-133.0752,56.1557],[-133.0816,56.1944],[-133.1043,56.2351],[-133.1435,56.2785],[-133.2027,56.3198],[-133.3768,56.3177],[-133.5663,56.3394],[-133.5986,56.3161],[-133.5943,56.2166],[-133.5441,56.1764],[-133.5308,56.1457],[-133.5991,56.0938],[-133.7552,55.9996],[-133.754,55.9962],[-133.9827,56.1046],[-133.9706,56.1081],[-133.9499,56.1277],[-133.9383,56.1939],[-133.8848,56.2923],[-133.8706,56.3886],[-133.8838,56.4854],[-133.8552,56.5823],[-133.8092,56.6114],[-133.7674,56.6002],[-133.7383,56.6505],[-133.778,56.7288],[-133.8309,56.7812],[-133.9245,56.7759],[-133.9896,56.8447],[-134.0007,56.8691],[-134.0521,56.8982],[-134.1431,56.9325],[-134.2743,56.9183],[-134.3738,56.8389],[-134.3907,56.7495],[-134.3844,56.7241],[-134.2785,56.6172],[-134.2902,56.5801],[-134.1505,56.5135],[-134.0843,56.4563],[-134.1955,56.4135],[-134.2403,56.2243],[-134.6444,56.258]],[[-132.21,55.9531],[-132.1725,55.9526],[-132.1328,55.943],[-132.1121,56.1092],[-132.0666,56.2441],[-132.2058,56.388],[-132.209,56.3907],[-132.3164,56.4875],[-132.3799,56.4986],[-132.5058,56.3351],[-132.5392,56.324],[-132.599,56.2415],[-132.6752,56.2235],[-132.699,56.1981],[-132.6916,56.1298],[-132.6598,56.078],[-132.6032,56.0663],[-132.4513,56.0563],[-132.4058,56.0288],[-132.4206,55.9795],[-132.4064,55.9584],[-132.3688,55.9398],[-132.2873,55.9293],[-132.21,55.9531]],[[-132.936,56.6066],[-132.9482,56.5675],[-132.9308,56.5246],[-132.8847,56.5124],[-132.7577,56.5108],[-132.7471,56.5256],[-132.7143,56.5426],[-132.6344,56.5537],[-132.5677,56.5759],[-132.5984,56.6357],[-132.6561,56.6849],[-132.8424,56.795],[-132.8704,56.6966],[-132.9064,56.6373],[-132.936,56.6066]],[[-132.9022,56.4537],[-132.9355,56.442],[-133.017,56.3918],[-133.0377,56.3648],[-133.035,56.341],[-132.8916,56.2595],[-132.8307,56.2441],[-132.78,56.2473],[-132.6953,56.278],[-132.6694,56.2875],[-132.6466,56.3134],[-132.6577,56.3394],[-132.653,56.3642],[-132.6323,56.388],[-132.6291,56.4119],[-132.6434,56.4352],[-132.7059,56.4484],[-132.9022,56.4537]],[[-133.3827,56.4738],[-133.2128,56.4648],[-133.1811,56.4738],[-133.1583,56.495],[-133.1446,56.5283],[-133.144,56.5669],[-133.1567,56.6114],[-133.1784,56.6447],[-133.2271,56.6892],[-133.2398,56.7257],[-133.3091,56.786],[-133.3324,56.8183],[-133.3292,56.8299],[-133.244,56.796],[-133.1324,56.6833],[-133.035,56.6209],[-133.0043,56.6235],[-132.9757,56.6473],[-132.9593,56.677],[-132.954,56.713],[-132.9636,56.7828],[-132.9503,56.8505],[-132.954,56.8802],[-132.9964,56.9304],[-133.071,56.9744],[-133.1959,57.0035],[-133.2636,57.005],[-133.2996,56.9722],[-133.3663,57.0035],[-133.7076,57.0627],[-133.8658,57.0686],[-133.9621,57.0437],[-133.9796,57.0098],[-133.9171,56.967],[-133.8229,56.9246],[-133.7573,56.8765],[-133.6811,56.7976],[-133.688,56.7098],[-133.6584,56.5965],[-133.6494,56.5166],[-133.6314,56.4838],[-133.6028,56.4643],[-133.4843,56.4515],[-133.3827,56.4738]],[[-134.26,57.1469],[-134.1002,57.3003],[-133.9251,57.3368],[-133.9113,57.3527],[-133.9087,57.3686],[-133.9738,57.4511],[-133.9208,57.4919],[-133.9372,57.5813],[-133.961,57.6141],[-134.0838,57.712],[-134.2669,57.8845],[-134.3002,57.9634],[-134.3071,58.0343],[-134.2923,58.0449],[-134.25,58.0491],[-134.2124,58.038],[-134.1801,58.011],[-134.1775,57.9824],[-134.105,57.8792],[-134.0674,57.8395],[-134.0314,57.8205],[-133.9954,57.7787],[-133.9251,57.6707],[-133.8272,57.6173],[-133.8229,57.6284],[-133.8695,57.7073],[-133.9039,57.7893],[-133.9653,57.874],[-134.0701,57.9946],[-134.2399,58.1438],[-134.4262,58.1391],[-134.6802,58.1618],[-134.7331,58.2248],[-134.8368,58.32],[-134.9236,58.3544],[-134.9331,58.329],[-134.9077,58.2629],[-134.8702,58.202],[-134.8199,58.147],[-134.7813,58.0777],[-134.7543,57.9951],[-134.695,57.7358],[-134.6601,57.638],[-134.595,57.5675],[-134.4865,57.4818],[-134.4891,57.4199],[-134.5759,57.2315],[-134.6193,57.1956],[-134.613,57.1379],[-134.5913,57.0918],[-134.5548,57.0574],[-134.5162,57.0426],[-134.4352,57.0569],[-134.26,57.1469]]]}}
