{"type":"Feature","properties":{"id":227,"name":"Queen Charlotte Strait","featurecla":"strait","scalerank":8,"wikidataid":"Q1796011","source":"Natural Earth 5.2.0-pre ne_10m_geography_marine_polys (public domain)"},"geometry":{"type":"Polygon","coordinates":[[[-127.7037,51.1492],[-127.5909,51.0874],[-127.4412,50.9895],[-127.3571,50.9456],[-127.2676,50.9159],[-127.0575,50.8678],[-127.0142,50.8667],[-126.9602,50.8937],[-126.6316,50.9149],[-126.5628,50.9657],[-126.5173,51.0567],[-126.4844,50.9604],[-126.5215,50.8662],[-126.4882,50.8419],[-126.4183,50.8503],[-126.3744,50.8376],[-126.3971,50.8069],[-126.4723,50.7672],[-126.5173,50.7244],[-126.5141,50.6794],[-126.4929,50.672],[-126.3702,50.6667],[-125.9807,50.7111],[-125.904,50.7048],[-125.8976,50.6842],[-126.0675,50.6641],[-126.2389,50.6238],[-126.4162,50.6069],[-126.4474,50.5879],[-126.4501,50.5498],[-126.4046,50.5296],[-126.2368,50.5233],[-126.0945,50.4974],[-126.0241,50.4968],[-125.9648,50.4873],[-125.8394,50.5106],[-125.7722,50.508],[-125.741,50.4783],[-125.6976,50.4646],[-125.6415,50.4661],[-125.6103,50.4862],[-125.5859,50.5736],[-125.5558,50.6349],[-125.5394,50.6492],[-125.5261,50.5344],[-125.5071,50.5074],[-125.4764,50.4974],[-125.2097,50.4762],[-125.0589,50.5138],[-124.9853,50.5921],[-124.9425,50.6656],[-124.9308,50.7186],[-124.9493,50.7646],[-124.9335,50.8106],[-124.8599,50.8726],[-124.8753,50.8255],[-124.8578,50.7175],[-124.8541,50.6688],[-124.8626,50.6371],[-124.9366,50.5376],[-125.0568,50.4185],[-125.046,50.374],[-125.1252,50.3179],[-125.1393,50.3397],[-125.1959,50.3899],[-125.261,50.418],[-125.3012,50.4143],[-125.3452,50.354],[-125.3584,50.3116],[-125.2594,50.1301],[-125.2054,50.0584],[-125.2353,50.0149],[-125.3139,50.1068],[-125.4203,50.2545],[-125.4822,50.3169],[-125.5346,50.3423],[-125.615,50.3587],[-125.8394,50.381],[-126.204,50.454],[-126.4109,50.4794],[-126.7009,50.5154],[-127.1972,50.6402],[-127.7132,50.8207],[-127.9109,50.859],[-127.7037,51.1492]]]}}
