{"type":"Feature","properties":{"id":228,"name":"Baird Inlet","featurecla":"inlet","scalerank":8,"wikidataid":"Q4848613","source":"Natural Earth 5.2.0-pre ne_10m_geography_marine_polys (public domain)"},"geometry":{"type":"Polygon","coordinates":[[[-164.8062,60.9299],[-164.7538,60.9315],[-164.4416,60.8701],[-163.9944,60.8648],[-163.7489,60.9696],[-163.6589,60.9383],[-163.587,60.9029],[-163.6552,60.8775],[-163.8373,60.8807],[-163.9066,60.8537],[-163.623,60.8225],[-163.5118,60.7981],[-163.4208,60.7574],[-163.5288,60.6648],[-163.7298,60.5902],[-163.8214,60.6685],[-163.895,60.7452],[-163.9362,60.7584],[-163.9997,60.7659],[-164.132,60.6912],[-164.3098,60.6066],[-164.3723,60.5918],[-164.3215,60.6468],[-164.2659,60.7246],[-164.3183,60.7711],[-164.3701,60.796],[-164.513,60.8188],[-164.6823,60.8717],[-164.8051,60.8918],[-164.8062,60.9299]]]}}
