{"type":"Feature","properties":{"id":229,"name":"","featurecla":"generic","scalerank":8,"source":"Natural Earth 5.2.0-pre ne_10m_geography_marine_polys (public domain)"},"geometry":{"type":"Polygon","coordinates":[[[-132.2831,54.0899],[-132.1243,54.037],[-132.1243,54.0348],[-132.1344,54.0343],[-132.136,53.9957],[-132.1106,53.9004],[-132.1143,53.8602],[-132.1524,53.8068],[-132.1714,53.7068],[-132.1868,53.6851],[-132.4646,53.6533],[-132.5344,53.6517],[-132.5672,53.6639],[-132.5741,53.6755],[-132.5651,53.6877],[-132.2143,53.8147],[-132.1751,53.8465],[-132.155,53.875],[-132.1661,53.955],[-132.2159,54.0285],[-132.2619,54.0761],[-132.2841,54.0883],[-132.2831,54.0899]]]}}
