{"type":"Feature","properties":{"id":230,"name":"Husky Lakes","featurecla":"lagoon","scalerank":8,"wikidataid":"Q22423345","source":"Natural Earth 5.2.0-pre ne_10m_geography_marine_polys (public domain)"},"geometry":{"type":"Polygon","coordinates":[[[-131.6316,69.459],[-131.7883,69.432],[-131.82,69.4018],[-131.7809,69.3886],[-131.7867,69.3712],[-131.8333,69.3362],[-131.9195,69.2907],[-132.1344,69.2346],[-132.2137,69.2018],[-132.3582,69.1669],[-132.545,69.1404],[-132.7191,69.0791],[-132.7556,69.0415],[-132.7699,69.0124],[-132.7646,68.9727],[-132.7392,68.9224],[-132.7043,68.896],[-132.5423,68.8901],[-132.5328,68.8758],[-132.5778,68.8478],[-132.7059,68.815],[-133.3038,68.8473],[-133.3366,68.8351],[-133.3197,68.8198],[-133.1922,68.7764],[-133.1382,68.7467],[-133.1969,68.7399],[-133.3483,68.77],[-133.3731,68.7885],[-133.4181,68.8441],[-133.379,68.8864],[-133.2281,68.9674],[-133.0895,69.0288],[-132.9678,69.1013],[-132.8175,69.2055],[-132.6868,69.26],[-132.481,69.2732],[-132.3307,69.3082],[-132.1968,69.3648],[-132.1285,69.4024],[-131.9888,69.5177],[-131.938,69.5347],[-131.8629,69.5495],[-131.6401,69.5669],[-131.6316,69.459]]]}}
