{"type":"Feature","properties":{"id":231,"name":"Lake Pontchartrain","featurecla":"lagoon","scalerank":8,"wikidataid":"Q1331750","source":"Natural Earth 5.2.0-pre ne_10m_geography_marine_polys (public domain)"},"geometry":{"type":"Polygon","coordinates":[[[-89.7375,30.1721],[-89.773,30.1372],[-89.8121,30.1239],[-89.8942,30.126],[-89.9942,30.0594],[-90.1752,30.0292],[-90.2852,30.0652],[-90.4133,30.1403],[-90.3318,30.2774],[-90.2254,30.3795],[-90.1259,30.3689],[-90.045,30.3515],[-89.9545,30.2689],[-89.728,30.2054],[-89.728,30.2049],[-89.7375,30.1721]]]}}
