{"type":"Feature","properties":{"id":232,"name":"Stettiner Haff","featurecla":"lagoon","scalerank":8,"namealt":"Zalew Szczecinski","source":"Natural Earth 5.2.0-pre ne_10m_geography_marine_polys (public domain)"},"geometry":{"type":"Polygon","coordinates":[[[13.8272,54.0597],[13.8723,54.0364],[13.9215,53.9968],[13.9019,53.9391],[13.9257,53.8793],[14.0485,53.8629],[14.1723,53.8745],[14.3511,53.8586],[14.5586,53.8232],[14.5649,53.7533],[14.5522,53.7073],[14.5718,53.6761],[14.5834,53.6396],[14.4877,53.6718],[14.2501,53.7316],[14.0252,53.7676],[13.9505,53.8015],[13.8654,53.8534],[13.8225,54.019],[13.8045,54.0433],[13.8272,54.0597]]]}}
