{"type":"Feature","properties":{"id":233,"name":"Darnley Bay","featurecla":"bay","scalerank":7,"wikidataid":"Q1166530","source":"Natural Earth 5.2.0-pre ne_10m_geography_marine_polys (public domain)"},"geometry":{"type":"Polygon","coordinates":[[[-123.0872,69.7686],[-123.1105,69.7379],[-123.1444,69.6325],[-123.2137,69.5415],[-123.2491,69.5198],[-123.3613,69.4966],[-123.4603,69.4198],[-123.5285,69.3892],[-123.609,69.3775],[-124.0498,69.3727],[-124.1117,69.359],[-124.3381,69.3648],[-124.426,69.3796],[-124.472,69.4003],[-124.4816,69.4251],[-124.4541,69.4548],[-124.3985,69.4939],[-124.1386,69.6532],[-124.1323,69.6691],[-123.0872,69.7686]]]}}
