{"type":"Feature","properties":{"id":235,"name":"Prince of Wales Strait","featurecla":"strait","scalerank":7,"wikidataid":"Q156271","source":"Natural Earth 5.2.0-pre ne_10m_geography_marine_polys (public domain)"},"geometry":{"type":"Polygon","coordinates":[[[-120.4721,71.5963],[-120.4609,71.6053],[-120.443,71.6307],[-120.3662,71.8879],[-120.3101,71.9842],[-120.1943,72.1265],[-120.18,72.2128],[-120.09,72.2292],[-119.7672,72.244],[-119.5127,72.3027],[-119.4079,72.3604],[-119.1317,72.6086],[-119.0782,72.6403],[-118.9618,72.6842],[-117.9834,72.9023],[-117.4643,73.0378],[-117.2833,73.069],[-117.0653,73.1071],[-116.4827,73.2531],[-116.2387,73.2944],[-115.9921,73.323],[-115.5244,73.4166],[-115.4471,73.4389],[-115.4116,73.4648],[-115.3926,73.5018],[-115.3968,73.5135],[-114.6422,73.3722],[-115.5524,73.2134],[-116.5732,73.0547],[-116.9716,72.9594],[-117.2563,72.9145],[-117.5516,72.8309],[-118.1331,72.6329],[-118.3744,72.534],[-118.4565,72.4726],[-118.4813,72.4276],[-118.4485,72.399],[-118.3903,72.3694],[-118.2459,72.3112],[-118.2072,72.2869],[-118.2136,72.263],[-118.3686,72.2054],[-118.5898,72.1673],[-118.9444,71.9858],[-118.9597,71.972],[-118.984,71.9133],[-118.9936,71.8032],[-118.9877,71.764],[-118.974,71.7514],[-120.4721,71.5963]]]}}
