{"type":"Feature","properties":{"id":236,"name":"Minto Inlet","featurecla":"sound","scalerank":8,"source":"Natural Earth 5.2.0-pre ne_10m_geography_marine_polys (public domain)"},"geometry":{"type":"Polygon","coordinates":[[[-118.204,71.4423],[-118.1882,71.436],[-117.9358,71.392],[-117.7236,71.3904],[-117.3373,71.4344],[-116.7801,71.4439],[-115.5868,71.5465],[-115.3381,71.5111],[-115.3032,71.4936],[-115.3412,71.4725],[-115.472,71.4656],[-115.7339,71.4852],[-115.9805,71.4693],[-116.044,71.4545],[-116.0451,71.4233],[-115.9223,71.401],[-115.8916,71.382],[-116.0419,71.3619],[-116.2281,71.3592],[-116.4213,71.3381],[-116.8155,71.2767],[-117.314,71.2121],[-117.8141,71.1587],[-117.9336,71.1349],[-118.2691,71.0348],[-118.3237,71.0121],[-118.204,71.4423]]]}}
