{"type":"Feature","properties":{"id":237,"name":"Richard Collinson Inlet","featurecla":"bay","scalerank":8,"wikidataid":"Q7324843","source":"Natural Earth 5.2.0-pre ne_10m_geography_marine_polys (public domain)"},"geometry":{"type":"Polygon","coordinates":[[[-113.1711,72.9848],[-113.2082,72.9811],[-113.2923,72.9499],[-113.45,72.8631],[-113.4913,72.8219],[-113.4961,72.7536],[-113.486,72.7224],[-113.5003,72.6943],[-113.5781,72.652],[-113.622,72.6467],[-113.6924,72.6726],[-113.958,72.6515],[-114.1744,72.6239],[-114.3422,72.5906],[-114.4581,72.5805],[-114.5216,72.5927],[-114.4978,72.6261],[-114.2803,72.7393],[-114.1776,72.8049],[-114.1094,72.861],[-114.075,72.907],[-114.0538,72.9578],[-114.0464,73.0145],[-114.0517,73.0711],[-114.0956,73.1801],[-114.1178,73.2161],[-113.1711,72.9848]]]}}
