{"type":"Feature","properties":{"id":238,"name":"Prince ALbert Sound","featurecla":"sound","scalerank":7,"wikidataid":"Q7243787","source":"Natural Earth 5.2.0-pre ne_10m_geography_marine_polys (public domain)"},"geometry":{"type":"Polygon","coordinates":[[[-117.1928,70.0617],[-117.5881,70.6301],[-117.5871,70.6295],[-116.9928,70.6036],[-116.3271,70.6237],[-116.226,70.6163],[-116.0863,70.5909],[-115.9911,70.5861],[-115.3111,70.6009],[-114.8407,70.6216],[-114.5925,70.6422],[-114.3316,70.675],[-114.2321,70.6745],[-113.966,70.6962],[-113.7575,70.6909],[-113.3971,70.6523],[-113.1457,70.6163],[-112.1144,70.4469],[-111.726,70.3522],[-111.6323,70.3088],[-111.7048,70.2856],[-111.7837,70.2729],[-112.1896,70.2755],[-112.2658,70.2549],[-112.5229,70.2284],[-112.6377,70.2252],[-113.2108,70.2639],[-113.6654,70.2697],[-113.9167,70.2813],[-114.167,70.3072],[-114.5925,70.3126],[-115.5291,70.257],[-116.5536,70.1749],[-117.1357,70.1003],[-117.1627,70.0924],[-117.1907,70.0601],[-117.1928,70.0617]]]}}
