{"type":"Feature","properties":{"id":239,"name":"Liddon Gulf","featurecla":"gulf","scalerank":7,"wikidataid":"Q6543624","source":"Natural Earth 5.2.0-pre ne_10m_geography_marine_polys (public domain)"},"geometry":{"type":"Polygon","coordinates":[[[-115.0418,74.9798],[-115.0201,74.9761],[-114.8592,74.9999],[-114.4517,75.0877],[-114.356,75.1412],[-114.3575,75.1713],[-114.5041,75.2581],[-114.5137,75.2756],[-114.483,75.2851],[-114.429,75.2809],[-114.285,75.2497],[-114.1686,75.2396],[-114.1247,75.2915],[-114.075,75.3926],[-114.0533,75.4169],[-114.0168,75.4343],[-113.9839,75.4301],[-113.9162,75.3883],[-113.8787,75.3756],[-113.5892,75.4121],[-113.4669,75.4164],[-113.5029,75.3968],[-113.7585,75.3216],[-113.8109,75.2962],[-113.8533,75.2592],[-113.886,75.211],[-113.8612,75.1878],[-113.8554,75.1295],[-113.8448,75.1121],[-113.7945,75.084],[-113.712,75.0687],[-113.3394,75.093],[-112.9515,75.1078],[-112.8552,75.1205],[-112.7997,75.138],[-112.7034,75.1872],[-112.6526,75.2047],[-112.597,75.2116],[-112.4779,75.1999],[-112.2557,75.1338],[-112.2144,75.1327],[-112.0006,75.1422],[-111.781,75.1661],[-111.6207,75.1677],[-111.4741,75.1909],[-111.1815,75.2603],[-111.0937,75.2565],[-111.0333,75.2269],[-111.0788,75.1952],[-111.2582,75.128],[-111.5032,75.0555],[-111.671,75.0195],[-111.7842,75.0057],[-111.9556,75.0004],[-112.1927,75.0099],[-112.6631,74.9946],[-112.8362,74.9756],[-113.3246,74.875],[-113.8628,74.8126],[-114.1326,74.766],[-114.3126,74.7152],[-114.3655,74.6787],[-115.0418,74.9798]]]}}
