{"type":"Feature","properties":{"id":240,"name":"Wynniatt Bay","featurecla":"bay","scalerank":8,"wikidataid":"Q8040226","source":"Natural Earth 5.2.0-pre ne_10m_geography_marine_polys (public domain)"},"geometry":{"type":"Polygon","coordinates":[[[-110.6814,72.9626],[-110.6894,72.9446],[-110.5539,72.8615],[-110.2793,72.7922],[-110.1972,72.7589],[-110.2078,72.6811],[-110.2052,72.6615],[-110.4396,72.6334],[-110.5126,72.5996],[-110.7814,72.534],[-110.9592,72.4319],[-111.1397,72.3652],[-111.1847,72.3567],[-111.2683,72.3636],[-111.2836,72.3779],[-111.2873,72.4012],[-111.2773,72.425],[-111.2534,72.4493],[-111.2646,72.4588],[-111.3111,72.4546],[-111.4471,72.4075],[-111.5434,72.3509],[-111.6752,72.3001],[-111.7614,72.335],[-111.8953,72.3562],[-111.816,72.3864],[-111.6112,72.4356],[-111.3556,72.5721],[-111.2503,72.6684],[-111.2698,72.7139],[-111.2894,72.7192],[-110.6814,72.9626]]]}}
