{"type":"Feature","properties":{"id":241,"name":"Hadley Bay","featurecla":"bay","scalerank":7,"source":"Natural Earth 5.2.0-pre ne_10m_geography_marine_polys (public domain)"},"geometry":{"type":"Polygon","coordinates":[[[-108.2324,73.0949],[-107.997,72.6525],[-107.9345,72.588],[-107.9234,72.5567],[-107.9324,72.5202],[-107.9096,72.4906],[-107.8557,72.4679],[-107.8239,72.443],[-107.8091,72.3477],[-107.7943,72.3027],[-107.6958,72.1493],[-107.5424,72.0254],[-107.3059,71.8947],[-107.3768,71.8863],[-107.3815,71.8752],[-107.3694,71.8588],[-107.3292,71.8355],[-107.3471,71.8191],[-107.6874,71.7159],[-107.7572,71.663],[-107.7853,71.6296],[-107.8128,71.6259],[-107.9255,71.6386],[-108.0208,71.6773],[-108.1446,71.7048],[-108.188,71.7238],[-108.2102,71.7514],[-108.2764,71.9006],[-108.4695,72.1387],[-108.5663,72.3176],[-108.6277,72.4123],[-108.6981,72.499],[-108.7394,72.5366],[-108.2324,73.0949]]]}}
