{"type":"Feature","properties":{"id":242,"name":"Bathurst Inlet","featurecla":"bay","scalerank":8,"wikidataid":"Q810805","source":"Natural Earth 5.2.0-pre ne_10m_geography_marine_polys (public domain)"},"geometry":{"type":"Polygon","coordinates":[[[-107.9541,67.7001],[-107.8652,67.6392],[-107.753,67.5868],[-107.6498,67.5111],[-107.6382,67.4741],[-107.6509,67.4281],[-107.644,67.3847],[-107.5673,67.273],[-107.4826,67.1989],[-107.3186,67.128],[-107.2831,67.1031],[-107.3477,67.055],[-107.3233,67.0227],[-107.254,66.9761],[-107.1566,66.882],[-107.2,66.8825],[-107.3292,66.9322],[-107.4022,66.9481],[-107.4191,66.9306],[-107.4514,66.9269],[-107.499,66.9359],[-107.626,67.0031],[-107.725,66.9841],[-107.7461,66.9613],[-107.7403,66.8137],[-107.7308,66.7692],[-107.7101,66.7401],[-107.5646,66.6184],[-107.2784,66.4248],[-107.2593,66.3983],[-107.2916,66.402],[-107.3736,66.4348],[-107.4805,66.492],[-107.7049,66.6369],[-107.7609,66.6835],[-107.9578,66.7814],[-108.0017,66.8179],[-108.0493,66.8444],[-108.1017,66.8603],[-108.1578,66.8925],[-108.2181,66.9412],[-108.4552,67.0629],[-108.496,67.092],[-108.4589,67.0904],[-108.3441,67.0576],[-108.2208,67.0507],[-108.0885,67.0698],[-107.9911,67.0952],[-107.9292,67.127],[-107.9091,67.1624],[-107.9303,67.2026],[-107.9885,67.2566],[-107.9964,67.2598],[-107.9695,67.3259],[-107.9504,67.318],[-107.9001,67.4016],[-107.8911,67.437],[-107.9054,67.4672],[-107.9319,67.4767],[-107.9896,67.5138],[-107.9747,67.5492],[-107.9906,67.6223],[-108.0488,67.6651],[-107.9541,67.7001]]]}}
