{"type":"Feature","properties":{"id":243,"name":"","featurecla":"generic","scalerank":8,"source":"Natural Earth 5.2.0-pre ne_10m_geography_marine_polys (public domain)"},"geometry":{"type":"Polygon","coordinates":[[[-107.8033,68.171],[-107.734,68.1736],[-107.6779,68.2028],[-107.7345,68.252],[-107.7414,68.2858],[-107.6191,68.3308],[-107.499,68.3234],[-107.2979,68.2964],[-107.1461,68.3044],[-107.0434,68.3467],[-106.946,68.3742],[-106.854,68.3869],[-106.7804,68.3874],[-106.6084,68.3573],[-106.5666,68.389],[-106.5433,68.4605],[-106.4581,68.5165],[-106.2375,68.5764],[-106.0274,68.6234],[-105.9322,68.6367],[-105.7745,68.6113],[-105.7501,68.5922],[-105.7813,68.5266],[-105.857,68.4753],[-105.9332,68.443],[-106.0396,68.4076],[-106.1322,68.3901],[-106.2713,68.3832],[-106.4042,68.3192],[-106.4296,68.2885],[-106.4243,68.2006],[-106.4597,68.1959],[-106.5349,68.2091],[-106.6682,68.216],[-106.7111,68.207],[-106.791,68.1451],[-106.8354,68.1287],[-106.9227,68.1144],[-106.9936,68.1064],[-107.1249,68.1086],[-107.2244,68.0937],[-107.3514,68.0609],[-107.4461,68.0498],[-107.5096,68.0594],[-107.7609,68.0324],[-107.7985,68.0371],[-107.8033,68.171]]]}}
