{"type":"Feature","properties":{"id":244,"name":"Goldsmith Channel","featurecla":"channel","scalerank":8,"wikidataid":"Q1550455","source":"Natural Earth 5.2.0-pre ne_10m_geography_marine_polys (public domain)"},"geometry":{"type":"Polygon","coordinates":[[[-105.4258,72.7334],[-105.43,72.7404],[-105.4114,72.7647],[-105.4152,72.7885],[-105.4961,72.8488],[-105.6242,72.9277],[-105.8126,73.0108],[-106.0814,73.0721],[-106.4819,73.196],[-106.8286,73.2658],[-106.9508,73.2759],[-107.0,73.2573],[-106.9307,73.4891],[-106.9217,73.4796],[-106.7502,73.4579],[-106.5259,73.4135],[-106.1798,73.3039],[-106.1126,73.2579],[-106.0708,73.1965],[-105.8004,73.0933],[-105.5919,72.9981],[-105.5729,72.9891],[-105.4342,72.9377],[-105.3395,72.915],[-105.3348,72.9154],[-105.4258,72.7334]]]}}
