{"type":"Feature","properties":{"id":245,"name":"Sherman Basin","featurecla":"bay","scalerank":8,"source":"Natural Earth 5.2.0-pre ne_10m_geography_marine_polys (public domain)"},"geometry":{"type":"Polygon","coordinates":[[[-98.3878,68.0355],[-98.1926,67.9228],[-98.1105,67.9032],[-97.9132,67.9535],[-97.7391,67.9784],[-97.5464,67.9609],[-97.3364,67.9011],[-97.2067,67.8551],[-97.158,67.8218],[-97.14,67.7964],[-97.157,67.7551],[-97.1554,67.7265],[-97.1946,67.6969],[-97.2744,67.6662],[-97.4549,67.617],[-97.6073,67.6312],[-97.9306,67.7106],[-97.9777,67.7387],[-98.0624,67.7699],[-98.4148,67.9884],[-98.3878,68.0355]]]}}
