{"type":"Feature","properties":{"id":246,"name":"Wager Bay","featurecla":"bay","scalerank":8,"wikidataid":"Q2539134","source":"Natural Earth 5.2.0-pre ne_10m_geography_marine_polys (public domain)"},"geometry":{"type":"Polygon","coordinates":[[[-87.6801,65.2712],[-87.9294,65.2802],[-88.1977,65.2796],[-88.9739,65.3484],[-89.1263,65.3955],[-89.2417,65.4463],[-89.6005,65.6479],[-89.7878,65.7368],[-89.9243,65.7802],[-90.0476,65.8056],[-90.1588,65.8125],[-90.5969,65.885],[-90.9837,65.9194],[-91.0647,65.8998],[-91.0737,65.8855],[-91.0409,65.83],[-91.2854,65.8945],[-91.4272,65.948],[-91.4113,65.9596],[-91.3055,65.9644],[-91.0097,65.9659],[-90.8255,65.9538],[-90.6556,65.9295],[-90.5133,65.9205],[-90.3164,65.9263],[-90.1164,65.8824],[-90.0037,65.8824],[-89.8899,65.8686],[-89.8476,65.8723],[-89.9439,65.9337],[-89.8905,65.9406],[-89.7492,65.9358],[-89.5925,65.9093],[-89.4206,65.8607],[-89.0877,65.739],[-88.9459,65.703],[-88.8083,65.6919],[-88.7438,65.6786],[-88.6723,65.6114],[-88.5866,65.5876],[-88.395,65.5162],[-88.1209,65.3945],[-87.9701,65.349],[-87.678,65.3352],[-87.6801,65.2712]]]}}
