{"type":"Feature","properties":{"id":247,"name":"Fury and Hecla Strait","featurecla":"strait","scalerank":7,"wikidataid":"Q691945","source":"Natural Earth 5.2.0-pre ne_10m_geography_marine_polys (public domain)"},"geometry":{"type":"Polygon","coordinates":[[[-85.7164,70.0443],[-85.7174,70.0501],[-85.4322,70.1115],[-85.0528,70.0781],[-84.9089,70.0781],[-84.829,70.0633],[-84.7649,70.0337],[-84.5221,70.0051],[-83.859,69.9628],[-83.5309,69.9649],[-83.1499,70.0088],[-83.0912,70.004],[-82.9256,69.9681],[-82.488,69.8659],[-82.2938,69.8368],[-82.2154,69.8389],[-82.2149,69.8236],[-82.3932,69.6453],[-82.6181,69.6913],[-82.7456,69.695],[-82.9912,69.686],[-83.5516,69.704],[-83.6654,69.6998],[-83.9172,69.7453],[-84.2416,69.8352],[-84.3189,69.8437],[-84.6454,69.8495],[-84.8338,69.8352],[-85.02,69.8045],[-85.1767,69.8051],[-85.3052,69.8363],[-85.4153,69.8495],[-85.4851,69.8464],[-85.7164,70.0443]]]}}
