{"type":"Feature","properties":{"id":248,"name":"","featurecla":"generic","scalerank":8,"source":"Natural Earth 5.2.0-pre ne_10m_geography_marine_polys (public domain)"},"geometry":{"type":"Polygon","coordinates":[[[-80.8401,69.7712],[-80.8428,69.7918],[-80.9248,69.8506],[-81.0238,69.8998],[-81.1968,69.9829],[-81.3296,70.0242],[-81.4217,70.0247],[-81.5291,70.048],[-81.6519,70.0945],[-81.5598,70.1115],[-81.0984,70.0913],[-80.8258,70.0564],[-80.6703,70.0522],[-80.3866,70.0104],[-80.2602,69.9966],[-80.1623,69.9961],[-79.6162,69.8945],[-79.5881,69.8924],[-79.5939,69.8104],[-79.7146,69.7956],[-79.8696,69.7553],[-79.9707,69.7389],[-80.0617,69.7453],[-80.1247,69.7373],[-80.1686,69.7823],[-80.2136,69.8019],[-80.2951,69.794],[-80.4242,69.7977],[-80.4385,69.7828],[-80.4507,69.7447],[-80.466,69.7373],[-80.6523,69.7506],[-80.7264,69.7405],[-80.8401,69.7712]]]}}
