{"type":"Feature","properties":{"id":249,"name":"Jones Sound","featurecla":"sound","scalerank":6,"wikidataid":"Q1703405","source":"Natural Earth 5.2.0-pre ne_10m_geography_marine_polys (public domain)"},"geometry":{"type":"Polygon","coordinates":[[[-79.0097,75.7995],[-79.6262,75.42],[-79.6601,75.4497],[-79.7379,75.4613],[-80.0998,75.4672],[-80.2607,75.4793],[-80.2866,75.4904],[-80.1257,75.5423],[-80.1194,75.5619],[-80.1586,75.5809],[-80.3221,75.6291],[-80.5279,75.6423],[-81.001,75.6434],[-81.1243,75.6582],[-81.1735,75.6693],[-81.1926,75.6841],[-81.1508,75.7355],[-81.2688,75.7561],[-81.6471,75.7947],[-82.1535,75.8312],[-82.3541,75.8333],[-82.5536,75.818],[-83.0933,75.7566],[-83.2372,75.7508],[-83.7447,75.8127],[-83.9321,75.819],[-84.0141,75.7799],[-84.1278,75.7624],[-84.6046,75.6534],[-84.7501,75.6545],[-84.9867,75.6449],[-85.3724,75.5724],[-85.5815,75.5799],[-85.973,75.5285],[-86.0688,75.5021],[-85.9048,75.4418],[-85.9513,75.3952],[-86.2366,75.4063],[-86.4366,75.4365],[-86.5445,75.4635],[-86.8144,75.4915],[-87.2568,75.618],[-87.3647,75.5915],[-87.5394,75.4846],[-87.5722,75.4936],[-87.6436,75.5471],[-87.7299,75.5756],[-88.2014,75.5121],[-88.5691,75.6449],[-88.6448,75.6582],[-88.7147,75.6587],[-88.784,75.6476],[-88.8522,75.6248],[-88.8639,75.5889],[-88.8194,75.5386],[-88.8041,75.5026],[-88.839,75.4635],[-88.8687,75.4518],[-88.9168,75.4539],[-89.2803,75.564],[-89.3375,75.5724],[-89.646,75.5651],[-89.6254,75.5836],[-89.3613,75.646],[-89.2565,75.6984],[-89.2047,75.737],[-89.2047,75.7619],[-89.2777,75.7952],[-89.511,75.8572],[-89.6502,75.8439],[-89.6952,75.8535],[-89.7936,75.9249],[-89.9127,75.9662],[-90.0328,75.9709],[-90.1762,76.0302],[-90.2514,76.0535],[-90.7123,76.0762],[-90.8022,76.1059],[-91.0197,76.1413],[-91.2795,76.1598],[-91.4076,76.2202],[-91.2605,76.2302],[-90.8271,76.1858],[-90.3122,76.1582],[-89.4068,76.1889],[-89.292,76.2175],[-89.2364,76.2392],[-89.2189,76.2582],[-89.2846,76.3016],[-89.9847,76.362],[-89.9741,76.4874],[-89.9243,76.5006],[-89.7735,76.4937],[-89.7264,76.5075],[-89.5703,76.4922],[-89.3698,76.4747],[-88.8035,76.4567],[-88.5459,76.4207],[-88.5628,76.5472],[-88.6141,76.6509],[-88.4961,76.7726],[-88.4818,76.58],[-88.3961,76.4054],[-88.1045,76.4128],[-87.4976,76.3863],[-87.4896,76.5858],[-87.3542,76.4482],[-86.9779,76.4128],[-86.68,76.3768],[-86.562,76.5165],[-86.4535,76.5848],[-86.4197,76.5795],[-86.3667,76.5488],[-86.2964,76.4916],[-86.1159,76.435],[-85.6804,76.3493],[-85.3439,76.3133],[-85.1412,76.3048],[-84.2755,76.3567],[-84.2236,76.6752],[-83.9865,76.4948],[-83.8855,76.453],[-83.3891,76.4392],[-82.2334,76.4657],[-82.2085,76.5139],[-82.262,76.5747],[-82.3572,76.6361],[-82.4932,76.698],[-82.5298,76.7234],[-82.3932,76.69],[-82.3112,76.6551],[-82.2181,76.6398],[-82.1138,76.6435],[-82.0339,76.6292],[-81.8228,76.5207],[-81.7175,76.4948],[-81.5921,76.4842],[-81.4746,76.4874],[-81.3651,76.5043],[-81.1709,76.5128],[-81.0746,76.4985],[-80.9745,76.4699],[-80.8322,76.4085],[-80.8348,76.3694],[-80.901,76.3218],[-80.9549,76.2704],[-80.9968,76.2149],[-80.9629,76.1842],[-80.7999,76.1736],[-80.6904,76.1762],[-80.1866,76.2403],[-79.9538,76.2514],[-79.5109,76.3106],[-79.286,76.3546],[-79.1309,76.4038],[-78.9341,76.4514],[-78.4964,76.5318],[-78.4843,76.4646],[-79.0134,76.1471],[-79.0129,76.145],[-79.1785,76.0921],[-79.3817,76.0106],[-79.5511,75.9582],[-79.6987,75.8831],[-79.6389,75.8429],[-79.5447,75.8254],[-79.3558,75.8312],[-79.1246,75.8698],[-79.0516,75.8672],[-79.0097,75.7995]]]}}
