{"type":"Feature","properties":{"id":250,"name":"Eclipse Sound","featurecla":"sound","scalerank":7,"wikidataid":"Q5333028","source":"Natural Earth 5.2.0-pre ne_10m_geography_marine_polys (public domain)"},"geometry":{"type":"Polygon","coordinates":[[[-77.0185,72.7261],[-77.2555,72.7361],[-77.5667,72.7366],[-77.753,72.725],[-78.0012,72.6875],[-78.3504,72.6001],[-78.4224,72.5716],[-78.4589,72.5424],[-78.4795,72.5086],[-78.4843,72.4705],[-78.4531,72.435],[-78.2874,72.3599],[-77.926,72.2938],[-77.6942,72.2382],[-77.5355,72.2186],[-77.5164,72.1779],[-77.726,72.18],[-78.1165,72.2805],[-78.3075,72.2752],[-78.4287,72.28],[-78.5827,72.3292],[-78.6991,72.3514],[-78.8203,72.2652],[-78.8626,72.1006],[-78.7907,72.0302],[-78.7113,71.9725],[-78.6224,71.935],[-78.589,71.8974],[-78.5854,71.8805],[-78.6144,71.881],[-78.7758,71.9302],[-79.0076,72.0429],[-79.0177,72.1043],[-79.0182,72.1884],[-79.0002,72.272],[-79.1944,72.3556],[-79.3235,72.3906],[-79.4272,72.3371],[-79.5839,72.3149],[-79.6537,72.3324],[-79.6934,72.3758],[-79.7781,72.4387],[-79.8315,72.4461],[-79.9268,72.4282],[-80.0416,72.3943],[-80.067,72.3784],[-80.1088,72.3324],[-80.0908,72.3006],[-79.8844,72.1773],[-79.9284,72.1752],[-80.1162,72.2138],[-80.1818,72.2085],[-80.3861,72.1487],[-80.7052,71.9879],[-80.802,71.9292],[-80.8587,71.9117],[-80.9253,71.9074],[-80.9481,71.9164],[-80.9269,71.9381],[-80.9248,71.971],[-80.9428,72.0143],[-80.9412,72.0482],[-80.9211,72.0726],[-80.8883,72.0884],[-80.8433,72.0964],[-80.7332,72.0889],[-80.6914,72.1032],[-80.9195,72.1911],[-80.9412,72.2101],[-80.8216,72.2604],[-80.7025,72.3382],[-80.6046,72.4255],[-80.6115,72.4509],[-80.7607,72.4573],[-81.2407,72.2779],[-81.2296,72.3117],[-80.9989,72.426],[-80.675,72.5589],[-80.4242,72.679],[-80.3226,72.7176],[-80.2744,72.7457],[-80.2771,72.77],[-80.4311,72.816],[-80.5009,72.8568],[-80.5919,72.9277],[-80.6189,72.997],[-80.583,73.0647],[-80.6036,73.1214],[-80.6814,73.1658],[-80.6449,73.279],[-80.6179,73.2706],[-80.293,73.2457],[-80.1834,73.2245],[-80.1464,73.1616],[-80.1146,73.078],[-80.0517,72.9769],[-79.9755,72.8928],[-79.9368,72.8637],[-79.8209,72.8261],[-79.5003,72.7562],[-79.3193,72.7578],[-79.1341,72.7716],[-78.5541,72.8578],[-78.3144,72.8816],[-77.836,72.897],[-77.0137,72.8441],[-77.0185,72.7261]]]}}
