{"type":"Feature","properties":{"id":251,"name":"Hall Basin","featurecla":"gulf","scalerank":7,"wikidataid":"Q1457158","source":"Natural Earth 5.2.0-pre ne_10m_geography_marine_polys (public domain)"},"geometry":{"type":"Polygon","coordinates":[[[-61.2356,81.6944],[-61.1758,81.6319],[-61.1308,81.5325],[-61.1001,81.3959],[-61.162,81.2816],[-61.3171,81.1885],[-61.4361,81.1335],[-61.5192,81.1171],[-61.6356,81.1155],[-61.8605,81.1377],[-62.0494,81.1726],[-62.2986,81.1943],[-62.6717,81.2139],[-62.9035,81.2181],[-62.9934,81.207],[-63.2125,81.143],[-63.2353,81.0832],[-63.0956,80.9382],[-63.0289,80.8895],[-63.0585,80.8858],[-63.4417,81.0139],[-63.5782,81.0435],[-63.7221,81.0573],[-63.8914,81.0562],[-64.0959,81.0378],[-65.0083,81.3973],[-64.8328,81.4388],[-64.7799,81.4928],[-65.2398,81.5097],[-65.7356,81.4944],[-68.3179,81.261],[-68.5428,81.2478],[-68.7211,81.261],[-68.6883,81.2933],[-66.914,81.4854],[-66.8611,81.4986],[-66.8008,81.5267],[-66.7648,81.5631],[-66.6256,81.6166],[-66.0049,81.6293],[-65.7012,81.6457],[-65.4954,81.6679],[-65.3991,81.7156],[-65.226,81.7436],[-64.5741,81.7335],[-64.436,81.7426],[-64.128,81.7939],[-63.5925,81.8457],[-62.4966,82.0066],[-62.2636,82.0336],[-61.2288,81.7051],[-61.2356,81.6944]]]}}
