{"type":"Feature","properties":{"id":252,"name":"Uummannaq Fjord","featurecla":"fjord","scalerank":7,"wikidataid":"Q384323","source":"Natural Earth 5.2.0-pre ne_10m_geography_marine_polys (public domain)"},"geometry":{"type":"Polygon","coordinates":[[[-54.7813,71.3577],[-54.7802,71.373],[-54.6892,71.3672],[-54.3178,71.3846],[-54.1728,71.4175],[-54.0987,71.4185],[-53.9632,71.4593],[-53.9119,71.5259],[-53.9542,71.5926],[-54.0198,71.6577],[-53.9643,71.6556],[-53.8939,71.6418],[-53.7796,71.6783],[-53.76,71.718],[-53.7156,71.7577],[-53.5685,71.8053],[-53.4775,71.8498],[-53.4626,71.8937],[-53.5134,71.9763],[-53.6309,72.0514],[-53.7029,72.0799],[-53.7928,72.1339],[-53.8277,72.1837],[-53.8473,72.2398],[-53.8807,72.2847],[-53.9278,72.3186],[-53.9008,72.3419],[-53.6521,72.3625],[-53.6722,72.3509],[-53.7759,72.326],[-53.8098,72.2927],[-53.6928,72.1599],[-53.6399,72.1234],[-53.5753,72.098],[-53.4203,71.9995],[-53.3737,71.936],[-53.3552,71.8709],[-53.3584,71.8196],[-53.3335,71.79],[-53.1446,71.8075],[-53.1388,71.7752],[-53.2499,71.7101],[-53.3049,71.6857],[-53.4759,71.6402],[-53.4647,71.6069],[-53.4399,71.5788],[-53.2843,71.5397],[-53.1673,71.536],[-52.9144,71.6021],[-52.7281,71.6624],[-52.6562,71.6725],[-52.1958,71.6302],[-52.082,71.6365],[-51.9116,71.6693],[-51.7788,71.6831],[-51.7698,71.672],[-51.9672,71.5989],[-52.7493,71.5016],[-52.8916,71.4577],[-52.9372,71.4127],[-53.0023,71.3698],[-53.088,71.3529],[-53.1171,71.3127],[-53.0075,71.1798],[-52.8969,71.1709],[-52.7752,71.174],[-52.5345,71.2005],[-52.417,71.1899],[-52.2334,71.1476],[-52.0614,71.1216],[-51.7921,71.1301],[-51.3767,71.119],[-51.1777,71.0433],[-51.0189,71.0015],[-51.0306,70.9862],[-51.1301,70.9719],[-51.2671,70.9767],[-51.5285,71.0142],[-51.6502,71.019],[-51.7746,71.0105],[-51.7529,70.992],[-51.4936,70.919],[-51.3962,70.9031],[-51.2565,70.8528],[-51.283,70.7681],[-51.3206,70.7428],[-51.3401,70.6877],[-51.3227,70.5888],[-51.1735,70.529],[-50.9327,70.4538],[-50.7274,70.4379],[-50.6633,70.4173],[-50.6819,70.3967],[-50.8724,70.3649],[-50.947,70.3639],[-51.4116,70.4316],[-51.5243,70.4395],[-51.7836,70.503],[-52.4053,70.6866],[-52.6302,70.7301],[-52.8022,70.7507],[-53.0911,70.7692],[-53.3758,70.7613],[-53.5129,70.7666],[-53.6944,70.7962],[-53.859,70.8099],[-54.1659,70.82],[-54.3437,70.7893],[-54.4379,70.7518],[-54.4432,70.7486],[-54.7813,71.3577]],[[-51.9698,70.9767],[-52.1069,70.9682],[-52.1482,70.9041],[-52.1439,70.8824],[-52.1196,70.8708],[-51.8085,70.8523],[-51.6751,70.8555],[-51.6068,70.8687],[-51.6312,70.892],[-51.8069,70.9417],[-51.9698,70.9767]],[[-53.4319,71.1534],[-53.4415,71.1857],[-53.5124,71.2497],[-53.5843,71.2973],[-53.7007,71.283],[-53.8616,71.2074],[-53.9473,71.1555],[-53.9579,71.128],[-53.941,71.1042],[-53.8976,71.0851],[-53.6288,71.0343],[-53.5351,71.0407],[-53.488,71.056],[-53.4552,71.083],[-53.4367,71.1153],[-53.4319,71.1534]]]}}
