{"type":"Feature","properties":{"id":253,"name":"Peacock Sound","featurecla":"sound","scalerank":7,"wikidataid":"Q1618810","source":"Natural Earth 5.2.0-pre ne_10m_geography_marine_polys (public domain)"},"geometry":{"type":"Polygon","coordinates":[[[-95.5293,-73.2414],[-95.8806,-73.2938],[-96.1521,-73.3091],[-96.3944,-73.3012],[-96.676,-73.2683],[-96.9559,-73.2064],[-97.4766,-73.126],[-97.6512,-73.1445],[-97.8184,-73.1017],[-98.0126,-73.0334],[-98.2084,-73.0223],[-99.8107,-73.0001],[-100.259,-73.0413],[-100.5638,-73.0154],[-100.8204,-72.981],[-101.3321,-72.9953],[-101.6814,-73.0297],[-101.8417,-73.0207],[-102.029,-72.998],[-102.4095,-72.9874],[-102.482,-72.9514],[-102.3629,-72.9117],[-102.2719,-72.835],[-102.3629,-72.7604],[-102.4846,-72.7355],[-102.2756,-72.1238],[-102.265,-72.1354],[-102.0221,-72.1852],[-101.9031,-72.1905],[-101.7845,-72.1778],[-101.602,-72.1756],[-100.3574,-72.2783],[-100.1955,-72.2725],[-100.1039,-72.2867],[-100.0145,-72.3127],[-99.6726,-72.3799],[-99.4345,-72.4069],[-99.1487,-72.472],[-98.8815,-72.473],[-98.6408,-72.4899],[-98.4079,-72.5477],[-98.1635,-72.5561],[-97.8285,-72.5572],[-97.5957,-72.5477],[-97.3655,-72.5217],[-97.2501,-72.5206],[-97.0279,-72.5736],[-96.9146,-72.5783],[-96.804,-72.5582],[-96.6929,-72.5477],[-96.0515,-72.5773],[-96.0298,-72.5545],[-96.0145,-72.5249],[-96.078,-72.454],[-95.8256,-72.4391],[-95.5917,-72.4122],[-95.5293,-73.2414]]]}}
