{"type":"Feature","properties":{"id":254,"name":"George VI Sound","featurecla":"sound","scalerank":7,"wikidataid":"Q2831049","source":"Natural Earth 5.2.0-pre ne_10m_geography_marine_polys (public domain)"},"geometry":{"type":"Polygon","coordinates":[[[-74.5748,-73.6113],[-74.452,-73.5652],[-74.3663,-73.4641],[-74.4674,-73.4271],[-74.5505,-73.3689],[-74.5753,-73.3276],[-74.6155,-73.3112],[-74.6679,-73.2753],[-74.5224,-73.244],[-74.4991,-73.2292],[-74.3547,-73.0985],[-74.224,-72.9969],[-74.2758,-72.9514],[-73.7705,-72.1063],[-73.5371,-72.0222],[-73.5726,-71.9809],[-73.6906,-71.9296],[-73.8297,-71.8703],[-73.7757,-71.8492],[-73.6329,-71.8348],[-73.4101,-71.8534],[-73.1667,-71.9047],[-72.9719,-71.9238],[-72.9275,-71.9217],[-72.4121,-71.6623],[-72.3364,-71.6322],[-72.2591,-71.6412],[-72.0459,-71.7396],[-71.8163,-71.8221],[-71.5744,-71.8507],[-71.4649,-71.838],[-71.3548,-71.8364],[-70.8209,-71.9063],[-70.8447,-71.946],[-70.8912,-71.9872],[-71.0341,-72.0344],[-71.1066,-72.047],[-71.8977,-72.1206],[-71.8925,-72.1529],[-71.6612,-72.2497],[-71.4125,-72.2846],[-71.1775,-72.264],[-70.9452,-72.2291],[-70.6415,-72.1698],[-70.533,-72.1634],[-70.424,-72.1677],[-70.3139,-72.191],[-70.206,-72.228],[-70.4277,-72.3228],[-70.6711,-72.3566],[-70.8727,-72.3666],[-71.6051,-72.3587],[-72.1348,-72.3312],[-72.3761,-72.2963],[-72.6185,-72.2751],[-72.7375,-72.2804],[-72.855,-72.3042],[-73.0863,-72.4079],[-73.0571,-72.4476],[-73.0069,-72.4842],[-72.8878,-72.5466],[-72.7804,-72.5804],[-72.6703,-72.5958],[-72.5306,-72.5894],[-72.4798,-72.6175],[-72.4332,-72.6583],[-72.3676,-72.6699],[-71.8459,-72.6392],[-71.1585,-72.627],[-70.923,-72.6132],[-70.7315,-72.6228],[-70.5436,-72.6646],[-70.0631,-72.626],[-69.2096,-72.5344],[-69.1492,-72.4265],[-68.6402,-72.21],[-68.5428,-72.1577],[-68.4608,-72.0852],[-68.3941,-71.9751],[-68.2412,-71.8221],[-68.228,-71.7253],[-68.2523,-71.3136],[-68.2777,-71.0972],[-68.3142,-70.912],[-68.3359,-70.8559],[-68.4508,-70.8178],[-68.4592,-70.6829],[-68.5534,-70.5813],[-68.7307,-70.4082],[-69.091,-70.0902],[-69.2339,-69.9092],[-69.353,-69.6663],[-69.417,-69.5832],[-69.4276,-69.5737],[-68.6804,-69.4695],[-68.6375,-69.5266],[-68.4698,-69.6441],[-68.4036,-69.8092],[-68.4031,-70.0198],[-68.1258,-70.25],[-67.8882,-70.4214],[-67.6925,-70.686],[-67.5982,-70.8448],[-67.5046,-71.058],[-67.53,-71.2845],[-67.4601,-71.5269],[-67.1956,-71.719],[-67.0839,-71.8121],[-66.9516,-71.8973],[-66.8278,-72.0904],[-67.0797,-72.3878],[-67.3067,-72.6111],[-67.6671,-72.8345],[-68.0004,-72.9355],[-68.8212,-73.1054],[-69.2821,-73.1694],[-69.9684,-73.2265],[-70.3224,-73.2742],[-71.0172,-73.2626],[-71.4527,-73.3546],[-71.6977,-73.353],[-71.994,-73.379],[-72.3809,-73.4382],[-72.6873,-73.4525],[-72.9291,-73.4478],[-73.9959,-73.6996],[-74.1975,-73.6954],[-74.3451,-73.6838],[-74.5621,-73.7107],[-74.5748,-73.6113]],[[-73.7213,-73.2964],[-73.6821,-73.225],[-73.5424,-73.1239],[-73.6742,-73.1006],[-73.8318,-73.1133],[-74.0488,-73.2202],[-74.0843,-73.2493],[-74.1345,-73.2768],[-74.1467,-73.3155],[-74.0382,-73.3658],[-73.9747,-73.3758],[-73.8784,-73.3567],[-73.7213,-73.2964]]]}}
