{"type":"Feature","properties":{"id":255,"name":"Seno de Skyring","featurecla":"sound","scalerank":8,"wikidataid":"Q7450889","source":"Natural Earth 5.2.0-pre ne_10m_geography_marine_polys (public domain)"},"geometry":{"type":"Polygon","coordinates":[[[-73.1312,-53.0727],[-73.1222,-53.0738],[-73.0556,-53.0458],[-73.0227,-53.0219],[-73.0159,-52.9775],[-73.0201,-52.8918],[-72.9317,-52.7817],[-72.8021,-52.7123],[-72.7661,-52.6425],[-72.7767,-52.5774],[-72.7121,-52.5356],[-72.6634,-52.5308],[-72.6449,-52.5292],[-72.5042,-52.5599],[-72.4782,-52.6039],[-72.4375,-52.6256],[-72.3152,-52.5388],[-72.2258,-52.5208],[-71.812,-52.5372],[-71.6649,-52.5599],[-71.5114,-52.6055],[-71.5543,-52.6441],[-71.5914,-52.6605],[-71.7972,-52.6827],[-71.9792,-52.6462],[-72.1173,-52.6499],[-72.4533,-52.8145],[-72.6264,-52.8177],[-72.6322,-52.7737],[-72.6762,-52.7489],[-72.7275,-52.7621],[-72.8317,-52.8198],[-72.8894,-52.8717],[-72.91,-52.9367],[-72.9153,-53.1219],[-72.9984,-53.1775],[-73.0439,-53.2331],[-73.1312,-53.0727]]]}}
