{"type":"Feature","properties":{"id":256,"name":"Seno Otway","featurecla":"sound","scalerank":8,"wikidataid":"Q4169149","source":"Natural Earth 5.2.0-pre ne_10m_geography_marine_polys (public domain)"},"geometry":{"type":"Polygon","coordinates":[[[-72.5465,-53.4468],[-72.5306,-53.3717],[-72.4925,-53.2908],[-72.4581,-53.2542],[-72.2782,-53.1325],[-72.129,-53.0643],[-71.8983,-53.0018],[-71.3876,-52.7642],[-71.2273,-52.8108],[-71.1553,-52.8457],[-71.1632,-52.888],[-71.1802,-52.9203],[-71.2892,-53.0336],[-71.4003,-53.1071],[-71.7406,-53.2325],[-71.7914,-53.4844],[-71.8919,-53.5236],[-71.903,-53.4955],[-71.8676,-53.4585],[-71.8284,-53.3981],[-71.8528,-53.2854],[-71.9416,-53.2341],[-72.0814,-53.2495],[-72.2486,-53.2468],[-72.3063,-53.2537],[-72.4131,-53.35],[-72.3983,-53.4177],[-72.3803,-53.4616],[-72.5465,-53.4468]]]}}
