{"type":"Feature","properties":{"id":257,"name":"Bay Inútil","featurecla":"bay","scalerank":8,"wikidataid":"Q750763","source":"Natural Earth 5.2.0-pre ne_10m_geography_marine_polys (public domain)"},"geometry":{"type":"Polygon","coordinates":[[[-70.4235,-53.3045],[-70.4171,-53.3013],[-70.4155,-53.3045],[-70.3293,-53.3775],[-70.2129,-53.4141],[-70.0906,-53.4183],[-69.8742,-53.3505],[-69.7557,-53.3373],[-69.6371,-53.3341],[-69.5128,-53.3421],[-69.3937,-53.3733],[-69.3561,-53.4162],[-69.3525,-53.4802],[-69.39,-53.4992],[-69.6895,-53.6008],[-69.9499,-53.6717],[-70.0912,-53.722],[-70.1488,-53.7612],[-70.151,-53.8882],[-70.0859,-54.0109],[-69.988,-54.1088],[-69.1958,-54.3544],[-69.0445,-54.4068],[-69.045,-54.4285],[-69.0773,-54.4448],[-69.1281,-54.4576],[-69.1694,-54.4835],[-69.253,-54.5575],[-69.3122,-54.5713],[-69.3223,-54.5428],[-69.3249,-54.4882],[-69.3646,-54.4375],[-69.4191,-54.4073],[-69.6218,-54.3639],[-69.7419,-54.3057],[-69.8091,-54.321],[-69.8668,-54.3676],[-69.9901,-54.3813],[-70.1689,-54.3792],[-70.2436,-54.3475],[-70.2462,-54.2776],[-70.3801,-54.1808],[-70.5351,-54.1363],[-70.6298,-54.0056],[-70.4605,-54.0056],[-70.3795,-53.9866],[-70.4431,-53.8935],[-70.5314,-53.6278],[-70.4235,-53.3045]]]}}
