{"type":"Feature","properties":{"id":258,"name":"Lagoa dos Patos","featurecla":"lagoon","scalerank":7,"source":"Natural Earth 5.2.0-pre ne_10m_geography_marine_polys (public domain)"},"geometry":{"type":"Polygon","coordinates":[[[-52.1683,-32.0833],[-52.1916,-31.9675],[-52.1937,-31.8854],[-52.1196,-31.6949],[-52.027,-31.5992],[-51.9947,-31.4901],[-51.9725,-31.3838],[-51.927,-31.3388],[-51.7169,-31.2435],[-51.5063,-31.1044],[-51.4634,-31.0525],[-51.4851,-30.9774],[-51.4592,-30.9128],[-51.3767,-30.8466],[-51.3592,-30.6747],[-51.3163,-30.7027],[-51.283,-30.7514],[-51.2877,-30.5911],[-51.2465,-30.4678],[-51.1877,-30.4117],[-51.1571,-30.364],[-51.2819,-30.2439],[-51.2952,-30.1413],[-51.2978,-30.0349],[-51.2497,-30.0598],[-51.2338,-30.1212],[-51.1793,-30.2111],[-51.0406,-30.2609],[-51.0248,-30.3688],[-50.9316,-30.3741],[-50.6464,-30.2371],[-50.5633,-30.2534],[-50.5464,-30.317],[-50.5818,-30.4387],[-50.6147,-30.4566],[-50.685,-30.4133],[-50.7163,-30.426],[-50.6893,-30.7043],[-50.7702,-30.8133],[-50.9406,-30.9038],[-50.9655,-31.0054],[-50.9544,-31.052],[-50.9803,-31.0943],[-51.1057,-31.0816],[-51.1613,-31.1187],[-51.1576,-31.2668],[-51.1745,-31.3398],[-51.2724,-31.4769],[-51.446,-31.5573],[-51.6804,-31.7748],[-51.8037,-31.7965],[-51.8412,-31.832],[-51.8931,-31.868],[-51.9952,-31.8151],[-52.063,-31.8304],[-52.0598,-31.9135],[-52.0434,-31.9775],[-52.0688,-32.0632],[-52.1683,-32.0833]]]}}
