{"type":"Feature","properties":{"id":259,"name":"Amazon River","featurecla":"river","scalerank":4,"wikidataid":"Q3783","source":"Natural Earth 5.2.0-pre ne_10m_geography_marine_polys (public domain)"},"geometry":{"type":"Polygon","coordinates":[[[-49.7378,-1.9208],[-49.9029,-1.8705],[-49.9992,-1.8319],[-50.1167,-1.8573],[-50.1728,-1.896],[-50.2606,-1.9229],[-50.403,-2.0155],[-50.5855,-1.8499],[-50.639,-1.8171],[-50.6898,-1.7615],[-50.6755,-1.6949],[-50.6792,-1.6441],[-50.7861,-1.4901],[-50.8189,-1.3763],[-50.8258,-1.3112],[-50.8448,-1.226],[-50.8972,-1.1646],[-50.9179,-1.1154],[-50.838,-1.0387],[-50.8422,-0.9995],[-50.8951,-0.9376],[-50.9919,-0.9863],[-51.029,-1.0323],[-51.2026,-1.1366],[-51.2973,-1.2234],[-51.5312,-1.3541],[-51.6465,-1.3943],[-51.9476,-1.5869],[-52.1969,-1.6404],[-52.3101,-1.5594],[-52.6641,-1.552],[-52.5535,-1.5139],[-52.2291,-1.3626],[-52.0206,-1.3991],[-51.981,-1.3678],[-51.9344,-1.3202],[-51.9217,-1.1811],[-51.819,-1.1176],[-51.7206,-1.0186],[-51.7217,-0.8556],[-51.7026,-0.7625],[-51.555,-0.5492],[-51.4963,-0.5095],[-51.4042,-0.3926],[-51.3326,-0.2465],[-51.0359,-0.23],[-51.0189,-0.2629],[-50.9668,-0.2993],[-50.942,-0.3439],[-50.7102,-0.4958],[-50.703,-0.5286],[-50.7199,-0.5836],[-50.7713,-0.6455],[-50.7808,-0.69],[-50.7961,-0.9064],[-50.7835,-1.0101],[-50.7094,-1.0779],[-50.593,-1.0731],[-50.5771,-1.1032],[-50.5808,-1.1393],[-50.5961,-1.1472],[-50.6681,-1.1308],[-50.7295,-1.1265],[-50.7596,-1.2403],[-50.7237,-1.3715],[-50.6734,-1.516],[-50.6173,-1.6377],[-50.6019,-1.6975],[-50.5078,-1.788],[-50.4437,-1.8007],[-50.3384,-1.7557],[-50.1093,-1.7478],[-50.0659,-1.7039],[-50.0098,-1.7086],[-49.9114,-1.7631],[-49.805,-1.7901],[-49.7886,-1.78],[-49.7378,-1.9208]],[[-51.9386,-1.4525],[-51.8328,-1.434],[-51.6651,-1.3552],[-51.6375,-1.3419],[-51.465,-1.2112],[-51.31,-1.0239],[-51.2761,-1.0217],[-51.1607,-0.6667],[-51.2539,-0.5413],[-51.4243,-0.5662],[-51.546,-0.6498],[-51.6783,-0.8551],[-51.6799,-1.0863],[-51.8021,-1.2028],[-51.9386,-1.4525]]]}}
