{"type":"Feature","properties":{"id":260,"name":"Bras d'Or Lake","featurecla":"lagoon","scalerank":9,"wikidataid":"Q898989","source":"Natural Earth 5.2.0-pre ne_10m_geography_marine_polys (public domain)"},"geometry":{"type":"Polygon","coordinates":[[[-60.5133,46.1947],[-60.5857,46.1169],[-60.573,46.0614],[-60.7334,45.9566],[-60.7048,45.9328],[-60.4609,45.9688],[-60.4725,45.9465],[-60.699,45.7735],[-60.7381,45.7513],[-60.8059,45.738],[-60.8778,45.7481],[-60.9302,45.7476],[-61.0588,45.7031],[-61.0922,45.7486],[-61.0519,45.7952],[-60.9715,45.8381],[-60.9704,45.856],[-61.0376,45.882],[-60.9842,45.9105],[-60.8683,45.9486],[-60.8651,45.9836],[-60.9366,45.9857],[-61.0715,45.937],[-61.1054,45.9449],[-60.9122,46.0444],[-60.8308,46.0741],[-60.745,46.0926],[-60.5767,46.172],[-60.5344,46.2143],[-60.5133,46.1947]]]}}
