{"type":"Feature","properties":{"id":261,"name":"Kaliningrad","featurecla":"lagoon","scalerank":8,"source":"Natural Earth 5.2.0-pre ne_10m_geography_marine_polys (public domain)"},"geometry":{"type":"Polygon","coordinates":[[[21.1583,55.6409],[21.171,55.6176],[21.2377,55.4551],[21.2012,55.344],[21.2362,55.271],[21.2229,55.108],[21.189,54.9349],[20.9959,54.9027],[20.8874,54.9096],[20.7742,54.9471],[20.6778,54.9556],[20.5948,54.9826],[20.8594,55.1837],[21.0319,55.3504],[21.1039,55.4879],[21.116,55.5684],[21.115,55.6165],[21.1583,55.6409]]]}}
