{"type":"Feature","properties":{"id":262,"name":"Matochkin Shar Strait","featurecla":"strait","scalerank":8,"wikidataid":"Q908356","source":"Natural Earth 5.2.0-pre ne_10m_geography_marine_polys (public domain)"},"geometry":{"type":"Polygon","coordinates":[[[54.2149,73.4166],[54.3,73.351],[54.5657,73.4187],[54.7689,73.4494],[55.007,73.4537],[55.2801,73.3923],[55.5494,73.3568],[56.0346,73.3457],[56.2283,73.314],[56.4305,73.297],[56.4892,73.2992],[56.4003,73.2103],[56.3505,73.2256],[56.1378,73.2563],[55.7875,73.2684],[55.3198,73.3081],[55.1213,73.3568],[54.9409,73.3833],[54.8038,73.3875],[54.6763,73.3701],[54.3276,73.2997],[54.2021,73.2812],[54.1461,73.2785],[54.2149,73.4166]]]}}
