{"type":"Feature","properties":{"id":263,"name":"Ozero Mogotoyevo","featurecla":"lagoon","scalerank":8,"wikidataid":"Q2639916","namealt":"Lake Mogotoyevo","source":"Natural Earth 5.2.0-pre ne_10m_geography_marine_polys (public domain)"},"geometry":{"type":"Polygon","coordinates":[[[146.2364,72.2927],[145.0389,72.2599],[144.4706,72.1747],[144.2949,72.1927],[144.1689,72.2588],[144.361,72.2652],[144.5875,72.3054],[144.7764,72.3821],[144.8976,72.3964],[145.213,72.3927],[145.467,72.362],[146.2348,72.3498],[146.2364,72.2927]]]}}
