{"type":"Feature","properties":{"id":264,"name":"Guba Gusinaya","featurecla":"bay","scalerank":8,"source":"Natural Earth 5.2.0-pre ne_10m_geography_marine_polys (public domain)"},"geometry":{"type":"Polygon","coordinates":[[[147.149,72.298],[147.127,72.2922],[146.8947,72.1974],[146.3682,71.9223],[146.0734,71.8085],[145.8046,71.7466],[145.1886,71.6958],[145.0754,71.7074],[144.9897,71.7535],[145.0177,71.7937],[145.0738,71.8307],[145.0775,71.8545],[145.0468,71.9011],[145.0638,71.926],[145.1256,71.927],[145.2712,71.8947],[145.4072,71.89],[145.7564,71.9413],[145.7564,72.0207],[145.6644,72.0667],[145.7099,72.1779],[145.7099,72.2064],[145.7586,72.226],[145.7993,72.2218],[146.0517,72.1424],[146.1375,72.1466],[146.2301,72.1376],[146.0057,71.9455],[146.1131,71.945],[146.4015,72.0355],[146.5994,72.1234],[146.8068,72.2366],[146.8248,72.279],[147.149,72.298]]]}}
