{"type":"Feature","properties":{"id":265,"name":"Bali Sea","featurecla":"sea","scalerank":7,"wikidataid":"Q277014","source":"Natural Earth 5.2.0-pre ne_10m_geography_marine_polys (public domain)"},"geometry":{"type":"Polygon","coordinates":[[[116.9571,-9.0794],[116.602,-8.9783],[115.1553,-8.8545],[115.1442,-8.8524],[115.1447,-8.8492],[115.1944,-8.8354],[115.2203,-8.8196],[115.2363,-8.7973],[115.2474,-8.7577],[115.2949,-8.6634],[115.3336,-8.6159],[115.5601,-8.5143],[115.6611,-8.4481],[115.7045,-8.4073],[115.6908,-8.3634],[115.5495,-8.2084],[115.4479,-8.155],[115.34,-8.1153],[115.1912,-8.0676],[115.1542,-8.0655],[114.9981,-8.1745],[114.9383,-8.1872],[114.833,-8.1824],[114.6198,-8.1279],[114.5044,-8.1168],[114.4753,-8.1195],[114.4203,-8.1068],[114.4435,-8.0046],[114.4441,-7.8956],[114.4092,-7.7924],[114.3848,-7.7729],[115.2082,-6.932],[115.2209,-6.9341],[115.2203,-6.9526],[115.296,-6.9876],[115.377,-6.9707],[115.3929,-6.9606],[115.4378,-6.9675],[117.0074,-7.0908],[117.237,-8.3782],[117.2365,-8.3798],[117.2238,-8.3745],[117.165,-8.3671],[117.0634,-8.4444],[116.9528,-8.5037],[116.8862,-8.5084],[116.8349,-8.5322],[116.8015,-8.5979],[116.783,-8.6645],[116.8068,-8.8111],[116.7719,-8.8942],[116.7681,-8.9556],[116.7883,-9.0064],[116.8713,-9.0461],[116.9582,-9.0762],[116.9571,-9.0794]],[[116.0766,-8.7449],[116.0316,-8.765],[115.9146,-8.7582],[115.8691,-8.7428],[115.8575,-8.7878],[115.8744,-8.8254],[116.0268,-8.873],[116.2396,-8.9122],[116.2898,-8.9063],[116.3771,-8.9291],[116.5867,-8.8862],[116.5592,-8.8545],[116.5142,-8.8212],[116.6407,-8.6137],[116.7343,-8.3867],[116.719,-8.3359],[116.6877,-8.3041],[116.647,-8.283],[116.4015,-8.2041],[116.3041,-8.238],[116.22,-8.2952],[116.0612,-8.4375],[116.0776,-8.6116],[116.0766,-8.7449]]]}}
