{"type":"Feature","properties":{"id":266,"name":"Davao Gulf","featurecla":"gulf","scalerank":7,"wikidataid":"Q1536317","source":"Natural Earth 5.2.0-pre ne_10m_geography_marine_polys (public domain)"},"geometry":{"type":"Polygon","coordinates":[[[125.6677,5.9854],[125.6708,6.2252],[125.5883,6.4659],[125.5645,6.4998],[125.4867,6.5739],[125.4327,6.6072],[125.3809,6.6898],[125.401,6.7956],[125.4645,6.911],[125.5423,7.0168],[125.6407,7.1052],[125.6603,7.1607],[125.6703,7.2221],[125.6894,7.2629],[125.7735,7.3221],[125.8243,7.3332],[125.9011,7.1168],[125.9614,7.0332],[125.9852,6.9438],[126.0429,6.8432],[126.0799,6.7332],[126.1095,6.4898],[126.1424,6.3977],[126.1715,6.3437],[125.6677,5.9854]]]}}
