{"type":"Feature","properties":{"id":267,"name":"Halmahera Sea","featurecla":"sea","scalerank":7,"wikidataid":"Q212083","source":"Natural Earth 5.2.0-pre ne_10m_geography_marine_polys (public domain)"},"geometry":{"type":"Polygon","coordinates":[[[127.7483,-1.1047],[128.2548,-0.8271],[128.2781,-0.8699],[128.3098,-0.8747],[128.4257,-0.8927],[128.3347,-0.8164],[128.2538,-0.7318],[128.0897,-0.4852],[127.9781,-0.2481],[127.8891,0.0492],[127.9124,0.1503],[127.9145,0.2064],[127.8876,0.2985],[127.9013,0.3721],[127.9246,0.4382],[127.9833,0.4721],[128.1061,0.461],[128.2204,0.4144],[128.3326,0.398],[128.4464,0.3917],[128.5406,0.3377],[128.8892,0.2199],[128.9161,0.2019],[129.3126,0.0334],[129.3201,0.025],[129.3089,0.0456],[129.5423,-0.1391],[129.5491,-0.1873],[129.5489,-0.1873],[129.5517,-0.1906],[129.9809,-0.1906],[130.3667,-0.9419],[130.4021,-0.9239],[130.8324,-0.863],[130.8456,-0.9059],[130.6731,-0.9598],[130.6678,-0.9842],[130.7043,-1.0503],[130.7123,-1.1043],[130.7392,-1.1726],[130.7821,-1.2557],[130.8451,-1.317],[130.9668,-1.3435],[131.0017,-1.3155],[131.0271,-1.3266],[131.0012,-1.3843],[130.9959,-1.4245],[130.9864,-1.4552],[130.5884,-1.3811],[129.9016,-1.2525],[129.1962,-1.1816],[128.095,-1.57],[128.0331,-1.5319],[127.905,-1.4393],[127.7431,-1.3604],[127.6468,-1.3324],[127.6375,-1.3355],[127.7483,-1.1047]]]}}
