{"type":"Feature","properties":{"id":268,"name":"Selat Bali","featurecla":"strait","scalerank":9,"wikidataid":"Q604492","source":"Natural Earth 5.2.0-pre ne_10m_geography_marine_polys (public domain)"},"geometry":{"type":"Polygon","coordinates":[[[114.6261,-8.7487],[114.5954,-8.7376],[114.5991,-8.727],[114.5949,-8.6846],[114.4816,-8.6037],[114.4489,-8.5592],[114.3869,-8.4052],[114.3816,-8.3343],[114.3848,-8.2634],[114.4203,-8.1068],[114.4753,-8.1195],[114.4674,-8.1666],[114.4789,-8.2147],[114.5018,-8.2608],[114.5711,-8.3454],[114.6134,-8.3782],[114.7314,-8.3941],[114.842,-8.4285],[114.9521,-8.4962],[115.0553,-8.573],[115.1055,-8.6296],[115.1415,-8.6968],[115.1399,-8.7688],[115.0912,-8.8296],[115.1447,-8.8492],[115.1442,-8.8524],[114.6261,-8.7487]]]}}
