{"type":"Feature","properties":{"id":269,"name":"Gulf of Tomini","featurecla":"gulf","scalerank":7,"wikidataid":"Q1507546","source":"Natural Earth 5.2.0-pre ne_10m_geography_marine_polys (public domain)"},"geometry":{"type":"Polygon","coordinates":[[[123.4812,-0.7233],[123.424,-0.7371],[123.4171,-0.7074],[123.3796,-0.6487],[123.2817,-0.5915],[123.1716,-0.5709],[123.0203,-0.5995],[122.8721,-0.6408],[122.8292,-0.6588],[122.8409,-0.6868],[122.8853,-0.7223],[122.8884,-0.755],[122.6588,-0.7699],[122.5298,-0.7566],[122.2799,-0.7572],[122.1747,-0.7937],[122.1382,-0.8392],[122.0937,-0.8752],[121.9699,-0.9334],[121.853,-0.9461],[121.7375,-0.9255],[121.681,-0.8879],[121.6328,-0.8403],[121.5757,-0.8286],[121.5195,-0.8556],[121.4312,-0.9387],[121.2767,-1.1181],[121.2126,-1.2123],[121.1486,-1.3392],[121.0338,-1.4065],[120.9158,-1.3779],[120.7973,-1.3636],[120.7285,-1.3715],[120.6676,-1.3699],[120.6052,-1.2583],[120.5173,-1.0392],[120.4252,-0.9604],[120.2697,-0.899],[120.2405,-0.8683],[120.0971,-0.6498],[120.0628,-0.5556],[120.0316,-0.4323],[120.012,-0.3074],[120.013,-0.1963],[120.0358,-0.0899],[120.0781,0.0397],[120.1273,0.1668],[120.1924,0.2684],[120.3073,0.408],[120.3491,0.4493],[120.4602,0.5102],[120.5792,0.5282],[120.7004,0.515],[120.9089,0.4467],[121.0132,0.4419],[121.4259,0.4948],[121.5159,0.4985],[121.6048,0.4864],[121.7228,0.4509],[121.8418,0.4366],[122.0609,0.4678],[122.2805,0.4811],[122.9097,0.4858],[122.997,0.4938],[123.0827,0.4858],[123.1795,0.4154],[123.2653,0.3265],[123.3103,0.3176],[123.4986,0.3022],[123.4812,-0.7233]]]}}
