{"type":"Feature","properties":{"id":270,"name":"Flores Sea","featurecla":"sea","scalerank":7,"wikidataid":"Q150370","source":"Natural Earth 5.2.0-pre ne_10m_geography_marine_polys (public domain)"},"geometry":{"type":"Polygon","coordinates":[[[120.4469,-6.3145],[120.3766,-6.5791],[120.7295,-7.0379],[120.7586,-7.0612],[120.7453,-7.0601],[120.6332,-7.0183],[120.6406,-7.1156],[120.6724,-7.1246],[120.7745,-7.1188],[120.7798,-7.0781],[121.0819,-7.3199],[122.8176,-8.1105],[122.7922,-8.1264],[122.7583,-8.1862],[122.9191,-8.2221],[122.8504,-8.3041],[122.7499,-8.3528],[122.6033,-8.4026],[122.5557,-8.4317],[122.5138,-8.4698],[122.4837,-8.5137],[122.4668,-8.5666],[122.4334,-8.601],[122.3234,-8.6285],[122.2631,-8.6248],[122.0673,-8.4968],[122.0201,-8.4719],[121.9666,-8.455],[121.9117,-8.482],[121.863,-8.4941],[121.7471,-8.5068],[121.6836,-8.5058],[121.6106,-8.5264],[121.5481,-8.5751],[121.4984,-8.5852],[121.4444,-8.5777],[121.3719,-8.5507],[121.2767,-8.4777],[121.1184,-8.4238],[121.0089,-8.3655],[120.8861,-8.3269],[120.7512,-8.3216],[120.7094,-8.3079],[120.6104,-8.2407],[120.5469,-8.2597],[120.4855,-8.2661],[120.4247,-8.2491],[120.3543,-8.2576],[120.231,-8.2899],[120.0993,-8.3777],[119.9638,-8.4354],[119.9183,-8.4449],[119.8749,-8.4201],[119.8659,-8.473],[119.8474,-8.5227],[119.8183,-8.5703],[119.8072,-8.6227],[119.8077,-8.6979],[119.8416,-8.7635],[119.8791,-8.8074],[119.9093,-8.8576],[119.9139,-8.8555],[119.9123,-8.86],[119.4666,-8.739],[119.4634,-8.7384],[119.4643,-8.7413],[119.4251,-8.7508],[119.3854,-8.736],[119.3875,-8.7246],[119.1253,-8.6758],[119.1299,-8.6682],[119.1013,-8.628],[119.0626,-8.5999],[119.042,-8.5608],[119.0436,-8.4565],[118.988,-8.3375],[118.9261,-8.2978],[118.8457,-8.293],[118.7943,-8.3057],[118.7483,-8.3312],[118.7139,-8.4147],[118.6917,-8.3936],[118.6705,-8.3232],[118.6118,-8.2809],[118.552,-8.2703],[118.4906,-8.2713],[118.4335,-8.293],[118.3376,-8.3534],[118.2922,-8.3571],[118.2424,-8.3179],[118.2027,-8.2671],[118.1509,-8.1501],[118.1175,-8.1221],[117.9212,-8.0893],[117.8683,-8.101],[117.7551,-8.1496],[117.7381,-8.2047],[117.7662,-8.2793],[117.8149,-8.3423],[117.9789,-8.4587],[118.018,-8.4671],[118.0609,-8.4645],[118.1006,-8.4751],[118.1742,-8.5275],[118.235,-8.592],[118.2059,-8.6523],[118.1043,-8.6502],[117.9694,-8.728],[117.8932,-8.7042],[117.8059,-8.7111],[117.7122,-8.5825],[117.6731,-8.5635],[117.6434,-8.5354],[117.6217,-8.4597],[117.5672,-8.4264],[117.4344,-8.4349],[117.3566,-8.4285],[117.2365,-8.3798],[117.237,-8.3782],[117.0074,-7.0908],[118.8245,-6.5087],[119.4648,-5.5234],[119.5574,-5.6112],[119.7172,-5.6932],[119.7643,-5.6885],[119.8183,-5.662],[119.9077,-5.5964],[119.9516,-5.5774],[120.077,-5.5753],[120.2009,-5.5593],[120.2565,-5.544],[120.3114,-5.5414],[120.4305,-5.5911],[120.4824,-5.6091],[120.4824,-5.7504],[120.4803,-5.7827],[120.4771,-5.7753],[120.4464,-5.8763],[120.4517,-6.0949],[120.4358,-6.1801],[120.4522,-6.2293],[120.4469,-6.3145]]]}}
