{"type":"Feature","properties":{"id":271,"name":"Sibuyan Sea","featurecla":"sea","scalerank":7,"wikidataid":"Q594834","source":"Natural Earth 5.2.0-pre ne_10m_geography_marine_polys (public domain)"},"geometry":{"type":"Polygon","coordinates":[[[121.9641,11.9063],[121.4703,12.4],[121.4179,12.3889],[121.4122,12.4233],[121.4582,12.508],[121.519,12.5842],[121.5407,12.6381],[121.4799,12.8371],[121.4746,12.9318],[121.4899,13.0197],[121.5386,13.089],[121.5363,13.0953],[121.5446,13.097],[121.8433,13.3143],[121.8757,13.2816],[122.0048,13.2049],[122.0424,13.2361],[122.0545,13.2689],[122.1223,13.3652],[122.1075,13.4208],[122.112,13.4485],[122.1283,13.4555],[122.3023,13.5759],[122.3763,13.5208],[122.407,13.4927],[122.498,13.3636],[122.5123,13.3139],[122.5154,13.2599],[122.6001,13.1943],[122.6605,13.2415],[122.8934,13.1219],[122.9545,13.0913],[122.9573,13.107],[123.0171,13.116],[123.0436,13.1133],[123.2059,12.9054],[123.2817,12.8535],[123.3669,12.7013],[123.3754,12.688],[123.242,12.5812],[123.2362,12.5836],[123.2399,12.4947],[123.2674,12.3953],[123.2452,12.3281],[123.2102,12.1069],[123.1557,11.9682],[123.1578,11.9259],[123.1635,11.9306],[123.1162,11.5402],[123.1028,11.5417],[122.8943,11.4412],[122.9006,11.4872],[122.9314,11.5295],[122.8382,11.5957],[122.7261,11.6078],[122.6128,11.5639],[122.4964,11.6153],[122.399,11.7021],[122.2906,11.7719],[122.0868,11.855],[122.0292,11.8952],[121.9635,11.8973],[121.9641,11.9063]],[[122.6033,12.2857],[122.6546,12.309],[122.6832,12.3826],[122.6737,12.4244],[122.6038,12.4916],[122.472,12.4921],[122.4228,12.4551],[122.4387,12.4297],[122.4996,12.3836],[122.6033,12.2857]],[[121.9408,12.3852],[121.9233,12.3312],[121.9355,12.2905],[121.982,12.2455],[121.9603,12.1915],[122.0138,12.1058],[122.0942,12.355],[122.1318,12.5376],[122.1302,12.6127],[122.145,12.6524],[122.1037,12.6508],[122.0016,12.5985],[121.9895,12.4355],[121.9408,12.3852]]]}}
