{"type":"Feature","properties":{"id":272,"name":"Selat Dampier","featurecla":"strait","scalerank":8,"wikidataid":"Q3233971","source":"Natural Earth 5.2.0-pre ne_10m_geography_marine_polys (public domain)"},"geometry":{"type":"Polygon","coordinates":[[[130.5662,-0.0576],[130.5481,-0.0698],[130.4995,-0.0603],[130.4307,-0.0984],[130.3625,-0.073],[130.2947,-0.1015],[130.2878,-0.1545],[130.2365,-0.2095],[130.3402,-0.2624],[130.4964,-0.2672],[130.5508,-0.3666],[130.5746,-0.3619],[130.6064,-0.3286],[130.689,-0.2968],[130.6995,-0.3916],[130.7503,-0.4439],[130.8964,-0.4159],[130.899,-0.3444],[130.8429,-0.2984],[130.8017,-0.3021],[130.7615,-0.2915],[130.6911,-0.1804],[130.6382,-0.1428],[130.6223,-0.0857],[130.6837,-0.0809],[130.8085,-0.2264],[130.8964,-0.2683],[130.9467,-0.3375],[131.0054,-0.3609],[131.098,-0.3302],[131.1779,-0.346],[131.2181,-0.3741],[131.2573,-0.3656],[131.328,-0.3013],[131.3298,-0.3016],[131.9396,-0.6065],[131.8907,-0.6572],[131.8044,-0.7037],[131.4616,-0.7821],[131.2965,-0.8334],[131.2573,-0.8556],[131.252,-0.8974],[131.2589,-0.9524],[131.2541,-1.007],[131.1906,-1.1657],[131.152,-1.2186],[131.0905,-1.2472],[131.0461,-1.2842],[131.0271,-1.3266],[131.0017,-1.3155],[131.0461,-1.1885],[131.0737,-0.9683],[131.0329,-0.9175],[130.9393,-0.9154],[130.8969,-0.89],[130.8456,-0.9059],[130.8324,-0.863],[130.88,-0.8286],[130.9053,-0.7773],[130.807,-0.7651],[130.8133,-0.8138],[130.7234,-0.8223],[130.6355,-0.8117],[130.5937,-0.8265],[130.5694,-0.8218],[130.5481,-0.8265],[130.5271,-0.8371],[130.4842,-0.8324],[130.4572,-0.8514],[130.4392,-0.8873],[130.4021,-0.9239],[130.3667,-0.9419],[129.9127,-0.0576],[130.5662,-0.0576]]]}}
