{"type":"Feature","properties":{"id":273,"name":"Gulf of Buli","featurecla":"gulf","scalerank":7,"source":"Natural Earth 5.2.0-pre ne_10m_geography_marine_polys (public domain)"},"geometry":{"type":"Polygon","coordinates":[[[129.9127,-0.0576],[129.9809,-0.1906],[129.5517,-0.1906],[129.5489,-0.1873],[129.5491,-0.1873],[129.5423,-0.1391],[129.3089,0.0456],[129.3201,0.025],[129.3126,0.0334],[128.9161,0.2019],[128.8892,0.2199],[128.8993,0.2165],[128.8633,0.2684],[128.8151,0.3054],[128.7432,0.3234],[128.6913,0.3604],[128.684,0.4387],[128.6554,0.508],[128.6115,0.5498],[128.3982,0.6388],[128.2606,0.734],[128.2574,0.8049],[128.2987,0.8769],[128.3458,0.907],[128.5146,0.979],[128.6686,1.0695],[128.7025,1.1065],[128.7168,1.3674],[128.6882,1.4637],[128.7051,1.5278],[128.6984,1.5456],[129.037,1.6474],[129.9127,-0.0576]]]}}
