{"type":"Feature","properties":{"id":274,"name":"Gulf of Kau","featurecla":"gulf","scalerank":8,"source":"Natural Earth 5.2.0-pre ne_10m_geography_marine_polys (public domain)"},"geometry":{"type":"Polygon","coordinates":[[[129.037,1.6474],[128.6984,1.5456],[128.6882,1.5727],[128.5395,1.559],[128.4241,1.5177],[128.2225,1.4008],[128.1574,1.3166],[128.1532,1.2378],[128.1606,1.1579],[128.1172,1.1272],[128.0553,1.1155],[127.9675,1.0425],[127.9288,0.9346],[127.9188,0.8769],[127.8812,0.8319],[127.8055,0.8261],[127.7325,0.8483],[127.6774,0.8864],[127.6346,0.9362],[127.633,0.9774],[127.6526,1.0139],[127.8855,1.1626],[127.9876,1.2896],[128.0119,1.332],[128.0256,1.4579],[128.0235,1.5833],[128.0108,1.7013],[127.9462,1.7897],[127.887,1.8331],[127.8902,1.9061],[127.9066,1.9458],[128.0315,2.1199],[128.0426,2.1569],[128.0413,2.1654],[128.2184,2.2945],[128.2601,2.0823],[128.2961,2.0347],[128.4537,2.0516],[128.5474,2.0971],[128.6231,2.2247],[128.6628,2.376],[129.037,1.6474]]]}}
