{"type":"Feature","properties":{"id":275,"name":"Bohol Sea","featurecla":"sea","scalerank":7,"wikidataid":"Q242326","source":"Natural Earth 5.2.0-pre ne_10m_geography_marine_polys (public domain)"},"geometry":{"type":"Polygon","coordinates":[[[123.1748,9.0811],[123.1923,9.088],[123.2288,9.1213],[123.2933,9.2171],[123.3203,9.2732],[123.3219,9.3176],[123.3082,9.3568],[123.295,9.3774],[123.3288,9.4358],[123.3319,9.4229],[123.3701,9.4494],[123.4934,9.5891],[123.6341,9.9219],[123.6431,10.0203],[123.7002,10.1283],[123.7887,10.2209],[123.8738,10.258],[123.9522,10.3167],[124.0051,10.4003],[124.0228,10.4715],[124.3343,10.6073],[124.336,10.6142],[124.3162,10.6061],[124.2887,10.6014],[124.3347,10.7067],[124.3588,10.6966],[124.4586,10.9192],[124.503,10.9046],[124.6162,10.9623],[124.6628,10.9617],[124.7385,10.8797],[124.7866,10.7813],[124.7972,10.7315],[124.7988,10.6823],[124.7374,10.44],[124.7893,10.3278],[124.7919,10.2744],[124.7808,10.168],[124.8126,10.1347],[124.929,10.096],[125.0269,10.0331],[125.0237,10.1151],[125.0046,10.1971],[124.9872,10.3675],[125.0438,10.3236],[125.1052,10.2183],[125.1366,10.1944],[125.1393,10.1547],[125.1761,10.1511],[125.2311,10.1156],[125.2809,9.9823],[125.2861,9.9446],[125.2908,9.9358],[125.4722,9.7569],[125.4714,9.7568],[125.4142,9.669],[125.51,9.2758],[125.5333,9.1409],[125.4989,9.0149],[125.3755,8.9916],[125.248,9.0266],[125.2094,9.0271],[125.1761,8.9223],[125.1412,8.8689],[125.0465,8.8906],[124.9438,8.9567],[124.8692,8.9721],[124.8062,8.9239],[124.7866,8.8742],[124.7618,8.69],[124.7311,8.563],[124.6215,8.5228],[124.4511,8.6064],[124.4046,8.6001],[124.358,8.5593],[124.3252,8.5085],[124.2834,8.3858],[124.2257,8.2715],[124.1977,8.2297],[124.1596,8.2016],[123.9971,8.1588],[123.931,8.1286],[123.7992,8.0492],[123.7531,8.0582],[123.8537,8.145],[123.8775,8.1889],[123.8606,8.3762],[123.849,8.4328],[123.7833,8.5477],[123.6801,8.6207],[123.5638,8.6477],[123.4992,8.6816],[123.4346,8.7033],[123.4044,8.654],[123.1748,9.0811]],[[124.3358,10.1601],[124.1728,10.1352],[124.094,10.0611],[124.0595,10.0002],[123.9087,9.9198],[123.8638,9.8791],[123.8172,9.8172],[123.8299,9.7611],[123.8716,9.6759],[123.9357,9.624],[124.1225,9.5991],[124.3601,9.6304],[124.4035,9.6542],[124.4776,9.7478],[124.5057,9.7536],[124.5845,9.7505],[124.594,9.787],[124.5824,9.8293],[124.5549,9.8791],[124.5771,10.0267],[124.4866,10.0653],[124.4056,10.1262],[124.3734,10.1294],[124.3517,10.1415],[124.3358,10.1601]]]}}
