{"type":"Feature","properties":{"id":276,"name":"","featurecla":"generic","scalerank":9,"source":"Natural Earth 5.2.0-pre ne_10m_geography_marine_polys (public domain)"},"geometry":{"type":"Polygon","coordinates":[[[126.0582,10.0315],[125.9984,9.9272],[125.991,9.8383],[126.0466,9.7611],[126.0593,9.7664],[126.0979,9.7669],[126.1,9.7505],[126.1683,9.2732],[126.0878,9.261],[126.0058,9.3208],[125.9545,9.4266],[125.8767,9.5129],[125.6423,9.6547],[125.5582,9.727],[125.6491,9.943],[125.6725,9.8865],[125.6904,9.9145],[125.6926,9.9389],[125.6841,9.9632],[125.7032,10.0717],[125.6465,10.2452],[125.6772,10.3632],[126.0582,10.0315]]]}}
