{"type":"Feature","properties":{"id":277,"name":"Surigao Strait","featurecla":"strait","scalerank":9,"wikidataid":"Q1632248","source":"Natural Earth 5.2.0-pre ne_10m_geography_marine_polys (public domain)"},"geometry":{"type":"Polygon","coordinates":[[[125.6418,10.4283],[125.6058,10.3797],[125.5804,10.3638],[125.5248,10.3098],[125.5222,10.1913],[125.4946,10.1188],[125.5343,10.0902],[125.5905,9.9981],[125.6486,9.9441],[125.6491,9.943],[125.5582,9.727],[125.5211,9.7589],[125.4722,9.7569],[125.2908,9.9358],[125.2861,9.9446],[125.2809,9.9823],[125.2311,10.1156],[125.1761,10.1511],[125.1393,10.1547],[125.1366,10.1944],[125.1428,10.1897],[125.1401,10.2352],[125.1486,10.2722],[125.2534,10.2638],[125.2687,10.3077],[125.2602,10.3495],[125.2399,10.3843],[125.2949,10.4693],[125.3655,10.5399],[125.5146,10.6027],[125.661,10.6067],[125.6418,10.4283]]]}}
