{"type":"Feature","properties":{"id":278,"name":"","featurecla":"generic","scalerank":9,"source":"Natural Earth 5.2.0-pre ne_10m_geography_marine_polys (public domain)"},"geometry":{"type":"Polygon","coordinates":[[[123.295,9.3774],[123.1499,9.606],[123.1494,9.6595],[123.1626,9.7145],[123.1621,9.8643],[123.1864,9.9336],[123.2664,10.059],[123.296,10.1246],[123.3436,10.3252],[123.4071,10.459],[123.4928,10.5823],[123.5277,10.6622],[123.5674,10.7808],[123.5672,10.7824],[123.8187,10.7105],[123.7262,10.5622],[123.7113,10.4739],[123.5928,10.3029],[123.5145,10.1405],[123.3865,9.9669],[123.4039,9.8891],[123.3272,9.578],[123.316,9.4891],[123.3288,9.4358],[123.295,9.3774]]]}}
