{"type":"Feature","properties":{"id":279,"name":"Ragay Gulf","featurecla":"gulf","scalerank":9,"source":"Natural Earth 5.2.0-pre ne_10m_geography_marine_polys (public domain)"},"geometry":{"type":"Polygon","coordinates":[[[123.0436,13.1133],[123.0171,13.116],[122.9573,13.107],[122.9545,13.0913],[122.8934,13.1219],[122.6605,13.2415],[122.6753,13.253],[122.6678,13.3954],[122.6096,13.5171],[122.5964,13.5621],[122.5081,13.6568],[122.5001,13.7034],[122.5043,13.7631],[122.4937,13.8203],[122.4678,13.887],[122.4864,13.9298],[122.543,13.9251],[122.5953,13.9076],[122.7816,13.7372],[122.8636,13.6171],[122.8965,13.5917],[123.1632,13.4419],[123.1917,13.4028],[123.2059,13.3536],[123.2955,13.2155],[123.2901,13.099],[123.3108,13.044],[123.3172,13.0432],[123.3117,13.0403],[123.1448,12.9837],[123.0436,13.1133]]]}}
