{"type":"Feature","properties":{"id":280,"name":"Samar Sea","featurecla":"sea","scalerank":8,"wikidataid":"Q392623","source":"Natural Earth 5.2.0-pre ne_10m_geography_marine_polys (public domain)"},"geometry":{"type":"Polygon","coordinates":[[[124.2998,12.5683],[124.2945,12.5693],[124.3257,12.4037],[124.385,12.2439],[124.4459,12.1529],[124.5289,12.0793],[124.5718,12.055],[124.6766,12.0211],[124.7496,11.9333],[124.7956,11.8963],[124.821,11.8523],[124.8846,11.7756],[124.9359,11.7544],[124.9951,11.765],[124.9983,11.7026],[124.9787,11.6385],[124.9168,11.5586],[124.9454,11.4793],[125.0343,11.3411],[125.0877,11.2872],[125.156,11.2671],[125.2333,11.1448],[125.2481,11.1443],[125.2478,11.1442],[125.0441,11.1251],[125.0443,11.1353],[125.0269,11.2115],[124.9941,11.256],[124.93,11.3729],[124.821,11.4015],[124.7242,11.3221],[124.6443,11.3084],[124.5744,11.3433],[124.5485,11.3951],[124.5109,11.4237],[124.4358,11.457],[124.3739,11.5147],[124.3304,11.5354],[124.3207,11.5137],[124.0471,11.7406],[124.0366,11.7616],[124.0453,11.7523],[124.0559,11.8116],[124.0405,11.9666],[123.9082,12.1693],[123.7167,12.2873],[123.5749,12.4069],[123.5589,12.445],[123.4632,12.5011],[123.3373,12.5424],[123.242,12.5812],[123.3754,12.688],[123.3669,12.7013],[123.2817,12.8535],[123.2059,12.9054],[123.1448,12.9837],[123.3117,13.0403],[123.3172,13.0432],[123.4023,13.0329],[123.6267,12.9117],[123.7363,12.8969],[123.8024,12.9054],[123.8638,12.9308],[123.9177,12.9398],[123.9484,12.9165],[123.895,12.8048],[123.8781,12.6895],[123.9617,12.5947],[124.0595,12.5672],[124.1013,12.6879],[124.2998,12.5683]],[[124.4374,11.6952],[124.3607,11.6661],[124.4289,11.5316],[124.4834,11.4856],[124.6082,11.492],[124.6221,11.5496],[124.5649,11.6396],[124.5109,11.6872],[124.4374,11.6952]]]}}
