{"type":"Feature","properties":{"id":281,"name":"Tayabas Bay","featurecla":"bay","scalerank":8,"wikidataid":"Q999060","source":"Natural Earth 5.2.0-pre ne_10m_geography_marine_polys (public domain)"},"geometry":{"type":"Polygon","coordinates":[[[120.9412,13.5293],[120.974,13.76],[121.0063,13.7579],[121.0957,13.6795],[121.2036,13.6404],[121.3444,13.6494],[121.446,13.7118],[121.4508,13.7907],[121.501,13.842],[121.6434,13.9161],[121.6915,13.9346],[121.7429,13.9457],[121.7778,13.9378],[121.8514,13.9007],[122.0725,13.7885],[122.2053,13.6483],[122.3023,13.5759],[122.1283,13.4555],[122.112,13.4485],[122.1143,13.4631],[121.9958,13.5467],[121.9768,13.5372],[121.9149,13.5404],[121.8662,13.5663],[121.8148,13.4245],[121.8291,13.3287],[121.8433,13.3143],[121.5446,13.097],[121.5363,13.0953],[121.5227,13.1313],[121.4423,13.1885],[121.3571,13.2657],[121.2846,13.3742],[121.2026,13.4324],[121.1227,13.3811],[121.0793,13.4107],[121.0248,13.4287],[120.9809,13.4859],[120.9338,13.497],[120.9412,13.5293]]]}}
