{"type":"Feature","properties":{"id":282,"name":"Leyte Gulf","featurecla":"gulf","scalerank":9,"wikidataid":"Q240753","source":"Natural Earth 5.2.0-pre ne_10m_geography_marine_polys (public domain)"},"geometry":{"type":"Polygon","coordinates":[[[125.661,10.6067],[125.5146,10.6027],[125.3655,10.5399],[125.2949,10.4693],[125.2399,10.3843],[125.1972,10.4575],[125.1877,10.585],[125.1639,10.6374],[125.1274,10.6845],[125.084,10.7215],[125.0337,10.7517],[125.0131,10.7855],[125.0396,10.9517],[125.0441,11.1251],[125.2478,11.1442],[125.2481,11.1443],[125.3116,11.1422],[125.4317,11.1126],[125.628,11.1321],[125.6746,11.121],[125.7116,11.0771],[125.661,10.6067]]]}}
