{"type":"Feature","properties":{"id":283,"name":"Visayan Sea","featurecla":"sea","scalerank":8,"wikidataid":"Q474708","source":"Natural Earth 5.2.0-pre ne_10m_geography_marine_polys (public domain)"},"geometry":{"type":"Polygon","coordinates":[[[122.6197,10.7622],[122.6732,10.8009],[122.77,10.8236],[122.7911,10.8797],[122.7895,10.9411],[122.8028,10.9903],[122.8467,11.0226],[122.9388,11.0581],[123.0166,11.1168],[123.0753,11.1967],[123.1198,11.2867],[123.1441,11.3634],[123.1563,11.4428],[123.1584,11.5354],[123.1162,11.5402],[123.1635,11.9306],[123.2928,12.0365],[123.4188,12.1942],[123.4738,12.2169],[123.5309,12.1968],[123.6119,12.0905],[123.6675,12.0693],[123.6749,12.0502],[123.7363,12.0026],[123.7251,11.9518],[123.7542,11.9343],[123.8479,11.9137],[123.9829,11.819],[124.0366,11.7616],[124.0471,11.7406],[124.3207,11.5137],[124.3083,11.4861],[124.331,11.4269],[124.3659,11.3708],[124.412,11.1501],[124.4453,10.9236],[124.4586,10.9192],[124.3588,10.6966],[124.3347,10.7067],[124.2887,10.6014],[124.3162,10.6061],[124.336,10.6142],[124.3343,10.6073],[124.0228,10.4715],[124.0511,10.5855],[124.0273,10.7681],[124.0532,10.9258],[124.0526,11.0289],[124.04,11.0538],[124.0363,11.1067],[124.058,11.2173],[124.0389,11.2734],[123.9669,11.1872],[123.9638,11.1374],[123.95,11.0792],[123.9246,11.0411],[123.9299,10.9639],[123.8315,10.731],[123.8187,10.7105],[123.5672,10.7824],[123.5627,10.8162],[123.5108,10.9231],[123.2568,10.994],[123.2219,10.9887],[123.0245,10.912],[122.9832,10.8866],[122.9695,10.8363],[122.969,10.766],[122.9584,10.6982],[122.906,10.6024],[122.8557,10.5532],[122.8171,10.504],[122.6985,10.5463],[122.7372,10.6548],[122.7292,10.7061],[122.7012,10.7406],[122.6726,10.739],[122.6483,10.7226],[122.6197,10.7622]]]}}
