{"type":"Feature","properties":{"id":284,"name":"Savu Sea","featurecla":"sea","scalerank":7,"wikidataid":"Q193465","source":"Natural Earth 5.2.0-pre ne_10m_geography_marine_polys (public domain)"},"geometry":{"type":"Polygon","coordinates":[[[118.9478,-9.5249],[118.507,-8.8545],[118.4789,-8.8598],[118.4784,-8.8566],[118.6737,-8.8122],[118.7277,-8.8053],[118.8081,-8.8381],[118.8325,-8.8333],[118.8367,-8.809],[118.8181,-8.791],[118.7562,-8.7735],[118.7457,-8.7354],[118.8214,-8.7121],[118.9034,-8.7026],[118.9393,-8.7132],[118.9716,-8.7413],[119.0066,-8.7497],[119.0791,-8.7307],[119.1044,-8.71],[119.1253,-8.6758],[119.3875,-8.7246],[119.3854,-8.736],[119.4251,-8.7508],[119.4643,-8.7413],[119.4634,-8.7384],[119.4666,-8.739],[119.9123,-8.86],[119.9139,-8.8555],[120.012,-8.8101],[120.121,-8.7772],[120.3194,-8.8201],[120.5507,-8.8021],[120.7808,-8.8487],[120.9819,-8.9286],[121.0354,-8.9355],[121.0862,-8.9259],[121.1375,-8.9042],[121.1909,-8.8952],[121.3285,-8.9169],[121.4148,-8.8148],[121.4994,-8.8122],[121.5847,-8.8206],[121.6211,-8.854],[121.6513,-8.8989],[121.7381,-8.8704],[121.8386,-8.8603],[122.0942,-8.7444],[122.1858,-8.7302],[122.3212,-8.7381],[122.417,-8.7349],[122.4699,-8.7254],[122.5535,-8.6809],[122.6414,-8.6471],[122.7826,-8.6116],[122.8202,-8.5958],[122.8467,-8.5624],[122.8112,-8.4809],[122.9023,-8.4163],[122.9234,-8.3809],[122.9552,-8.3539],[123.006,-8.3291],[123.0325,-8.338],[123.025,-8.3957],[123.2971,-8.3983],[123.325,-8.4391],[123.2303,-8.5306],[123.2531,-8.5386],[123.3298,-8.5354],[123.4108,-8.5867],[123.4341,-8.5762],[123.4886,-8.5322],[123.5532,-8.5666],[123.5801,-8.545],[123.5881,-8.5238],[123.5828,-8.5015],[123.5918,-8.4777],[123.6293,-8.4227],[123.6976,-8.4243],[123.7838,-8.2994],[123.9246,-8.2724],[123.9717,-8.3539],[123.9278,-8.4491],[124.0172,-8.4439],[124.0658,-8.5518],[124.1469,-8.5312],[124.1844,-8.4989],[124.2257,-8.3915],[124.2866,-8.3296],[124.3554,-8.3856],[124.3808,-8.4153],[124.4443,-8.4444],[125.0967,-8.3528],[125.1211,-8.3348],[125.0861,-8.7487],[125.0904,-8.7513],[125.0269,-8.8593],[124.8898,-8.9683],[124.7083,-9.0619],[124.6459,-9.117],[124.5755,-9.1556],[124.1981,-9.2561],[123.977,-9.3731],[123.877,-9.453],[123.7093,-9.6149],[123.6659,-9.7054],[123.6357,-9.8382],[123.5891,-9.9668],[123.5992,-10.0149],[123.7167,-10.0785],[123.6902,-10.1287],[123.6484,-10.1679],[123.614,-10.215],[123.605,-10.27],[123.6442,-10.3107],[123.6685,-10.3192],[123.3843,-10.569],[123.3833,-10.5674],[123.3711,-10.4748],[123.3584,-10.4727],[123.3399,-10.4864],[123.2653,-10.5182],[123.1457,-10.6399],[123.0616,-10.6986],[122.8457,-10.7616],[122.8187,-10.8108],[122.8223,-10.8558],[122.8107,-10.8479],[121.3291,-10.7949],[120.6533,-10.2229],[120.6978,-10.2065],[120.8041,-10.1086],[120.8327,-10.0377],[120.7845,-9.9573],[120.7004,-9.9033],[120.6327,-9.8065],[120.5554,-9.7191],[120.5036,-9.6742],[120.4437,-9.6456],[120.3649,-9.6546],[120.2908,-9.6477],[120.2585,-9.6033],[120.248,-9.5429],[120.221,-9.5064],[120.0574,-9.4196],[120.0125,-9.3747],[119.9738,-9.3218],[119.9421,-9.3017],[119.8505,-9.3598],[119.795,-9.3805],[119.6145,-9.3525],[119.4241,-9.3699],[119.296,-9.3672],[119.1854,-9.3842],[119.0314,-9.4403],[118.9944,-9.472],[118.9589,-9.5191],[118.9632,-9.5313],[118.9478,-9.5249]]]}}
