{"type":"Feature","properties":{"id":285,"name":"Hecate Strait","featurecla":"strait","scalerank":7,"wikidataid":"Q1592911","source":"Natural Earth 5.2.0-pre ne_10m_geography_marine_polys (public domain)"},"geometry":{"type":"Polygon","coordinates":[[[-132.5238,53.1935],[-132.5233,53.195],[-132.5207,53.194],[-132.3471,53.1892],[-132.0111,53.2649],[-131.9576,53.3088],[-131.928,53.3792],[-131.9222,53.5877],[-131.8894,53.7142],[-131.8211,53.8417],[-131.7026,53.9862],[-131.6856,54.0227],[-131.6676,54.1412],[-131.6824,54.1423],[-131.6824,54.1439],[-132.0195,54.7307],[-131.9809,54.8048],[-131.9825,54.8349],[-131.9973,54.8688],[-131.9968,54.9016],[-131.9777,54.9403],[-131.9777,54.9694],[-132.0005,55.0339],[-131.9767,55.2085],[-131.983,55.2135],[-131.8205,55.2652],[-131.811,55.2233],[-131.7624,55.1657],[-131.7237,55.2186],[-131.6412,55.299],[-131.5216,55.3408],[-131.4745,55.3736],[-131.4475,55.4086],[-131.4221,55.3684],[-131.4507,55.3165],[-131.4205,55.2757],[-131.3671,55.2657],[-131.3163,55.2683],[-131.2618,55.2197],[-131.1877,55.2064],[-131.1401,55.2339],[-131.0459,55.1789],[-131.048,55.1577],[-130.9797,55.0614],[-130.9347,54.9503],[-130.8496,54.8074],[-130.6157,54.791],[-130.5754,54.7699],[-130.5357,54.7487],[-130.5215,54.7537],[-130.4239,54.4316],[-130.4305,54.4211],[-130.3966,54.3518],[-130.2902,54.2703],[-130.0844,54.1814],[-129.8986,54.2264],[-129.7949,54.2359],[-129.6261,54.2301],[-129.7907,54.1655],[-130.0431,54.1338],[-130.0637,54.1058],[-130.086,53.9756],[-130.2331,53.8676],[-130.3352,53.7237],[-130.2632,53.6544],[-130.0743,53.5755],[-129.9119,53.5512],[-129.8219,53.4126],[-129.687,53.3337],[-129.6756,53.3261],[-129.7685,53.2587],[-129.9447,53.4364],[-130.0352,53.4813],[-130.195,53.5496],[-130.395,53.6205],[-130.4521,53.6311],[-130.5178,53.5443],[-130.4109,53.4908],[-130.3056,53.4073],[-130.1516,53.3459],[-129.9346,53.1765],[-129.8924,53.1688],[-131.1341,52.2677],[-131.1427,52.2913],[-131.2591,52.2918],[-131.32,52.3029],[-131.3269,52.3177],[-131.2602,52.3902],[-131.2597,52.4161],[-131.2734,52.4257],[-131.383,52.4156],[-131.43,52.4219],[-131.4438,52.4532],[-131.5904,52.578],[-131.5729,52.6236],[-131.4554,52.7019],[-131.6105,52.7453],[-131.7274,52.7564],[-131.81,52.8188],[-131.9042,52.8664],[-131.9719,52.8797],[-131.9164,52.9093],[-131.8798,52.9146],[-131.7952,52.885],[-131.6348,52.922],[-131.6221,53.0199],[-131.6523,53.103],[-131.7539,53.1956],[-131.8534,53.23],[-131.8931,53.2316],[-131.9894,53.2019],[-132.0359,53.1792],[-132.1539,53.1607],[-132.3455,53.1363],[-132.5238,53.1448],[-132.5238,53.1935]],[[-130.6437,53.8443],[-130.6379,53.8602],[-130.6464,53.8941],[-130.6416,53.9211],[-130.6247,53.9412],[-130.5897,53.9401],[-130.5373,53.9179],[-130.4701,53.8618],[-130.4072,53.8555],[-130.3844,53.8438],[-130.3373,53.866],[-130.2675,53.9227],[-130.2363,53.9586],[-130.2987,54.0359],[-130.3156,54.047],[-130.3971,54.0856],[-130.4479,54.0888],[-130.4945,54.074],[-130.6469,53.9915],[-130.6956,53.9512],[-130.7072,53.9216],[-130.703,53.892],[-130.6834,53.8634],[-130.6638,53.8475],[-130.6437,53.8443]],[[-131.5655,55.2641],[-131.5782,55.2487],[-131.5777,55.2006],[-131.556,55.1376],[-131.5951,55.0905],[-131.592,55.0254],[-131.5401,55.0487],[-131.4819,55.0355],[-131.4311,54.9963],[-131.456,54.9307],[-131.4459,54.9096],[-131.4062,54.8942],[-131.3295,54.8879],[-131.2321,54.9037],[-131.2374,54.9498],[-131.3395,55.0799],[-131.4046,55.2133],[-131.5126,55.2625],[-131.5655,55.2641]]]}}
