{"type":"Feature","properties":{"id":286,"name":"Cordova Bay","featurecla":"bay","scalerank":8,"wikidataid":"Q5170043","source":"Natural Earth 5.2.0-pre ne_10m_geography_marine_polys (public domain)"},"geometry":{"type":"Polygon","coordinates":[[[-133.3063,55.5516],[-133.2826,55.6037],[-133.244,55.5954],[-133.0895,55.6128],[-133.0334,55.5895],[-133.0784,55.535],[-133.0826,55.5043],[-132.9588,55.3953],[-132.971,55.3763],[-133.0302,55.3773],[-133.1033,55.3604],[-133.1186,55.3276],[-133.0604,55.3011],[-132.9128,55.1884],[-132.7821,55.0487],[-132.7043,55.0302],[-132.6831,55.0741],[-132.7016,55.1307],[-132.6651,55.1466],[-132.6223,55.136],[-132.627,55.1101],[-132.5884,55.0524],[-132.5937,54.9958],[-132.5492,54.9524],[-132.4862,54.9503],[-132.4688,54.9381],[-132.3704,54.9223],[-132.3413,54.9075],[-132.2661,54.8021],[-132.1894,54.7349],[-132.1645,54.7249],[-132.1682,54.7159],[-132.7059,54.6804],[-132.7059,54.6841],[-132.6768,54.7265],[-132.6471,54.7561],[-132.6339,54.8402],[-132.617,54.8926],[-132.6487,54.9069],[-132.7006,54.9191],[-132.7725,54.926],[-132.8128,54.8905],[-132.8376,54.881],[-132.8625,54.8942],[-132.9461,55.0027],[-132.9821,55.0329],[-132.9959,55.1106],[-133.0673,55.1662],[-133.0975,55.2138],[-133.2964,55.3255],[-133.4292,55.3038],[-133.4448,55.2761],[-133.527,55.3337],[-133.4933,55.3615],[-133.4631,55.3768],[-133.4292,55.4175],[-133.4266,55.4313],[-133.2816,55.498],[-133.2832,55.5154],[-133.3049,55.5435],[-133.3123,55.5463],[-133.3063,55.5516]]]}}
