{"type":"Feature","properties":{"id":287,"name":"","featurecla":"generic","scalerank":8,"source":"Natural Earth 5.2.0-pre ne_10m_geography_marine_polys (public domain)"},"geometry":{"type":"Polygon","coordinates":[[[-130.5215,54.7537],[-130.3495,54.8143],[-130.204,54.9471],[-130.214,55.026],[-130.2182,55.0604],[-130.1717,55.1371],[-130.0368,55.298],[-130.0394,55.3435],[-130.0595,55.4123],[-130.1203,55.5244],[-130.1405,55.5848],[-130.1463,55.6546],[-130.1373,55.7192],[-130.1119,55.78],[-130.0748,55.8361],[-130.0251,55.888],[-130.0204,55.8806],[-130.0606,55.8139],[-130.0849,55.7515],[-130.0944,55.6948],[-130.0928,55.6319],[-130.0801,55.5631],[-130.0441,55.4721],[-129.9849,55.3588],[-129.996,55.2641],[-130.0584,55.1948],[-130.0918,55.108],[-130.0484,55.0572],[-129.9854,55.1117],[-129.877,55.2509],[-129.8378,55.3191],[-129.8156,55.4175],[-129.8119,55.5324],[-129.7949,55.5594],[-129.7653,55.4985],[-129.7341,55.4578],[-129.7013,55.4387],[-129.6669,55.4366],[-129.6304,55.4525],[-129.5605,55.4625],[-129.7806,55.2805],[-129.8902,55.1646],[-129.9484,55.081],[-130.1087,54.8873],[-130.141,54.8228],[-130.2188,54.7302],[-130.3072,54.7005],[-130.3505,54.6556],[-130.3701,54.6201],[-130.3887,54.5392],[-130.3934,54.4799],[-130.4239,54.4316],[-130.5215,54.7537]]]}}
