{"type":"Feature","properties":{"id":288,"name":"Murchison Sound","featurecla":"sound","scalerank":7,"source":"Natural Earth 5.2.0-pre ne_10m_geography_marine_polys (public domain)"},"geometry":{"type":"Polygon","coordinates":[[[-72.6532,78.1078],[-72.5862,78.085],[-72.2475,77.9902],[-72.1586,77.9569],[-72.0649,77.9368],[-71.6501,77.8997],[-71.5125,77.8754],[-71.3897,77.832],[-71.2717,77.813],[-70.9934,77.7918],[-70.7288,77.7928],[-70.6134,77.8003],[-70.4124,77.8431],[-70.1144,77.8415],[-70.0816,77.8315],[-70.2864,77.7981],[-70.5621,77.7172],[-70.5357,77.6997],[-70.3182,77.6902],[-70.1266,77.6378],[-70.1181,77.5833],[-69.9769,77.5479],[-69.3514,77.4674],[-69.1995,77.4632],[-69.091,77.4722],[-68.9746,77.4928],[-68.8534,77.5288],[-68.728,77.5806],[-68.6217,77.6018],[-68.5333,77.5928],[-68.292,77.5441],[-68.1375,77.5304],[-67.9771,77.5187],[-67.6882,77.524],[-67.5147,77.5431],[-67.1474,77.6346],[-66.9707,77.6706],[-66.8236,77.6865],[-66.6913,77.6812],[-66.4452,77.6156],[-66.3066,77.5648],[-66.2663,77.5156],[-66.3251,77.4679],[-66.4531,77.3928],[-66.4479,77.3499],[-66.3711,77.2976],[-66.3896,77.2801],[-66.7056,77.3378],[-66.9378,77.3642],[-67.4337,77.3848],[-67.9761,77.3806],[-68.1354,77.3796],[-68.5915,77.3425],[-68.7476,77.3071],[-68.9783,77.1954],[-69.6567,77.2287],[-70.6039,77.1938],[-70.8627,77.1753],[-70.9579,77.1541],[-71.0086,77.1365],[-71.6021,77.3344],[-71.467,77.3536],[-71.4336,77.3944],[-71.5522,77.4034],[-71.7332,77.4314],[-71.9829,77.46],[-72.0893,77.4669],[-72.247,77.4637],[-72.4364,77.4478],[-72.4426,77.4459],[-72.6532,78.1078]]]}}
