{"type":"Feature","properties":{"id":289,"name":"Robeson Channel","featurecla":"channel","scalerank":8,"wikidataid":"Q1152327","source":"Natural Earth 5.2.0-pre ne_10m_geography_marine_polys (public domain)"},"geometry":{"type":"Polygon","coordinates":[[[-57.3462,82.2077],[-57.3451,82.1881],[-57.7171,82.1685],[-58.7173,82.0928],[-59.2618,82.0066],[-59.2681,81.9823],[-58.8167,81.9203],[-58.568,81.8584],[-58.2299,81.7537],[-57.8531,81.6621],[-57.1684,81.5319],[-56.8599,81.46],[-56.6583,81.3944],[-56.6154,81.3631],[-56.7308,81.3658],[-56.862,81.3827],[-57.0827,81.4298],[-57.5049,81.5399],[-57.7902,81.5917],[-58.0801,81.6224],[-58.4299,81.6902],[-58.957,81.8251],[-59.2819,81.8838],[-59.6422,81.9029],[-59.902,81.933],[-60.0994,81.9373],[-60.4323,81.9203],[-60.8429,81.8553],[-61.0149,81.8097],[-61.2027,81.7468],[-61.2288,81.7051],[-62.2636,82.0336],[-62.1769,82.0436],[-61.9685,82.1103],[-61.6155,82.1844],[-61.2736,82.2796],[-61.217,82.3315],[-57.3462,82.2077]]]}}
