{"type":"Feature","properties":{"id":290,"name":"Kennedy Channel","featurecla":"channel","scalerank":7,"wikidataid":"Q908591","source":"Natural Earth 5.2.0-pre ne_10m_geography_marine_polys (public domain)"},"geometry":{"type":"Polygon","coordinates":[[[-67.7512,80.8636],[-66.7267,81.0409],[-66.3129,81.1462],[-65.4837,81.2848],[-65.0083,81.3973],[-64.0959,81.0378],[-64.5153,81.0001],[-64.6937,80.9662],[-65.062,80.8361],[-65.3583,80.7668],[-65.6451,80.6853],[-65.8012,80.6599],[-65.9631,80.6487],[-66.1356,80.625],[-66.3722,80.5842],[-66.6103,80.5297],[-66.9961,80.4127],[-67.0506,80.3847],[-67.1929,80.2799],[-67.1934,80.2746],[-67.7512,80.8636]]]}}
