{"type":"Feature","properties":{"id":291,"name":"","featurecla":"generic","scalerank":9,"source":"Natural Earth 5.2.0-pre ne_10m_geography_marine_polys (public domain)"},"geometry":{"type":"Polygon","coordinates":[[[-49.8346,0.293],[-49.8791,0.3043],[-50.1278,0.2266],[-50.2728,0.2318],[-50.3453,0.1345],[-50.3395,0.0435],[-50.3143,0.0365],[-50.3163,0.0358],[-50.4399,0.0225],[-50.4263,0.1392],[-50.3321,0.2588],[-50.3427,0.3816],[-50.3478,0.5041],[-50.2818,0.5161],[-50.2818,0.3906],[-50.2612,0.3594],[-50.1527,0.3932],[-50.04,0.5229],[-50.0383,0.561],[-49.8346,0.293]]]}}
