{"type":"Feature","properties":{"id":293,"name":"Canal do Sul","featurecla":"channel","scalerank":8,"source":"Natural Earth 5.2.0-pre ne_10m_geography_marine_polys (public domain)"},"geometry":{"type":"Polygon","coordinates":[[[-49.3261,-0.1739],[-49.4029,-0.2148],[-49.5352,-0.2338],[-49.6288,-0.2291],[-49.7214,-0.2121],[-50.2485,-0.1164],[-50.4617,-0.1577],[-50.6454,-0.273],[-50.6935,-0.3645],[-50.7157,-0.4704],[-50.7102,-0.4958],[-50.942,-0.3439],[-50.9668,-0.2993],[-50.9263,-0.3275],[-50.6527,-0.1317],[-50.6506,-0.1058],[-50.667,-0.0581],[-50.6966,-0.0529],[-50.5986,0.0218],[-50.5295,0.0218],[-50.4437,-0.0079],[-50.4399,0.0225],[-50.3163,0.0358],[-50.3143,0.0365],[-50.2855,0.0286],[-50.113,0.0329],[-50.0934,0.0218],[-50.0024,-0.029],[-49.9736,-0.0271],[-49.9638,-0.0426],[-49.8254,-0.087],[-49.8299,-0.0942],[-49.7087,-0.1439],[-49.4441,-0.1121],[-49.4099,-0.0816],[-49.3261,-0.1739]]]}}
