{"type":"Feature","properties":{"id":294,"name":"Canal do Norte","featurecla":"channel","scalerank":9,"source":"Natural Earth 5.2.0-pre ne_10m_geography_marine_polys (public domain)"},"geometry":{"type":"Polygon","coordinates":[[[-50.0843,0.6298],[-50.0987,0.625],[-50.113,0.6049],[-50.2511,0.5853],[-50.2818,0.5165],[-50.2818,0.5161],[-50.3478,0.5041],[-50.3511,0.5816],[-50.3728,0.5911],[-50.3966,0.5816],[-50.4247,0.5583],[-50.4263,0.425],[-50.4517,0.3271],[-50.5263,0.2472],[-50.6104,0.2048],[-50.6242,0.0546],[-50.5295,0.0218],[-50.5986,0.0218],[-50.6966,-0.0529],[-50.7655,-0.0407],[-50.8422,-0.0502],[-50.9951,-0.1053],[-51.0258,-0.1724],[-51.0221,-0.1883],[-51.038,-0.2259],[-51.0359,-0.23],[-51.3326,-0.2465],[-51.2994,-0.1788],[-51.283,-0.0852],[-51.102,-0.0312],[-51.0576,0.0218],[-50.9671,0.1302],[-50.9099,0.1609],[-50.8163,0.1725],[-50.7549,0.2228],[-50.5813,0.4208],[-50.4628,0.6372],[-50.3432,0.751],[-50.2945,0.8356],[-50.2431,0.8769],[-50.0843,0.6298]]]}}
