{"type":"Feature","properties":{"id":295,"name":"Øresund","featurecla":"sound","scalerank":7,"wikidataid":"Q104662","namealt":"The Sound","source":"Natural Earth 5.2.0-pre ne_10m_geography_marine_polys (public domain)"},"geometry":{"type":"Polygon","coordinates":[[[12.8853,55.4038],[12.4091,55.3017],[12.3853,55.3858],[12.2752,55.4144],[12.2149,55.4668],[12.2435,55.5377],[12.3207,55.588],[12.407,55.6165],[12.507,55.6366],[12.5451,55.6557],[12.571,55.6848],[12.5689,55.7848],[12.525,55.9187],[12.543,55.9589],[12.6086,56.033],[12.5866,56.0562],[12.643,56.0844],[12.8345,55.8816],[12.942,55.8059],[12.9737,55.7483],[12.9779,55.6938],[12.9631,55.6128],[12.9388,55.5335],[12.9404,55.4816],[12.8859,55.4112],[12.8853,55.4038]]]}}
