{"type":"Feature","properties":{"id":296,"name":"","featurecla":"generic","scalerank":7,"source":"Natural Earth 5.2.0-pre ne_10m_geography_marine_polys (public domain)"},"geometry":{"type":"Polygon","coordinates":[[[11.4649,55.9197],[11.4598,55.907],[11.4635,55.8795],[11.3222,55.7525],[11.2756,55.7367],[11.2243,55.7314],[11.0497,55.7403],[10.9787,55.7213],[11.0089,55.6446],[11.0703,55.6292],[11.1211,55.6007],[11.1195,55.5662],[11.128,55.5345],[11.1899,55.4657],[11.1708,55.3287],[11.2862,55.2043],[11.31,55.1979],[11.4069,55.2149],[11.4762,55.2117],[11.654,55.1868],[11.6968,55.0958],[11.7037,55.0392],[11.7397,54.9725],[11.7408,54.9154],[11.8593,54.7762],[11.7603,54.7455],[11.7587,54.7677],[11.7397,54.8074],[11.6582,54.8334],[11.5381,54.8297],[11.3614,54.8916],[11.2587,54.9519],[11.0587,54.9408],[11.0417,54.8931],[11.0354,54.773],[11.3528,54.6649],[11.1935,54.5098],[11.2338,54.501],[11.2804,54.4386],[11.283,54.418],[11.1291,54.4159],[11.1103,54.4288],[11.0287,54.3493],[11.0132,54.3793],[10.956,54.3756],[10.7316,54.3164],[10.3607,54.4381],[10.2125,54.409],[10.1707,54.4502],[10.1438,54.4884],[9.8686,54.4725],[9.9416,54.5148],[10.0289,54.5815],[10.022,54.6741],[9.9537,54.7381],[9.8924,54.7805],[9.7458,54.8074],[9.7051,54.9281],[9.7326,54.9678],[9.6881,55.0001],[9.6453,55.0228],[9.5722,55.0403],[9.4537,55.0397],[9.505,55.1165],[9.6432,55.2048],[9.6712,55.2662],[9.6405,55.3435],[9.6257,55.4139],[9.5913,55.4932],[9.6617,55.5573],[9.7733,55.6081],[9.8103,55.6509],[9.8993,55.7076],[9.9987,55.7356],[10.0236,55.7615],[9.9622,55.8128],[9.9035,55.843],[10.0172,55.8758],[10.1072,55.8742],[10.1596,55.8536],[10.1829,55.8652],[10.2268,56.0055],[10.3189,56.2129],[10.3739,56.2515],[10.4268,56.2764],[10.539,56.2002],[10.621,56.2023],[10.7533,56.242],[10.8565,56.2954],[10.8946,56.3589],[10.8989,56.3702],[11.4649,55.9197]],[[10.7385,54.9619],[10.6925,54.9032],[10.6216,54.8514],[10.6295,54.826],[10.6898,54.745],[10.7343,54.7508],[10.7655,54.7995],[10.9206,55.062],[10.9512,55.1561],[10.9248,55.1577],[10.8565,55.0524],[10.7385,54.9619]],[[10.5052,55.5583],[10.4242,55.5604],[10.3538,55.5991],[10.2861,55.6107],[9.9945,55.5356],[9.8606,55.5154],[9.8591,55.3572],[9.93,55.2292],[9.9675,55.2054],[9.9887,55.163],[10.2549,55.0879],[10.4427,55.0487],[10.6237,55.0524],[10.7851,55.1334],[10.8084,55.2032],[10.7851,55.2699],[10.819,55.3218],[10.738,55.4461],[10.6867,55.5578],[10.6449,55.6096],[10.6226,55.6128],[10.5052,55.5583]],[[9.9987,54.9863],[9.8305,55.0583],[9.7812,55.0688],[9.7712,55.0598],[9.8062,54.9058],[9.904,54.8969],[9.9569,54.8725],[10.0612,54.8863],[10.0575,54.908],[9.9987,54.9863]]]}}
