{"type":"Feature","properties":{"id":297,"name":"Mecklenburger Bucht","featurecla":"bay","scalerank":7,"wikidataid":"Q317006","source":"Natural Earth 5.2.0-pre ne_10m_geography_marine_polys (public domain)"},"geometry":{"type":"Polygon","coordinates":[[[12.4637,54.3991],[12.3784,54.347],[12.2964,54.2836],[12.1688,54.2259],[12.1112,54.1682],[11.7963,54.1455],[11.7006,54.1137],[11.4613,53.965],[11.3994,53.9444],[11.1042,54.0094],[10.9179,53.9952],[10.8544,54.01],[10.8105,54.075],[11.0084,54.1814],[11.0645,54.2804],[11.0287,54.3493],[11.1103,54.4288],[11.1291,54.4159],[11.283,54.418],[11.2804,54.4386],[11.2338,54.501],[11.1935,54.5098],[11.3528,54.6649],[11.4577,54.6291],[11.5857,54.6625],[11.6805,54.6534],[11.7661,54.6794],[11.7603,54.7455],[11.8593,54.7762],[11.8625,54.7725],[12.0503,54.8154],[12.0564,54.8461],[12.4637,54.3991]]]}}
