{"type":"Feature","properties":{"id":298,"name":"Sargasso Sea","featurecla":"sea","scalerank":2,"wikidataid":"Q169274","source":"Natural Earth 5.2.0-pre ne_10m_geography_marine_polys (public domain)"},"geometry":{"type":"Polygon","coordinates":[[[-53.8644,35.0288],[-51.4875,34.6155],[-50.4167,33.7918],[-50.0262,32.3415],[-50.0262,23.4999],[-50.1696,22.8369],[-50.6638,21.2719],[-51.817,20.3658],[-53.893,20.0356],[-57.6579,20.0356],[-61.5753,20.4708],[-66.4456,21.8926],[-67.8787,22.5898],[-69.7731,24.1547],[-70.0575,25.1372],[-70.0575,31.482],[-69.6084,33.7918],[-68.7847,34.7802],[-67.5931,35.0267],[-53.8644,35.0288]]]}}
