{"type":"Feature","properties":{"id":299,"name":"San Francisco Bay","featurecla":"bay","scalerank":7,"wikidataid":"Q232264","source":"Natural Earth 5.2.0-pre ne_10m_geography_marine_polys (public domain)"},"geometry":{"type":"Polygon","coordinates":[[[-122.5144,37.7722],[-122.5226,37.8264],[-122.5223,37.827],[-122.5215,37.8265],[-122.467,37.8381],[-122.4951,37.9535],[-122.484,38.109],[-122.3935,38.145],[-122.3374,38.136],[-122.2082,38.0725],[-122.1538,38.0657],[-122.0315,38.1233],[-121.9929,38.1202],[-121.9342,38.0868],[-121.8807,38.0752],[-121.7484,38.0805],[-121.6823,38.0747],[-121.6256,38.0842],[-121.5251,38.0561],[-121.5732,38.0524],[-121.6383,38.0614],[-121.7167,38.0339],[-122.0865,38.0498],[-122.2173,38.0408],[-122.3141,38.0074],[-122.3855,37.9603],[-122.3654,37.9212],[-122.3337,37.8969],[-122.2961,37.7905],[-122.222,37.7323],[-122.158,37.6264],[-122.1241,37.5439],[-122.0966,37.518],[-122.0707,37.4783],[-122.1188,37.483],[-122.1659,37.5016],[-122.2289,37.564],[-122.2977,37.592],[-122.3697,37.6561],[-122.3903,37.7413],[-122.3839,37.7884],[-122.4459,37.7979],[-122.5141,37.7719],[-122.5144,37.7722]]]}}
