{"type":"Feature","properties":{"id":301,"name":"Yangtze River","featurecla":"river","scalerank":4,"wikidataid":"Q5413","source":"Natural Earth 5.2.0-pre ne_10m_geography_marine_polys (public domain)"},"geometry":{"type":"Polygon","coordinates":[[[121.8708,31.6921],[121.9494,31.4564],[121.8689,30.9467],[121.8344,31.0616],[121.7857,31.1627],[121.6608,31.3198],[121.3508,31.4855],[121.2047,31.6284],[121.0555,31.7194],[120.9375,31.7501],[120.7877,31.8199],[120.7522,31.9231],[120.7158,31.9839],[120.4972,32.0199],[120.3475,31.9522],[120.1914,31.9062],[120.0358,31.9363],[120.0739,31.9601],[120.0987,31.976],[120.184,31.966],[120.52,32.1057],[120.6607,32.0808],[120.7919,32.0316],[120.9735,31.8691],[121.146,31.8421],[121.2666,31.8628],[121.3518,31.8591],[121.681,31.7119],[121.7635,31.6993],[121.855,31.703],[121.8708,31.6921]],[[121.211,31.8056],[121.2269,31.758],[121.3364,31.6437],[121.5201,31.5495],[121.7805,31.4638],[121.8625,31.4923],[121.8433,31.5262],[121.8085,31.5521],[121.5767,31.6373],[121.5423,31.6739],[121.492,31.6934],[121.4639,31.7564],[121.3391,31.7972],[121.211,31.8056]]]}}
