{"type":"Feature","properties":{"id":302,"name":"Columbia River","featurecla":"river","scalerank":4,"wikidataid":"Q2251","source":"Natural Earth 5.2.0-pre ne_10m_geography_marine_polys (public domain)"},"geometry":{"type":"MultiPolygon","coordinates":[[[[-124.0723,46.2794],[-123.9598,46.3006],[-123.8958,46.2677],[-123.6883,46.3],[-123.6502,46.2677],[-123.465,46.2709],[-123.4047,46.2212],[-123.2989,46.1709],[-123.2513,46.1672],[-123.2206,46.1534],[-123.3216,46.1439],[-123.402,46.155],[-123.4666,46.2095],[-123.5217,46.2228],[-123.6735,46.1826],[-123.9117,46.182],[-123.963,46.2254],[-123.9894,46.2196],[-123.9888,46.2178],[-124.0723,46.2794]]],[[[-124.0728,46.2797],[-124.0722,46.2804],[-124.0725,46.2795],[-124.0728,46.2797]]]]}}
