{"type":"Feature","properties":{"id":303,"name":"Salish Sea","featurecla":"sea","scalerank":6,"wikidataid":"Q2097617","source":"Natural Earth 5.2.0-pre ne_10m_geography_marine_polys (public domain)"},"geometry":{"type":"Polygon","coordinates":[[[-124.716,48.3934],[-124.7684,48.6119],[-124.7652,48.6209],[-124.6895,48.5971],[-124.3763,48.5151],[-124.1154,48.4363],[-123.9169,48.3865],[-123.5947,48.3336],[-123.573,48.323],[-123.5365,48.3447],[-123.4846,48.4003],[-123.446,48.4273],[-123.3343,48.4066],[-123.3105,48.4108],[-123.2835,48.4553],[-123.3661,48.6066],[-123.3899,48.6702],[-123.4153,48.6982],[-123.4428,48.6903],[-123.4581,48.6744],[-123.473,48.6024],[-123.4968,48.5823],[-123.6264,48.8242],[-123.7524,48.9511],[-123.8201,49.0834],[-123.8545,49.1194],[-123.9371,49.1707],[-123.9958,49.2242],[-124.1857,49.3004],[-124.4958,49.3803],[-124.643,49.4285],[-124.8308,49.5301],[-124.9308,49.6433],[-124.9324,49.6703],[-124.9044,49.6856],[-124.9345,49.7317],[-125.0663,49.8481],[-125.233,50.0121],[-125.2353,50.0149],[-125.2054,50.0584],[-125.1949,50.0444],[-125.1843,50.0973],[-125.1128,50.1635],[-125.0742,50.2206],[-125.0917,50.2677],[-125.1252,50.3179],[-125.046,50.374],[-125.0435,50.3635],[-124.9859,50.3555],[-124.9335,50.2979],[-124.934,50.2582],[-124.7842,50.073],[-124.7821,50.02],[-124.7022,49.9576],[-124.4831,49.8084],[-124.4128,49.7782],[-124.2815,49.7719],[-124.1418,49.7925],[-124.0588,49.8539],[-123.9847,49.8756],[-123.972,49.892],[-123.9714,49.9693],[-123.9577,49.9926],[-123.8656,50.0719],[-123.863,50.1026],[-123.946,50.1841],[-123.9333,50.1883],[-123.8799,50.1735],[-123.8254,50.1444],[-123.7878,50.1068],[-123.7846,50.0878],[-123.8238,50.0439],[-123.8852,50.0169],[-123.9042,49.9809],[-123.9037,49.7957],[-123.8746,49.737],[-123.818,49.6851],[-123.7624,49.6586],[-123.7084,49.657],[-123.5825,49.6814],[-123.6127,49.6576],[-123.7391,49.5936],[-123.8174,49.5867],[-123.8471,49.6364],[-123.9228,49.7174],[-123.9598,49.7364],[-123.9926,49.7364],[-124.0238,49.7116],[-124.054,49.6618],[-124.0286,49.6031],[-123.9482,49.5348],[-123.8921,49.4946],[-123.8587,49.4829],[-123.5306,49.3972],[-123.5084,49.4025],[-123.437,49.4512],[-123.3989,49.4417],[-123.3354,49.4592],[-123.3222,49.5168],[-123.3364,49.5454],[-123.3248,49.5777],[-123.1877,49.6803],[-123.1798,49.6735],[-123.1909,49.6444],[-123.2232,49.5904],[-123.2475,49.4433],[-123.2639,49.3903],[-123.2862,49.375],[-123.2904,49.3596],[-123.2767,49.3438],[-123.1745,49.348],[-123.0158,49.3221],[-122.9644,49.3295],[-122.8792,49.3988],[-122.9131,49.3231],[-122.9475,49.2935],[-123.0671,49.2914],[-123.1841,49.2776],[-123.2296,49.2607],[-123.1909,49.2194],[-123.1962,49.1475],[-123.1819,49.1295],[-123.1502,49.121],[-123.0798,49.1305],[-123.0772,49.1184],[-123.1094,49.0845],[-123.1179,49.0564],[-123.0867,48.9929],[-123.0772,48.9802],[-123.0634,48.9776],[-123.0491,48.9929],[-123.0274,49.0385],[-123.0025,49.0607],[-122.9629,49.0744],[-122.9242,49.0744],[-122.8269,49.0284],[-122.7888,48.9929],[-122.7226,48.8532],[-122.6861,48.7945],[-122.6533,48.7638],[-122.5993,48.767],[-122.5803,48.7797],[-122.5623,48.7781],[-122.5453,48.7622],[-122.5125,48.6696],[-122.5146,48.5553],[-122.5009,48.5373],[-122.4967,48.5056],[-122.5427,48.4881],[-122.6279,48.4982],[-122.6575,48.4902],[-122.6692,48.4654],[-122.6623,48.4463],[-122.6559,48.4426],[-122.6379,48.4331],[-122.6125,48.431],[-122.5824,48.4289],[-122.5416,48.4108],[-122.4882,48.3744],[-122.4083,48.2939],[-122.4035,48.269],[-122.467,48.2585],[-122.5205,48.2294],[-122.5289,48.1992],[-122.5168,48.1595],[-122.494,48.1304],[-122.3945,48.0844],[-122.3866,48.0902],[-122.4247,48.1759],[-122.4157,48.1839],[-122.3887,48.1664],[-122.3527,48.114],[-122.3173,48.0801],[-122.2612,48.042],[-122.2421,48.0108],[-122.3183,47.933],[-122.3305,47.8986],[-122.3929,47.8203],[-122.4019,47.7843],[-122.3818,47.7526],[-122.3834,47.7166],[-122.4067,47.6769],[-122.4104,47.6526],[-122.3808,47.6277],[-122.3686,47.6039],[-122.3755,47.5282],[-122.3511,47.3954],[-122.3538,47.3716],[-122.4199,47.3123],[-122.4649,47.2959],[-122.5109,47.2948],[-122.5422,47.2758],[-122.6041,47.1668],[-122.6268,47.144],[-122.702,47.1107],[-122.73,47.1118],[-122.812,47.1462],[-122.9142,47.1313],[-123.0274,47.1388],[-122.9877,47.1726],[-122.956,47.2446],[-122.9195,47.2896],[-122.8284,47.3366],[-122.8126,47.3287],[-122.7835,47.2261],[-122.7676,47.2181],[-122.721,47.3049],[-122.7078,47.3165],[-122.6485,47.2816],[-122.6041,47.2747],[-122.5781,47.2933],[-122.5538,47.4049],[-122.5575,47.4631],[-122.5861,47.5282],[-122.6755,47.6123],[-122.6644,47.6171],[-122.6284,47.6081],[-122.6136,47.6155],[-122.63,47.6928],[-122.6183,47.7129],[-122.5242,47.7695],[-122.5109,47.8155],[-122.5326,47.9198],[-122.5856,47.9277],[-122.5924,47.9166],[-122.5877,47.8558],[-122.6083,47.8357],[-122.7179,47.7621],[-122.757,47.7007],[-122.8142,47.6584],[-122.9131,47.6076],[-122.9824,47.5594],[-123.0486,47.4795],[-123.0602,47.4536],[-123.0666,47.3996],[-123.0184,47.4012],[-122.9168,47.4181],[-122.9221,47.4075],[-123.0311,47.36],[-123.1041,47.3483],[-123.1364,47.3557],[-123.1391,47.3859],[-123.1311,47.4377],[-123.0507,47.552],[-122.8216,47.7933],[-122.8052,47.7838],[-122.802,47.7351],[-122.7787,47.7383],[-122.6565,47.8812],[-122.6797,47.932],[-122.7395,48.0135],[-122.7692,48.0759],[-122.7676,48.1198],[-122.7787,48.1378],[-122.8607,48.0902],[-122.9089,48.077],[-122.974,48.0733],[-123.0242,48.0817],[-123.1242,48.151],[-123.1618,48.1547],[-123.2497,48.1241],[-123.2946,48.1193],[-123.9757,48.1685],[-124.099,48.2003],[-124.1757,48.2426],[-124.4292,48.3008],[-124.6324,48.3749],[-124.7102,48.3802],[-124.716,48.3934]],[[-122.6284,48.3844],[-122.6692,48.3511],[-122.7247,48.2807],[-122.7485,48.2389],[-122.7416,48.2251],[-122.6903,48.1738],[-122.6575,48.1563],[-122.6226,48.1516],[-122.6062,48.1288],[-122.603,48.0553],[-122.5914,48.0299],[-122.5575,47.9923],[-122.4924,47.9812],[-122.4617,47.9643],[-122.4374,47.9314],[-122.4115,47.9177],[-122.3829,47.923],[-122.3665,47.9389],[-122.3665,47.9854],[-122.503,48.0801],[-122.5237,48.0256],[-122.5728,48.1569],[-122.5977,48.2003],[-122.6242,48.2135],[-122.6972,48.2288],[-122.6919,48.241],[-122.5427,48.2939],[-122.5358,48.3214],[-122.5723,48.3595],[-122.6035,48.3807],[-122.6242,48.3839],[-122.6284,48.3844]],[[-124.5472,49.765],[-124.6234,49.7751],[-124.6498,49.7581],[-124.6308,49.7359],[-124.5181,49.6862],[-124.4937,49.6676],[-124.4572,49.6343],[-124.3625,49.5882],[-124.1397,49.5105],[-124.1535,49.5311],[-124.309,49.6671],[-124.4212,49.728],[-124.5472,49.765]]]}}
