{"type":"Feature","properties":{"id":304,"name":"Gulf of Anadyr'","featurecla":"gulf","scalerank":6,"wikidataid":"Q483824","source":"Natural Earth 5.2.0-pre ne_10m_geography_marine_polys (public domain)"},"geometry":{"type":"MultiPolygon","coordinates":[[[[179.5279,62.6534],[179.5702,62.6872],[179.5702,62.7735],[179.5109,62.8629],[179.3808,62.8836],[179.3019,62.9397],[179.2596,63.0085],[179.3289,63.0577],[179.4051,63.0778],[179.3887,63.1471],[179.332,63.1899],[179.0283,63.2825],[178.9215,63.345],[178.9183,63.4],[178.7928,63.5403],[178.7754,63.5101],[178.7865,63.4424],[178.7442,63.3947],[178.6785,63.4022],[178.669,63.4397],[178.7066,63.5218],[178.6537,63.5567],[178.4663,63.5741],[178.4404,63.6054],[178.6262,63.6508],[178.6812,63.6508],[178.7314,63.6673],[178.6923,63.8424],[178.6505,63.9652],[178.5362,63.9758],[178.4516,64.0112],[178.4748,64.089],[178.4769,64.1276],[178.3817,64.261],[178.3129,64.3144],[178.2293,64.3642],[178.1637,64.3092],[178.1303,64.235],[178.0446,64.2197],[177.953,64.2224],[177.6874,64.3049],[177.4329,64.4446],[177.4096,64.5727],[177.4673,64.7367],[177.4276,64.7632],[177.3873,64.7743],[177.0498,64.7193],[176.8429,64.6335],[176.7307,64.625],[176.5074,64.6822],[176.1406,64.5859],[176.2195,64.642],[176.283,64.6637],[176.3513,64.705],[176.301,64.7838],[176.2471,64.8431],[176.1692,64.8849],[176.0565,64.905],[175.9459,64.8653],[175.8587,64.8251],[175.6782,64.7822],[175.3305,64.7468],[175.0971,64.7468],[174.6987,64.6817],[174.549,64.6838],[175.0977,64.7769],[175.3967,64.7838],[175.7813,64.8441],[176.0613,64.9611],[176.4296,64.8552],[176.5566,64.8399],[176.8313,64.8494],[177.0688,64.7865],[177.1482,64.805],[177.2228,64.8616],[177.1233,64.9468],[177.0371,64.9997],[176.9402,65.0161],[176.6455,65.0071],[176.4523,65.0251],[176.3412,65.0473],[176.4132,65.0711],[176.6249,65.0378],[176.881,65.0817],[177.1794,65.014],[177.2519,64.9537],[177.3371,64.9314],[177.5816,64.778],[177.7488,64.7171],[178.2854,64.6722],[178.5198,64.6028],[178.6987,64.6309],[179.15,64.7817],[179.4479,64.8219],[179.6512,64.9208],[179.8274,65.0341],[179.9999,65.0674],[179.9999,62.6534],[179.5279,62.6534]]],[[[-173.6988,64.3293],[-180.0,61.6538],[-180.0,65.0675],[-179.7049,65.187],[-179.635,65.2442],[-179.5191,65.3865],[-179.4519,65.4453],[-179.3519,65.5167],[-179.3445,65.5755],[-179.3662,65.6384],[-179.4493,65.6876],[-179.6408,65.7575],[-179.7281,65.804],[-179.7895,65.9009],[-179.7837,66.0178],[-179.7408,66.1057],[-179.6832,66.184],[-179.616,66.1279],[-179.4228,66.1411],[-179.327,66.1628],[-179.3165,66.22],[-179.3403,66.2877],[-179.2932,66.3052],[-179.1926,66.3126],[-179.1783,66.3533],[-179.1434,66.375],[-179.1069,66.3459],[-179.1053,66.2321],[-179.0259,66.2036],[-178.9154,66.1797],[-178.8682,66.1871],[-178.8206,66.2025],[-178.7529,66.2374],[-178.6158,66.3554],[-178.5264,66.4015],[-178.5343,66.3168],[-178.5867,66.1983],[-178.6164,66.166],[-178.6936,66.1242],[-178.7307,66.0374],[-178.7466,66.0136],[-178.8582,66.0374],[-178.9392,66.0326],[-178.8794,65.9363],[-178.791,65.8649],[-178.6793,65.7956],[-178.5587,65.7538],[-178.5264,65.7554],[-178.5021,65.7405],[-178.4994,65.6966],[-178.5259,65.5929],[-178.5047,65.5373],[-178.4126,65.4955],[-178.31,65.4849],[-177.6988,65.4897],[-177.4887,65.5035],[-177.1754,65.6019],[-177.0564,65.6135],[-176.922,65.6014],[-176.5473,65.5474],[-176.0933,65.4712],[-175.9229,65.3527],[-175.8562,65.2331],[-175.8303,65.1055],[-175.8594,65.0542],[-175.8541,65.0108],[-175.716,64.9463],[-175.5207,64.8669],[-175.4832,64.8484],[-175.4419,64.8166],[-175.3953,64.8023],[-175.2556,64.7939],[-175.1461,64.8092],[-175.036,64.8134],[-174.8307,64.7759],[-174.5703,64.7177],[-174.3179,64.6378],[-174.2047,64.578],[-174.0015,64.4489],[-173.8978,64.4097],[-173.7295,64.3647],[-173.6951,64.3605],[-173.6988,64.3293]]]]}}
