{"type":"Feature","properties":{"id":2000,"name":"Luzon Strait","featurecla":"strait","source":"Natural Earth 2.0 (2012) ne_10m_geography_marine_polys (public domain); backfilled where 5.2 is degenerate or missing"},"geometry":{"type":"Polygon","coordinates":[[[120.8401,21.925],[120.8644,22.0324],[120.8712,22.0861],[121.4506,21.3864],[121.8741,21.0347],[122.1859,20.5153],[122.4415,19.6841],[122.4496,19.0288],[122.3149,18.3203],[122.2995,18.4029],[122.2656,18.459],[122.2213,18.5008],[122.1466,18.4865],[122.0768,18.3717],[122.0387,18.3277],[121.9477,18.2849],[121.8455,18.2955],[121.7169,18.3299],[121.5931,18.3764],[121.2544,18.5632],[121.1015,18.6151],[121.0512,18.6135],[120.9248,18.5849],[120.8676,18.5992],[120.8136,18.6034],[120.7094,18.5458],[120.5998,18.5077],[120.3364,22.5299],[120.3877,22.4843],[120.4798,22.442],[120.5814,22.3563],[120.6078,22.3124],[120.6781,22.1594],[120.6903,22.033],[120.7427,21.9562],[120.8401,21.925]],[[121.8296,20.7005],[121.8783,20.782],[121.8672,20.8392],[121.8476,20.8413],[121.7963,20.7466],[121.7904,20.7011],[121.8296,20.7005]],[[121.9413,20.3539],[121.9598,20.3661],[122.0312,20.4693],[121.991,20.4793],[121.9413,20.4539],[121.9137,20.3592],[121.9413,20.3539]],[[121.5312,19.2713],[121.5206,19.3617],[121.3915,19.3993],[121.3761,19.3797],[121.3746,19.3564],[121.383,19.3284],[121.4719,19.2734],[121.5312,19.2713]],[[121.2465,19.0151],[121.2523,19.0823],[121.2449,19.1432],[121.2131,19.1834],[121.1899,19.139],[121.1851,19.1014],[121.1963,19.0506],[121.2465,19.0151]],[[121.8582,18.823],[121.9217,18.8945],[121.9879,18.9564],[121.9434,19.0104],[121.8889,18.9913],[121.8598,18.9368],[121.8608,18.9125],[121.8254,18.8426],[121.8582,18.823]]]}}
