{"type":"Feature","properties":{"id":2001,"name":"Drake Passage","featurecla":"strait","source":"Natural Earth 2.0 (2012) ne_10m_geography_marine_polys (public domain); backfilled where 5.2 is degenerate or missing"},"geometry":{"type":"Polygon","coordinates":[[[-67.3935,-55.7529],[-67.3522,-55.7662],[-67.3252,-55.7847],[-67.2887,-55.7768],[-67.2675,-55.763],[-67.2622,-55.7439],[-67.3032,-55.6972],[-66.6114,-55.2698],[-66.5516,-55.273],[-66.4722,-55.2291],[-66.4357,-55.1899],[-66.523,-55.1656],[-66.5284,-55.1667],[-66.4027,-55.0103],[-66.3986,-55.0095],[-66.287,-54.9777],[-66.1722,-54.9751],[-66.0605,-54.9565],[-65.9536,-54.9195],[-65.8419,-54.91],[-65.7229,-54.9264],[-65.6033,-54.928],[-65.471,-54.9147],[-65.3461,-54.8777],[-64.7312,-54.8629],[-64.6376,-54.9026],[-64.509,-54.8401],[-64.4534,-54.8401],[-64.4252,-54.8307],[-64.0683,-54.793],[-64.0285,-54.7925],[-63.9714,-54.8105],[-63.8327,-54.7682],[-55.3476,-61.2101],[-55.347,-61.2118],[-55.2999,-61.2462],[-57.426,-61.9304],[-57.6547,-61.9728],[-57.6764,-61.9421],[-57.7378,-61.9214],[-57.8494,-61.9399],[-57.9785,-61.9119],[-58.2654,-61.9532],[-58.3992,-61.9384],[-58.6834,-62.0082],[-58.7093,-62.0447],[-58.9554,-62.1643],[-59.0035,-62.2098],[-58.8189,-62.1712],[-58.7575,-62.2051],[-58.9856,-62.2516],[-58.9908,-62.249],[-59.0639,-62.2389],[-59.2025,-62.2829],[-59.1878,-62.2928],[-59.4787,-62.3522],[-59.6607,-62.3543],[-59.6203,-62.3942],[-60.1397,-62.5485],[-60.5762,-62.5729],[-60.6249,-62.5602],[-60.7318,-62.4908],[-60.7995,-62.4749],[-60.8376,-62.5337],[-60.9747,-62.5919],[-61.1525,-62.5893],[-61.1498,-62.6342],[-61.0636,-62.6787],[-62.3442,-62.9179],[-62.3172,-62.8739],[-62.5273,-62.9237],[-62.6389,-63.0322],[-62.6553,-63.074],[-62.6151,-63.0692],[-63.6057,-64.3143],[-63.683,-64.3429],[-63.676,-64.3624],[-63.7863,-64.4379],[-63.9163,-64.4572],[-63.8967,-64.4869],[-63.8784,-64.5009],[-63.904,-64.5184],[-64.1708,-64.5821],[-64.2264,-64.6355],[-64.2719,-64.6974],[-64.1835,-64.7096],[-65.6536,-65.5905],[-65.6366,-65.5478],[-65.8335,-65.5272],[-65.9684,-65.5711],[-65.9996,-65.633],[-66.0668,-65.6664],[-66.0494,-65.7447],[-66.1536,-65.7738],[-66.1817,-65.8262],[-66.1753,-65.8664],[-66.0637,-65.8807],[-66.7791,-66.1108],[-67.6818,-66.7075],[-67.711,-66.6331],[-67.8306,-66.6242],[-67.9374,-66.657],[-68.0486,-66.6974],[-68.0486,-55.6434],[-67.7623,-55.8159],[-67.3935,-55.7529]],[[-67.8343,-55.8275],[-67.8496,-55.8424],[-67.8464,-55.8572],[-67.8316,-55.8646],[-67.6993,-55.8731],[-67.6115,-55.8916],[-67.575,-55.8895],[-67.5453,-55.8773],[-67.5099,-55.8445],[-67.5173,-55.8329],[-67.5448,-55.826],[-67.7623,-55.8159],[-67.8343,-55.8275]]]}}
