{"type":"Feature","properties":{"id":2002,"name":"Bering Strait","featurecla":"strait","source":"Natural Earth 2.0 (2012) ne_10m_geography_marine_polys (public domain); backfilled where 5.2 is degenerate or missing"},"geometry":{"type":"Polygon","coordinates":[[[-167.4023,65.8713],[-167.4017,65.8591],[-167.4054,65.8591],[-167.5801,65.7585],[-167.9145,65.6813],[-167.9272,65.7141],[-167.9304,65.748],[-168.0097,65.7194],[-168.0886,65.658],[-168.0351,65.5955],[-167.987,65.568],[-167.5869,65.468],[-167.5891,65.4601],[-168.187,65.4479],[-170.0814,65.8591],[-170.2682,65.9586],[-170.2725,65.9707],[-170.1592,66.0083],[-170.0036,66.0337],[-169.9492,66.0311],[-169.8915,66.0062],[-169.8317,65.9988],[-169.7333,66.0559],[-169.729,66.058],[-169.7777,66.1432],[-169.8888,66.1634],[-170.2439,66.1692],[-170.192,66.2014],[-170.2116,66.2364],[-170.2471,66.2718],[-170.301,66.294],[-170.301,66.2946],[-167.4023,65.8713]]]}}
