{"type":"Feature","properties":{"id":2003,"name":"Strait of Juan de Fuca","featurecla":"strait","source":"Natural Earth 2.0 (2012) ne_10m_geography_marine_polys (public domain); backfilled where 5.2 is degenerate or missing"},"geometry":{"type":"Polygon","coordinates":[[[-122.9861,48.4675],[-122.8882,48.431],[-122.8374,48.4204],[-122.6591,48.4437],[-122.6559,48.4426],[-122.6379,48.4331],[-122.612,48.431],[-122.6242,48.3839],[-122.6284,48.3844],[-122.6692,48.3511],[-122.7247,48.2807],[-122.7485,48.2389],[-122.7416,48.2251],[-122.7194,48.2029],[-122.7782,48.1368],[-122.7787,48.1378],[-122.8607,48.0902],[-122.9089,48.077],[-122.974,48.0733],[-123.0242,48.0817],[-123.1242,48.151],[-123.1618,48.1547],[-123.2497,48.1241],[-123.2946,48.1193],[-123.9757,48.1685],[-124.099,48.2003],[-124.1757,48.2426],[-124.4292,48.3008],[-124.6324,48.3749],[-124.7102,48.3802],[-124.716,48.3934],[-124.7684,48.6119],[-124.7652,48.6209],[-124.6895,48.5971],[-124.3763,48.5151],[-124.1154,48.4363],[-123.9169,48.3865],[-123.5947,48.3336],[-123.573,48.323],[-123.5365,48.3447],[-123.4846,48.4003],[-123.446,48.4273],[-123.3343,48.4066],[-123.3105,48.4108],[-123.2835,48.4553],[-123.284,48.4564],[-122.9861,48.4675]]]}}
