{"type":"Feature","properties":{"id":2004,"name":"Puget Sound","featurecla":"sound","source":"Natural Earth 2.0 (2012) ne_10m_geography_marine_polys (public domain); backfilled where 5.2 is degenerate or missing"},"geometry":{"type":"Polygon","coordinates":[[[-122.7194,48.2029],[-122.6903,48.1738],[-122.6575,48.1563],[-122.6226,48.1516],[-122.6062,48.1288],[-122.603,48.0553],[-122.5914,48.0299],[-122.5575,47.9923],[-122.4924,47.9812],[-122.4617,47.9643],[-122.4374,47.9314],[-122.4115,47.9177],[-122.3829,47.923],[-122.3665,47.9389],[-122.3665,47.9854],[-122.503,48.0801],[-122.5237,48.0256],[-122.5728,48.1569],[-122.5977,48.2003],[-122.6242,48.2135],[-122.6972,48.2288],[-122.6919,48.241],[-122.5427,48.2939],[-122.5358,48.3214],[-122.5723,48.3595],[-122.6035,48.3807],[-122.6242,48.3839],[-122.612,48.431],[-122.5824,48.4289],[-122.5416,48.4108],[-122.4882,48.3744],[-122.4083,48.2939],[-122.4035,48.269],[-122.467,48.2585],[-122.5205,48.2294],[-122.5289,48.1992],[-122.5168,48.1595],[-122.494,48.1304],[-122.3945,48.0844],[-122.3866,48.0902],[-122.4247,48.1759],[-122.4157,48.1839],[-122.3887,48.1664],[-122.3527,48.114],[-122.3173,48.0801],[-122.2612,48.042],[-122.2421,48.0108],[-122.3183,47.933],[-122.3305,47.8986],[-122.3929,47.8203],[-122.4019,47.7843],[-122.3818,47.7526],[-122.3834,47.7166],[-122.4067,47.6769],[-122.4104,47.6526],[-122.3808,47.6277],[-122.3686,47.6039],[-122.3755,47.5282],[-122.3511,47.3954],[-122.3538,47.3716],[-122.4199,47.3123],[-122.4649,47.2959],[-122.5109,47.2948],[-122.5422,47.2758],[-122.6041,47.1668],[-122.6268,47.144],[-122.702,47.1107],[-122.73,47.1117],[-122.812,47.1462],[-122.9142,47.1313],[-123.0274,47.1388],[-122.9877,47.1726],[-122.956,47.2446],[-122.9195,47.2896],[-122.8284,47.3366],[-122.8126,47.3287],[-122.7835,47.2261],[-122.7676,47.2181],[-122.721,47.3049],[-122.7078,47.3165],[-122.6485,47.2816],[-122.6041,47.2747],[-122.5781,47.2933],[-122.5538,47.4049],[-122.5575,47.4631],[-122.5861,47.5282],[-122.6755,47.6123],[-122.6644,47.6171],[-122.6284,47.6081],[-122.6136,47.6155],[-122.63,47.6928],[-122.6183,47.7129],[-122.5242,47.7695],[-122.5109,47.8155],[-122.5326,47.9198],[-122.5856,47.9277],[-122.5924,47.9166],[-122.5877,47.8558],[-122.6083,47.8357],[-122.7179,47.7621],[-122.757,47.7007],[-122.8142,47.6584],[-122.9131,47.6076],[-122.9824,47.5594],[-123.0486,47.4795],[-123.0602,47.4536],[-123.0666,47.3996],[-123.0184,47.4012],[-122.9168,47.4181],[-122.9221,47.4075],[-123.0311,47.36],[-123.1041,47.3483],[-123.1364,47.3557],[-123.1391,47.3859],[-123.1311,47.4377],[-123.0507,47.552],[-122.8216,47.7933],[-122.8052,47.7838],[-122.802,47.7351],[-122.7787,47.7383],[-122.6565,47.8812],[-122.6797,47.932],[-122.7395,48.0135],[-122.7692,48.0759],[-122.7676,48.1198],[-122.7782,48.1368],[-122.7194,48.2029]],[[-122.558,47.5981],[-122.5025,47.5753],[-122.4972,47.5944],[-122.5078,47.6827],[-122.5173,47.6907],[-122.5496,47.7039],[-122.5602,47.6976],[-122.5739,47.6669],[-122.576,47.6192],[-122.558,47.5981]],[[-122.5099,47.3578],[-122.4686,47.3901],[-122.458,47.3864],[-122.457,47.3594],[-122.4369,47.3546],[-122.3988,47.3726],[-122.394,47.3954],[-122.4422,47.4462],[-122.4686,47.4901],[-122.4866,47.4885],[-122.5067,47.4219],[-122.5099,47.3578]],[[-122.8851,47.2747],[-122.9121,47.2541],[-122.9078,47.2261],[-122.8766,47.1864],[-122.8628,47.1853],[-122.8533,47.2049],[-122.8491,47.2165],[-122.8851,47.2747]]]}}
