{"type":"Feature","properties":{"id":2005,"name":"Strait of Georgia","featurecla":"strait","source":"Natural Earth 2.0 (2012) ne_10m_geography_marine_polys (public domain); backfilled where 5.2 is degenerate or missing"},"geometry":{"type":"Polygon","coordinates":[[[-122.6591,48.4437],[-122.8374,48.4204],[-122.8882,48.431],[-122.9861,48.4675],[-123.284,48.4564],[-123.3661,48.6066],[-123.3899,48.6702],[-123.4153,48.6982],[-123.4428,48.6903],[-123.4581,48.6744],[-123.473,48.6024],[-123.4968,48.5823],[-123.6264,48.8242],[-123.7524,48.9511],[-123.8201,49.0834],[-123.8545,49.1194],[-123.9371,49.1707],[-123.9958,49.2242],[-124.1857,49.3004],[-124.4958,49.3803],[-124.643,49.4285],[-124.8308,49.5301],[-124.9308,49.6433],[-124.9324,49.6703],[-124.9044,49.6856],[-124.9345,49.7317],[-125.0663,49.8481],[-125.233,50.0121],[-125.2353,50.0149],[-125.2054,50.0584],[-125.1949,50.0444],[-125.1843,50.0973],[-125.1128,50.1635],[-125.0742,50.2206],[-125.0917,50.2677],[-125.1252,50.3179],[-125.046,50.374],[-125.0435,50.3635],[-124.9859,50.3555],[-124.9335,50.2979],[-124.934,50.2582],[-124.7842,50.073],[-124.7821,50.02],[-124.7022,49.9576],[-124.4831,49.8084],[-124.4128,49.7782],[-124.2815,49.7719],[-124.1418,49.7925],[-124.0588,49.8539],[-123.9847,49.8756],[-123.972,49.892],[-123.9714,49.9692],[-123.9577,49.9926],[-123.8656,50.0719],[-123.863,50.1026],[-123.946,50.1841],[-123.9333,50.1883],[-123.8799,50.1735],[-123.8254,50.1444],[-123.7878,50.1068],[-123.7846,50.0878],[-123.8238,50.0439],[-123.8852,50.0169],[-123.9042,49.9809],[-123.9037,49.7957],[-123.8746,49.737],[-123.818,49.6851],[-123.7624,49.6586],[-123.7084,49.657],[-123.5825,49.6814],[-123.6127,49.6576],[-123.7391,49.5936],[-123.8174,49.5867],[-123.8471,49.6364],[-123.9228,49.7174],[-123.9598,49.7364],[-123.9926,49.7364],[-124.0238,49.7116],[-124.054,49.6618],[-124.0286,49.6031],[-123.9482,49.5348],[-123.8921,49.4946],[-123.8587,49.4829],[-123.5306,49.3972],[-123.5084,49.4025],[-123.437,49.4512],[-123.3989,49.4417],[-123.3354,49.4592],[-123.3222,49.5168],[-123.3364,49.5454],[-123.3248,49.5777],[-123.1877,49.6803],[-123.1798,49.6735],[-123.1909,49.6444],[-123.2232,49.5904],[-123.2475,49.4433],[-123.2639,49.3903],[-123.2862,49.375],[-123.2904,49.3596],[-123.2767,49.3438],[-123.1745,49.348],[-123.0158,49.3221],[-122.9644,49.3295],[-122.8792,49.3988],[-122.9131,49.3231],[-122.9475,49.2935],[-123.0671,49.2914],[-123.1841,49.2776],[-123.2296,49.2607],[-123.1909,49.2194],[-123.1962,49.1475],[-123.1819,49.1295],[-123.1502,49.121],[-123.0798,49.1305],[-123.0772,49.1184],[-123.1094,49.0845],[-123.1179,49.0564],[-123.0867,48.9929],[-123.0772,48.9802],[-123.0634,48.9776],[-123.0491,48.9929],[-123.0274,49.0385],[-123.0025,49.0607],[-122.9629,49.0744],[-122.9242,49.0744],[-122.8269,49.0284],[-122.7888,48.9929],[-122.7226,48.8532],[-122.6861,48.7945],[-122.6533,48.7638],[-122.5993,48.767],[-122.5803,48.7797],[-122.5623,48.7781],[-122.5453,48.7622],[-122.5125,48.6696],[-122.5146,48.5553],[-122.5009,48.5373],[-122.4967,48.5056],[-122.5427,48.4881],[-122.6279,48.4982],[-122.6575,48.4902],[-122.6692,48.4654],[-122.6623,48.4463],[-122.6559,48.4426],[-122.6591,48.4437]],[[-122.8618,48.5019],[-122.8686,48.5485],[-122.8856,48.5516],[-122.9121,48.5379],[-122.9322,48.4849],[-122.9216,48.4569],[-122.8898,48.4347],[-122.8364,48.4214],[-122.821,48.4315],[-122.8147,48.4521],[-122.8618,48.5019]],[[-123.1142,48.613],[-123.1623,48.6061],[-123.1698,48.5865],[-123.1534,48.5262],[-123.1401,48.5077],[-123.0946,48.4892],[-122.9867,48.468],[-123.0131,48.5008],[-123.0242,48.5384],[-123.1142,48.613]],[[-122.8925,48.5945],[-122.8872,48.6125],[-122.9031,48.6649],[-122.8829,48.6606],[-122.8374,48.6268],[-122.8089,48.63],[-122.7687,48.6511],[-122.7819,48.6728],[-122.8978,48.7104],[-122.9179,48.7072],[-122.9766,48.6791],[-123.0031,48.6522],[-122.9856,48.6268],[-122.8925,48.5945]],[[-123.4227,48.7935],[-123.4878,48.8458],[-123.4677,48.8675],[-123.5545,48.922],[-123.5825,48.9257],[-123.5174,48.75],[-123.4994,48.7321],[-123.4772,48.7289],[-123.4354,48.7543],[-123.4068,48.7559],[-123.4227,48.7935]],[[-123.3846,48.8749],[-123.3724,48.8861],[-123.3777,48.9083],[-123.4825,48.9548],[-123.6894,49.0951],[-123.6455,49.0385],[-123.5412,48.9458],[-123.3846,48.8749]],[[-124.5472,49.765],[-124.6234,49.775],[-124.6498,49.7581],[-124.6308,49.7359],[-124.5181,49.6862],[-124.4937,49.6676],[-124.4572,49.6343],[-124.3625,49.5882],[-124.1397,49.5105],[-124.1535,49.5311],[-124.309,49.6671],[-124.4212,49.728],[-124.5472,49.765]],[[-124.9906,50.2169],[-124.9869,50.1957],[-124.9959,50.1751],[-125.0261,50.1344],[-125.0017,50.0206],[-124.9779,50.0296],[-124.9086,50.0714],[-124.9075,50.0841],[-124.9165,50.1317],[-124.9377,50.1661],[-124.9906,50.2169]]]}}
